{"type":"FeatureCollection","metadata":{"state":"AZ","boundary_source":"U.S. Census Bureau 2024 Cartographic Boundary File (counties, 1:500,000)","risk_source":"FEMA National Risk Index v1.20 (December 2025)"},"features":[{"type":"Feature","properties":{"GEOID":"04015","NAME":"Mohave","state":"AZ","wildfire_risk_score":98.823,"wildfire_eal_total":14072675.75,"risk_band":"Moderate","source":"FEMA National Risk Index v1.20 (December 2025)"},"geometry":{"type":"Polygon","coordinates":[[[-114.753196,36.089513],[-114.736165,36.104367],[-114.693655,36.112482],[-114.68267,36.109146],[-114.664343,36.1163],[-114.630474,36.142218],[-114.615455,36.129653],[-114.57109,36.151099],[-114.508104,36.149713],[-114.500236,36.143226],[-114.508467,36.129913],[-114.498849,36.126612],[-114.463637,36.139695],[-114.443736,36.125593],[-114.40914,36.147],[-114.37449,36.143659],[-114.306939,36.082487],[-114.304171,36.07558],[-114.313591,36.059048],[-114.270862,36.045523],[-114.265001,36.028848],[-114.242139,36.015187],[-114.211932,36.014834],[-114.173267,36.026752],[-114.15139,36.023133],[-114.145907,36.027229],[-114.134841,36.043873],[-114.131212,36.065765],[-114.1119,36.095845],[-114.121284,36.109519],[-114.107419,36.119401],[-114.096994,36.120823],[-114.068222,36.177687],[-114.05779,36.188633],[-114.043944,36.19335],[-114.042819,36.438277],[-114.049396,36.688858],[-114.0506,37.000396],[-112.538582856208,37.0006737486645],[-112.543473,36.99609],[-112.543763,36.982657],[-112.532653,36.971468],[-112.529299,36.952437],[-112.544959,36.938759],[-112.548647,36.912433],[-112.552683,36.913906],[-112.554914,36.905434],[-112.570189,36.89555],[-112.574538,36.885721],[-112.572747,36.871988],[-112.578777,36.867455],[-112.575234,36.864648],[-112.587149,36.857124],[-112.584766,36.847455],[-112.592611,36.840827],[-112.593624,36.832293],[-112.600598,36.832858],[-112.596665,36.829113],[-112.601388,36.816755],[-112.597728,36.808658],[-112.605954,36.807979],[-112.603749,36.800535],[-112.61478,36.797267],[-112.613796,36.78751],[-112.619728,36.782744],[-112.616321,36.774702],[-112.612217,36.775309],[-112.620934,36.769772],[-112.62039,36.763806],[-112.609813,36.755267],[-112.612645,36.752123],[-112.616607,36.755396],[-112.612185,36.743506],[-112.618132,36.740838],[-112.612234,36.736854],[-112.62211,36.737195],[-112.615371,36.727172],[-112.620871,36.730256],[-112.622969,36.724266],[-112.616695,36.722022],[-112.627783,36.716916],[-112.62379,36.711161],[-112.631128,36.705666],[-112.62718,36.701543],[-112.628777,36.691852],[-112.638529,36.674115],[-112.625809,36.647495],[-112.629081,36.638574],[-112.622719,36.626753],[-112.623545,36.615544],[-112.618807,36.61414],[-112.620946,36.595942],[-112.629304,36.589537],[-112.626114,36.581854],[-112.635485,36.57593],[-112.632307,36.571143],[-112.642688,36.571625],[-112.641772,36.565603],[-112.653626,36.557915],[-112.656311,36.553399],[-112.650067,36.551062],[-112.651677,36.544563],[-112.659283,36.543741],[-112.660326,36.539631],[-112.655867,36.53774],[-112.658907,36.529038],[-112.653114,36.528437],[-112.656176,36.515087],[-112.645173,36.507946],[-112.648272,36.503914],[-112.641583,36.501104],[-112.645829,36.496871],[-112.640561,36.498271],[-112.635264,36.491653],[-112.640165,36.488172],[-112.635663,36.484082],[-112.621821,36.484902],[-112.625964,36.479781],[-112.623017,36.474736],[-112.632346,36.470103],[-112.629839,36.464157],[-112.643575,36.460811],[-112.640628,36.449387],[-112.647492,36.446763],[-112.63694,36.443907],[-112.63986,36.43942],[-112.647013,36.440076],[-112.640332,36.434601],[-112.63878,36.425233],[-112.62911,36.427706],[-112.624134,36.410027],[-112.63095,36.402724],[-112.62949,36.391611],[-112.646988,36.383869],[-112.656626,36.357229],[-112.679924,36.341807],[-112.692851,36.355163],[-112.723991,36.345992],[-112.722872,36.31997],[-112.731794,36.317762],[-112.754629,36.324862],[-112.766148,36.305711],[-112.787477,36.300821],[-112.793761,36.284398],[-112.824504,36.288341],[-112.842169,36.276812],[-112.869234,36.282304],[-112.890745,36.259134],[-112.902949,36.253761],[-112.923406,36.25774],[-112.935314,36.242781],[-112.98121,36.231769],[-113.006343,36.238754],[-113.019111,36.236705],[-113.036206,36.228231],[-113.052759,36.209365],[-113.095474,36.193566],[-113.128005,36.169476],[-113.13708,36.166424],[-113.145971,36.172992],[-113.16293,36.171742],[-113.201269,36.149573],[-113.205277,36.133132],[-113.201671,36.119041],[-113.215832,36.107614],[-113.224919,36.091144],[-113.246289,36.093336],[-113.25716,36.0885],[-113.277086,36.097036],[-113.300584,36.09573],[-113.313428,36.100001],[-113.323658,36.090834],[-113.330772,36.068322],[-113.34744,36.055039],[-113.354128,36.042089],[-113.34836,36.013115],[-113.340136,36.003284],[-113.339777,35.98515],[-113.322952,35.976732],[-113.317259,35.968611],[-113.317122,35.961385],[-113.328643,35.950164],[-113.32551,35.934729],[-113.33485,35.913859],[-113.309214,35.887325],[-113.310393,35.863212],[-113.326891,35.840697],[-113.325846,35.829849],[-113.333109,35.822081],[-113.329511,35.813021],[-113.334024,35.803031],[-113.333422,34.317913],[-113.343634,34.318461],[-113.341479,34.312326],[-113.359047,34.294996],[-113.370507,34.291968],[-113.398701,34.30024],[-113.412465,34.29447],[-113.433143,34.301514],[-113.446497,34.299306],[-113.476027,34.305441],[-113.503071,34.302879],[-113.516738,34.310356],[-113.530971,34.310149],[-113.539393,34.306452],[-113.553679,34.285697],[-113.582023,34.259804],[-113.586731,34.243394],[-113.599378,34.233344],[-113.639162,34.223136],[-113.641767,34.227593],[-113.645438,34.220796],[-113.663972,34.212057],[-113.704384,34.209939],[-113.71494,34.221458],[-113.722916,34.223249],[-113.734059,34.241224],[-113.77417,34.22905],[-113.794609,34.236736],[-113.816322,34.235326],[-113.820614,34.228036],[-113.83494,34.223165],[-113.851708,34.251265],[-113.857702,34.253418],[-113.871046,34.25504],[-113.905472,34.248353],[-113.963349,34.258135],[-114.005787,34.253739],[-114.024468,34.268177],[-114.03139,34.25969],[-114.036543,34.260373],[-114.052441,34.277887],[-114.087442,34.298559],[-114.098241,34.300639],[-114.111588,34.295047],[-114.128388,34.304103],[-114.138282,34.30323],[-114.157206,34.317862],[-114.176909,34.349306],[-114.199482,34.361373],[-114.226107,34.365916],[-114.264317,34.401329],[-114.288663,34.406623],[-114.294836,34.421389],[-114.32613,34.437251],[-114.335372,34.450038],[-114.373719,34.446938],[-114.386699,34.457911],[-114.378124,34.507288],[-114.380838,34.529724],[-114.405228,34.569637],[-114.436466,34.5954],[-114.424326,34.602338],[-114.424202,34.610453],[-114.438739,34.621455],[-114.441465,34.64253],[-114.458182,34.657885],[-114.450506,34.666836],[-114.465246,34.691202],[-114.470477,34.711368],[-114.487508,34.716626],[-114.490971,34.724848],[-114.516619,34.736745],[-114.552682,34.766871],[-114.57101,34.794294],[-114.586842,34.835672],[-114.623939,34.859738],[-114.635176,34.875003],[-114.629753,34.938684],[-114.635237,34.965149],[-114.629152,34.985873],[-114.636674,35.008807],[-114.636893,35.028367],[-114.627124,35.044721],[-114.606694,35.058941],[-114.602908,35.068588],[-114.613132,35.083097],[-114.646759,35.101872],[-114.632282,35.117088],[-114.578263,35.12881],[-114.572597,35.139557],[-114.569238,35.18348],[-114.572119,35.200591],[-114.579963,35.20964],[-114.587129,35.262376],[-114.597503,35.296954],[-114.595162,35.324238],[-114.605748,35.358454],[-114.626765,35.409644],[-114.652752,35.430819],[-114.663541,35.447797],[-114.665988,35.467985],[-114.673164,35.474814],[-114.678715,35.49875],[-114.677156,35.51287],[-114.657163,35.532301],[-114.663226,35.565164],[-114.675751,35.579459],[-114.659238,35.587477],[-114.653406,35.610789],[-114.689001,35.65028],[-114.690214,35.665159],[-114.680631,35.684046],[-114.705409,35.708287],[-114.695709,35.755986],[-114.701409,35.769086],[-114.69891,35.790185],[-114.71211,35.806185],[-114.695249,35.832285],[-114.706532,35.849027],[-114.661636,35.871067],[-114.708516,35.912313],[-114.707526,35.92806],[-114.740595,35.975656],[-114.742779,36.009963],[-114.722096,36.028952],[-114.742105,36.039792],[-114.736253,36.05847],[-114.754798,36.084704],[-114.753196,36.089513]]]}},{"type":"Feature","properties":{"GEOID":"04013","NAME":"Maricopa","state":"AZ","wildfire_risk_score":99.618,"wildfire_eal_total":42188452.8,"risk_band":"High","source":"FEMA National Risk Index v1.20 (December 2025)"},"geometry":{"type":"Polygon","coordinates":[[[-113.335054,33.551947],[-113.333313,34.000039],[-112.743799,33.999857],[-112.276168,33.882469],[-112.275158,33.893404],[-112.258899,33.905043],[-112.243039,33.905361],[-112.242948,33.915462],[-112.235051,33.916408],[-112.231565,33.936043],[-112.241371,33.940527],[-112.235798,33.947286],[-112.240348,33.956643],[-112.229231,33.954186],[-112.215008,33.967145],[-112.196491,33.974159],[-112.191881,33.993119],[-112.180383,34.004028],[-112.183239,34.01194],[-112.171496,34.017802],[-112.166247,34.012502],[-112.161128,34.017717],[-112.164448,34.036755],[-112.153647,34.040909],[-112.161478,34.04223],[-112.164758,34.04817],[-111.726334,34.000041],[-111.491722,33.999809],[-111.466045,34.005773],[-111.445079,34.001176],[-111.440355,33.996416],[-111.442813,33.991372],[-111.433096,33.984401],[-111.452552,33.965928],[-111.447966,33.957519],[-111.452181,33.948629],[-111.44716,33.934755],[-111.45204,33.933767],[-111.451736,33.920995],[-111.437293,33.916262],[-111.426388,33.92607],[-111.405069,33.919217],[-111.41284,33.901896],[-111.412235,33.884603],[-111.39596,33.876771],[-111.39631,33.868566],[-111.386974,33.861608],[-111.395477,33.840862],[-111.372317,33.823924],[-111.371515,33.818849],[-111.384098,33.816191],[-111.388326,33.805353],[-111.378495,33.793167],[-111.389444,33.776663],[-111.38698,33.763101],[-111.382161,33.760957],[-111.386812,33.750044],[-111.374694,33.749845],[-111.355816,33.738127],[-111.33752,33.721157],[-111.338321,33.702746],[-111.331394,33.688338],[-111.315219,33.681546],[-111.299514,33.663823],[-111.287603,33.658968],[-111.287272,33.652432],[-111.26283,33.623157],[-111.249538,33.624331],[-111.224249,33.603118],[-111.207453,33.620572],[-111.20704,33.636878],[-111.153354,33.677606],[-111.039976,33.466019],[-111.580634,33.4658],[-111.582631,33.205408],[-112.083488,33.20456],[-112.092114,33.209245],[-112.088207,33.219828],[-112.095812,33.230356],[-112.113683,33.227474],[-112.121276,33.234364],[-112.132474,33.233483],[-112.134733,33.241555],[-112.149119,33.253812],[-112.191784,33.265039],[-112.197512,33.278436],[-112.193691,33.298944],[-112.203168,33.310499],[-112.203624,32.506721],[-113.333894,32.505188],[-113.335054,33.551947]]]}},{"type":"Feature","properties":{"GEOID":"04007","NAME":"Gila","state":"AZ","wildfire_risk_score":99.078,"wildfire_eal_total":16516937.87,"risk_band":"High","source":"FEMA National Risk Index v1.20 (December 2025)"},"geometry":{"type":"Polygon","coordinates":[[[-111.720652,34.162701],[-111.703663,34.182643],[-111.694472,34.182061],[-111.697306,34.190144],[-111.709923,34.187352],[-111.706964,34.191107],[-111.711968,34.196526],[-111.707889,34.19964],[-111.695889,34.193159],[-111.690186,34.200001],[-111.694761,34.20969],[-111.705479,34.213814],[-111.70433,34.226823],[-111.698121,34.230133],[-111.700837,34.23906],[-111.693893,34.243488],[-111.698128,34.245306],[-111.696539,34.250379],[-111.676197,34.268955],[-111.685257,34.281738],[-111.665099,34.286469],[-111.663815,34.295945],[-111.673481,34.294942],[-111.677712,34.289653],[-111.684476,34.298811],[-111.667714,34.308255],[-111.66356,34.317677],[-111.66731,34.3482],[-111.656949,34.367686],[-111.659644,34.386251],[-111.647089,34.393073],[-111.630672,34.393193],[-111.630283,34.397479],[-111.612048,34.405097],[-111.601025,34.419256],[-111.576734,34.420558],[-111.571921,34.42969],[-111.554535,34.439367],[-111.554653,34.471703],[-111.548785,34.460872],[-111.541874,34.465183],[-111.539093,34.475459],[-111.536862,34.4677],[-111.528458,34.470403],[-111.520226,34.481784],[-111.524562,34.494968],[-111.52082,34.499312],[-111.51667,34.494141],[-111.502415,34.498057],[-111.513654,34.49193],[-111.509084,34.479036],[-111.512043,34.480392],[-111.512426,34.46803],[-111.540442,34.455094],[-111.519278,34.458273],[-111.508965,34.454661],[-111.485894,34.463782],[-111.472358,34.462325],[-111.471448,34.457301],[-111.476564,34.457972],[-111.478407,34.451969],[-111.493143,34.452059],[-111.507169,34.43806],[-111.517481,34.445015],[-111.520923,34.427273],[-111.529311,34.435278],[-111.528534,34.42303],[-111.53974,34.428658],[-111.550328,34.419057],[-111.524958,34.411534],[-111.512419,34.41566],[-111.499475,34.427432],[-111.493889,34.418405],[-111.494971,34.433888],[-111.486954,34.429817],[-111.484392,34.4351],[-111.475154,34.436068],[-111.475976,34.432528],[-111.467466,34.437759],[-111.476647,34.42925],[-111.469068,34.429994],[-111.469523,34.426637],[-111.479689,34.427442],[-111.481502,34.42279],[-111.478685,34.42361],[-111.47522,34.421983],[-111.480617,34.419546],[-111.47554,34.416568],[-111.478374,34.413454],[-111.467275,34.414236],[-111.464275,34.409235],[-111.460113,34.42515],[-111.453772,34.427072],[-111.451273,34.434856],[-111.442702,34.433989],[-111.444067,34.441263],[-111.433198,34.4404],[-111.435634,34.446103],[-111.3987,34.443827],[-111.398511,34.440171],[-111.405712,34.439509],[-111.405249,34.428507],[-111.406962,34.427371],[-111.411162,34.43332],[-111.425002,34.435505],[-111.421526,34.432593],[-111.427503,34.420444],[-111.424203,34.414154],[-111.428483,34.413535],[-111.422126,34.405523],[-111.429101,34.391004],[-111.426854,34.385993],[-111.422234,34.393263],[-111.418533,34.377287],[-111.411751,34.382265],[-111.407145,34.376888],[-111.400332,34.378893],[-111.384175,34.390423],[-111.388844,34.390939],[-111.386421,34.397801],[-111.403397,34.397753],[-111.411252,34.408001],[-111.401171,34.410856],[-111.398158,34.428029],[-111.388162,34.424607],[-111.384375,34.432616],[-111.378857,34.430947],[-111.371673,34.439631],[-111.363337,34.436028],[-111.351881,34.440997],[-111.354063,34.424608],[-111.324303,34.422594],[-111.3068,34.434108],[-111.278815,34.438408],[-111.272692,34.444512],[-111.261967,34.442823],[-111.250774,34.453339],[-111.239899,34.431436],[-111.22769,34.431758],[-111.221899,34.416662],[-111.215034,34.417829],[-111.209571,34.408357],[-111.199834,34.409324],[-111.194782,34.404733],[-111.182713,34.409951],[-111.170037,34.401478],[-111.160984,34.403815],[-111.152066,34.39426],[-111.147094,34.375185],[-111.140701,34.375915],[-111.143734,34.37785],[-111.139327,34.386374],[-111.129857,34.385483],[-111.128736,34.390367],[-111.121289,34.382474],[-111.110825,34.383673],[-111.111709,34.391159],[-111.101039,34.390166],[-111.095796,34.396779],[-111.094781,34.393273],[-111.087504,34.394996],[-111.086473,34.390224],[-111.075238,34.385682],[-111.076952,34.380672],[-111.054084,34.378805],[-111.053422,34.37074],[-111.044254,34.379638],[-111.040597,34.377765],[-111.03734,34.371589],[-111.057766,34.355726],[-111.044253,34.343311],[-111.033176,34.340934],[-111.029067,34.341163],[-111.031392,34.34913],[-111.025877,34.353821],[-111.033767,34.362494],[-111.027542,34.363371],[-111.020147,34.373156],[-111.020594,34.3619],[-111.005681,34.360803],[-111.005914,34.351242],[-110.998205,34.35166],[-110.997311,34.344127],[-110.975862,34.336837],[-110.958863,34.314469],[-110.951111,34.318795],[-110.940818,34.310483],[-110.927146,34.310503],[-110.904682,34.300044],[-110.896921,34.302447],[-110.895225,34.295491],[-110.883852,34.289569],[-110.88872,34.286342],[-110.886141,34.282319],[-110.865035,34.270989],[-110.84757,34.265644],[-110.847518,34.270909],[-110.835749,34.269319],[-110.825661,34.276403],[-110.834905,34.276256],[-110.837571,34.280754],[-110.820306,34.288108],[-110.821712,34.292074],[-110.845909,34.307136],[-110.838458,34.308822],[-110.833903,34.30296],[-110.811029,34.295692],[-110.811648,34.303364],[-110.805978,34.31083],[-110.802812,34.298053],[-110.796004,34.299097],[-110.795811,34.30677],[-110.787747,34.308647],[-110.788006,34.297752],[-110.781377,34.307677],[-110.783111,34.299861],[-110.764612,34.292435],[-110.757886,34.279336],[-110.766701,34.268997],[-110.766962,34.259001],[-110.750678,34.263314],[-110.750672,34.000048],[-110.00066,34.000046],[-110.000646,33.465916],[-110.169691,33.465389],[-110.169176,33.451627],[-110.183494,33.446917],[-110.19101,33.451447],[-110.190347,33.441727],[-110.210887,33.441747],[-110.219017,33.435505],[-110.229461,33.444139],[-110.233905,33.439734],[-110.263209,33.435392],[-110.272256,33.442076],[-110.292379,33.429656],[-110.32015,33.433106],[-110.329572,33.427172],[-110.341191,33.426929],[-110.341557,33.421304],[-110.347772,33.419933],[-110.347229,33.408178],[-110.362977,33.398221],[-110.369256,33.396859],[-110.384478,33.407049],[-110.388636,33.402656],[-110.413069,33.401549],[-110.418729,33.386314],[-110.427846,33.388306],[-110.441544,33.38167],[-110.443114,33.367843],[-110.450814,33.36477],[-110.444496,33.352382],[-110.44838,33.342031],[-110.444239,33.32638],[-110.450817,33.316325],[-110.447229,33.300289],[-110.458136,33.293767],[-110.453382,33.290633],[-110.455083,33.282153],[-110.443834,33.255532],[-110.436786,33.251291],[-110.435242,33.239193],[-110.417075,33.226816],[-110.42159,33.217188],[-110.401536,33.196612],[-110.436928,33.187683],[-110.455987,33.197619],[-110.464238,33.192355],[-110.462147,33.184869],[-110.466333,33.182304],[-110.504733,33.186248],[-110.51627,33.175693],[-110.527627,33.176302],[-110.534323,33.167713],[-110.525015,33.15957],[-110.534442,33.160584],[-110.54547,33.169057],[-110.550196,33.152999],[-110.558654,33.155316],[-110.568994,33.14481],[-110.58176,33.146825],[-110.593837,33.133848],[-110.61126,33.143121],[-110.634412,33.142366],[-110.656777,33.11354],[-110.666239,33.119974],[-110.678006,33.111182],[-110.683286,33.088118],[-110.695091,33.086109],[-110.6894,33.08418],[-110.690017,33.078469],[-110.706223,33.083731],[-110.720953,33.076298],[-110.725701,33.069392],[-110.716826,33.052819],[-110.716342,33.041235],[-110.725117,33.041893],[-110.731742,33.024926],[-110.744979,33.017531],[-110.746798,33.010697],[-110.763778,33.004945],[-110.764897,32.986435],[-110.781076,32.983738],[-110.946684,33.250053],[-110.974599,33.341754],[-111.153354,33.677606],[-111.20704,33.636878],[-111.207453,33.620572],[-111.224249,33.603118],[-111.249538,33.624331],[-111.26283,33.623157],[-111.287272,33.652432],[-111.287603,33.658968],[-111.299514,33.663823],[-111.315219,33.681546],[-111.331394,33.688338],[-111.338321,33.702746],[-111.33752,33.721157],[-111.355816,33.738127],[-111.374694,33.749845],[-111.386812,33.750044],[-111.382161,33.760957],[-111.38698,33.763101],[-111.389444,33.776663],[-111.378495,33.793167],[-111.388326,33.805353],[-111.384098,33.816191],[-111.371515,33.818849],[-111.372317,33.823924],[-111.395477,33.840862],[-111.386974,33.861608],[-111.39631,33.868566],[-111.39596,33.876771],[-111.412235,33.884603],[-111.41284,33.901896],[-111.405069,33.919217],[-111.426388,33.92607],[-111.437293,33.916262],[-111.451736,33.920995],[-111.45204,33.933767],[-111.44716,33.934755],[-111.452181,33.948629],[-111.447966,33.957519],[-111.452552,33.965928],[-111.433096,33.984401],[-111.442813,33.991372],[-111.441784,33.998079],[-111.454415,34.00475],[-111.494988,33.99995],[-111.499774,34.008328],[-111.492415,34.037892],[-111.486236,34.035651],[-111.471358,34.04213],[-111.468111,34.046847],[-111.471711,34.058195],[-111.46207,34.059306],[-111.46077,34.063272],[-111.463758,34.072436],[-111.485443,34.095109],[-111.470828,34.111579],[-111.48153,34.122239],[-111.479082,34.130171],[-111.492724,34.132024],[-111.476971,34.15086],[-111.711982,34.151073],[-111.720652,34.162701]]]}},{"type":"Feature","properties":{"GEOID":"04001","NAME":"Apache","state":"AZ","wildfire_risk_score":97.901,"wildfire_eal_total":6048229.85,"risk_band":"Low","source":"FEMA National Risk Index v1.20 (December 2025)"},"geometry":{"type":"Polygon","coordinates":[[[-110.000682037916,36.9979815188302],[-109.045223,36.999084],[-109.046945877251,33.7774090741437],[-109.348581,33.778123],[-109.364752,33.739804],[-109.352975,33.724911],[-109.361565,33.727893],[-109.368866,33.722397],[-109.378472,33.724641],[-109.39569,33.713023],[-109.40123,33.717537],[-109.4057,33.710451],[-109.410551,33.715353],[-109.413935,33.707884],[-109.421067,33.711767],[-109.448757,33.711027],[-109.445836,33.708553],[-109.462111,33.692666],[-109.472271,33.696923],[-109.4837,33.686346],[-109.484011,33.672734],[-109.47959,33.666745],[-109.48615,33.661007],[-109.482539,33.654184],[-109.49007,33.655093],[-109.490324,33.658952],[-109.501161,33.65209],[-109.504392,33.643726],[-109.514832,33.641715],[-109.519505,33.645804],[-109.517443,33.634643],[-109.528184,33.622918],[-109.525184,33.618643],[-109.540132,33.624684],[-109.543774,33.616737],[-109.5618,33.626288],[-109.582342,33.617807],[-109.581743,33.612851],[-109.589592,33.616378],[-109.598382,33.610293],[-109.605479,33.611622],[-109.604156,33.601378],[-109.610007,33.592834],[-109.61689,33.592519],[-109.619631,33.584058],[-109.626219,33.58964],[-109.632353,33.584434],[-109.660619,33.583594],[-109.660772,33.578626],[-109.667599,33.578259],[-109.676499,33.568868],[-109.670665,33.567118],[-109.671937,33.55934],[-109.665227,33.555317],[-109.678478,33.557035],[-109.684772,33.543534],[-109.700578,33.534982],[-109.706591,33.539867],[-109.707478,33.531899],[-109.716383,33.530602],[-109.713101,33.525194],[-109.722276,33.52216],[-109.721486,33.51894],[-109.725849,33.523269],[-109.731461,33.521057],[-109.728296,33.515391],[-109.74062,33.509256],[-109.74657,33.484896],[-109.760785,33.481836],[-109.767273,33.475417],[-109.784023,33.476556],[-109.784546,33.48174],[-109.802107,33.488863],[-109.802719,33.481892],[-109.812297,33.48369],[-109.806962,33.498046],[-109.813504,33.499885],[-109.804107,33.503501],[-109.823625,33.509771],[-109.819157,33.518903],[-109.825783,33.522132],[-109.82505,33.529663],[-109.832017,33.535961],[-109.834756,33.529995],[-109.84169,33.530776],[-109.844709,33.540914],[-109.850352,33.534733],[-109.852646,33.539307],[-109.847687,33.550179],[-109.854211,33.545215],[-109.86827,33.56205],[-109.878171,33.559499],[-109.88222,33.571379],[-109.891676,33.567874],[-109.891766,33.777777],[-109.859274,33.777683],[-109.859165,34.125766],[-109.849406,34.125921],[-109.846803,34.473457],[-109.865231,34.559689],[-109.8505,34.647442],[-109.851929,34.82249],[-109.844624,34.822562],[-109.843763,35.517727],[-109.826959,35.51782],[-109.826964,35.66263],[-110.000674,35.662659],[-110.000682037916,36.9979815188302]]]}},{"type":"Feature","properties":{"GEOID":"04025","NAME":"Yavapai","state":"AZ","wildfire_risk_score":99.587,"wildfire_eal_total":28707459.91,"risk_band":"High","source":"FEMA National Risk Index v1.20 (December 2025)"},"geometry":{"type":"Polygon","coordinates":[[[-113.33394,34.677323],[-113.334161,35.528217],[-113.267256,35.530982],[-113.218713,35.509073],[-113.193916,35.510344],[-113.168939,35.504031],[-113.154697,35.493852],[-113.147041,35.478522],[-113.084481,35.451863],[-112.974421,35.391216],[-112.961814,35.376884],[-112.953209,35.352902],[-112.80392,35.325269],[-112.785054,35.31577],[-112.76334,35.3133],[-112.75487,35.306204],[-112.693,35.311417],[-112.676373,35.306722],[-112.659001,35.291848],[-112.645219,35.299586],[-112.630767,35.30004],[-112.619399,35.291215],[-112.620729,35.274961],[-112.603997,35.269224],[-112.577399,35.243394],[-112.54177,35.236418],[-112.499636,35.242664],[-112.47286,35.238188],[-112.465716,35.247526],[-112.442389,35.25917],[-112.442289,35.149238],[-112.335791,35.148234],[-112.334536,34.973024],[-111.809026,34.976295],[-111.809086,34.981058],[-111.777623,34.981001],[-111.778265,34.803304],[-111.552106,34.8025],[-111.554535,34.439367],[-111.571921,34.42969],[-111.576734,34.420558],[-111.601025,34.419256],[-111.612048,34.405097],[-111.630283,34.397479],[-111.630672,34.393193],[-111.647089,34.393073],[-111.659644,34.386251],[-111.656949,34.367686],[-111.66731,34.3482],[-111.66356,34.317677],[-111.667714,34.308255],[-111.684476,34.298811],[-111.677712,34.289653],[-111.673481,34.294942],[-111.663815,34.295945],[-111.665099,34.286469],[-111.685257,34.281738],[-111.676197,34.268955],[-111.696539,34.250379],[-111.698128,34.245306],[-111.693893,34.243488],[-111.700837,34.23906],[-111.698121,34.230133],[-111.70433,34.226823],[-111.705479,34.213814],[-111.694761,34.20969],[-111.690186,34.200001],[-111.695889,34.193159],[-111.707889,34.19964],[-111.711968,34.196526],[-111.706964,34.191107],[-111.709923,34.187352],[-111.697306,34.190144],[-111.694472,34.182061],[-111.703663,34.182643],[-111.720652,34.162701],[-111.711982,34.151073],[-111.476971,34.15086],[-111.492724,34.132024],[-111.479082,34.130171],[-111.48153,34.122239],[-111.470828,34.111579],[-111.485443,34.095109],[-111.463758,34.072436],[-111.46207,34.059306],[-111.471711,34.058195],[-111.468111,34.046847],[-111.471358,34.04213],[-111.486236,34.035651],[-111.492415,34.037892],[-111.499774,34.008328],[-111.496549,33.999833],[-111.726334,34.000041],[-112.164758,34.04817],[-112.161478,34.04223],[-112.153647,34.040909],[-112.164448,34.036755],[-112.161128,34.017717],[-112.166247,34.012502],[-112.171496,34.017802],[-112.183239,34.01194],[-112.180383,34.004028],[-112.191881,33.993119],[-112.196491,33.974159],[-112.215008,33.967145],[-112.229231,33.954186],[-112.240348,33.956643],[-112.235798,33.947286],[-112.241371,33.940527],[-112.231565,33.936043],[-112.235051,33.916408],[-112.242948,33.915462],[-112.243039,33.905361],[-112.258899,33.905043],[-112.275158,33.893404],[-112.276168,33.882469],[-112.743799,33.999857],[-113.333313,34.000039],[-113.33394,34.677323]]]}},{"type":"Feature","properties":{"GEOID":"04009","NAME":"Graham","state":"AZ","wildfire_risk_score":94.275,"wildfire_eal_total":2202447.2,"risk_band":"Low","source":"FEMA National Risk Index v1.20 (December 2025)"},"geometry":{"type":"Polygon","coordinates":[[[-110.457194,33.295268],[-110.447229,33.300289],[-110.450817,33.316325],[-110.444239,33.32638],[-110.44838,33.342031],[-110.444496,33.352382],[-110.450814,33.36477],[-110.443114,33.367843],[-110.441544,33.38167],[-110.427846,33.388306],[-110.418729,33.386314],[-110.413069,33.401549],[-110.388636,33.402656],[-110.384478,33.407049],[-110.369256,33.396859],[-110.362977,33.398221],[-110.347229,33.408178],[-110.347772,33.419933],[-110.341557,33.421304],[-110.341191,33.426929],[-110.329572,33.427172],[-110.32015,33.433106],[-110.292379,33.429656],[-110.272256,33.442076],[-110.263209,33.435392],[-110.233905,33.439734],[-110.229461,33.444139],[-110.219017,33.435505],[-110.210887,33.441747],[-110.190347,33.441727],[-110.19101,33.451447],[-110.183494,33.446917],[-110.169176,33.451627],[-110.169691,33.465389],[-110.000646,33.465916],[-110.000649,33.57693],[-109.995967,33.58226],[-109.981081,33.576274],[-109.970474,33.577353],[-109.967673,33.57272],[-109.962282,33.579797],[-109.960131,33.572572],[-109.941101,33.568469],[-109.923503,33.567513],[-109.912031,33.575915],[-109.898833,33.574946],[-109.89531,33.567394],[-109.88222,33.571379],[-109.878171,33.559499],[-109.86827,33.56205],[-109.854211,33.545215],[-109.846377,33.54901],[-109.852302,33.540792],[-109.850352,33.534733],[-109.844709,33.540914],[-109.84169,33.530776],[-109.834756,33.529995],[-109.832017,33.535961],[-109.82505,33.529663],[-109.825783,33.522132],[-109.819157,33.518903],[-109.823625,33.509771],[-109.804107,33.503501],[-109.813504,33.499885],[-109.806962,33.498046],[-109.812297,33.48369],[-109.802719,33.481892],[-109.802107,33.488863],[-109.784546,33.48174],[-109.784023,33.476556],[-109.767273,33.475417],[-109.760785,33.481836],[-109.74657,33.484896],[-109.74062,33.509256],[-109.728296,33.515391],[-109.731461,33.521057],[-109.725849,33.523269],[-109.721486,33.51894],[-109.722276,33.52216],[-109.713101,33.525194],[-109.716383,33.530602],[-109.707478,33.531899],[-109.706591,33.539867],[-109.700578,33.534982],[-109.684772,33.543534],[-109.678478,33.557035],[-109.665227,33.555317],[-109.671937,33.55934],[-109.670665,33.567118],[-109.676499,33.568868],[-109.667599,33.578259],[-109.660772,33.578626],[-109.660619,33.583594],[-109.632353,33.584434],[-109.626219,33.58964],[-109.619631,33.584058],[-109.61689,33.592519],[-109.610007,33.592834],[-109.604156,33.601378],[-109.605479,33.611622],[-109.598382,33.610293],[-109.589592,33.616378],[-109.581743,33.612851],[-109.582342,33.617807],[-109.5618,33.626288],[-109.543774,33.616737],[-109.540132,33.624684],[-109.525184,33.618643],[-109.528184,33.622918],[-109.517443,33.634643],[-109.519505,33.645804],[-109.514832,33.641715],[-109.504392,33.643726],[-109.501161,33.65209],[-109.49544,33.652697],[-109.49574,33.078409],[-109.333425,32.843266],[-109.318149,32.842779],[-109.252367,32.750239],[-109.248173,32.750222],[-109.213829,32.680661],[-109.212959,32.653629],[-109.206249,32.635803],[-109.219485,32.601689],[-109.211265,32.584293],[-109.225953,32.543031],[-109.22607,32.529096],[-109.11418,32.426353],[-110.451002,32.427546],[-110.449021,33.194526],[-110.446426,33.189847],[-110.432634,33.187714],[-110.420614,33.193575],[-110.408594,33.192036],[-110.400511,33.198376],[-110.420938,33.215972],[-110.417075,33.226816],[-110.435242,33.239193],[-110.457194,33.295268]]]}},{"type":"Feature","properties":{"GEOID":"04027","NAME":"Yuma","state":"AZ","wildfire_risk_score":59.224,"wildfire_eal_total":58461.93,"risk_band":"Low","source":"FEMA National Risk Index v1.20 (December 2025)"},"geometry":{"type":"Polygon","coordinates":[[[-114.816294,32.508038],[-114.802833,32.511749],[-114.813293,32.524482],[-114.802181,32.536414],[-114.80583,32.546354],[-114.791551,32.557023],[-114.792818,32.569345],[-114.804372,32.559903],[-114.813617,32.561331],[-114.812995,32.568706],[-114.801877,32.57601],[-114.799737,32.592178],[-114.807906,32.602783],[-114.80739,32.621332],[-114.781872,32.62505],[-114.779215,32.633579],[-114.764382,32.642666],[-114.76495,32.649391],[-114.748,32.664184],[-114.730086,32.704298],[-114.701918,32.745548],[-114.688779,32.737675],[-114.618373,32.728245],[-114.612697,32.734516],[-114.581784,32.734946],[-114.581736,32.742321],[-114.564508,32.742298],[-114.564447,32.749554],[-114.539224,32.749812],[-114.539093,32.756949],[-114.526856,32.757094],[-114.532432,32.776923],[-114.528849,32.796307],[-114.510217,32.816417],[-114.494116,32.823288],[-114.468971,32.845155],[-114.462929,32.907944],[-114.48092,32.935252],[-114.46773,32.956323],[-114.469039,32.972295],[-114.476156,32.975168],[-114.492938,32.971781],[-114.502871,33.011153],[-114.516877541009,33.0278322776081],[-114.2688,33.029961],[-114.268808,33.464402],[-113.958042,33.464414],[-113.95749,33.377577],[-113.33392,33.377425],[-113.333814087533,32.0387773974694],[-114.813613,32.494277],[-114.816294,32.508038]]]}},{"type":"Feature","properties":{"GEOID":"04021","NAME":"Pinal","state":"AZ","wildfire_risk_score":97.996,"wildfire_eal_total":12157424.12,"risk_band":"Moderate","source":"FEMA National Risk Index v1.20 (December 2025)"},"geometry":{"type":"Polygon","coordinates":[[[-112.203615,32.538199],[-112.203168,33.310499],[-112.193691,33.298944],[-112.197512,33.278436],[-112.191784,33.265039],[-112.149119,33.253812],[-112.134733,33.241555],[-112.132474,33.233483],[-112.121276,33.234364],[-112.113683,33.227474],[-112.095812,33.230356],[-112.088207,33.219828],[-112.092114,33.209245],[-112.083488,33.20456],[-111.582631,33.205408],[-111.580634,33.4658],[-111.039976,33.466019],[-110.974599,33.341754],[-110.946684,33.250053],[-110.781076,32.983738],[-110.764897,32.986435],[-110.763778,33.004945],[-110.746798,33.010697],[-110.744979,33.017531],[-110.731742,33.024926],[-110.725117,33.041893],[-110.716342,33.041235],[-110.716826,33.052819],[-110.725701,33.069392],[-110.720953,33.076298],[-110.706223,33.083731],[-110.690017,33.078469],[-110.6894,33.08418],[-110.695091,33.086109],[-110.683286,33.088118],[-110.678006,33.111182],[-110.666239,33.119974],[-110.656777,33.11354],[-110.634412,33.142366],[-110.61126,33.143121],[-110.593837,33.133848],[-110.58176,33.146825],[-110.568994,33.14481],[-110.558654,33.155316],[-110.550196,33.152999],[-110.54547,33.169057],[-110.534442,33.160584],[-110.525015,33.15957],[-110.534323,33.167713],[-110.527627,33.176302],[-110.51627,33.175693],[-110.504733,33.186248],[-110.466333,33.182304],[-110.462147,33.184869],[-110.464238,33.192355],[-110.453944,33.198039],[-110.449021,33.194526],[-110.449233,32.513995],[-111.157493,32.511255],[-111.157567,32.501624],[-111.569252,32.501389],[-111.569256,32.506769],[-112.203624,32.506721],[-112.203615,32.538199]]]}},{"type":"Feature","properties":{"GEOID":"04005","NAME":"Coconino","state":"AZ","wildfire_risk_score":99.396,"wildfire_eal_total":28503633.47,"risk_band":"High","source":"FEMA National Risk Index v1.20 (December 2025)"},"geometry":{"type":"Polygon","coordinates":[[[-113.354128,36.042089],[-113.34744,36.055039],[-113.330772,36.068322],[-113.323658,36.090834],[-113.313428,36.100001],[-113.300584,36.09573],[-113.277086,36.097036],[-113.25716,36.0885],[-113.246289,36.093336],[-113.224919,36.091144],[-113.215832,36.107614],[-113.201671,36.119041],[-113.205277,36.133132],[-113.201269,36.149573],[-113.16293,36.171742],[-113.145971,36.172992],[-113.13708,36.166424],[-113.128005,36.169476],[-113.095474,36.193566],[-113.052759,36.209365],[-113.036206,36.228231],[-113.019111,36.236705],[-113.006343,36.238754],[-112.98121,36.231769],[-112.935314,36.242781],[-112.923406,36.25774],[-112.902949,36.253761],[-112.890745,36.259134],[-112.869234,36.282304],[-112.842169,36.276812],[-112.824504,36.288341],[-112.793761,36.284398],[-112.787477,36.300821],[-112.766148,36.305711],[-112.754629,36.324862],[-112.731794,36.317762],[-112.722872,36.31997],[-112.723991,36.345992],[-112.692851,36.355163],[-112.679924,36.341807],[-112.656626,36.357229],[-112.646988,36.383869],[-112.62949,36.391611],[-112.63095,36.402724],[-112.624134,36.410027],[-112.62911,36.427706],[-112.63878,36.425233],[-112.640332,36.434601],[-112.647013,36.440076],[-112.63986,36.43942],[-112.63694,36.443907],[-112.647492,36.446763],[-112.640628,36.449387],[-112.643575,36.460811],[-112.629839,36.464157],[-112.632346,36.470103],[-112.623017,36.474736],[-112.625964,36.479781],[-112.621821,36.484902],[-112.635663,36.484082],[-112.640165,36.488172],[-112.635264,36.491653],[-112.640561,36.498271],[-112.645829,36.496871],[-112.641583,36.501104],[-112.648272,36.503914],[-112.645173,36.507946],[-112.656176,36.515087],[-112.653114,36.528437],[-112.658907,36.529038],[-112.655867,36.53774],[-112.660326,36.539631],[-112.659283,36.543741],[-112.651677,36.544563],[-112.650067,36.551062],[-112.656311,36.553399],[-112.653626,36.557915],[-112.641772,36.565603],[-112.642688,36.571625],[-112.632307,36.571143],[-112.635485,36.57593],[-112.626114,36.581854],[-112.629304,36.589537],[-112.620946,36.595942],[-112.618807,36.61414],[-112.623545,36.615544],[-112.622719,36.626753],[-112.629081,36.638574],[-112.625809,36.647495],[-112.638529,36.674115],[-112.628777,36.691852],[-112.62718,36.701543],[-112.631128,36.705666],[-112.62379,36.711161],[-112.627783,36.716916],[-112.616695,36.722022],[-112.622969,36.724266],[-112.620871,36.730256],[-112.615371,36.727172],[-112.62211,36.737195],[-112.612234,36.736854],[-112.618132,36.740838],[-112.612185,36.743506],[-112.616607,36.755396],[-112.612645,36.752123],[-112.609813,36.755267],[-112.62039,36.763806],[-112.620934,36.769772],[-112.612217,36.775309],[-112.616321,36.774702],[-112.619728,36.782744],[-112.613796,36.78751],[-112.61478,36.797267],[-112.603749,36.800535],[-112.605954,36.807979],[-112.597728,36.808658],[-112.601388,36.816755],[-112.596665,36.829113],[-112.600598,36.832858],[-112.593624,36.832293],[-112.592611,36.840827],[-112.584766,36.847455],[-112.587149,36.857124],[-112.575234,36.864648],[-112.578777,36.867455],[-112.572747,36.871988],[-112.574538,36.885721],[-112.570189,36.89555],[-112.554914,36.905434],[-112.552683,36.913906],[-112.548647,36.912433],[-112.544959,36.938759],[-112.529299,36.952437],[-112.532653,36.971468],[-112.543763,36.982657],[-112.543473,36.99609],[-112.538582856208,37.0006737486645],[-110.75069,37.003197],[-110.750678,34.263314],[-110.766962,34.259001],[-110.766701,34.268997],[-110.757886,34.279336],[-110.761259,34.287872],[-110.783111,34.299861],[-110.781377,34.307677],[-110.788006,34.297752],[-110.787747,34.308647],[-110.795811,34.30677],[-110.796004,34.299097],[-110.802812,34.298053],[-110.80456,34.311005],[-110.811648,34.303364],[-110.811029,34.295692],[-110.833903,34.30296],[-110.838458,34.308822],[-110.845909,34.307136],[-110.820152,34.289253],[-110.837571,34.280754],[-110.834905,34.276256],[-110.825661,34.276403],[-110.835749,34.269319],[-110.847518,34.270909],[-110.84757,34.265644],[-110.872475,34.273778],[-110.886141,34.282319],[-110.88872,34.286342],[-110.883852,34.289569],[-110.895225,34.295491],[-110.896921,34.302447],[-110.904682,34.300044],[-110.927146,34.310503],[-110.940818,34.310483],[-110.951111,34.318795],[-110.958863,34.314469],[-110.975862,34.336837],[-110.997311,34.344127],[-110.998205,34.35166],[-111.005914,34.351242],[-111.005681,34.360803],[-111.020594,34.3619],[-111.020147,34.373156],[-111.027542,34.363371],[-111.033767,34.362494],[-111.025877,34.353821],[-111.031392,34.34913],[-111.029067,34.341163],[-111.044253,34.343311],[-111.057766,34.355726],[-111.03734,34.371589],[-111.040597,34.377765],[-111.044254,34.379638],[-111.053422,34.37074],[-111.054084,34.378805],[-111.076952,34.380672],[-111.075238,34.385682],[-111.086473,34.390224],[-111.087504,34.394996],[-111.094781,34.393273],[-111.095796,34.396779],[-111.101039,34.390166],[-111.111709,34.391159],[-111.110825,34.383673],[-111.121289,34.382474],[-111.128736,34.390367],[-111.129857,34.385483],[-111.139327,34.386374],[-111.143734,34.37785],[-111.140701,34.375915],[-111.147094,34.375185],[-111.152066,34.39426],[-111.160984,34.403815],[-111.170037,34.401478],[-111.182713,34.409951],[-111.194782,34.404733],[-111.199834,34.409324],[-111.209571,34.408357],[-111.215034,34.417829],[-111.221899,34.416662],[-111.22769,34.431758],[-111.239899,34.431436],[-111.250774,34.453339],[-111.261967,34.442823],[-111.272692,34.444512],[-111.278815,34.438408],[-111.3068,34.434108],[-111.324303,34.422594],[-111.354063,34.424608],[-111.351881,34.440997],[-111.363337,34.436028],[-111.371673,34.439631],[-111.378857,34.430947],[-111.384375,34.432616],[-111.388162,34.424607],[-111.398158,34.428029],[-111.401171,34.410856],[-111.411252,34.408001],[-111.403397,34.397753],[-111.386421,34.397801],[-111.388844,34.390939],[-111.384175,34.390423],[-111.407145,34.376888],[-111.411751,34.382265],[-111.418533,34.377287],[-111.422234,34.393263],[-111.428142,34.386776],[-111.422126,34.405523],[-111.428483,34.413535],[-111.424203,34.414154],[-111.427503,34.420444],[-111.421526,34.432593],[-111.425002,34.435505],[-111.411162,34.43332],[-111.406962,34.427371],[-111.405712,34.439509],[-111.398511,34.440171],[-111.3987,34.443827],[-111.435634,34.446103],[-111.433198,34.4404],[-111.444067,34.441263],[-111.442702,34.433989],[-111.451273,34.434856],[-111.453772,34.427072],[-111.460113,34.42515],[-111.464275,34.409235],[-111.467275,34.414236],[-111.478374,34.413454],[-111.47554,34.416568],[-111.480617,34.419546],[-111.47522,34.421983],[-111.481502,34.42279],[-111.479689,34.427442],[-111.469523,34.426637],[-111.469068,34.429994],[-111.476647,34.42925],[-111.467466,34.437759],[-111.475976,34.432528],[-111.475154,34.436068],[-111.484392,34.4351],[-111.486954,34.429817],[-111.494971,34.433888],[-111.493889,34.418405],[-111.499475,34.427432],[-111.51585,34.413922],[-111.54524,34.415315],[-111.550328,34.419057],[-111.53974,34.428658],[-111.528534,34.42303],[-111.529311,34.435278],[-111.522615,34.427119],[-111.517657,34.430392],[-111.517481,34.445015],[-111.507169,34.43806],[-111.493143,34.452059],[-111.478407,34.451969],[-111.476564,34.457972],[-111.471448,34.457301],[-111.472358,34.462325],[-111.485894,34.463782],[-111.508965,34.454661],[-111.519278,34.458273],[-111.540442,34.455094],[-111.512426,34.46803],[-111.512043,34.480392],[-111.509084,34.479036],[-111.513654,34.49193],[-111.502415,34.498057],[-111.51667,34.494141],[-111.52082,34.499312],[-111.524562,34.494968],[-111.520226,34.481784],[-111.528458,34.470403],[-111.536862,34.4677],[-111.539093,34.475459],[-111.541874,34.465183],[-111.548785,34.460872],[-111.554653,34.471703],[-111.552106,34.8025],[-111.778265,34.803304],[-111.777623,34.981001],[-111.809086,34.981058],[-111.809026,34.976295],[-112.334536,34.973024],[-112.335791,35.148234],[-112.442289,35.149238],[-112.442389,35.25917],[-112.465716,35.247526],[-112.47286,35.238188],[-112.499636,35.242664],[-112.54177,35.236418],[-112.577399,35.243394],[-112.603997,35.269224],[-112.620729,35.274961],[-112.619399,35.291215],[-112.630767,35.30004],[-112.645219,35.299586],[-112.659001,35.291848],[-112.676373,35.306722],[-112.693,35.311417],[-112.75487,35.306204],[-112.76334,35.3133],[-112.785054,35.31577],[-112.80392,35.325269],[-112.953209,35.352902],[-112.961814,35.376884],[-112.974421,35.391216],[-113.084481,35.451863],[-113.147041,35.478522],[-113.154697,35.493852],[-113.171645,35.505506],[-113.198166,35.510757],[-113.218713,35.509073],[-113.267256,35.530982],[-113.334161,35.528217],[-113.334024,35.803031],[-113.329511,35.813021],[-113.333109,35.822081],[-113.325846,35.829849],[-113.326366,35.841985],[-113.310393,35.863212],[-113.309214,35.887325],[-113.33485,35.913859],[-113.32551,35.934729],[-113.328643,35.950164],[-113.317122,35.961385],[-113.317259,35.968611],[-113.322952,35.976732],[-113.339777,35.98515],[-113.340136,36.003284],[-113.34836,36.013115],[-113.354128,36.042089]]]}},{"type":"Feature","properties":{"GEOID":"04012","NAME":"La Paz","state":"AZ","wildfire_risk_score":70.165,"wildfire_eal_total":94382.35,"risk_band":"Low","source":"FEMA National Risk Index v1.20 (December 2025)"},"geometry":{"type":"Polygon","coordinates":[[[-114.731222,33.304039],[-114.707962,33.323421],[-114.698035,33.352442],[-114.70731,33.382542],[-114.725282,33.405048],[-114.701732,33.408388],[-114.687953,33.417944],[-114.658382,33.413036],[-114.643302,33.416745],[-114.62964,33.428138],[-114.622918,33.456561],[-114.591554,33.499443],[-114.569533,33.509219],[-114.560963,33.516739],[-114.558898,33.531819],[-114.524599,33.552231],[-114.535965,33.569154],[-114.540617,33.591412],[-114.522071,33.611277],[-114.531215,33.623913],[-114.523802,33.6347],[-114.533194,33.65166],[-114.514057,33.660179],[-114.530267,33.666821],[-114.531523,33.675108],[-114.523959,33.685879],[-114.496489,33.696901],[-114.494197,33.707922],[-114.496565,33.719155],[-114.512348,33.734214],[-114.504863,33.760465],[-114.52805,33.814963],[-114.51997,33.825381],[-114.530607,33.85544],[-114.523625,33.860054],[-114.514673,33.858638],[-114.503017,33.867998],[-114.50434,33.876882],[-114.523634,33.893638],[-114.525872,33.901008],[-114.513715,33.897959],[-114.50792,33.903807],[-114.518434,33.917518],[-114.534572,33.925379],[-114.535478,33.934651],[-114.522002,33.955623],[-114.499883,33.961789],[-114.467932,33.992877],[-114.46012,33.993888],[-114.458026,33.99782],[-114.46731,34.00519],[-114.465867,34.010987],[-114.450206,34.012574],[-114.438266,34.022609],[-114.434949,34.037784],[-114.43934,34.057893],[-114.434181,34.087379],[-114.415908,34.107636],[-114.390565,34.110084],[-114.366521,34.118575],[-114.353031,34.133121],[-114.320777,34.138635],[-114.287294,34.170529],[-114.254141,34.173831],[-114.229715,34.186928],[-114.225194,34.203642],[-114.17805,34.239969],[-114.174597,34.247303],[-114.166536,34.249647],[-114.164628,34.258999],[-114.131489,34.260387],[-114.139534,34.295844],[-114.136748,34.304323],[-114.111588,34.295047],[-114.098241,34.300639],[-114.087442,34.298559],[-114.069249,34.290483],[-114.034982,34.259749],[-114.024468,34.268177],[-114.005787,34.253739],[-113.963349,34.258135],[-113.905472,34.248353],[-113.871046,34.25504],[-113.857702,34.253418],[-113.851708,34.251265],[-113.83494,34.223165],[-113.820614,34.228036],[-113.816322,34.235326],[-113.794609,34.236736],[-113.77417,34.22905],[-113.734059,34.241224],[-113.722916,34.223249],[-113.71494,34.221458],[-113.704384,34.209939],[-113.682776,34.209626],[-113.663972,34.212057],[-113.645438,34.220796],[-113.641767,34.227593],[-113.639162,34.223136],[-113.626313,34.229174],[-113.605045,34.229529],[-113.586731,34.243394],[-113.582023,34.259804],[-113.553679,34.285697],[-113.539393,34.306452],[-113.530971,34.310149],[-113.516738,34.310356],[-113.503071,34.302879],[-113.476027,34.305441],[-113.446497,34.299306],[-113.433143,34.301514],[-113.412465,34.29447],[-113.398701,34.30024],[-113.370507,34.291968],[-113.351858,34.299476],[-113.341479,34.312326],[-113.343634,34.318461],[-113.333422,34.317913],[-113.335048,33.377469],[-113.95749,33.377577],[-113.958042,33.464414],[-114.268808,33.464402],[-114.2688,33.029961],[-114.516877541009,33.0278322776081],[-114.571653,33.036624],[-114.586982,33.026945],[-114.601014,33.02541],[-114.625787,33.029436],[-114.64598,33.048903],[-114.657827,33.033825],[-114.66506,33.033908],[-114.673659,33.041897],[-114.674296,33.057171],[-114.686991,33.070969],[-114.68902,33.084036],[-114.707819,33.091102],[-114.696829,33.131209],[-114.679359,33.159519],[-114.67536,33.185489],[-114.678749,33.203448],[-114.673626,33.223121],[-114.689541,33.246428],[-114.672401,33.26047],[-114.684363,33.276025],[-114.723259,33.288079],[-114.731222,33.304039]]]}},{"type":"Feature","properties":{"GEOID":"04003","NAME":"Cochise","state":"AZ","wildfire_risk_score":99.173,"wildfire_eal_total":19437911.2,"risk_band":"High","source":"FEMA National Risk Index v1.20 (December 2025)"},"geometry":{"type":"Polygon","coordinates":[[[-110.460788,31.555952],[-110.460752,31.613883],[-110.452247,31.613936],[-110.447674,32.253763],[-110.450961,32.253751],[-110.451002,32.427546],[-109.047612,32.426377],[-109.050044,31.332502],[-110.459746838067,31.3328285135903],[-110.460788,31.555952]]]}},{"type":"Feature","properties":{"GEOID":"04019","NAME":"Pima","state":"AZ","wildfire_risk_score":99.65,"wildfire_eal_total":37561738.91,"risk_band":"High","source":"FEMA National Risk Index v1.20 (December 2025)"},"geometry":{"type":"Polygon","coordinates":[[[-113.333894,32.505188],[-111.569256,32.506769],[-111.569252,32.501389],[-111.157567,32.501624],[-111.157493,32.511255],[-110.451522,32.513995],[-110.450961,32.253751],[-110.447674,32.253763],[-110.4523,31.731219],[-110.855765,31.731697],[-110.855766,31.726705],[-111.164183,31.72589],[-111.163717,31.521724],[-111.366922,31.521361],[-111.366372,31.426068287287],[-112.246102,31.704195],[-113.333814087533,32.0387773974694],[-113.333894,32.505188]]]}},{"type":"Feature","properties":{"GEOID":"04017","NAME":"Navajo","state":"AZ","wildfire_risk_score":98.791,"wildfire_eal_total":12333689.11,"risk_band":"Moderate","source":"FEMA National Risk Index v1.20 (December 2025)"},"geometry":{"type":"Polygon","coordinates":[[[-110.750692,35.031646],[-110.75069,37.003197],[-110.50069,37.00426],[-110.47019,36.997997],[-110.000876,36.998502],[-110.000674,35.662659],[-109.826964,35.66263],[-109.826959,35.51782],[-109.843763,35.517727],[-109.844624,34.822562],[-109.851929,34.82249],[-109.8505,34.647442],[-109.865231,34.559689],[-109.846803,34.473457],[-109.849406,34.125921],[-109.859165,34.125766],[-109.859274,33.777683],[-109.891766,33.777777],[-109.891676,33.567874],[-109.900396,33.575402],[-109.915029,33.575529],[-109.923503,33.567513],[-109.960131,33.572572],[-109.962282,33.579797],[-109.967673,33.57272],[-109.970474,33.577353],[-109.981081,33.576274],[-109.99509,33.582565],[-110.000649,33.57693],[-110.00066,34.000046],[-110.750672,34.000048],[-110.750692,35.031646]]]}},{"type":"Feature","properties":{"GEOID":"04011","NAME":"Greenlee","state":"AZ","wildfire_risk_score":82.506,"wildfire_eal_total":531061.15,"risk_band":"Low","source":"FEMA National Risk Index v1.20 (December 2025)"},"geometry":{"type":"Polygon","coordinates":[[[-109.4957,33.180477],[-109.49544,33.652697],[-109.490324,33.658952],[-109.49007,33.655093],[-109.481769,33.655612],[-109.48615,33.661007],[-109.479806,33.663651],[-109.484011,33.672734],[-109.481057,33.690204],[-109.475189,33.690366],[-109.472271,33.696923],[-109.462111,33.692666],[-109.445836,33.708553],[-109.448757,33.711027],[-109.441782,33.713052],[-109.413935,33.707884],[-109.410551,33.715353],[-109.4057,33.710451],[-109.40123,33.717537],[-109.39569,33.713023],[-109.378472,33.724641],[-109.368866,33.722397],[-109.361565,33.727893],[-109.352975,33.724911],[-109.364752,33.739804],[-109.348581,33.778123],[-109.046945877251,33.7774090741437],[-109.047612,32.426377],[-109.11418,32.426353],[-109.22607,32.529096],[-109.225953,32.543031],[-109.211265,32.584293],[-109.219485,32.601689],[-109.206249,32.635803],[-109.212959,32.653629],[-109.213829,32.680661],[-109.248173,32.750222],[-109.252367,32.750239],[-109.318149,32.842779],[-109.333425,32.843266],[-109.49574,33.078409],[-109.4957,33.180477]]]}},{"type":"Feature","properties":{"GEOID":"04023","NAME":"Santa Cruz","state":"AZ","wildfire_risk_score":98.06,"wildfire_eal_total":7934631.27,"risk_band":"Moderate","source":"FEMA National Risk Index v1.20 (December 2025)"},"geometry":{"type":"Polygon","coordinates":[[[-111.366922,31.521361],[-111.163717,31.521724],[-111.164183,31.72589],[-110.855766,31.726705],[-110.855765,31.731697],[-110.4523,31.731219],[-110.452247,31.613936],[-110.460752,31.613883],[-110.459746838067,31.3328285135903],[-111.074825,31.332239],[-111.366372,31.426068287287],[-111.366922,31.521361]]]}}]}