{"type":"FeatureCollection","metadata":{"state":"CT","boundary_source":"U.S. Census Bureau 2024 Cartographic Boundary File (counties, 1:500,000)","risk_source":"FEMA National Risk Index v1.20 (December 2025)"},"features":[{"type":"Feature","properties":{"GEOID":"09190","NAME":"Western Connecticut","state":"CT","wildfire_risk_score":46.247,"wildfire_eal_total":42904.67,"risk_band":"High","source":"FEMA National Risk Index v1.20 (December 2025)"},"geometry":{"type":"MultiPolygon","coordinates":[[[[-73.364244,41.088945],[-73.353754,41.087508],[-73.355089,41.083483],[-73.360141,41.08202],[-73.369775,41.088802],[-73.364244,41.088945]]],[[[-73.394189,41.067379],[-73.388181,41.073275],[-73.381314,41.070686],[-73.389993,41.064287],[-73.386178,41.058391],[-73.394189,41.067379]]],[[[-73.416886,41.053932],[-73.404774,41.06213],[-73.399148,41.06098],[-73.401532,41.053717],[-73.422165,41.047562],[-73.416886,41.053932]]],[[[-73.613369,40.988883],[-73.609727,40.990786],[-73.607569,40.990397],[-73.612528,40.987474],[-73.613369,40.988883]]],[[[-73.630573,40.980707],[-73.62948,40.983646],[-73.621865,40.98247],[-73.630081,40.980144],[-73.630573,40.980707]]],[[[-73.645767,40.996001],[-73.638435,40.994092],[-73.639147,40.989542],[-73.640819,40.989236],[-73.645767,40.996001]]],[[[-73.727775,41.100696],[-73.482709,41.21276],[-73.550961,41.295422],[-73.5182376035525,41.6667339816894],[-73.382124,41.683327],[-73.377858,41.658984],[-73.359079,41.646521],[-73.330311,41.504409],[-73.318889,41.505189],[-73.326842,41.492703],[-73.326458,41.483839],[-73.312777,41.469935],[-73.299593,41.470111],[-73.298403,41.448916],[-73.273696,41.451645],[-73.263678,41.434532],[-73.245259,41.439895],[-73.238411,41.426253],[-73.218235,41.42907],[-73.184857,41.406296],[-73.187957,41.397296],[-73.183269,41.391711],[-73.194898,41.388529],[-73.203578,41.379162],[-73.204828,41.370475],[-73.223326,41.36422],[-73.229076,41.370324],[-73.325287,41.322474],[-73.304798,41.297764],[-73.368811,41.274975],[-73.32581,41.227228],[-73.325674,41.216213],[-73.338457,41.194539],[-73.298811,41.144807],[-73.29861,41.120207],[-73.336409,41.111761],[-73.352671,41.101611],[-73.368249,41.107194],[-73.365396,41.097343],[-73.382787,41.0954],[-73.379693,41.090455],[-73.387732,41.091337],[-73.392967,41.082117],[-73.402474,41.086058],[-73.40785,41.081115],[-73.408416,41.071008],[-73.43325,41.055808],[-73.451394,41.057916],[-73.459572,41.052544],[-73.457817,41.058975],[-73.466731,41.061128],[-73.471508,41.055079],[-73.467153,41.052359],[-73.474032,41.05085],[-73.470242,41.047197],[-73.477366,41.036397],[-73.482823,41.046216],[-73.4886,41.040799],[-73.493947,41.048041],[-73.500582,41.046716],[-73.507958,41.038503],[-73.523292,41.036664],[-73.517013,41.030054],[-73.52306,41.020047],[-73.530353,41.017281],[-73.530189,41.028776],[-73.535338,41.03192],[-73.561968,41.016797],[-73.570068,41.001597],[-73.583968,41.000897],[-73.595699,41.015995],[-73.603952,41.015054],[-73.627086,41.001809],[-73.639885,41.003118],[-73.657783,40.9876],[-73.660268,41.000484],[-73.655255,41.012246],[-73.727775,41.100696]]]]}},{"type":"Feature","properties":{"GEOID":"09170","NAME":"South Central Connecticut","state":"CT","wildfire_risk_score":41.221,"wildfire_eal_total":27506.44,"risk_band":"Moderate","source":"FEMA National Risk Index v1.20 (December 2025)"},"geometry":{"type":"MultiPolygon","coordinates":[[[[-72.761427,41.242333],[-72.75886,41.253843],[-72.740299,41.256454],[-72.741058,41.252691],[-72.761427,41.242333]]],[[[-72.764251,41.259212],[-72.762344,41.260356],[-72.761187,41.258996],[-72.763115,41.258037],[-72.764251,41.259212]]],[[[-73.122453,41.182897],[-73.109253,41.204097],[-73.109953,41.229396],[-73.08735,41.251792],[-73.086852,41.276596],[-73.068751,41.289196],[-73.061746,41.310079],[-73.040707,41.313891],[-73.038934,41.32801],[-73.046334,41.346078],[-73.048203,41.391499],[-73.041651,41.420896],[-73.029459,41.419492],[-73.025751,41.459596],[-73.003347,41.462718],[-73.0013,41.471062],[-72.917991,41.459863],[-72.886667,41.447957],[-72.846297,41.502829],[-72.853083,41.524925],[-72.861235,41.528102],[-72.857977,41.534546],[-72.853606,41.533478],[-72.853147,41.546412],[-72.84428,41.544725],[-72.848541,41.567329],[-72.827644,41.570999],[-72.829644,41.562397],[-72.825743,41.564298],[-72.826141,41.555897],[-72.819145,41.554298],[-72.801243,41.573098],[-72.752181,41.578894],[-72.74333,41.483114],[-72.733886,41.485368],[-72.73912,41.438294],[-72.746141,41.423297],[-72.653672,41.438125],[-72.648363,41.435148],[-72.649591,41.431007],[-72.642351,41.429323],[-72.649214,41.417345],[-72.632325,41.412315],[-72.63083,41.403589],[-72.612328,41.386179],[-72.608132,41.367404],[-72.612233,41.362674],[-72.614407,41.329966],[-72.585841,41.323888],[-72.589415,41.315133],[-72.585206,41.314232],[-72.588574,41.3117],[-72.585599,41.307348],[-72.557236,41.281992],[-72.545986,41.280335],[-72.547235,41.262499],[-72.5363300022319,41.2548110883025],[-72.543941,41.248704],[-72.571136,41.268098],[-72.583336,41.271698],[-72.598036,41.268698],[-72.617237,41.271998],[-72.658424,41.265013],[-72.665667,41.270139],[-72.67964,41.261501],[-72.677477,41.254767],[-72.684114,41.258394],[-72.690439,41.246697],[-72.706139,41.243851],[-72.713242,41.248802],[-72.702618,41.255916],[-72.705788,41.259908],[-72.718567,41.256147],[-72.717385,41.262911],[-72.732442,41.255122],[-72.737041,41.257343],[-72.735307,41.261028],[-72.749603,41.259371],[-72.752166,41.26563],[-72.762057,41.267686],[-72.787283,41.264563],[-72.816706,41.249297],[-72.823563,41.255564],[-72.821342,41.261628],[-72.827621,41.264937],[-72.836101,41.248812],[-72.841794,41.259026],[-72.851007,41.256445],[-72.850421,41.250621],[-72.861058,41.245804],[-72.894578,41.242509],[-72.904116,41.249554],[-72.893845,41.259897],[-72.905359,41.270627],[-72.907621,41.296201],[-72.913087,41.296737],[-72.929652,41.280918],[-72.939163,41.280188],[-72.931305,41.262293],[-72.962062,41.251938],[-72.975136,41.233829],[-72.98687,41.235131],[-72.992042,41.223724],[-73.002548,41.222751],[-73.01455,41.204735],[-73.029645,41.207532],[-73.037941,41.201814],[-73.04657,41.210547],[-73.055452,41.209126],[-73.065948,41.198407],[-73.082045,41.192964],[-73.1080084493287,41.1687516729814],[-73.119853,41.175697],[-73.122453,41.182897]]]]}},{"type":"Feature","properties":{"GEOID":"09180","NAME":"Southeastern Connecticut","state":"CT","wildfire_risk_score":39.377,"wildfire_eal_total":27688.96,"risk_band":"Low","source":"FEMA National Risk Index v1.20 (December 2025)"},"geometry":{"type":"MultiPolygon","coordinates":[[[[-72.225931,41.293839],[-72.225226,41.295258],[-72.223756,41.294857],[-72.223899,41.293464],[-72.225931,41.293839]]],[[[-72.46673,41.583899],[-72.417229,41.590598],[-72.410367,41.602581],[-72.38415,41.588652],[-72.375447,41.601324],[-72.355851,41.59761],[-72.328095,41.605471],[-72.32451,41.61857],[-72.334226,41.643598],[-72.303643,41.653982],[-72.278669,41.671975],[-72.268418,41.671137],[-72.266141,41.677273],[-72.274204,41.692217],[-72.26576,41.690891],[-72.260728,41.698645],[-72.250045,41.699653],[-72.251249,41.703324],[-72.244021,41.706529],[-72.247677,41.708766],[-72.244965,41.713878],[-72.239559,41.714191],[-72.252643,41.728202],[-72.192104,41.730413],[-72.195644,41.739611],[-72.183197,41.756117],[-72.171648,41.748467],[-72.156321,41.753491],[-72.122521,41.748768],[-72.112045,41.745897],[-72.122489,41.712754],[-72.119773,41.661834],[-71.951936,41.634328],[-71.884422,41.641204],[-71.863408,41.514926],[-71.7935683158896,41.5057530964788],[-71.797683,41.416709],[-71.816904,41.419927],[-71.842563,41.409855],[-71.842131,41.395359],[-71.832655,41.387156],[-71.830637,41.378772],[-71.837873,41.360145],[-71.829384,41.342413],[-71.857458,41.320789],[-71.877521,41.336025],[-71.897962,41.333527],[-71.904655,41.327353],[-71.921206,41.327927],[-71.936284,41.337959],[-71.945652,41.337799],[-71.96244,41.321535],[-71.969266,41.321033],[-71.982194,41.329861],[-71.989231,41.315856],[-72.000678,41.318237],[-72.005143,41.306687],[-72.021898,41.316838],[-72.030262,41.312121],[-72.049123,41.319127],[-72.060535,41.312107],[-72.066956,41.318893],[-72.074104,41.318993],[-72.094443,41.314164],[-72.093097,41.309429],[-72.11182,41.299098],[-72.134221,41.299398],[-72.15632,41.313178],[-72.164401,41.303715],[-72.172715,41.309596],[-72.177622,41.322497],[-72.184122,41.323997],[-72.201422,41.315697],[-72.203684,41.287222],[-72.210387,41.285963],[-72.221724,41.301124],[-72.2316,41.29641],[-72.235735,41.30083],[-72.246823,41.297669],[-72.254816,41.310309],[-72.256402,41.3259],[-72.276725,41.366297],[-72.282154,41.405899],[-72.276636,41.440449],[-72.304868,41.432728],[-72.323394,41.53425],[-72.430767,41.524567],[-72.46673,41.583899]]]]}},{"type":"Feature","properties":{"GEOID":"09110","NAME":"Capitol","state":"CT","wildfire_risk_score":56.934,"wildfire_eal_total":76084.9,"risk_band":"High","source":"FEMA National Risk Index v1.20 (December 2025)"},"geometry":{"type":"Polygon","coordinates":[[[-72.95364,41.853919],[-72.940647,41.895196],[-72.915346,41.896797],[-72.8636384107871,42.0377091702701],[-72.813541,42.036494],[-72.816741,41.997595],[-72.766739,42.002995],[-72.759738,42.016995],[-72.762151,42.021527],[-72.757467,42.020947],[-72.751738,42.030195],[-72.757538,42.033295],[-72.755838,42.036195],[-72.607933,42.030795],[-72.606933,42.024995],[-72.590233,42.024695],[-72.528131,42.034295],[-72.2050807834552,42.0310868498098],[-72.234898,41.957583],[-72.21698,41.958161],[-72.217719,41.835184],[-72.164498,41.834913],[-72.156321,41.753491],[-72.171648,41.748467],[-72.17787,41.75537],[-72.187656,41.755181],[-72.195644,41.739611],[-72.192104,41.730413],[-72.198917,41.731446],[-72.198126,41.728176],[-72.252643,41.728202],[-72.239559,41.714191],[-72.244965,41.713878],[-72.247677,41.708766],[-72.244021,41.706529],[-72.251249,41.703324],[-72.250045,41.699653],[-72.260728,41.698645],[-72.26576,41.690891],[-72.274204,41.692217],[-72.266141,41.677273],[-72.268418,41.671137],[-72.278669,41.671975],[-72.303643,41.653982],[-72.334226,41.643598],[-72.32451,41.61857],[-72.328095,41.605471],[-72.355851,41.59761],[-72.375447,41.601324],[-72.38415,41.588652],[-72.410367,41.602581],[-72.417229,41.590598],[-72.46673,41.583899],[-72.505431,41.646999],[-72.630524,41.633282],[-72.627836,41.640199],[-72.713897,41.627705],[-72.714538,41.60431],[-72.72994,41.601498],[-72.73167,41.595803],[-72.752941,41.592497],[-72.752181,41.578894],[-72.801243,41.573098],[-72.819145,41.554298],[-72.826141,41.555897],[-72.825743,41.564298],[-72.829644,41.562397],[-72.827644,41.570999],[-72.848541,41.567329],[-72.84428,41.544725],[-72.86781,41.549028],[-72.873956,41.559154],[-72.883885,41.563812],[-72.94635,41.556797],[-72.933644,41.607794],[-72.938501,41.644311],[-72.921954,41.64114],[-72.923911,41.645492],[-72.883388,41.649468],[-72.90848,41.776043],[-72.919023,41.778299],[-72.924946,41.787785],[-72.928104,41.80284],[-72.921183,41.807117],[-72.949024,41.806431],[-72.936502,41.840263],[-72.951187,41.842697],[-72.95364,41.853919]]]}},{"type":"Feature","properties":{"GEOID":"09140","NAME":"Naugatuck Valley","state":"CT","wildfire_risk_score":47.71,"wildfire_eal_total":42935.58,"risk_band":"High","source":"FEMA National Risk Index v1.20 (December 2025)"},"geometry":{"type":"Polygon","coordinates":[[[-73.326842,41.485967],[-73.318889,41.505189],[-73.252265,41.512134],[-73.267336,41.603199],[-73.253509,41.604532],[-73.261446,41.664641],[-73.142031,41.672294],[-73.068402,41.707093],[-72.89827,41.723177],[-72.883388,41.649468],[-72.923911,41.645492],[-72.921954,41.64114],[-72.938501,41.644311],[-72.933644,41.607794],[-72.94635,41.556797],[-72.879256,41.563152],[-72.86781,41.549028],[-72.853147,41.546412],[-72.853606,41.533478],[-72.857977,41.534546],[-72.861235,41.528102],[-72.853083,41.524925],[-72.846297,41.502829],[-72.886667,41.447957],[-72.917991,41.459863],[-73.0013,41.471062],[-73.003347,41.462718],[-73.025751,41.459596],[-73.029459,41.419492],[-73.041651,41.420896],[-73.048203,41.391499],[-73.046334,41.346078],[-73.038934,41.32801],[-73.040707,41.313891],[-73.065027,41.306127],[-73.068751,41.289196],[-73.086852,41.276596],[-73.086752,41.254596],[-73.103076,41.259612],[-73.108295,41.268582],[-73.146882,41.255367],[-73.155266,41.269087],[-73.173596,41.268606],[-73.178639,41.272636],[-73.2048,41.29936],[-73.176814,41.337587],[-73.170657,41.357934],[-73.157055,41.376696],[-73.158656,41.383396],[-73.173356,41.383596],[-73.187957,41.397296],[-73.186557,41.408596],[-73.199757,41.413196],[-73.218235,41.42907],[-73.238411,41.426253],[-73.245259,41.439895],[-73.263678,41.434532],[-73.273696,41.451645],[-73.298403,41.448916],[-73.299593,41.470111],[-73.312777,41.469935],[-73.326842,41.485967]]]}},{"type":"Feature","properties":{"GEOID":"09130","NAME":"Lower Connecticut River Valley","state":"CT","wildfire_risk_score":43.639,"wildfire_eal_total":39157.37,"risk_band":"High","source":"FEMA National Risk Index v1.20 (December 2025)"},"geometry":{"type":"Polygon","coordinates":[[[-72.752941,41.592497],[-72.73167,41.595803],[-72.72994,41.601498],[-72.714538,41.60431],[-72.713897,41.627705],[-72.627836,41.640199],[-72.630524,41.633282],[-72.505431,41.646999],[-72.430767,41.524567],[-72.323394,41.53425],[-72.304868,41.432728],[-72.276636,41.440449],[-72.282154,41.405899],[-72.276725,41.366297],[-72.256402,41.3259],[-72.2488103721913,41.2993370479212],[-72.251323,41.289997],[-72.261487,41.282926],[-72.327595,41.27846],[-72.34171,41.296394],[-72.346463,41.311214],[-72.350504,41.31175],[-72.356446,41.291216],[-72.34261,41.268846],[-72.386629,41.261798],[-72.398688,41.278172],[-72.417699,41.278435],[-72.426161,41.274128],[-72.451925,41.278885],[-72.468102,41.269012],[-72.485693,41.270881],[-72.499534,41.265866],[-72.506974,41.256896],[-72.51802,41.257762],[-72.521312,41.2656],[-72.533247,41.26269],[-72.5363300022319,41.2548110883025],[-72.545837,41.260304],[-72.545986,41.280335],[-72.557236,41.281992],[-72.585599,41.307348],[-72.588574,41.3117],[-72.585206,41.314232],[-72.589415,41.315133],[-72.585841,41.323888],[-72.614407,41.329966],[-72.612233,41.362674],[-72.608132,41.367404],[-72.612328,41.386179],[-72.63083,41.403589],[-72.632325,41.412315],[-72.649214,41.417345],[-72.642351,41.429323],[-72.649591,41.431007],[-72.648363,41.435148],[-72.653672,41.438125],[-72.746141,41.423297],[-72.73912,41.438294],[-72.733886,41.485368],[-72.74333,41.483114],[-72.752941,41.592497]]]}},{"type":"Feature","properties":{"GEOID":"09160","NAME":"Northwest Hills","state":"CT","wildfire_risk_score":39.949,"wildfire_eal_total":33513.03,"risk_band":"Moderate","source":"FEMA National Risk Index v1.20 (December 2025)"},"geometry":{"type":"Polygon","coordinates":[[[-73.5179500508434,41.670860790123],[-73.487314,42.049638],[-72.8636384107871,42.0377091702701],[-72.915346,41.896797],[-72.940647,41.895196],[-72.95364,41.853919],[-72.951187,41.842697],[-72.936502,41.840263],[-72.949024,41.806431],[-72.921183,41.807117],[-72.928104,41.80284],[-72.924946,41.787785],[-72.919023,41.778299],[-72.90848,41.776043],[-72.89827,41.723177],[-73.068402,41.707093],[-73.142031,41.672294],[-73.261446,41.664641],[-73.253509,41.604532],[-73.267336,41.603199],[-73.252265,41.512134],[-73.330311,41.504409],[-73.359079,41.646521],[-73.377858,41.658984],[-73.382124,41.683327],[-73.506923,41.665802],[-73.5182376035525,41.6667339816894],[-73.5179500508434,41.670860790123]]]}},{"type":"Feature","properties":{"GEOID":"09120","NAME":"Greater Bridgeport","state":"CT","wildfire_risk_score":23.919,"wildfire_eal_total":9447.18,"risk_band":"Low","source":"FEMA National Risk Index v1.20 (December 2025)"},"geometry":{"type":"MultiPolygon","coordinates":[[[[-73.217168,41.143906],[-73.214987,41.144473],[-73.215269,41.142644],[-73.217629,41.142354],[-73.217168,41.143906]]],[[[-73.368811,41.274975],[-73.304798,41.297764],[-73.325287,41.322474],[-73.229076,41.370324],[-73.223326,41.36422],[-73.204828,41.370475],[-73.203578,41.379162],[-73.194898,41.388529],[-73.183269,41.391711],[-73.173356,41.383596],[-73.158656,41.383396],[-73.157055,41.376696],[-73.170657,41.357934],[-73.176814,41.337587],[-73.2048,41.29936],[-73.173596,41.268606],[-73.155266,41.269087],[-73.146882,41.255367],[-73.108295,41.268582],[-73.103076,41.259612],[-73.086752,41.254596],[-73.109953,41.229396],[-73.109253,41.204097],[-73.122453,41.182897],[-73.119853,41.175697],[-73.1080084493287,41.1687516729814],[-73.110352,41.159697],[-73.10109,41.154141],[-73.130253,41.146797],[-73.172196,41.159074],[-73.170701,41.164945],[-73.177774,41.166697],[-73.186186,41.159287],[-73.202656,41.158096],[-73.21551,41.14845],[-73.219741,41.15332],[-73.227569,41.143006],[-73.235058,41.143996],[-73.242565,41.128193],[-73.262388,41.118193],[-73.286759,41.127896],[-73.2987463453292,41.1247855952212],[-73.298811,41.144807],[-73.338457,41.194539],[-73.325674,41.216213],[-73.32581,41.227228],[-73.368811,41.274975]]]]}},{"type":"Feature","properties":{"GEOID":"09150","NAME":"Northeastern Connecticut","state":"CT","wildfire_risk_score":22.901,"wildfire_eal_total":13612.71,"risk_band":"Low","source":"FEMA National Risk Index v1.20 (December 2025)"},"geometry":{"type":"Polygon","coordinates":[[[-72.223283,41.981666],[-72.2050807834552,42.0310868498098],[-71.80065,42.023569],[-71.786994,41.655992],[-71.7935683158896,41.5057530964788],[-71.863408,41.514926],[-71.884422,41.641204],[-71.951936,41.634328],[-72.119773,41.661834],[-72.122489,41.712754],[-72.112045,41.745897],[-72.156719,41.753719],[-72.164498,41.834913],[-72.217719,41.835184],[-72.21698,41.958161],[-72.234898,41.957583],[-72.223283,41.981666]]]}}]}