{"type":"FeatureCollection","metadata":{"state":"DC","boundary_source":"U.S. Census Bureau 2024 Cartographic Boundary File (counties, 1:500,000)","risk_source":"FEMA National Risk Index v1.20 (December 2025)"},"features":[{"type":"Feature","properties":{"GEOID":"11001","NAME":"District of Columbia","state":"DC","wildfire_risk_score":26.209,"wildfire_eal_total":11537.56,"risk_band":"High","source":"FEMA National Risk Index v1.20 (December 2025)"},"geometry":{"type":"Polygon","coordinates":[[[-77.119759,38.934343],[-77.040999,38.99511],[-76.909395,38.892812],[-77.039006,38.791645],[-77.038098,38.828612],[-77.044999,38.838512],[-77.034541,38.840473],[-77.031698,38.850512],[-77.040599,38.871212],[-77.045399,38.875212],[-77.049099,38.870712],[-77.058254,38.880069],[-77.068199,38.899811],[-77.1012,38.911111],[-77.119759,38.934343]]]}}]}