{"type":"FeatureCollection","metadata":{"state":"DE","boundary_source":"U.S. Census Bureau 2024 Cartographic Boundary File (counties, 1:500,000)","risk_source":"FEMA National Risk Index v1.20 (December 2025)"},"features":[{"type":"Feature","properties":{"GEOID":"10005","NAME":"Sussex","state":"DE","wildfire_risk_score":84.796,"wildfire_eal_total":538071.68,"risk_band":"High","source":"FEMA National Risk Index v1.20 (December 2025)"},"geometry":{"type":"Polygon","coordinates":[[[-75.7225990918529,38.8298593718107],[-75.555013,38.835649],[-75.520439,38.855742],[-75.508168,38.878951],[-75.49778,38.882127],[-75.488026,38.892784],[-75.485833,38.903553],[-75.465153,38.91131],[-75.434048,38.910817],[-75.416679,38.918031],[-75.401413,38.918355],[-75.397887,38.936187],[-75.402873,38.937472],[-75.398525,38.94074],[-75.400716,38.947717],[-75.393212,38.95574],[-75.372131,38.961436],[-75.366208,38.953935],[-75.360153,38.957559],[-75.352774,38.947925],[-75.344061,38.955269],[-75.343516,38.947439],[-75.338704,38.946264],[-75.316686,38.952913],[-75.311542,38.944633],[-75.317096,38.93344],[-75.304078,38.91316],[-75.190552,38.806861],[-75.134022,38.782242],[-75.097103,38.788703],[-75.093295,38.797618],[-75.099144,38.803531],[-75.092014,38.803902],[-75.082153,38.772157],[-75.06551,38.66103],[-75.048939,38.451263],[-75.40199,38.452261],[-75.69367,38.46008],[-75.7225990918529,38.8298593718107]]]}},{"type":"Feature","properties":{"GEOID":"10003","NAME":"New Castle","state":"DE","wildfire_risk_score":60.56,"wildfire_eal_total":94807.5,"risk_band":"Low","source":"FEMA National Risk Index v1.20 (December 2025)"},"geometry":{"type":"MultiPolygon","coordinates":[[[[-75.567522,39.510205],[-75.564766,39.515949],[-75.561325,39.519471],[-75.565454,39.509407],[-75.567522,39.510205]]],[[[-75.570798,39.626768],[-75.559446,39.629812],[-75.55617,39.606386],[-75.562005,39.605745],[-75.570798,39.626768]]],[[[-75.579709,39.597892],[-75.570774,39.594091],[-75.564883,39.588983],[-75.572118,39.58586],[-75.579709,39.597892]]],[[[-75.7886554614804,39.6595727948766],[-75.788596,39.722199],[-75.773786,39.7222],[-75.753066,39.757631],[-75.727049,39.784126],[-75.701208,39.802606],[-75.662822,39.82115],[-75.593666,39.837455],[-75.539346,39.838211],[-75.481242,39.829112],[-75.423416,39.806615],[-75.468502,39.786474],[-75.509113,39.720089],[-75.562246,39.656712],[-75.587147,39.651012],[-75.614929,39.615952],[-75.611873,39.597408],[-75.60464,39.58992],[-75.563034,39.56224],[-75.572364,39.517101],[-75.587729,39.496353],[-75.592329,39.467578],[-75.57183,39.438897],[-75.538512,39.416502],[-75.5123720823948,39.3656561384634],[-75.535849,39.350617],[-75.553369,39.35301],[-75.55104,39.345568],[-75.557378,39.349101],[-75.560519,39.345067],[-75.556205,39.335325],[-75.569007,39.328744],[-75.57462,39.313434],[-75.584341,39.308718],[-75.619631,39.310058],[-75.654461,39.291184],[-75.6752,39.290498],[-75.685188,39.297089],[-75.714901,39.299366],[-75.7601043523729,39.2968165224723],[-75.7886554614804,39.6595727948766]]]]}},{"type":"Feature","properties":{"GEOID":"10001","NAME":"Kent","state":"DE","wildfire_risk_score":64.885,"wildfire_eal_total":126329.17,"risk_band":"High","source":"FEMA National Risk Index v1.20 (December 2025)"},"geometry":{"type":"Polygon","coordinates":[[[-75.7601043523729,39.2968165224723],[-75.714901,39.299366],[-75.685188,39.297089],[-75.6752,39.290498],[-75.654461,39.291184],[-75.619631,39.310058],[-75.584341,39.308718],[-75.57462,39.313434],[-75.569007,39.328744],[-75.556205,39.335325],[-75.560519,39.345067],[-75.557378,39.349101],[-75.55104,39.345568],[-75.553369,39.35301],[-75.535849,39.350617],[-75.5123720823948,39.3656561384634],[-75.494158,39.354613],[-75.490377,39.342818],[-75.439027,39.313384],[-75.434775,39.290593],[-75.406178,39.258113],[-75.409363,39.251103],[-75.405037,39.240316],[-75.407026,39.225737],[-75.397085,39.20453],[-75.413357,39.153296],[-75.399809,39.099088],[-75.402035,39.066885],[-75.387914,39.051174],[-75.34089,39.01996],[-75.314951,38.980775],[-75.3119225616126,38.9459168127958],[-75.319381,38.953685],[-75.343516,38.947439],[-75.344061,38.955269],[-75.352774,38.947925],[-75.360153,38.957559],[-75.366208,38.953935],[-75.367886,38.95958],[-75.380649,38.961873],[-75.382525,38.955906],[-75.393212,38.95574],[-75.400716,38.947717],[-75.398525,38.94074],[-75.402873,38.937472],[-75.397887,38.936187],[-75.402507,38.917559],[-75.408922,38.919703],[-75.434048,38.910817],[-75.465153,38.91131],[-75.485833,38.903553],[-75.488026,38.892784],[-75.49778,38.882127],[-75.508168,38.878951],[-75.520439,38.855742],[-75.555013,38.835649],[-75.7225990918529,38.8298593718107],[-75.7601043523729,39.2968165224723]]]}}]}