{"type":"FeatureCollection","metadata":{"state":"HI","boundary_source":"U.S. Census Bureau 2024 Cartographic Boundary File (counties, 1:500,000)","risk_source":"FEMA National Risk Index v1.20 (December 2025)"},"features":[{"type":"Feature","properties":{"GEOID":"15003","NAME":"Honolulu","state":"HI","wildfire_risk_score":98.982,"wildfire_eal_total":26767968.27,"risk_band":"High","source":"FEMA National Risk Index v1.20 (December 2025)"},"geometry":{"type":"MultiPolygon","coordinates":[[[[-157.659825,21.328568],[-157.656571,21.331681],[-157.654084,21.325992],[-157.659587,21.327018],[-157.659825,21.328568]]],[[[-157.79087,21.434677],[-157.787213,21.435822],[-157.788034,21.431149],[-157.790434,21.43159],[-157.79087,21.434677]]],[[[-158.277555,21.57699],[-158.234772,21.581852],[-158.167509,21.579642],[-158.122823,21.583513],[-158.103811,21.596439],[-158.106689,21.603024],[-158.065069,21.639084],[-158.062258,21.655376],[-158.027753,21.689668],[-157.983491,21.710734],[-157.967383,21.710427],[-157.933107,21.674061],[-157.935296,21.666698],[-157.926264,21.661617],[-157.928184,21.653803],[-157.914142,21.649689],[-157.919371,21.62627],[-157.907711,21.607763],[-157.898094,21.602617],[-157.886735,21.580607],[-157.875191,21.573056],[-157.876932,21.557402],[-157.87347,21.554984],[-157.863849,21.56017],[-157.850733,21.554915],[-157.8368,21.531927],[-157.834829,21.508969],[-157.850624,21.506294],[-157.852625,21.499971],[-157.847029,21.492244],[-157.849256,21.487447],[-157.841664,21.480449],[-157.84099,21.459483],[-157.834216,21.458252],[-157.833738,21.462399],[-157.8223,21.452517],[-157.816587,21.454642],[-157.8059,21.4301],[-157.796741,21.425297],[-157.792286,21.428852],[-157.7872,21.413706],[-157.778044,21.411816],[-157.766537,21.416243],[-157.757496,21.434735],[-157.776802,21.443248],[-157.772748,21.456936],[-157.764377,21.462139],[-157.745892,21.453386],[-157.722506,21.459225],[-157.725758,21.449973],[-157.735669,21.445242],[-157.735831,21.432404],[-157.744483,21.422356],[-157.743289,21.413746],[-157.7386,21.4043],[-157.715864,21.393332],[-157.705887,21.380298],[-157.70903,21.360332],[-157.6938,21.3329],[-157.65935,21.31019],[-157.649055,21.310569],[-157.651032,21.298816],[-157.673764,21.285287],[-157.689325,21.268974],[-157.695952,21.271657],[-157.691516,21.26428],[-157.698719,21.260682],[-157.71152,21.261982],[-157.709474,21.277469],[-157.719411,21.284359],[-157.755848,21.272764],[-157.764404,21.275199],[-157.791215,21.25553],[-157.806201,21.255043],[-157.8211,21.2606],[-157.823164,21.271436],[-157.829722,21.276623],[-157.846003,21.281684],[-157.870727,21.298201],[-157.883771,21.300011],[-157.886688,21.306646],[-157.94718,21.303769],[-157.94718,21.315505],[-157.970235,21.328346],[-157.978313,21.315929],[-158.084083,21.295797],[-158.108298,21.297614],[-158.120509,21.321048],[-158.113406,21.326609],[-158.123089,21.325712],[-158.129813,21.355133],[-158.141127,21.376383],[-158.162042,21.395858],[-158.1792,21.4043],[-158.179631,21.428607],[-158.191476,21.440132],[-158.189851,21.446527],[-158.197694,21.448739],[-158.203698,21.457944],[-158.214441,21.460285],[-158.220384,21.476097],[-158.231144,21.482685],[-158.229781,21.534326],[-158.250671,21.557373],[-158.281575,21.575163],[-158.277555,21.57699]]],[[[-161.929492,23.062555],[-161.91643,23.060859],[-161.915586,23.058349],[-161.925773,23.054248],[-161.929492,23.062555]]],[[[-166.164902,23.729804],[-166.163932,23.72961],[-166.163751,23.726874],[-166.16558,23.72909],[-166.164902,23.729804]]],[[[-166.167069,23.734835],[-166.165421,23.735355],[-166.164977,23.733303],[-166.166503,23.732989],[-166.167069,23.734835]]],[[[-166.171986,23.643397],[-166.171328,23.644102],[-166.169657,23.643266],[-166.17018,23.642416],[-166.171986,23.643397]]],[[[-166.210718,23.787715],[-166.20918,23.788229],[-166.207463,23.786816],[-166.20803,23.785782],[-166.210718,23.787715]]],[[[-166.223662,23.862043],[-166.222507,23.86221],[-166.221729,23.860591],[-166.223783,23.861244],[-166.223662,23.862043]]],[[[-166.289249,23.869154],[-166.281148,23.871723],[-166.279933,23.87151],[-166.288267,23.867302],[-166.289249,23.869154]]],[[[-168.002069,24.999967],[-167.997711,25.004431],[-167.99556,25.001871],[-167.998505,24.997116],[-168.002069,24.999967]]],[[[-171.7452,25.7709],[-171.73506,25.781772],[-171.725554,25.779315],[-171.733093,25.757305],[-171.742436,25.756145],[-171.7452,25.7709]]],[[[-173.972954,26.079864],[-173.964715,26.076477],[-173.964157,26.062327],[-173.969938,26.064554],[-173.976077,26.078607],[-173.972954,26.079864]]],[[[-175.739556,27.924376],[-175.738163,27.926965],[-175.736884,27.927052],[-175.737701,27.923558],[-175.739556,27.924376]]],[[[-175.82115,27.790701],[-175.815799,27.790977],[-175.814499,27.789306],[-175.817945,27.78795],[-175.82115,27.790701]]],[[[-175.909221,27.774096],[-175.906272,27.774158],[-175.905927,27.773373],[-175.909038,27.772443],[-175.909221,27.774096]]],[[[-175.947623,27.764634],[-175.943587,27.765933],[-175.941872,27.763924],[-175.942552,27.762429],[-175.947623,27.764634]]],[[[-178.333034,28.394464],[-178.297975,28.391614],[-178.288927,28.402123],[-178.288113,28.392374],[-178.304504,28.385405],[-178.334698,28.389446],[-178.333034,28.394464]]]]}},{"type":"Feature","properties":{"GEOID":"15001","NAME":"Hawaii","state":"HI","wildfire_risk_score":98.282,"wildfire_eal_total":14111991.49,"risk_band":"High","source":"FEMA National Risk Index v1.20 (December 2025)"},"geometry":{"type":"Polygon","coordinates":[[[-156.060759,19.730549],[-156.053088,19.736702],[-156.049248,19.771897],[-156.036313,19.783004],[-156.038259,19.787242],[-156.021262,19.795905],[-156.000963,19.814694],[-155.997347,19.825398],[-155.986537,19.831057],[-155.972992,19.848029],[-155.945297,19.853443],[-155.93709,19.84957],[-155.9221,19.85717],[-155.923261,19.870486],[-155.90549,19.888261],[-155.905938,19.896999],[-155.89853,19.908991],[-155.888233,19.915237],[-155.89068,19.928616],[-155.877845,19.934649],[-155.878343,19.941625],[-155.863249,19.952147],[-155.852889,19.968384],[-155.832396,19.973927],[-155.823078,20.027628],[-155.829203,20.029317],[-155.827068,20.034253],[-155.864504,20.076434],[-155.88353,20.10619],[-155.895998,20.143418],[-155.904373,20.196116],[-155.899378,20.230087],[-155.882582,20.256834],[-155.868207,20.265088],[-155.837039,20.26703],[-155.797581,20.24817],[-155.778787,20.241984],[-155.771293,20.24644],[-155.757187,20.238756],[-155.731,20.220033],[-155.734132,20.210654],[-155.724918,20.201632],[-155.651653,20.165355],[-155.640184,20.155413],[-155.638606,20.147342],[-155.607797,20.137987],[-155.589068,20.119186],[-155.55611,20.129221],[-155.437823,20.092682],[-155.33021,20.038517],[-155.280276,20.018988],[-155.239985,19.993145],[-155.238328,19.987403],[-155.205639,19.969443],[-155.196147,19.955644],[-155.177263,19.947792],[-155.14147,19.917284],[-155.125421,19.900528],[-155.119028,19.883127],[-155.109697,19.878699],[-155.105125,19.869685],[-155.092707,19.864712],[-155.080751,19.847785],[-155.092635,19.809328],[-155.086501,19.803469],[-155.090733,19.752967],[-155.087118,19.728013],[-155.081939,19.723884],[-155.060785,19.726345],[-155.041058,19.73865],[-155.021093,19.733281],[-155.014676,19.738427],[-155.003524,19.73633],[-154.99303,19.723471],[-154.978073,19.688978],[-154.982629,19.673144],[-154.980876,19.638273],[-154.959408,19.622902],[-154.945171,19.621221],[-154.947106,19.604856],[-154.926021,19.591602],[-154.902634,19.568362],[-154.866839,19.549052],[-154.850098,19.54646],[-154.814857,19.529323],[-154.806773,19.516041],[-154.811697,19.512091],[-154.820265,19.478865],[-154.835227,19.461677],[-154.885694,19.422831],[-154.88919,19.415574],[-154.928592,19.394837],[-154.934035,19.384177],[-154.971873,19.349944],[-155.048592,19.314273],[-155.071216,19.311657],[-155.129839,19.273985],[-155.142375,19.273317],[-155.157097,19.265271],[-155.184716,19.263258],[-155.191933,19.256122],[-155.262532,19.271205],[-155.293236,19.263901],[-155.31084,19.247491],[-155.338861,19.231076],[-155.347037,19.214548],[-155.357979,19.206535],[-155.41469,19.184747],[-155.450074,19.149054],[-155.509994,19.129003],[-155.509672,19.121625],[-155.525848,19.111466],[-155.54288,19.085806],[-155.549217,19.085428],[-155.554922,19.077791],[-155.553892,19.045524],[-155.565147,19.02873],[-155.575837,19.023648],[-155.593728,18.995253],[-155.593764,18.977782],[-155.599188,18.968396],[-155.61957,18.967688],[-155.627416,18.948116],[-155.638115,18.936246],[-155.65477,18.92245],[-155.682793,18.910361],[-155.683982,18.934193],[-155.723613,18.966437],[-155.759188,18.977259],[-155.801011,19.010114],[-155.85045,19.019404],[-155.879592,19.033534],[-155.883292,19.052066],[-155.906779,19.079894],[-155.91829,19.114805],[-155.918183,19.134375],[-155.911176,19.146057],[-155.910253,19.151227],[-155.916432,19.156616],[-155.908631,19.168591],[-155.905643,19.202559],[-155.899276,19.21028],[-155.902206,19.223091],[-155.897291,19.240221],[-155.900633,19.247464],[-155.888696,19.289042],[-155.890671,19.318544],[-155.885179,19.329395],[-155.886722,19.345552],[-155.910858,19.396513],[-155.904876,19.410315],[-155.919768,19.430429],[-155.921919,19.453177],[-155.927767,19.458812],[-155.91976,19.475346],[-155.924124,19.481406],[-155.937253,19.479067],[-155.950425,19.486648],[-155.948198,19.495474],[-155.960166,19.515004],[-155.955858,19.532626],[-155.961169,19.550853],[-155.966682,19.553979],[-155.966417,19.580518],[-155.976427,19.599954],[-155.973787,19.603859],[-155.985913,19.616935],[-155.991302,19.636156],[-156.028982,19.650098],[-156.032438,19.656],[-156.02684,19.676198],[-156.036079,19.690252],[-156.044356,19.692885],[-156.049471,19.714373],[-156.060759,19.730549]]]}},{"type":"Feature","properties":{"GEOID":"15009","NAME":"Maui","state":"HI","wildfire_risk_score":95.261,"wildfire_eal_total":3804195.02,"risk_band":"Moderate","source":"FEMA National Risk Index v1.20 (December 2025)"},"geometry":{"type":"MultiPolygon","coordinates":[[[[-156.697418,20.916368],[-156.692294,20.947096],[-156.665726,21.003793],[-156.649468,21.005172],[-156.637781,21.013026],[-156.641085,21.023277],[-156.613386,21.023323],[-156.603319,21.031191],[-156.588534,21.030817],[-156.583475,21.018602],[-156.565684,21.011853],[-156.560135,21.013881],[-156.549504,20.998267],[-156.543674,21.001301],[-156.53569,20.984966],[-156.525405,20.987306],[-156.525159,20.964262],[-156.508439,20.947385],[-156.507263,20.936846],[-156.496415,20.930872],[-156.47969,20.898075],[-156.44977,20.897104],[-156.425321,20.9098],[-156.383699,20.915983],[-156.369326,20.929339],[-156.321763,20.947099],[-156.307035,20.939755],[-156.282135,20.945568],[-156.27356,20.934639],[-156.262495,20.939618],[-156.255732,20.934125],[-156.252362,20.937966],[-156.240283,20.935901],[-156.227414,20.92866],[-156.227519,20.915757],[-156.214185,20.913127],[-156.214221,20.9056],[-156.16684,20.871288],[-156.166746,20.865646],[-156.155907,20.859517],[-156.14426,20.865292],[-156.144196,20.85811],[-156.130357,20.859452],[-156.127385,20.841082],[-156.121163,20.838048],[-156.116091,20.826631],[-156.106659,20.823032],[-156.087663,20.828257],[-156.056898,20.807078],[-156.038615,20.806166],[-156.000478,20.791474],[-156.000433,20.786055],[-155.978948,20.764611],[-155.986401,20.759852],[-155.979051,20.755922],[-155.985717,20.731415],[-155.983351,20.721752],[-155.998588,20.694906],[-156.012798,20.682123],[-156.02851,20.679286],[-156.040805,20.667248],[-156.046622,20.652595],[-156.064677,20.646529],[-156.078742,20.651103],[-156.093706,20.641757],[-156.110748,20.639699],[-156.139031,20.618123],[-156.154391,20.626317],[-156.170516,20.621088],[-156.191312,20.628503],[-156.213313,20.623145],[-156.299613,20.583083],[-156.323043,20.585018],[-156.339674,20.580416],[-156.348655,20.583512],[-156.373794,20.574916],[-156.383795,20.580824],[-156.412305,20.582901],[-156.417146,20.597208],[-156.426425,20.594474],[-156.4407,20.604285],[-156.439256,20.621268],[-156.453719,20.63703],[-156.447463,20.639813],[-156.44136,20.652822],[-156.446319,20.711303],[-156.456377,20.735735],[-156.461259,20.778465],[-156.473922,20.790428],[-156.499709,20.796466],[-156.525974,20.775984],[-156.537675,20.774587],[-156.566495,20.792383],[-156.583683,20.794971],[-156.608139,20.809736],[-156.622925,20.808975],[-156.630462,20.822192],[-156.673573,20.861294],[-156.679842,20.874723],[-156.68926,20.881948],[-156.685117,20.902218],[-156.697418,20.916368]]],[[[-156.700001,20.527924],[-156.677457,20.554975],[-156.645643,20.563503],[-156.608726,20.590123],[-156.575305,20.603415],[-156.553604,20.594729],[-156.539028,20.576176],[-156.537974,20.568579],[-156.547994,20.56488],[-156.554044,20.536882],[-156.533582,20.534426],[-156.531786,20.528257],[-156.545203,20.512031],[-156.557333,20.518335],[-156.583893,20.508014],[-156.592954,20.515278],[-156.609159,20.512986],[-156.610619,20.51649],[-156.640295,20.505008],[-156.646105,20.515914],[-156.666309,20.500913],[-156.682352,20.505141],[-156.685223,20.515314],[-156.691703,20.516458],[-156.700001,20.527924]]],[[[-157.060242,20.901924],[-157.056357,20.910459],[-157.035473,20.922419],[-157.001452,20.927731],[-156.937387,20.923416],[-156.900389,20.9149],[-156.882539,20.904463],[-156.828816,20.855883],[-156.805908,20.821668],[-156.806234,20.806604],[-156.836869,20.760285],[-156.851897,20.757898],[-156.880525,20.74205],[-156.884752,20.744692],[-156.890384,20.735022],[-156.897824,20.740024],[-156.906922,20.73579],[-156.963338,20.731927],[-156.981926,20.753522],[-156.991522,20.779866],[-156.987905,20.817396],[-156.991834,20.826603],[-157.011197,20.854009],[-157.049665,20.870196],[-157.061128,20.890635],[-157.060242,20.901924]]],[[[-157.306472,21.108191],[-157.288435,21.146829],[-157.251375,21.177816],[-157.24765,21.196767],[-157.25026,21.207739],[-157.260286,21.219155],[-157.254104,21.224145],[-157.238832,21.217828],[-157.215592,21.218054],[-157.212082,21.221848],[-157.196473,21.214228],[-157.186795,21.203334],[-157.157135,21.201577],[-157.154518,21.197662],[-157.129807,21.199534],[-157.060073,21.185781],[-157.035033,21.187524],[-157.014590828961,21.1835249334756],[-157.00286,21.176122],[-156.98402,21.179192],[-156.973901,21.175371],[-156.964517,21.159346],[-156.959852,21.161526],[-156.964748,21.165668],[-156.962997,21.180021],[-156.9576,21.158042],[-156.951035,21.153463],[-156.942135,21.160173],[-156.928803,21.138213],[-156.918072,21.129479],[-156.900241,21.131625],[-156.900281,21.145424],[-156.896028,21.148993],[-156.906953,21.15162],[-156.9171,21.16371],[-156.920807,21.162826],[-156.91507,21.171147],[-156.913553,21.165912],[-156.901389,21.16198],[-156.884989,21.168629],[-156.883325,21.161758],[-156.876433,21.16597],[-156.865863,21.161389],[-156.842651,21.166826],[-156.830658,21.164116],[-156.803869,21.175219],[-156.790393,21.168408],[-156.784295,21.174085],[-156.77016,21.17622],[-156.739054,21.173505],[-156.735726,21.159542],[-156.709106,21.158655],[-156.712434,21.144025],[-156.722892,21.12895],[-156.774944,21.082164],[-156.836006,21.053916],[-156.849083,21.05101],[-156.851239,21.057102],[-156.857751,21.055731],[-156.874496,21.045478],[-156.892595,21.049338],[-156.89517,21.055771],[-156.980955,21.070442],[-156.992298,21.078185],[-157.00052,21.076755],[-157.029426,21.087793],[-157.034027,21.094282],[-157.066866,21.100502],[-157.095583,21.103584],[-157.149064,21.091538],[-157.249701,21.084802],[-157.304092,21.09517],[-157.310748,21.101627],[-157.306472,21.108191]]]]}},{"type":"Feature","properties":{"GEOID":"15007","NAME":"Kauai","state":"HI","wildfire_risk_score":93.066,"wildfire_eal_total":2616950.56,"risk_band":"Moderate","source":"FEMA National Risk Index v1.20 (December 2025)"},"geometry":{"type":"MultiPolygon","coordinates":[[[[-159.787943,22.030102],[-159.783746,22.064897],[-159.745247,22.097508],[-159.730544,22.139953],[-159.722073,22.150323],[-159.698523,22.162832],[-159.658368,22.173134],[-159.581058,22.223488],[-159.566118,22.220588],[-159.559005,22.226652],[-159.549022,22.224892],[-159.53904,22.21389],[-159.532457,22.217885],[-159.517807,22.214216],[-159.510756,22.203548],[-159.498397,22.208169],[-159.500924,22.219173],[-159.487939,22.229512],[-159.46509,22.223241],[-159.454296,22.226351],[-159.434936,22.223428],[-159.428994,22.217631],[-159.424241,22.224452],[-159.406741,22.22568],[-159.402466,22.232603],[-159.389728,22.222787],[-159.38292,22.224771],[-159.382171,22.216971],[-159.349768,22.215005],[-159.339964,22.208519],[-159.331575,22.200016],[-159.331783,22.192985],[-159.328456,22.194966],[-159.312293,22.183082],[-159.312604,22.1729],[-159.302786,22.15997],[-159.306351,22.150285],[-159.296369,22.149624],[-159.293279,22.144341],[-159.296633,22.105107],[-159.316634,22.075422],[-159.321596,22.055823],[-159.335457,22.04601],[-159.338591,22.023442],[-159.332564,21.999352],[-159.335111,21.992357],[-159.329406,21.991696],[-159.33383,21.984781],[-159.329882,21.960177],[-159.33578,21.955115],[-159.351895,21.960141],[-159.352323,21.95485],[-159.358598,21.95366],[-159.357457,21.947708],[-159.347617,21.947575],[-159.350184,21.941425],[-159.346757,21.936368],[-159.354125,21.936589],[-159.355088,21.931613],[-159.379884,21.921174],[-159.388593,21.912449],[-159.38724,21.903307],[-159.396883,21.902963],[-159.418825,21.882339],[-159.444868,21.868627],[-159.488266,21.885687],[-159.551802,21.887293],[-159.574521,21.892806],[-159.594419,21.904176],[-159.597408,21.894706],[-159.603279,21.892248],[-159.608138,21.899797],[-159.633738,21.913171],[-159.64995,21.939195],[-159.660793,21.942747],[-159.668715,21.953585],[-159.707795,21.961229],[-159.759405,21.97951],[-159.786702,22.018801],[-159.787943,22.030102]]],[[[-160.102013,22.018463],[-160.100167,22.029012],[-160.096946,22.021488],[-160.091107,22.026743],[-160.0878,22.023877],[-160.096088,22.014841],[-160.102013,22.018463]]],[[[-160.245183,21.847205],[-160.232953,21.862855],[-160.232715,21.876089],[-160.225347,21.889984],[-160.187002,21.924882],[-160.125522,21.953707],[-160.114588,21.974868],[-160.111736,21.993602],[-160.104944,21.998235],[-160.100803,21.995806],[-160.092009,22.005502],[-160.086352,21.997928],[-160.070142,22.003298],[-160.053029,21.99228],[-160.051128,21.979276],[-160.063012,21.976191],[-160.068627,21.967256],[-160.082977,21.927913],[-160.074843,21.894793],[-160.107239,21.878618],[-160.111374,21.881041],[-160.143951,21.872912],[-160.159034,21.865281],[-160.191834,21.814318],[-160.203537,21.77916],[-160.233428,21.792471],[-160.245183,21.847205]]],[[[-160.544956,21.653394],[-160.540149,21.660187],[-160.537815,21.659056],[-160.54087,21.653621],[-160.536971,21.649643],[-160.544956,21.653394]]]]}},{"type":"Feature","properties":{"GEOID":"15005","NAME":"Kalawao","state":"HI","wildfire_risk_score":19.37,"wildfire_eal_total":5787.97,"risk_band":"Low","source":"FEMA National Risk Index v1.20 (December 2025)"},"geometry":{"type":"Polygon","coordinates":[[[-157.014590828961,21.1835249334756],[-156.998212,21.179188],[-156.988997,21.182192],[-156.979693,21.202295],[-156.982343,21.207798],[-156.970613,21.215519],[-156.965529,21.213602],[-156.948212,21.188354],[-156.943908,21.172949],[-156.918093500971,21.1685744834174],[-156.920807,21.162826],[-156.9171,21.16371],[-156.906953,21.15162],[-156.896028,21.148993],[-156.900281,21.145424],[-156.900241,21.131625],[-156.919681,21.130069],[-156.942135,21.160173],[-156.951035,21.153463],[-156.956118,21.156695],[-156.960673,21.179364],[-156.964748,21.165668],[-156.959852,21.161526],[-156.964517,21.159346],[-156.979326,21.178103],[-157.00286,21.176122],[-157.014590828961,21.1835249334756]]]}}]}