{"type":"FeatureCollection","metadata":{"state":"IA","boundary_source":"U.S. Census Bureau 2024 Cartographic Boundary File (counties, 1:500,000)","risk_source":"FEMA National Risk Index v1.20 (December 2025)"},"features":[{"type":"Feature","properties":{"GEOID":"19159","NAME":"Ringgold","state":"IA","wildfire_risk_score":32.475,"wildfire_eal_total":23278.45,"risk_band":"Moderate","source":"FEMA National Risk Index v1.20 (December 2025)"},"geometry":{"type":"Polygon","coordinates":[[[-94.471666,40.812545],[-94.470779,40.899502],[-94.014803,40.897031],[-94.015492,40.573914],[-94.471213,40.570825],[-94.471666,40.812545]]]}},{"type":"Feature","properties":{"GEOID":"19163","NAME":"Scott","state":"IA","wildfire_risk_score":52.226,"wildfire_eal_total":63517.86,"risk_band":"High","source":"FEMA National Risk Index v1.20 (December 2025)"},"geometry":{"type":"Polygon","coordinates":[[[-90.899804,41.598597],[-90.898373,41.771392],[-90.786212,41.771369],[-90.761883,41.762815],[-90.743643,41.741527],[-90.731588,41.737408],[-90.726187,41.742314],[-90.713902,41.734578],[-90.711095,41.739728],[-90.702142,41.737728],[-90.691642,41.743128],[-90.694342,41.748928],[-90.686085,41.757137],[-90.676344,41.75565],[-90.676618,41.760635],[-90.667851,41.764475],[-90.657436,41.764084],[-90.651882,41.755484],[-90.630679,41.765354],[-90.615528,41.756558],[-90.611263,41.763966],[-90.600083,41.762988],[-90.59242,41.770639],[-90.579131,41.759129],[-90.564763,41.765831],[-90.549873,41.763474],[-90.548711,41.769236],[-90.542816,41.765919],[-90.537345,41.776435],[-90.512794,41.765339],[-90.506651,41.769475],[-90.483937,41.766785],[-90.473617,41.773465],[-90.467262,41.768871],[-90.465181,41.759039],[-90.449333,41.764827],[-90.435956,41.760323],[-90.424994,41.751702],[-90.427463,41.74446],[-90.423099,41.740572],[-90.428015,41.736617],[-90.412107,41.740958],[-90.406249,41.735675],[-90.40903,41.729616],[-90.396971,41.733705],[-90.389586,41.730569],[-90.389642,41.736948],[-90.357067,41.727989],[-90.354946,41.731988],[-90.347728,41.730049],[-90.339948,41.740523],[-90.3163577470743,41.7288847987591],[-90.313435,41.698082],[-90.334525,41.679559],[-90.343452,41.646959],[-90.339528,41.598633],[-90.343228,41.587833],[-90.41283,41.565333],[-90.461432,41.523533],[-90.500633,41.518033],[-90.540935,41.526133],[-90.591037,41.512832],[-90.602137,41.506032],[-90.605937,41.494232],[-90.655839,41.462132],[-90.737537,41.450127],[-90.786282,41.452888],[-90.783812,41.596531],[-90.899804,41.598597]]]}},{"type":"Feature","properties":{"GEOID":"19175","NAME":"Union","state":"IA","wildfire_risk_score":49.841,"wildfire_eal_total":36499.97,"risk_band":"High","source":"FEMA National Risk Index v1.20 (December 2025)"},"geometry":{"type":"Polygon","coordinates":[[[-94.471013,41.047049],[-94.470603,41.157566],[-94.014189,41.156762],[-94.014803,40.897031],[-94.470779,40.899502],[-94.471013,41.047049]]]}},{"type":"Feature","properties":{"GEOID":"19111","NAME":"Lee","state":"IA","wildfire_risk_score":48.728,"wildfire_eal_total":43359.73,"risk_band":"High","source":"FEMA National Risk Index v1.20 (December 2025)"},"geometry":{"type":"Polygon","coordinates":[[[-91.718787,40.813544],[-91.409453,40.812905],[-91.406371,40.808709],[-91.393531,40.808618],[-91.363872,40.790665],[-91.350746,40.793642],[-91.346832,40.786473],[-91.318847,40.779921],[-91.311674,40.772147],[-91.293391,40.772577],[-91.281828,40.753685],[-91.248273,40.750401],[-91.233449,40.737545],[-91.217118,40.732286],[-91.207499,40.722031],[-91.20955,40.713993],[-91.19682,40.719222],[-91.180038,40.708303],[-91.17609,40.721378],[-91.163493,40.722733],[-91.150636,40.706203],[-91.1124335845794,40.6962786908794],[-91.123928,40.669152],[-91.18698,40.637297],[-91.253074,40.637962],[-91.306524,40.626231],[-91.359873,40.601805],[-91.379752,40.57445],[-91.401482,40.559458],[-91.406851,40.547557],[-91.404125,40.539127],[-91.381857,40.528247],[-91.364211,40.500043],[-91.364915,40.484168],[-91.381468,40.44604],[-91.37245,40.411475],[-91.375746,40.391879],[-91.419422,40.378264],[-91.441243,40.386255],[-91.451627,40.376019],[-91.463895,40.375659],[-91.463386,40.385394],[-91.484507,40.3839],[-91.490977,40.393484],[-91.488481,40.404317],[-91.498093,40.401926],[-91.524612,40.410765],[-91.526555,40.419872],[-91.519134,40.432822],[-91.533623,40.43832],[-91.523271,40.450061],[-91.52509,40.457845],[-91.552691,40.458769],[-91.574746,40.465664],[-91.590817,40.492292],[-91.621353,40.510072],[-91.620071,40.540817],[-91.681714,40.553035],[-91.691591,40.562222],[-91.686357,40.580875],[-91.716769,40.59853],[-91.718787,40.813544]]]}},{"type":"Feature","properties":{"GEOID":"19063","NAME":"Emmet","state":"IA","wildfire_risk_score":23.823,"wildfire_eal_total":10227.94,"risk_band":"Moderate","source":"FEMA National Risk Index v1.20 (December 2025)"},"geometry":{"type":"Polygon","coordinates":[[[-94.914699,43.500224],[-94.44285213672,43.5003764490148],[-94.443137,43.255014],[-94.913723,43.255054],[-94.914699,43.500224]]]}},{"type":"Feature","properties":{"GEOID":"19189","NAME":"Winnebago","state":"IA","wildfire_risk_score":13.613,"wildfire_eal_total":4382.39,"risk_band":"Low","source":"FEMA National Risk Index v1.20 (December 2025)"},"geometry":{"type":"Polygon","coordinates":[[[-93.9707619925695,43.499881270459],[-93.4973524517344,43.4995921195252],[-93.497635,43.255468],[-93.970415,43.255358],[-93.9707619925695,43.499881270459]]]}},{"type":"Feature","properties":{"GEOID":"19055","NAME":"Delaware","state":"IA","wildfire_risk_score":12.436,"wildfire_eal_total":4457.2,"risk_band":"Low","source":"FEMA National Risk Index v1.20 (December 2025)"},"geometry":{"type":"Polygon","coordinates":[[[-91.609048,42.556445],[-91.607059,42.643973],[-91.132766,42.645844],[-91.130079,42.295761],[-91.596981,42.296408],[-91.597397,42.469242],[-91.608508,42.469275],[-91.609048,42.556445]]]}},{"type":"Feature","properties":{"GEOID":"19165","NAME":"Shelby","state":"IA","wildfire_risk_score":21.088,"wildfire_eal_total":12915.63,"risk_band":"Low","source":"FEMA National Risk Index v1.20 (December 2025)"},"geometry":{"type":"Polygon","coordinates":[[[-95.557948,41.616866],[-95.557277,41.863449],[-95.092861,41.863374],[-95.09252,41.602055],[-95.040748,41.602152],[-95.04077,41.50469],[-95.497997,41.506074],[-95.497793,41.602333],[-95.558143,41.602383],[-95.557948,41.616866]]]}},{"type":"Feature","properties":{"GEOID":"19149","NAME":"Plymouth","state":"IA","wildfire_risk_score":70.515,"wildfire_eal_total":199568.46,"risk_band":"High","source":"FEMA National Risk Index v1.20 (December 2025)"},"geometry":{"type":"Polygon","coordinates":[[[-96.6383589571896,42.735496024784],[-96.631295,42.737195],[-96.635148,42.74024],[-96.630485,42.750378],[-96.619494,42.754792],[-96.635139,42.763227],[-96.634934,42.770735],[-96.626418,42.772462],[-96.61949,42.784034],[-96.604559,42.783034],[-96.605229,42.791163],[-96.597036,42.791888],[-96.598727,42.797819],[-96.594512,42.798046],[-96.590997,42.806578],[-96.596008,42.815044],[-96.585699,42.818041],[-96.577937,42.827645],[-96.581604,42.837521],[-96.571353,42.837155],[-96.565605,42.830434],[-96.560572,42.839373],[-96.553987,42.836034],[-96.549513,42.839143],[-96.554709,42.846142],[-96.545502,42.849956],[-96.54146,42.857682],[-96.546556,42.857273],[-96.550439,42.863171],[-96.549659,42.870281],[-96.537851,42.878475],[-96.540116,42.889678],[-96.526357,42.891852],[-96.528886,42.89795],[-96.542847,42.903737],[-96.537353873885,42.9087912967329],[-95.859377,42.909097],[-95.859949,42.56062],[-96.4987762839975,42.5610432966577],[-96.485937,42.573524],[-96.496066,42.580872],[-96.492338,42.587814],[-96.501037,42.589247],[-96.509468,42.61273],[-96.517039,42.615955],[-96.527928,42.608986],[-96.531604,42.615148],[-96.518535,42.620165],[-96.516338,42.630435],[-96.537881,42.646446],[-96.541754,42.660378],[-96.559962,42.658543],[-96.556305,42.664836],[-96.566684,42.675942],[-96.576538,42.670771],[-96.571912,42.677681],[-96.578479,42.678137],[-96.575295,42.682823],[-96.585443,42.683089],[-96.590427,42.691076],[-96.598076,42.686637],[-96.595352,42.693997],[-96.600313,42.698024],[-96.611795,42.69513],[-96.605596,42.70202],[-96.614953,42.69904],[-96.623413,42.707009],[-96.630617,42.70588],[-96.62453,42.715617],[-96.624704,42.725497],[-96.63352,42.724188],[-96.630432,42.729919],[-96.6383589571896,42.735496024784]]]}},{"type":"Feature","properties":{"GEOID":"19107","NAME":"Keokuk","state":"IA","wildfire_risk_score":44.37,"wildfire_eal_total":38757.93,"risk_band":"Moderate","source":"FEMA National Risk Index v1.20 (December 2025)"},"geometry":{"type":"Polygon","coordinates":[[[-92.411995,41.509548],[-91.946043,41.510749],[-91.945571,41.163578],[-92.410233,41.161942],[-92.411995,41.509548]]]}},{"type":"Feature","properties":{"GEOID":"19017","NAME":"Bremer","state":"IA","wildfire_risk_score":22.869,"wildfire_eal_total":17233.17,"risk_band":"Moderate","source":"FEMA National Risk Index v1.20 (December 2025)"},"geometry":{"type":"Polygon","coordinates":[[[-92.554799,42.702689],[-92.554211,42.907112],[-92.081568,42.907013],[-92.081661,42.642056],[-92.554492,42.642314],[-92.554799,42.702689]]]}},{"type":"Feature","properties":{"GEOID":"19081","NAME":"Hancock","state":"IA","wildfire_risk_score":6.584,"wildfire_eal_total":2480.74,"risk_band":"Low","source":"FEMA National Risk Index v1.20 (December 2025)"},"geometry":{"type":"Polygon","coordinates":[[[-93.971291,42.979162],[-93.970415,43.255358],[-93.497635,43.255468],[-93.498617,42.908512],[-93.971238,42.907762],[-93.971291,42.979162]]]}},{"type":"Feature","properties":{"GEOID":"19195","NAME":"Worth","state":"IA","wildfire_risk_score":3.181,"wildfire_eal_total":1638.92,"risk_band":"Low","source":"FEMA National Risk Index v1.20 (December 2025)"},"geometry":{"type":"Polygon","coordinates":[[[-93.497604,43.40923],[-93.4973524517344,43.4995921195252],[-93.0243458560606,43.4996808088398],[-93.024143,43.255538],[-93.497635,43.255468],[-93.497604,43.40923]]]}},{"type":"Feature","properties":{"GEOID":"19125","NAME":"Marion","state":"IA","wildfire_risk_score":50.573,"wildfire_eal_total":63949.59,"risk_band":"High","source":"FEMA National Risk Index v1.20 (December 2025)"},"geometry":{"type":"Polygon","coordinates":[[[-93.328614,41.507824],[-92.871421,41.508522],[-92.869771,41.161066],[-93.327886,41.160659],[-93.328614,41.507824]]]}},{"type":"Feature","properties":{"GEOID":"19147","NAME":"Palo Alto","state":"IA","wildfire_risk_score":10.973,"wildfire_eal_total":5589.22,"risk_band":"Low","source":"FEMA National Risk Index v1.20 (December 2025)"},"geometry":{"type":"Polygon","coordinates":[[[-94.913823,42.953229],[-94.913723,43.255054],[-94.443137,43.255014],[-94.442954,42.908073],[-94.91389,42.9097],[-94.913823,42.953229]]]}},{"type":"Feature","properties":{"GEOID":"19161","NAME":"Sac","state":"IA","wildfire_risk_score":9.765,"wildfire_eal_total":4977.9,"risk_band":"Low","source":"FEMA National Risk Index v1.20 (December 2025)"},"geometry":{"type":"Polygon","coordinates":[[[-95.38801,42.561742],[-94.914485,42.560309],[-94.914487,42.47419],[-94.856689,42.473996],[-94.858412,42.209692],[-95.323497,42.210932],[-95.322357,42.474737],[-95.387445,42.474818],[-95.38801,42.561742]]]}},{"type":"Feature","properties":{"GEOID":"19101","NAME":"Jefferson","state":"IA","wildfire_risk_score":54.676,"wildfire_eal_total":51654.71,"risk_band":"High","source":"FEMA National Risk Index v1.20 (December 2025)"},"geometry":{"type":"Polygon","coordinates":[[[-92.179974,41.162662],[-91.716042,41.162808],[-91.71818,40.901087],[-92.179072,40.89972],[-92.179974,41.162662]]]}},{"type":"Feature","properties":{"GEOID":"19069","NAME":"Franklin","state":"IA","wildfire_risk_score":6.107,"wildfire_eal_total":2681.19,"risk_band":"Low","source":"FEMA National Risk Index v1.20 (December 2025)"},"geometry":{"type":"Polygon","coordinates":[[[-93.499539,42.608514],[-93.498617,42.908512],[-93.025144,42.907549],[-93.027,42.55681],[-93.499485,42.5577],[-93.499539,42.608514]]]}},{"type":"Feature","properties":{"GEOID":"19083","NAME":"Hardin","state":"IA","wildfire_risk_score":39.027,"wildfire_eal_total":24568.17,"risk_band":"Moderate","source":"FEMA National Risk Index v1.20 (December 2025)"},"geometry":{"type":"Polygon","coordinates":[[[-93.499485,42.5577],[-93.027,42.55681],[-93.027115,42.470776],[-93.002902,42.470638],[-93.001674,42.209267],[-93.463043,42.209302],[-93.462635,42.470802],[-93.499098,42.470975],[-93.499485,42.5577]]]}},{"type":"Feature","properties":{"GEOID":"19089","NAME":"Howard","state":"IA","wildfire_risk_score":9.256,"wildfire_eal_total":4441.49,"risk_band":"Low","source":"FEMA National Risk Index v1.20 (December 2025)"},"geometry":{"type":"Polygon","coordinates":[[[-92.554553,43.260298],[-92.5531282924689,43.5002070950874],[-92.0798019432322,43.5007335461596],[-92.080976,43.212947],[-92.554381,43.212813],[-92.554553,43.260298]]]}},{"type":"Feature","properties":{"GEOID":"19045","NAME":"Clinton","state":"IA","wildfire_risk_score":50.064,"wildfire_eal_total":49505.77,"risk_band":"High","source":"FEMA National Risk Index v1.20 (December 2025)"},"geometry":{"type":"Polygon","coordinates":[[[-90.898941,41.918528],[-90.898373,42.033548],[-90.154221,42.033073],[-90.140061,42.003252],[-90.146225,41.981329],[-90.164135,41.956178],[-90.163847,41.944934],[-90.1516,41.931002],[-90.153584,41.906614],[-90.181901,41.843216],[-90.181973,41.80707],[-90.278633,41.767358],[-90.310708,41.742214],[-90.3163577470743,41.7288847987591],[-90.339948,41.740523],[-90.347728,41.730049],[-90.354946,41.731988],[-90.357067,41.727989],[-90.389642,41.736948],[-90.389586,41.730569],[-90.396971,41.733705],[-90.40903,41.729616],[-90.406249,41.735675],[-90.412107,41.740958],[-90.428015,41.736617],[-90.423099,41.740572],[-90.427463,41.74446],[-90.424994,41.751702],[-90.435956,41.760323],[-90.449333,41.764827],[-90.465181,41.759039],[-90.467262,41.768871],[-90.473617,41.773465],[-90.483937,41.766785],[-90.506651,41.769475],[-90.512794,41.765339],[-90.537345,41.776435],[-90.542816,41.765919],[-90.548711,41.769236],[-90.549873,41.763474],[-90.564763,41.765831],[-90.579131,41.759129],[-90.59242,41.770639],[-90.600083,41.762988],[-90.611263,41.763966],[-90.615528,41.756558],[-90.630679,41.765354],[-90.651882,41.755484],[-90.657436,41.764084],[-90.667851,41.764475],[-90.676618,41.760635],[-90.676344,41.75565],[-90.686085,41.757137],[-90.694342,41.748928],[-90.691642,41.743128],[-90.702142,41.737728],[-90.711095,41.739728],[-90.713902,41.734578],[-90.726187,41.742314],[-90.731588,41.737408],[-90.743643,41.741527],[-90.761883,41.762815],[-90.786212,41.771369],[-90.898373,41.771392],[-90.898941,41.918528]]]}},{"type":"Feature","properties":{"GEOID":"19021","NAME":"Buena Vista","state":"IA","wildfire_risk_score":17.875,"wildfire_eal_total":6255.51,"risk_band":"Low","source":"FEMA National Risk Index v1.20 (December 2025)"},"geometry":{"type":"Polygon","coordinates":[[[-95.388182,42.909897],[-94.91389,42.9097],[-94.914485,42.560309],[-95.38801,42.561742],[-95.388182,42.909897]]]}},{"type":"Feature","properties":{"GEOID":"19143","NAME":"Osceola","state":"IA","wildfire_risk_score":12.882,"wildfire_eal_total":3963.31,"risk_band":"Low","source":"FEMA National Risk Index v1.20 (December 2025)"},"geometry":{"type":"Polygon","coordinates":[[[-95.861273,43.293797],[-95.8609469808684,43.5000526709953],[-95.3877870075922,43.5002313421032],[-95.388078,43.255221],[-95.861914,43.257566],[-95.861273,43.293797]]]}},{"type":"Feature","properties":{"GEOID":"19139","NAME":"Muscatine","state":"IA","wildfire_risk_score":60.91,"wildfire_eal_total":91566.19,"risk_band":"High","source":"FEMA National Risk Index v1.20 (December 2025)"},"geometry":{"type":"Polygon","coordinates":[[[-91.368693,41.401621],[-91.366448,41.598373],[-90.783812,41.596531],[-90.786282,41.452888],[-90.853604,41.453909],[-90.930016,41.421404],[-90.979815,41.434321],[-91.037131,41.420017],[-91.047819,41.4109],[-91.05158,41.385283],[-91.065058,41.369101],[-91.071940564762,41.3335923022153],[-91.369332,41.336063],[-91.368693,41.401621]]]}},{"type":"Feature","properties":{"GEOID":"19145","NAME":"Page","state":"IA","wildfire_risk_score":34.606,"wildfire_eal_total":18110.17,"risk_band":"Moderate","source":"FEMA National Risk Index v1.20 (December 2025)"},"geometry":{"type":"Polygon","coordinates":[[[-95.385342,40.742619],[-95.384964,40.90155],[-94.928459,40.900653],[-94.928529,40.727399],[-94.913124,40.727285],[-94.914896,40.575068],[-95.3739230201308,40.580501370976],[-95.370618,40.728241],[-95.385254,40.728378],[-95.385342,40.742619]]]}},{"type":"Feature","properties":{"GEOID":"19085","NAME":"Harrison","state":"IA","wildfire_risk_score":59.796,"wildfire_eal_total":79776.07,"risk_band":"High","source":"FEMA National Risk Index v1.20 (December 2025)"},"geometry":{"type":"Polygon","coordinates":[[[-96.1390095052264,41.8663010080218],[-95.557277,41.863449],[-95.558143,41.602383],[-95.497793,41.602333],[-95.497997,41.506074],[-95.9961745006599,41.5069592269492],[-95.99267,41.51729],[-95.999966,41.53948],[-96.013876,41.545315],[-96.026657,41.540366],[-96.036603,41.509047],[-96.05369,41.508859],[-96.089814,41.531639],[-96.096586,41.545397],[-96.081152,41.577289],[-96.085771,41.585746],[-96.109387,41.596871],[-96.117558,41.609999],[-96.116233,41.621574],[-96.100701,41.635507],[-96.095046,41.647365],[-96.097933,41.658682],[-96.114978,41.67122],[-96.121726,41.68274],[-96.120157,41.69115],[-96.111968,41.697773],[-96.082429,41.698159],[-96.073063,41.705004],[-96.079682,41.717962],[-96.10261,41.728016],[-96.106425,41.73789],[-96.102772,41.746339],[-96.079915,41.757895],[-96.077543,41.777824],[-96.064879,41.79623],[-96.075548,41.807811],[-96.107592,41.820685],[-96.110246,41.84885],[-96.1390095052264,41.8663010080218]]]}},{"type":"Feature","properties":{"GEOID":"19177","NAME":"Van Buren","state":"IA","wildfire_risk_score":52.163,"wildfire_eal_total":40946.73,"risk_band":"High","source":"FEMA National Risk Index v1.20 (December 2025)"},"geometry":{"type":"Polygon","coordinates":[[[-92.17978,40.608785],[-92.179072,40.89972],[-91.71818,40.901087],[-91.716769,40.59853],[-91.729115,40.61364],[-92.17978,40.600529],[-92.17978,40.608785]]]}},{"type":"Feature","properties":{"GEOID":"19119","NAME":"Lyon","state":"IA","wildfire_risk_score":28.372,"wildfire_eal_total":19685.73,"risk_band":"Moderate","source":"FEMA National Risk Index v1.20 (December 2025)"},"geometry":{"type":"Polygon","coordinates":[[[-96.600617,43.451234],[-96.600039,43.45708],[-96.582475,43.467051],[-96.586743,43.477389],[-96.580997,43.481384],[-96.587213,43.484915],[-96.586274,43.491099],[-96.598396,43.495074],[-96.598928,43.500457],[-95.8609469808684,43.5000526709953],[-95.861914,43.257566],[-96.564165,43.260239],[-96.58522,43.268878],[-96.586317,43.274319],[-96.577819,43.279938],[-96.579582,43.293446],[-96.587014,43.291807],[-96.588492,43.296339],[-96.573556,43.29917],[-96.553087,43.29286],[-96.530392,43.300034],[-96.525564,43.312467],[-96.534913,43.336473],[-96.524289,43.347214],[-96.527345,43.368109],[-96.521323,43.374607],[-96.521572,43.38564],[-96.525453,43.396317],[-96.537116,43.395063],[-96.573579,43.419228],[-96.570224,43.428601],[-96.594254,43.434153],[-96.600617,43.451234]]]}},{"type":"Feature","properties":{"GEOID":"19019","NAME":"Buchanan","state":"IA","wildfire_risk_score":7.188,"wildfire_eal_total":3580.91,"risk_band":"Low","source":"FEMA National Risk Index v1.20 (December 2025)"},"geometry":{"type":"Polygon","coordinates":[[[-92.08238,42.554918],[-92.081661,42.642056],[-91.607059,42.643973],[-91.608508,42.469275],[-91.597397,42.469242],[-91.596981,42.296408],[-92.064766,42.297259],[-92.064187,42.468221],[-92.081446,42.468192],[-92.08238,42.554918]]]}},{"type":"Feature","properties":{"GEOID":"19073","NAME":"Greene","state":"IA","wildfire_risk_score":10.305,"wildfire_eal_total":3862.73,"risk_band":"Low","source":"FEMA National Risk Index v1.20 (December 2025)"},"geometry":{"type":"Polygon","coordinates":[[[-94.629345,41.950505],[-94.628586,42.209569],[-94.164704,42.20992],[-94.164428,41.863243],[-94.628724,41.862763],[-94.629345,41.950505]]]}},{"type":"Feature","properties":{"GEOID":"19077","NAME":"Guthrie","state":"IA","wildfire_risk_score":39.09,"wildfire_eal_total":38518.39,"risk_band":"Moderate","source":"FEMA National Risk Index v1.20 (December 2025)"},"geometry":{"type":"Polygon","coordinates":[[[-94.744876,41.862394],[-94.28034,41.862999],[-94.280057,41.601312],[-94.241356,41.600971],[-94.241593,41.503679],[-94.700629,41.504148],[-94.700745,41.602184],[-94.744204,41.602185],[-94.744876,41.862394]]]}},{"type":"Feature","properties":{"GEOID":"19029","NAME":"Cass","state":"IA","wildfire_risk_score":40.553,"wildfire_eal_total":21072.95,"risk_band":"Moderate","source":"FEMA National Risk Index v1.20 (December 2025)"},"geometry":{"type":"Polygon","coordinates":[[[-95.155325,41.217341],[-95.154722,41.505211],[-94.700629,41.504148],[-94.700589,41.158085],[-95.155851,41.159236],[-95.155325,41.217341]]]}},{"type":"Feature","properties":{"GEOID":"19047","NAME":"Crawford","state":"IA","wildfire_risk_score":46.215,"wildfire_eal_total":39886.25,"risk_band":"High","source":"FEMA National Risk Index v1.20 (December 2025)"},"geometry":{"type":"Polygon","coordinates":[[[-95.672596,41.867295],[-95.670822,42.211408],[-95.090851,42.210405],[-95.092861,41.863374],[-95.672771,41.863147],[-95.672596,41.867295]]]}},{"type":"Feature","properties":{"GEOID":"19117","NAME":"Lucas","state":"IA","wildfire_risk_score":54.58,"wildfire_eal_total":49918.89,"risk_band":"High","source":"FEMA National Risk Index v1.20 (December 2025)"},"geometry":{"type":"Polygon","coordinates":[[[-93.557556,41.161271],[-93.099217,41.160867],[-93.097595,40.898451],[-93.55654,40.898295],[-93.557556,41.161271]]]}},{"type":"Feature","properties":{"GEOID":"19091","NAME":"Humboldt","state":"IA","wildfire_risk_score":5.057,"wildfire_eal_total":1899.3,"risk_band":"Low","source":"FEMA National Risk Index v1.20 (December 2025)"},"geometry":{"type":"Polygon","coordinates":[[[-94.443147,42.736331],[-94.442954,42.908073],[-93.971238,42.907762],[-93.971714,42.644707],[-94.443083,42.645164],[-94.443147,42.736331]]]}},{"type":"Feature","properties":{"GEOID":"19099","NAME":"Jasper","state":"IA","wildfire_risk_score":53.085,"wildfire_eal_total":64425.42,"risk_band":"High","source":"FEMA National Risk Index v1.20 (December 2025)"},"geometry":{"type":"Polygon","coordinates":[[[-93.348589,41.619177],[-93.347933,41.863104],[-92.765999,41.862373],[-92.766759,41.601355],[-92.757068,41.601411],[-92.756508,41.508794],[-93.328614,41.507824],[-93.328681,41.601148],[-93.348681,41.600999],[-93.348589,41.619177]]]}},{"type":"Feature","properties":{"GEOID":"19009","NAME":"Audubon","state":"IA","wildfire_risk_score":33.365,"wildfire_eal_total":16874.58,"risk_band":"Moderate","source":"FEMA National Risk Index v1.20 (December 2025)"},"geometry":{"type":"Polygon","coordinates":[[[-95.093304,41.776945],[-95.092861,41.863374],[-94.744876,41.862394],[-94.744204,41.602185],[-94.700745,41.602184],[-94.700629,41.504148],[-95.04077,41.50469],[-95.040748,41.602152],[-95.09252,41.602055],[-95.093304,41.776945]]]}},{"type":"Feature","properties":{"GEOID":"19003","NAME":"Adams","state":"IA","wildfire_risk_score":31.679,"wildfire_eal_total":17265.47,"risk_band":"Moderate","source":"FEMA National Risk Index v1.20 (December 2025)"},"geometry":{"type":"Polygon","coordinates":[[[-94.928604,40.90177],[-94.927587,41.158508],[-94.470603,41.157566],[-94.470779,40.899502],[-94.928604,40.90177]]]}},{"type":"Feature","properties":{"GEOID":"19093","NAME":"Ida","state":"IA","wildfire_risk_score":20.165,"wildfire_eal_total":8035.76,"risk_band":"Low","source":"FEMA National Risk Index v1.20 (December 2025)"},"geometry":{"type":"Polygon","coordinates":[[[-95.741356,42.523562],[-95.741611,42.561285],[-95.38801,42.561742],[-95.387445,42.474818],[-95.322357,42.474737],[-95.323497,42.210932],[-95.670822,42.211408],[-95.669265,42.474645],[-95.741821,42.474865],[-95.741356,42.523562]]]}},{"type":"Feature","properties":{"GEOID":"19031","NAME":"Cedar","state":"IA","wildfire_risk_score":31.775,"wildfire_eal_total":26047.63,"risk_band":"Moderate","source":"FEMA National Risk Index v1.20 (December 2025)"},"geometry":{"type":"Polygon","coordinates":[[[-91.366425,41.616781],[-91.365877,41.94741],[-90.898484,41.946245],[-90.899853,41.597133],[-91.366448,41.598373],[-91.366425,41.616781]]]}},{"type":"Feature","properties":{"GEOID":"19049","NAME":"Dallas","state":"IA","wildfire_risk_score":40.649,"wildfire_eal_total":50559.79,"risk_band":"Moderate","source":"FEMA National Risk Index v1.20 (December 2025)"},"geometry":{"type":"Polygon","coordinates":[[[-94.280696,41.790979],[-94.28034,41.862999],[-93.815721,41.863419],[-93.814282,41.600456],[-93.790632,41.600425],[-93.790612,41.511916],[-93.897118,41.503099],[-94.241593,41.503679],[-94.241356,41.600971],[-94.280057,41.601312],[-94.280696,41.790979]]]}},{"type":"Feature","properties":{"GEOID":"19001","NAME":"Adair","state":"IA","wildfire_risk_score":34.065,"wildfire_eal_total":16264.61,"risk_band":"Moderate","source":"FEMA National Risk Index v1.20 (December 2025)"},"geometry":{"type":"Polygon","coordinates":[[[-94.700572,41.482504],[-94.700629,41.504148],[-94.241593,41.503679],[-94.241637,41.157134],[-94.700589,41.158085],[-94.700572,41.482504]]]}},{"type":"Feature","properties":{"GEOID":"19037","NAME":"Chickasaw","state":"IA","wildfire_risk_score":19.561,"wildfire_eal_total":7730.66,"risk_band":"Low","source":"FEMA National Risk Index v1.20 (December 2025)"},"geometry":{"type":"Polygon","coordinates":[[[-92.554406,43.191065],[-92.554381,43.212813],[-92.080976,43.212947],[-92.081568,42.907013],[-92.554211,42.907112],[-92.554406,43.191065]]]}},{"type":"Feature","properties":{"GEOID":"19173","NAME":"Taylor","state":"IA","wildfire_risk_score":36.546,"wildfire_eal_total":17200.02,"risk_band":"Moderate","source":"FEMA National Risk Index v1.20 (December 2025)"},"geometry":{"type":"Polygon","coordinates":[[[-94.928664,40.813596],[-94.928459,40.900653],[-94.470779,40.899502],[-94.471213,40.570825],[-94.914896,40.575068],[-94.913124,40.727285],[-94.928529,40.727399],[-94.928664,40.813596]]]}},{"type":"Feature","properties":{"GEOID":"19109","NAME":"Kossuth","state":"IA","wildfire_risk_score":13.295,"wildfire_eal_total":6748.84,"risk_band":"Low","source":"FEMA National Risk Index v1.20 (December 2025)"},"geometry":{"type":"Polygon","coordinates":[[[-94.443137,43.255014],[-94.44285213672,43.5003764490148],[-93.9707619925695,43.499881270459],[-93.971238,42.907762],[-94.442954,42.908073],[-94.443137,43.255014]]]}},{"type":"Feature","properties":{"GEOID":"19133","NAME":"Monona","state":"IA","wildfire_risk_score":63.486,"wildfire_eal_total":111715.32,"risk_band":"High","source":"FEMA National Risk Index v1.20 (December 2025)"},"geometry":{"type":"Polygon","coordinates":[[[-96.35987,42.210545],[-96.35665510863,42.2151367517153],[-95.670822,42.211408],[-95.672771,41.863147],[-96.1390095052264,41.8663010080218],[-96.161988,41.905553],[-96.136743,41.920826],[-96.144583,41.941544],[-96.133318,41.955732],[-96.129505,41.971673],[-96.156538,41.980137],[-96.186265,41.977417],[-96.192141,41.984461],[-96.183568,41.999987],[-96.194556,42.008662],[-96.215225,42.006701],[-96.225463,41.994734],[-96.240713,41.999351],[-96.238859,42.012315],[-96.223611,42.022652],[-96.221901,42.029558],[-96.238392,42.041088],[-96.263886,42.039858],[-96.275548,42.051976],[-96.279079,42.074026],[-96.267636,42.096177],[-96.2689,42.11359],[-96.279203,42.12348],[-96.305884,42.129826],[-96.319528,42.146647],[-96.342395,42.160491],[-96.349688,42.172043],[-96.348066,42.194747],[-96.35987,42.210545]]]}},{"type":"Feature","properties":{"GEOID":"19051","NAME":"Davis","state":"IA","wildfire_risk_score":68.639,"wildfire_eal_total":110152.94,"risk_band":"High","source":"FEMA National Risk Index v1.20 (December 2025)"},"geometry":{"type":"Polygon","coordinates":[[[-92.639091,40.898886],[-92.179072,40.89972],[-92.17978,40.600529],[-92.637898,40.590853],[-92.639091,40.898886]]]}},{"type":"Feature","properties":{"GEOID":"19065","NAME":"Fayette","state":"IA","wildfire_risk_score":14.472,"wildfire_eal_total":4381.06,"risk_band":"Low","source":"FEMA National Risk Index v1.20 (December 2025)"},"geometry":{"type":"Polygon","coordinates":[[[-92.081812,42.84024],[-92.081146,43.082794],[-91.605307,43.081653],[-91.607059,42.643973],[-92.081661,42.642056],[-92.081812,42.84024]]]}},{"type":"Feature","properties":{"GEOID":"19015","NAME":"Boone","state":"IA","wildfire_risk_score":15.935,"wildfire_eal_total":9743.34,"risk_band":"Low","source":"FEMA National Risk Index v1.20 (December 2025)"},"geometry":{"type":"Polygon","coordinates":[[[-94.164911,42.151607],[-94.164704,42.20992],[-93.69839,42.209339],[-93.698032,41.86337],[-94.164428,41.863243],[-94.164911,42.151607]]]}},{"type":"Feature","properties":{"GEOID":"19183","NAME":"Washington","state":"IA","wildfire_risk_score":54.898,"wildfire_eal_total":61740.63,"risk_band":"High","source":"FEMA National Risk Index v1.20 (December 2025)"},"geometry":{"type":"Polygon","coordinates":[[[-91.946815,41.352078],[-91.946043,41.510749],[-91.519828,41.51101],[-91.528094,41.508609],[-91.518988,41.502584],[-91.518579,41.497273],[-91.508094,41.502831],[-91.510674,41.494689],[-91.503745,41.493362],[-91.501374,41.487733],[-91.502103,41.47745],[-91.51338,41.475955],[-91.515868,41.467915],[-91.498773,41.459213],[-91.50282,41.449359],[-91.490711,41.440427],[-91.483862,41.427292],[-91.485717,41.162405],[-91.945571,41.163578],[-91.946815,41.352078]]]}},{"type":"Feature","properties":{"GEOID":"19113","NAME":"Linn","state":"IA","wildfire_risk_score":47.01,"wildfire_eal_total":49484.26,"risk_band":"High","source":"FEMA National Risk Index v1.20 (December 2025)"},"geometry":{"type":"Polygon","coordinates":[[[-91.834758,42.082489],[-91.831089,42.299063],[-91.363263,42.296445],[-91.366221,41.860069],[-91.831379,41.861851],[-91.834758,42.082489]]]}},{"type":"Feature","properties":{"GEOID":"19039","NAME":"Clarke","state":"IA","wildfire_risk_score":42.017,"wildfire_eal_total":42541.94,"risk_band":"Moderate","source":"FEMA National Risk Index v1.20 (December 2025)"},"geometry":{"type":"Polygon","coordinates":[[[-94.014887,40.997986],[-94.014189,41.156762],[-93.789196,41.162035],[-93.557556,41.161271],[-93.55654,40.898295],[-94.014803,40.897031],[-94.014887,40.997986]]]}},{"type":"Feature","properties":{"GEOID":"19097","NAME":"Jackson","state":"IA","wildfire_risk_score":35.719,"wildfire_eal_total":24673.28,"risk_band":"Moderate","source":"FEMA National Risk Index v1.20 (December 2025)"},"geometry":{"type":"Polygon","coordinates":[[[-90.898412,42.171243],[-90.89802,42.295236],[-90.665551,42.294699],[-90.665029,42.382155],[-90.473812167653,42.3814582098911],[-90.416535,42.325109],[-90.430884,42.27823],[-90.419326,42.254467],[-90.391108,42.225473],[-90.356964,42.205445],[-90.328273,42.201047],[-90.282173,42.178846],[-90.234919,42.165431],[-90.209479,42.15268],[-90.197342,42.128163],[-90.167533,42.122475],[-90.161159,42.106372],[-90.168358,42.075779],[-90.164485,42.042105],[-90.154221,42.033073],[-90.898373,42.033548],[-90.898412,42.171243]]]}},{"type":"Feature","properties":{"GEOID":"19059","NAME":"Dickinson","state":"IA","wildfire_risk_score":54.23,"wildfire_eal_total":75950.34,"risk_band":"High","source":"FEMA National Risk Index v1.20 (December 2025)"},"geometry":{"type":"Polygon","coordinates":[[[-95.387994,43.298669],[-95.3877870075922,43.5002313421032],[-94.914574,43.500872],[-94.913723,43.255054],[-95.388078,43.255221],[-95.387994,43.298669]]]}},{"type":"Feature","properties":{"GEOID":"19095","NAME":"Iowa","state":"IA","wildfire_risk_score":61.132,"wildfire_eal_total":109195.17,"risk_band":"High","source":"FEMA National Risk Index v1.20 (December 2025)"},"geometry":{"type":"Polygon","coordinates":[[[-92.299949,41.695103],[-92.298164,41.862779],[-91.831379,41.861851],[-91.834185,41.686702],[-91.833078,41.600414],[-91.82706,41.600452],[-91.829231,41.511457],[-92.297494,41.50979],[-92.299949,41.695103]]]}},{"type":"Feature","properties":{"GEOID":"19135","NAME":"Monroe","state":"IA","wildfire_risk_score":40.013,"wildfire_eal_total":36947.58,"risk_band":"Moderate","source":"FEMA National Risk Index v1.20 (December 2025)"},"geometry":{"type":"Polygon","coordinates":[[[-93.099217,41.160867],[-92.640376,41.161402],[-92.639091,40.898886],[-93.097595,40.898451],[-93.099217,41.160867]]]}},{"type":"Feature","properties":{"GEOID":"19197","NAME":"Wright","state":"IA","wildfire_risk_score":7.284,"wildfire_eal_total":2260.15,"risk_band":"Low","source":"FEMA National Risk Index v1.20 (December 2025)"},"geometry":{"type":"Polygon","coordinates":[[[-93.971753,42.69904],[-93.971238,42.907762],[-93.498617,42.908512],[-93.499485,42.5577],[-93.971583,42.558139],[-93.971753,42.69904]]]}},{"type":"Feature","properties":{"GEOID":"19167","NAME":"Sioux","state":"IA","wildfire_risk_score":39.663,"wildfire_eal_total":44286.7,"risk_band":"Moderate","source":"FEMA National Risk Index v1.20 (December 2025)"},"geometry":{"type":"Polygon","coordinates":[[[-96.571194,43.238961],[-96.552963,43.247281],[-96.554965,43.259999],[-95.861914,43.257566],[-95.859377,42.909097],[-96.537353873885,42.9087912967329],[-96.541098,42.924496],[-96.525536,42.935511],[-96.516888,42.932512],[-96.519994,42.93976],[-96.509472,42.945151],[-96.500308,42.959391],[-96.505028,42.970844],[-96.515922,42.972886],[-96.520773,42.980385],[-96.512237,42.985937],[-96.509986,42.995126],[-96.496699,42.998807],[-96.49167,43.009707],[-96.510995,43.024701],[-96.509145,43.037297],[-96.518431,43.042068],[-96.510256,43.049917],[-96.490365,43.050789],[-96.476905,43.062383],[-96.46085,43.064033],[-96.454088,43.084197],[-96.462855,43.091419],[-96.436589,43.120842],[-96.450361,43.142237],[-96.459978,43.143516],[-96.466537,43.150281],[-96.464896,43.182034],[-96.473834,43.189804],[-96.470626,43.207225],[-96.475571,43.221054],[-96.496454,43.223652],[-96.519273,43.21769],[-96.535741,43.22764],[-96.56044,43.224219],[-96.571194,43.238961]]]}},{"type":"Feature","properties":{"GEOID":"19103","NAME":"Johnson","state":"IA","wildfire_risk_score":64.377,"wildfire_eal_total":163721.41,"risk_band":"High","source":"FEMA National Risk Index v1.20 (December 2025)"},"geometry":{"type":"Polygon","coordinates":[[[-91.83415,41.687388],[-91.831379,41.861851],[-91.366079,41.860068],[-91.368521,41.423178],[-91.483995,41.423848],[-91.490711,41.440427],[-91.50282,41.449359],[-91.498773,41.459213],[-91.515868,41.467915],[-91.51338,41.475955],[-91.502103,41.47745],[-91.501374,41.487733],[-91.503745,41.493362],[-91.510674,41.494689],[-91.508094,41.502831],[-91.518579,41.497273],[-91.518988,41.502584],[-91.528094,41.508609],[-91.519828,41.51101],[-91.829231,41.511457],[-91.82706,41.600452],[-91.833078,41.600414],[-91.83415,41.687388]]]}},{"type":"Feature","properties":{"GEOID":"19185","NAME":"Wayne","state":"IA","wildfire_risk_score":43.162,"wildfire_eal_total":24175.12,"risk_band":"Moderate","source":"FEMA National Risk Index v1.20 (December 2025)"},"geometry":{"type":"Polygon","coordinates":[[[-93.556952,40.812361],[-93.55654,40.898295],[-93.097595,40.898451],[-93.097296,40.584014],[-93.556899,40.580235],[-93.556952,40.812361]]]}},{"type":"Feature","properties":{"GEOID":"19033","NAME":"Cerro Gordo","state":"IA","wildfire_risk_score":26.654,"wildfire_eal_total":11414.68,"risk_band":"Moderate","source":"FEMA National Risk Index v1.20 (December 2025)"},"geometry":{"type":"Polygon","coordinates":[[[-93.498129,42.96633],[-93.497635,43.255468],[-93.024143,43.255538],[-93.025144,42.907549],[-93.498617,42.908512],[-93.498129,42.96633]]]}},{"type":"Feature","properties":{"GEOID":"19053","NAME":"Decatur","state":"IA","wildfire_risk_score":52.099,"wildfire_eal_total":50674.5,"risk_band":"High","source":"FEMA National Risk Index v1.20 (December 2025)"},"geometry":{"type":"Polygon","coordinates":[[[-94.015406,40.623833],[-94.014803,40.897031],[-93.55654,40.898295],[-93.556899,40.580235],[-94.015492,40.573914],[-94.015406,40.623833]]]}},{"type":"Feature","properties":{"GEOID":"19057","NAME":"Des Moines","state":"IA","wildfire_risk_score":42.939,"wildfire_eal_total":32452.6,"risk_band":"Moderate","source":"FEMA National Risk Index v1.20 (December 2025)"},"geometry":{"type":"Polygon","coordinates":[[[-91.409453,40.812905],[-91.372095,40.812631],[-91.37071,41.074112],[-90.949383,41.072711],[-90.942253,41.034702],[-90.945949,41.006495],[-90.958142,40.979767],[-90.952233,40.954047],[-90.962916,40.924957],[-91.009536,40.900565],[-91.021562,40.884021],[-91.044653,40.868356],[-91.05643,40.848387],[-91.092993,40.821079],[-91.097649,40.805575],[-91.091703,40.779708],[-91.1082,40.750935],[-91.115735,40.725168],[-91.1124335845794,40.6962786908794],[-91.150636,40.706203],[-91.163493,40.722733],[-91.17609,40.721378],[-91.180038,40.708303],[-91.19682,40.719222],[-91.20955,40.713993],[-91.207499,40.722031],[-91.217118,40.732286],[-91.233449,40.737545],[-91.248273,40.750401],[-91.281828,40.753685],[-91.293391,40.772577],[-91.311674,40.772147],[-91.318847,40.779921],[-91.346832,40.786473],[-91.350746,40.793642],[-91.363872,40.790665],[-91.393531,40.808618],[-91.406371,40.808709],[-91.409453,40.812905]]]}},{"type":"Feature","properties":{"GEOID":"19131","NAME":"Mitchell","state":"IA","wildfire_risk_score":11.737,"wildfire_eal_total":4769.07,"risk_band":"Low","source":"FEMA National Risk Index v1.20 (December 2025)"},"geometry":{"type":"Polygon","coordinates":[[[-93.0243458560606,43.4996808088398],[-92.5531282924689,43.5002070950874],[-92.554381,43.212813],[-93.024092,43.212812],[-93.0243458560606,43.4996808088398]]]}},{"type":"Feature","properties":{"GEOID":"19129","NAME":"Mills","state":"IA","wildfire_risk_score":52.385,"wildfire_eal_total":82661.37,"risk_band":"High","source":"FEMA National Risk Index v1.20 (December 2025)"},"geometry":{"type":"Polygon","coordinates":[[[-95.883489,41.154898],[-95.8809355605553,41.1602689700412],[-95.384349,41.160011],[-95.384964,40.90155],[-95.8134577460103,40.901693097976],[-95.833041,40.917243],[-95.839743,40.93278],[-95.837951,40.950618],[-95.829829,40.963857],[-95.830297,40.978332],[-95.863492,40.99734],[-95.869198,41.005951],[-95.859654,41.035695],[-95.882415,41.060411],[-95.862587,41.088399],[-95.865888,41.117898],[-95.882088,41.143998],[-95.883489,41.154898]]]}},{"type":"Feature","properties":{"GEOID":"19025","NAME":"Calhoun","state":"IA","wildfire_risk_score":8.492,"wildfire_eal_total":2553.93,"risk_band":"Low","source":"FEMA National Risk Index v1.20 (December 2025)"},"geometry":{"type":"Polygon","coordinates":[[[-94.91467,42.557057],[-94.914485,42.560309],[-94.443024,42.558843],[-94.443033,42.473378],[-94.397671,42.4733],[-94.397526,42.209161],[-94.858412,42.209692],[-94.856689,42.473996],[-94.914487,42.47419],[-94.91467,42.557057]]]}},{"type":"Feature","properties":{"GEOID":"19011","NAME":"Benton","state":"IA","wildfire_risk_score":36.387,"wildfire_eal_total":34590.19,"risk_band":"Moderate","source":"FEMA National Risk Index v1.20 (December 2025)"},"geometry":{"type":"Polygon","coordinates":[[[-92.299219,42.170457],[-92.298792,42.297527],[-91.831089,42.299063],[-91.835262,42.036954],[-91.831379,41.861851],[-92.298164,41.862779],[-92.299219,42.170457]]]}},{"type":"Feature","properties":{"GEOID":"19191","NAME":"Winneshiek","state":"IA","wildfire_risk_score":22.455,"wildfire_eal_total":12080.02,"risk_band":"Low","source":"FEMA National Risk Index v1.20 (December 2025)"},"geometry":{"type":"Polygon","coordinates":[[[-92.081177,43.169229],[-92.0798019432322,43.5007335461596],[-91.6108350298755,43.5006459790236],[-91.611046,43.342081],[-91.603992,43.342047],[-91.605307,43.081653],[-92.081146,43.082794],[-92.081177,43.169229]]]}},{"type":"Feature","properties":{"GEOID":"19193","NAME":"Woodbury","state":"IA","wildfire_risk_score":87.373,"wildfire_eal_total":931846.94,"risk_band":"High","source":"FEMA National Risk Index v1.20 (December 2025)"},"geometry":{"type":"Polygon","coordinates":[[[-96.4987762839975,42.5610432966577],[-95.741611,42.561285],[-95.741821,42.474865],[-95.669265,42.474645],[-95.670822,42.211408],[-96.35656,42.215002],[-96.336323,42.218922],[-96.323723,42.229887],[-96.330004,42.240224],[-96.328905,42.254734],[-96.336003,42.264806],[-96.365792,42.285875],[-96.369212,42.308344],[-96.375307,42.318339],[-96.407998,42.337408],[-96.418168,42.354678],[-96.408436,42.376092],[-96.41498,42.393442],[-96.413609,42.407894],[-96.387608,42.432494],[-96.380707,42.446394],[-96.385407,42.473094],[-96.396107,42.484095],[-96.409408,42.487595],[-96.45575,42.492564],[-96.475413,42.489621],[-96.477901,42.494346],[-96.473339,42.503537],[-96.49297,42.517282],[-96.479909,42.524195],[-96.476952,42.556079],[-96.49554,42.55644],[-96.4987762839975,42.5610432966577]]]}},{"type":"Feature","properties":{"GEOID":"19157","NAME":"Poweshiek","state":"IA","wildfire_risk_score":46.056,"wildfire_eal_total":43031.36,"risk_band":"High","source":"FEMA National Risk Index v1.20 (December 2025)"},"geometry":{"type":"Polygon","coordinates":[[[-92.766529,41.623321],[-92.765999,41.862373],[-92.298164,41.862779],[-92.297494,41.50979],[-92.756508,41.508794],[-92.757068,41.601411],[-92.766759,41.601355],[-92.766529,41.623321]]]}},{"type":"Feature","properties":{"GEOID":"19151","NAME":"Pocahontas","state":"IA","wildfire_risk_score":4.23,"wildfire_eal_total":1447.01,"risk_band":"Low","source":"FEMA National Risk Index v1.20 (December 2025)"},"geometry":{"type":"Polygon","coordinates":[[[-94.915362,42.665287],[-94.91389,42.9097],[-94.442954,42.908073],[-94.443024,42.558843],[-94.914485,42.560309],[-94.915362,42.665287]]]}},{"type":"Feature","properties":{"GEOID":"19169","NAME":"Story","state":"IA","wildfire_risk_score":30.344,"wildfire_eal_total":18775.23,"risk_band":"Moderate","source":"FEMA National Risk Index v1.20 (December 2025)"},"geometry":{"type":"Polygon","coordinates":[[[-93.698759,42.039384],[-93.69839,42.209339],[-93.232012,42.209009],[-93.231858,41.862711],[-93.698032,41.86337],[-93.698759,42.039384]]]}},{"type":"Feature","properties":{"GEOID":"19013","NAME":"Black Hawk","state":"IA","wildfire_risk_score":36.896,"wildfire_eal_total":24527.4,"risk_band":"Moderate","source":"FEMA National Risk Index v1.20 (December 2025)"},"geometry":{"type":"Polygon","coordinates":[[[-92.554493,42.631914],[-92.554492,42.642314],[-92.081661,42.642056],[-92.081446,42.468192],[-92.064187,42.468221],[-92.064766,42.297259],[-92.53351,42.297001],[-92.534015,42.469592],[-92.55433,42.469601],[-92.554493,42.631914]]]}},{"type":"Feature","properties":{"GEOID":"19123","NAME":"Mahaska","state":"IA","wildfire_risk_score":42.366,"wildfire_eal_total":34347.37,"risk_band":"Moderate","source":"FEMA National Risk Index v1.20 (December 2025)"},"geometry":{"type":"Polygon","coordinates":[[[-92.871421,41.508522],[-92.411995,41.509548],[-92.410233,41.161942],[-92.869771,41.161066],[-92.871421,41.508522]]]}},{"type":"Feature","properties":{"GEOID":"19181","NAME":"Warren","state":"IA","wildfire_risk_score":59.415,"wildfire_eal_total":132156.1,"risk_band":"High","source":"FEMA National Risk Index v1.20 (December 2025)"},"geometry":{"type":"Polygon","coordinates":[[[-93.790646,41.465017],[-93.790612,41.511916],[-93.548242,41.511309],[-93.441286,41.507589],[-93.436704,41.502284],[-93.413841,41.507415],[-93.422577,41.494991],[-93.414265,41.49236],[-93.400135,41.502009],[-93.396627,41.496304],[-93.40467,41.486741],[-93.397169,41.486365],[-93.383813,41.494799],[-93.374811,41.493286],[-93.372034,41.486072],[-93.36349,41.486578],[-93.356036,41.498158],[-93.343814,41.481838],[-93.328407,41.490794],[-93.327886,41.160659],[-93.789196,41.162035],[-93.790646,41.465017]]]}},{"type":"Feature","properties":{"GEOID":"19087","NAME":"Henry","state":"IA","wildfire_risk_score":47.933,"wildfire_eal_total":40584.44,"risk_band":"High","source":"FEMA National Risk Index v1.20 (December 2025)"},"geometry":{"type":"Polygon","coordinates":[[[-91.718714,40.831755],[-91.716042,41.162808],[-91.370298,41.161247],[-91.372095,40.812631],[-91.718787,40.813544],[-91.718714,40.831755]]]}},{"type":"Feature","properties":{"GEOID":"19027","NAME":"Carroll","state":"IA","wildfire_risk_score":28.531,"wildfire_eal_total":14852.53,"risk_band":"Moderate","source":"FEMA National Risk Index v1.20 (December 2025)"},"geometry":{"type":"Polygon","coordinates":[[[-95.093084,41.882501],[-95.090851,42.210405],[-94.628806,42.209396],[-94.628724,41.862763],[-95.092861,41.863374],[-95.093084,41.882501]]]}},{"type":"Feature","properties":{"GEOID":"19121","NAME":"Madison","state":"IA","wildfire_risk_score":59.924,"wildfire_eal_total":75457.38,"risk_band":"High","source":"FEMA National Risk Index v1.20 (December 2025)"},"geometry":{"type":"Polygon","coordinates":[[[-94.241718,41.422456],[-94.241593,41.503679],[-93.897118,41.503099],[-93.790612,41.511916],[-93.789196,41.162035],[-93.898813,41.15661],[-94.241637,41.157134],[-94.241718,41.422456]]]}},{"type":"Feature","properties":{"GEOID":"19035","NAME":"Cherokee","state":"IA","wildfire_risk_score":24.459,"wildfire_eal_total":9937.79,"risk_band":"Moderate","source":"FEMA National Risk Index v1.20 (December 2025)"},"geometry":{"type":"Polygon","coordinates":[[[-95.86081,42.720784],[-95.859377,42.909097],[-95.388182,42.909897],[-95.38801,42.561742],[-95.859949,42.56062],[-95.86081,42.720784]]]}},{"type":"Feature","properties":{"GEOID":"19071","NAME":"Fremont","state":"IA","wildfire_risk_score":36.832,"wildfire_eal_total":23804.88,"risk_band":"Moderate","source":"FEMA National Risk Index v1.20 (December 2025)"},"geometry":{"type":"Polygon","coordinates":[[[-95.888697,40.736292],[-95.879027,40.753081],[-95.84662,40.768619],[-95.835232,40.779151],[-95.834523,40.787778],[-95.845342,40.811324],[-95.837186,40.835347],[-95.84859,40.861061],[-95.842521,40.870266],[-95.81959,40.877439],[-95.812083,40.884239],[-95.809775,40.895447],[-95.8134577460103,40.901693097976],[-95.384964,40.90155],[-95.385254,40.728378],[-95.370618,40.728241],[-95.3739230201308,40.580501370976],[-95.765645,40.585208],[-95.753148,40.59284],[-95.748626,40.603355],[-95.768926,40.621264],[-95.776251,40.647463],[-95.795489,40.662384],[-95.822913,40.66724],[-95.842801,40.677496],[-95.852615,40.702262],[-95.883178,40.717579],[-95.888697,40.736292]]]}},{"type":"Feature","properties":{"GEOID":"19155","NAME":"Pottawattamie","state":"IA","wildfire_risk_score":67.207,"wildfire_eal_total":161484.5,"risk_band":"High","source":"FEMA National Risk Index v1.20 (December 2025)"},"geometry":{"type":"Polygon","coordinates":[[[-96.019817,41.48803],[-95.9961745006599,41.5069592269492],[-95.154722,41.505211],[-95.155851,41.159236],[-95.880521,41.159874],[-95.86964,41.16883],[-95.846188,41.166698],[-95.841288,41.174998],[-95.856788,41.187098],[-95.90969,41.184398],[-95.92319,41.190998],[-95.927491,41.202198],[-95.910891,41.233998],[-95.921891,41.264598],[-95.913991,41.271398],[-95.928691,41.281398],[-95.929591,41.292297],[-95.920291,41.301097],[-95.90589,41.300897],[-95.90429,41.293497],[-95.912491,41.279498],[-95.90249,41.273398],[-95.872889,41.289497],[-95.874689,41.307097],[-95.88869,41.319097],[-95.92569,41.322197],[-95.946891,41.334096],[-95.956691,41.345496],[-95.954891,41.351796],[-95.93549,41.360596],[-95.92879,41.370096],[-95.93749,41.393095],[-95.929721,41.411331],[-95.933169,41.42943],[-95.921833,41.442062],[-95.920281,41.451566],[-95.936801,41.46519],[-95.962329,41.46281],[-96.004708,41.472342],[-96.019817,41.48803]]]}},{"type":"Feature","properties":{"GEOID":"19043","NAME":"Clayton","state":"IA","wildfire_risk_score":12.341,"wildfire_eal_total":4536.88,"risk_band":"Low","source":"FEMA National Risk Index v1.20 (December 2025)"},"geometry":{"type":"Polygon","coordinates":[[[-91.608412,42.812905],[-91.605307,43.081653],[-91.177222,43.080247],[-91.179457,43.067427],[-91.174692,43.038713],[-91.156562,42.978226],[-91.14543,42.958211],[-91.14988,42.941955],[-91.1438,42.922877],[-91.14556,42.90798],[-91.117411,42.895837],[-91.100565,42.883078],[-91.097656,42.859871],[-91.091402,42.84986],[-91.09406,42.830813],[-91.078665,42.827678],[-91.069549,42.769628],[-91.060261,42.761847],[-91.065492,42.757081],[-91.06468,42.750914],[-91.056297,42.747341],[-91.053733,42.738238],[-91.035418,42.73734],[-91.026786,42.724228],[-90.995536,42.713704],[-90.977735,42.696816],[-90.941567,42.683844],[-90.921155,42.685406],[-90.8968978644181,42.6752621751195],[-90.897415,42.645714],[-91.607059,42.643973],[-91.608412,42.812905]]]}},{"type":"Feature","properties":{"GEOID":"19171","NAME":"Tama","state":"IA","wildfire_risk_score":65.49,"wildfire_eal_total":108549.94,"risk_band":"High","source":"FEMA National Risk Index v1.20 (December 2025)"},"geometry":{"type":"Polygon","coordinates":[[[-92.76809,42.29668],[-92.298792,42.297527],[-92.298164,41.862779],[-92.765999,41.862373],[-92.76809,42.29668]]]}},{"type":"Feature","properties":{"GEOID":"19023","NAME":"Butler","state":"IA","wildfire_risk_score":22.424,"wildfire_eal_total":14715.97,"risk_band":"Low","source":"FEMA National Risk Index v1.20 (December 2025)"},"geometry":{"type":"Polygon","coordinates":[[[-93.026927,42.562284],[-93.025144,42.907549],[-92.554211,42.907112],[-92.5543,42.555854],[-93.027,42.55681],[-93.026927,42.562284]]]}},{"type":"Feature","properties":{"GEOID":"19067","NAME":"Floyd","state":"IA","wildfire_risk_score":28.849,"wildfire_eal_total":12650.12,"risk_band":"Moderate","source":"FEMA National Risk Index v1.20 (December 2025)"},"geometry":{"type":"Polygon","coordinates":[[[-93.025079,42.918388],[-93.024092,43.212812],[-92.554381,43.212813],[-92.554211,42.907112],[-93.025144,42.907549],[-93.025079,42.918388]]]}},{"type":"Feature","properties":{"GEOID":"19105","NAME":"Jones","state":"IA","wildfire_risk_score":27.354,"wildfire_eal_total":18738.52,"risk_band":"Moderate","source":"FEMA National Risk Index v1.20 (December 2025)"},"geometry":{"type":"Polygon","coordinates":[[[-91.365877,41.94741],[-91.363263,42.296445],[-90.89802,42.295236],[-90.898484,41.946245],[-91.365877,41.94741]]]}},{"type":"Feature","properties":{"GEOID":"19005","NAME":"Allamakee","state":"IA","wildfire_risk_score":16.698,"wildfire_eal_total":5156.6,"risk_band":"Low","source":"FEMA National Risk Index v1.20 (December 2025)"},"geometry":{"type":"Polygon","coordinates":[[[-91.610912,43.421507],[-91.6108350298755,43.5006459790236],[-91.217706,43.50055],[-91.216035,43.481142],[-91.233367,43.455168],[-91.200359,43.412701],[-91.198953,43.389835],[-91.206072,43.374976],[-91.21499,43.368006],[-91.20662,43.352524],[-91.132813,43.32803],[-91.107237,43.313645],[-91.07371,43.274746],[-91.072649,43.262129],[-91.05975,43.259074],[-91.05791,43.253968],[-91.066398,43.239293],[-91.12217,43.197255],[-91.1462,43.152405],[-91.175253,43.134665],[-91.177222,43.080247],[-91.605307,43.081653],[-91.603992,43.342047],[-91.611046,43.342081],[-91.610912,43.421507]]]}},{"type":"Feature","properties":{"GEOID":"19075","NAME":"Grundy","state":"IA","wildfire_risk_score":8.047,"wildfire_eal_total":4387.4,"risk_band":"Low","source":"FEMA National Risk Index v1.20 (December 2025)"},"geometry":{"type":"Polygon","coordinates":[[[-93.026787,42.528792],[-93.027,42.55681],[-92.5543,42.555854],[-92.55433,42.469601],[-92.534015,42.469592],[-92.53351,42.297001],[-92.76809,42.29668],[-92.767463,42.21014],[-93.001674,42.209267],[-93.002902,42.470638],[-93.027115,42.470776],[-93.026787,42.528792]]]}},{"type":"Feature","properties":{"GEOID":"19141","NAME":"O'Brien","state":"IA","wildfire_risk_score":12.659,"wildfire_eal_total":7460.11,"risk_band":"Low","source":"FEMA National Risk Index v1.20 (December 2025)"},"geometry":{"type":"Polygon","coordinates":[[[-95.862272,43.214859],[-95.861914,43.257566],[-95.388078,43.255221],[-95.388182,42.909897],[-95.859377,42.909097],[-95.862272,43.214859]]]}},{"type":"Feature","properties":{"GEOID":"19007","NAME":"Appanoose","state":"IA","wildfire_risk_score":59.51,"wildfire_eal_total":64939.49,"risk_band":"High","source":"FEMA National Risk Index v1.20 (December 2025)"},"geometry":{"type":"Polygon","coordinates":[[[-93.097618,40.898088],[-92.639091,40.898886],[-92.637898,40.590853],[-93.097296,40.584014],[-93.097618,40.898088]]]}},{"type":"Feature","properties":{"GEOID":"19137","NAME":"Montgomery","state":"IA","wildfire_risk_score":34.955,"wildfire_eal_total":19856.64,"risk_band":"Moderate","source":"FEMA National Risk Index v1.20 (December 2025)"},"geometry":{"type":"Polygon","coordinates":[[[-95.384743,40.908746],[-95.384349,41.160011],[-94.927587,41.158508],[-94.928459,40.900653],[-95.384964,40.90155],[-95.384743,40.908746]]]}},{"type":"Feature","properties":{"GEOID":"19115","NAME":"Louisa","state":"IA","wildfire_risk_score":35.21,"wildfire_eal_total":24785.98,"risk_band":"Moderate","source":"FEMA National Risk Index v1.20 (December 2025)"},"geometry":{"type":"Polygon","coordinates":[[[-91.48582,41.220666],[-91.483995,41.423848],[-91.368521,41.423178],[-91.369332,41.336063],[-91.071940564762,41.3335923022153],[-91.074841,41.305578],[-91.092034,41.286911],[-91.114186,41.250029],[-91.113648,41.241401],[-91.07298,41.207151],[-91.041536,41.166138],[-91.007586,41.166183],[-90.989663,41.155716],[-90.946627,41.096632],[-90.949383,41.072711],[-91.37071,41.074112],[-91.370298,41.161247],[-91.485717,41.162405],[-91.48582,41.220666]]]}},{"type":"Feature","properties":{"GEOID":"19127","NAME":"Marshall","state":"IA","wildfire_risk_score":62.087,"wildfire_eal_total":97065.59,"risk_band":"High","source":"FEMA National Risk Index v1.20 (December 2025)"},"geometry":{"type":"Polygon","coordinates":[[[-93.23184,41.866387],[-93.231722,42.208886],[-92.767463,42.21014],[-92.765999,41.862373],[-93.231858,41.862711],[-93.23184,41.866387]]]}},{"type":"Feature","properties":{"GEOID":"19153","NAME":"Polk","state":"IA","wildfire_risk_score":57.697,"wildfire_eal_total":90750.56,"risk_band":"High","source":"FEMA National Risk Index v1.20 (December 2025)"},"geometry":{"type":"Polygon","coordinates":[[[-93.815721,41.863419],[-93.347933,41.863104],[-93.348681,41.600999],[-93.328681,41.601148],[-93.328407,41.490794],[-93.343814,41.481838],[-93.356036,41.498158],[-93.36349,41.486578],[-93.372034,41.486072],[-93.374811,41.493286],[-93.383813,41.494799],[-93.397169,41.486365],[-93.40467,41.486741],[-93.396627,41.496304],[-93.400135,41.502009],[-93.414265,41.49236],[-93.422577,41.494991],[-93.413841,41.507415],[-93.436704,41.502284],[-93.441286,41.507589],[-93.548242,41.511309],[-93.790612,41.511916],[-93.790632,41.600425],[-93.814282,41.600456],[-93.815721,41.863419]]]}},{"type":"Feature","properties":{"GEOID":"19079","NAME":"Hamilton","state":"IA","wildfire_risk_score":13.486,"wildfire_eal_total":5206.87,"risk_band":"Low","source":"FEMA National Risk Index v1.20 (December 2025)"},"geometry":{"type":"Polygon","coordinates":[[[-93.97158,42.47911],[-93.971583,42.558139],[-93.499485,42.5577],[-93.499098,42.470975],[-93.462635,42.470802],[-93.463043,42.209302],[-93.93158,42.209908],[-93.931684,42.472011],[-93.971599,42.472082],[-93.97158,42.47911]]]}},{"type":"Feature","properties":{"GEOID":"19179","NAME":"Wapello","state":"IA","wildfire_risk_score":61.641,"wildfire_eal_total":91993.25,"risk_band":"High","source":"FEMA National Risk Index v1.20 (December 2025)"},"geometry":{"type":"Polygon","coordinates":[[[-92.640376,41.161402],[-92.179974,41.162662],[-92.179072,40.89972],[-92.639091,40.898886],[-92.640376,41.161402]]]}},{"type":"Feature","properties":{"GEOID":"19187","NAME":"Webster","state":"IA","wildfire_risk_score":19.148,"wildfire_eal_total":8225.41,"risk_band":"Low","source":"FEMA National Risk Index v1.20 (December 2025)"},"geometry":{"type":"Polygon","coordinates":[[[-94.443438,42.616519],[-94.443083,42.645164],[-93.971714,42.644707],[-93.971599,42.472082],[-93.931684,42.472011],[-93.93158,42.209908],[-94.397561,42.209125],[-94.397671,42.4733],[-94.443033,42.473378],[-94.443438,42.616519]]]}},{"type":"Feature","properties":{"GEOID":"19061","NAME":"Dubuque","state":"IA","wildfire_risk_score":22.805,"wildfire_eal_total":16591.7,"risk_band":"Low","source":"FEMA National Risk Index v1.20 (December 2025)"},"geometry":{"type":"Polygon","coordinates":[[[-91.134439,42.558658],[-91.132766,42.645844],[-90.897415,42.645714],[-90.8968978644181,42.6752621751195],[-90.720209,42.640758],[-90.702671,42.630756],[-90.686975,42.591774],[-90.661527,42.567999],[-90.659127,42.5579],[-90.644033,42.53986],[-90.635989,42.515409],[-90.655927,42.491703],[-90.654027,42.478503],[-90.624328,42.458904],[-90.565248,42.438742],[-90.555018,42.416138],[-90.473812167653,42.3814582098911],[-90.665029,42.382155],[-90.665551,42.294699],[-91.130079,42.295761],[-91.134439,42.558658]]]}},{"type":"Feature","properties":{"GEOID":"19041","NAME":"Clay","state":"IA","wildfire_risk_score":29.644,"wildfire_eal_total":20536.97,"risk_band":"Moderate","source":"FEMA National Risk Index v1.20 (December 2025)"},"geometry":{"type":"Polygon","coordinates":[[[-95.388627,43.010567],[-95.388078,43.255221],[-94.913723,43.255054],[-94.91389,42.9097],[-95.388182,42.909897],[-95.388627,43.010567]]]}}]}