{"type":"FeatureCollection","metadata":{"state":"IL","boundary_source":"U.S. Census Bureau 2024 Cartographic Boundary File (counties, 1:500,000)","risk_source":"FEMA National Risk Index v1.20 (December 2025)"},"features":[{"type":"Feature","properties":{"GEOID":"17105","NAME":"Livingston","state":"IL","wildfire_risk_score":2.576,"wildfire_eal_total":1057.75,"risk_band":"Low","source":"FEMA National Risk Index v1.20 (December 2025)"},"geometry":{"type":"Polygon","coordinates":[[[-88.931469,40.913458],[-88.930881,41.1059],[-88.251501,41.114218],[-88.23495,40.618208],[-88.574502,40.61655],[-88.575216,40.670616],[-88.582344,40.670729],[-88.584272,40.757608],[-88.929331,40.753337],[-88.931469,40.913458]]]}},{"type":"Feature","properties":{"GEOID":"17161","NAME":"Rock Island","state":"IL","wildfire_risk_score":8.715,"wildfire_eal_total":2412.41,"risk_band":"Moderate","source":"FEMA National Risk Index v1.20 (December 2025)"},"geometry":{"type":"Polygon","coordinates":[[[-91.071940564762,41.3335923022153],[-91.06652,41.365246],[-91.05158,41.385283],[-91.047819,41.4109],[-91.027787,41.423603],[-90.979815,41.434321],[-90.930016,41.421404],[-90.846558,41.455141],[-90.750142,41.449632],[-90.655839,41.462132],[-90.605937,41.494232],[-90.602137,41.506032],[-90.595237,41.511032],[-90.556235,41.524232],[-90.540935,41.526133],[-90.500633,41.518033],[-90.461432,41.523533],[-90.41283,41.565333],[-90.343228,41.587833],[-90.339528,41.598633],[-90.343452,41.646959],[-90.334525,41.679559],[-90.313435,41.698082],[-90.317668,41.72269],[-90.31522,41.734264],[-90.302782,41.750031],[-90.278633,41.767358],[-90.2423802567555,41.7829645079628],[-90.24717,41.762609],[-90.236773,41.762598],[-90.246714,41.75476],[-90.247917,41.746877],[-90.244268,41.740383],[-90.236509,41.740747],[-90.238667,41.727265],[-90.234083,41.725011],[-90.244956,41.702379],[-90.231159,41.69576],[-90.23205,41.691862],[-90.22679,41.692521],[-90.226154,41.686944],[-90.236182,41.679496],[-90.189532,41.663374],[-90.16185,41.644614],[-90.163814,41.639217],[-90.173913,41.640069],[-90.159878,41.630495],[-90.166116,41.609802],[-90.164842,41.597322],[-90.167746,41.592829],[-90.185426,41.588948],[-90.179098,41.573487],[-90.195324,41.540686],[-90.216737,41.537916],[-90.225842,41.529917],[-90.250123,41.522755],[-90.304716,41.517791],[-90.315059,41.509204],[-90.332657,41.514001],[-90.352231,41.508832],[-90.369427,41.496734],[-90.376663,41.478662],[-90.421129,41.457634],[-90.43193,41.456834],[-90.433737,41.326989],[-91.071940564762,41.3335923022153]]]}},{"type":"Feature","properties":{"GEOID":"17125","NAME":"Mason","state":"IL","wildfire_risk_score":1.622,"wildfire_eal_total":584.27,"risk_band":"Low","source":"FEMA National Risk Index v1.20 (December 2025)"},"geometry":{"type":"Polygon","coordinates":[[[-90.354524,40.124217],[-90.335173,40.13724],[-90.307551,40.139951],[-90.268144,40.154563],[-90.225796,40.150054],[-90.209574,40.153149],[-90.202671,40.16069],[-90.201507,40.180642],[-90.196078,40.189839],[-90.180809,40.196014],[-90.171078,40.211004],[-90.157961,40.219655],[-90.127482,40.22697],[-90.107293,40.2609],[-90.069852,40.29438],[-90.068859,40.31248],[-90.053245,40.327772],[-90.049853,40.337406],[-90.052796,40.347476],[-90.043062,40.370026],[-90.033026,40.377806],[-89.983758,40.392636],[-89.955176,40.420184],[-89.92468,40.435921],[-89.717104,40.435655],[-89.714927,40.319218],[-89.602979,40.320129],[-89.603272,40.121425],[-89.634524,40.153575],[-89.668962,40.160663],[-89.670867,40.154147],[-89.685936,40.153646],[-89.686681,40.146785],[-89.694344,40.14091],[-89.704326,40.140627],[-89.70857,40.146953],[-89.719152,40.140327],[-89.727395,40.14265],[-89.730033,40.135622],[-89.734066,40.137673],[-89.734049,40.132747],[-89.749196,40.126852],[-89.773421,40.132226],[-89.780355,40.12707],[-89.7922,40.128572],[-89.794367,40.123805],[-89.809562,40.124591],[-89.810077,40.121214],[-89.833979,40.124413],[-89.838114,40.130339],[-89.843257,40.126368],[-89.864373,40.12788],[-89.872554,40.137415],[-89.885844,40.134535],[-89.884963,40.128212],[-89.898118,40.127795],[-89.908401,40.137786],[-89.907546,40.131611],[-89.926058,40.13995],[-89.941577,40.136746],[-89.937173,40.132012],[-89.944903,40.133697],[-89.945477,40.130477],[-89.948842,40.13534],[-89.951485,40.132051],[-89.954153,40.13662],[-89.958872,40.134361],[-89.966191,40.143071],[-89.974604,40.135705],[-89.973948,40.127131],[-89.986649,40.129006],[-89.988698,40.118383],[-89.98317,40.113394],[-89.993931,40.108006],[-89.997133,40.112812],[-89.999816,40.103327],[-90.004918,40.108993],[-90.012863,40.100836],[-90.031871,40.105488],[-90.031912,40.110719],[-90.039213,40.102569],[-90.043438,40.108806],[-90.051126,40.099643],[-90.064662,40.100145],[-90.065733,40.093357],[-90.071792,40.093925],[-90.070217,40.089989],[-90.079354,40.087253],[-90.081207,40.080082],[-90.087993,40.083999],[-90.087617,40.079816],[-90.094411,40.0771],[-90.095431,40.081058],[-90.099151,40.077845],[-90.112935,40.080998],[-90.126753,40.076619],[-90.134837,40.062254],[-90.150257,40.067586],[-90.156351,40.061216],[-90.176472,40.060135],[-90.182893,40.062581],[-90.182664,40.066987],[-90.189476,40.065448],[-90.186296,40.061647],[-90.194667,40.05377],[-90.203644,40.052909],[-90.206764,40.060236],[-90.211491,40.055314],[-90.213323,40.059221],[-90.218108,40.051259],[-90.222716,40.05507],[-90.227907,40.051553],[-90.234102,40.060902],[-90.243559,40.057894],[-90.244908,40.061004],[-90.247309,40.056581],[-90.265827,40.062138],[-90.272349,40.054917],[-90.285729,40.055744],[-90.287837,40.063784],[-90.293243,40.064498],[-90.290595,40.068894],[-90.304987,40.077905],[-90.301045,40.083527],[-90.303314,40.092814],[-90.312791,40.10315],[-90.3146,40.115595],[-90.333367,40.118138],[-90.336129,40.122491],[-90.3424,40.116756],[-90.34933,40.118054],[-90.354524,40.124217]]]}},{"type":"Feature","properties":{"GEOID":"17047","NAME":"Edwards","state":"IL","wildfire_risk_score":0.763,"wildfire_eal_total":200.33,"risk_band":"Low","source":"FEMA National Risk Index v1.20 (December 2025)"},"geometry":{"type":"Polygon","coordinates":[[[-88.150488,38.270604],[-88.147803,38.569037],[-87.954675,38.57023],[-87.958739,38.561011],[-87.952448,38.554814],[-87.952895,38.543287],[-87.943737,38.541008],[-87.937174,38.528145],[-87.953355,38.518956],[-87.955044,38.515043],[-87.948197,38.514065],[-87.953146,38.510945],[-87.948298,38.50505],[-87.956815,38.4971],[-87.956055,38.490187],[-87.949006,38.485702],[-87.952889,38.479746],[-87.947959,38.478747],[-87.948295,38.471079],[-87.945015,38.472564],[-87.948216,38.463521],[-87.941768,38.4622],[-87.948506,38.453312],[-87.942888,38.449629],[-87.948544,38.445894],[-87.945265,38.441995],[-87.952576,38.432276],[-87.947512,38.429438],[-87.95557,38.42479],[-87.950592,38.422591],[-87.952249,38.418103],[-87.960368,38.41934],[-87.970228,38.410641],[-87.970428,38.402218],[-87.975722,38.401095],[-87.964956,38.391072],[-87.973069,38.389353],[-87.977221,38.377839],[-87.967298,38.353556],[-87.957862,38.348032],[-87.954445,38.339733],[-87.95803,38.319635],[-87.946828,38.317782],[-87.946594,38.308672],[-87.956907,38.306405],[-87.951092,38.290935],[-87.960717,38.291185],[-87.966658,38.284402],[-87.977924,38.281952],[-87.972973,38.27482],[-87.979214,38.270886],[-87.988834,38.273598],[-87.990628,38.259629],[-88.027677,38.259894],[-88.027749,38.255661],[-88.150891,38.256156],[-88.150488,38.270604]]]}},{"type":"Feature","properties":{"GEOID":"17027","NAME":"Clinton","state":"IL","wildfire_risk_score":7.92,"wildfire_eal_total":2778.18,"risk_band":"Moderate","source":"FEMA National Risk Index v1.20 (December 2025)"},"geometry":{"type":"Polygon","coordinates":[[[-89.706949,38.655019],[-89.595103,38.655948],[-89.597321,38.743236],[-89.254185,38.742018],[-89.138393,38.736331],[-89.143866,38.503089],[-89.263956,38.510463],[-89.272094,38.504377],[-89.284703,38.509514],[-89.294745,38.505001],[-89.301703,38.508332],[-89.299959,38.510914],[-89.310077,38.508915],[-89.310847,38.512375],[-89.317276,38.508585],[-89.326801,38.513533],[-89.345297,38.509959],[-89.344903,38.514278],[-89.353223,38.518653],[-89.360177,38.516769],[-89.359243,38.508818],[-89.366261,38.507839],[-89.361094,38.505991],[-89.367899,38.505491],[-89.36737,38.497923],[-89.373383,38.496934],[-89.373107,38.500421],[-89.37989,38.494414],[-89.397807,38.494857],[-89.395904,38.489934],[-89.401142,38.489131],[-89.405914,38.495642],[-89.410077,38.487356],[-89.427754,38.499179],[-89.434,38.49093],[-89.447542,38.489585],[-89.455145,38.479769],[-89.48188,38.46859],[-89.491501,38.477375],[-89.490107,38.47174],[-89.513851,38.472538],[-89.528644,38.4811],[-89.54128,38.47978],[-89.540047,38.474197],[-89.552915,38.478149],[-89.558323,38.474748],[-89.568559,38.475937],[-89.564834,38.482808],[-89.572447,38.482831],[-89.57321,38.478017],[-89.577666,38.483461],[-89.589432,38.475618],[-89.6127,38.47349],[-89.623246,38.460812],[-89.629202,38.462668],[-89.627677,38.450743],[-89.63478,38.45163],[-89.633768,38.44716],[-89.637765,38.450326],[-89.638854,38.445219],[-89.646988,38.447325],[-89.645898,38.441531],[-89.664018,38.445368],[-89.668448,38.44042],[-89.667257,38.43223],[-89.67386,38.434818],[-89.672045,38.429011],[-89.67817,38.431853],[-89.677553,38.4248],[-89.685323,38.4252],[-89.686557,38.43006],[-89.696427,38.425284],[-89.692102,38.419844],[-89.694771,38.416675],[-89.704245,38.415779],[-89.706949,38.655019]]]}},{"type":"Feature","properties":{"GEOID":"17197","NAME":"Will","state":"IL","wildfire_risk_score":56.234,"wildfire_eal_total":87648.41,"risk_band":"High","source":"FEMA National Risk Index v1.20 (December 2025)"},"geometry":{"type":"Polygon","coordinates":[[[-88.261275,41.724656],[-88.030352,41.728894],[-88.027688,41.641506],[-87.91193,41.643933],[-87.909377,41.556819],[-87.792793,41.55854],[-87.790303,41.469846],[-87.525705,41.470283],[-87.5267288667182,41.2980520023116],[-88.013919,41.292447],[-88.01181,41.205508],[-88.244144,41.201566],[-88.261275,41.724656]]]}},{"type":"Feature","properties":{"GEOID":"17153","NAME":"Pulaski","state":"IL","wildfire_risk_score":0.7,"wildfire_eal_total":190.4,"risk_band":"Low","source":"FEMA National Risk Index v1.20 (December 2025)"},"geometry":{"type":"Polygon","coordinates":[[[-89.273631,37.126968],[-89.257881,37.146585],[-89.256793,37.161144],[-89.269039,37.159487],[-89.261327,37.166676],[-89.266451,37.170771],[-89.263502,37.17549],[-89.26731,37.180525],[-89.251919,37.190892],[-89.255905,37.193041],[-89.252329,37.196127],[-89.262732,37.201398],[-89.259259,37.21068],[-89.264268,37.212052],[-89.261279,37.220051],[-89.267716,37.226267],[-89.261954,37.230806],[-89.256451,37.227612],[-89.24593,37.263943],[-89.220971,37.279111],[-89.21051,37.280329],[-89.202548,37.290719],[-89.207271,37.322201],[-89.222638,37.332047],[-89.248566,37.335298],[-89.044799,37.329717],[-89.044689,37.294111],[-89.018265,37.309146],[-89.003136,37.311223],[-88.968511,37.303136],[-88.963092,37.2975],[-88.942024,37.304016],[-88.928757,37.302848],[-88.9279411539598,37.2261636574322],[-88.98326,37.228685],[-89.029981,37.211144],[-89.086526,37.165602],[-89.11069,37.122049],[-89.125072,37.108813],[-89.14746,37.098906],[-89.150553,37.09376],[-89.147111,37.091628],[-89.155655,37.087729],[-89.171880551089,37.0681839790285],[-89.179637,37.06909],[-89.184635,37.079056],[-89.19721,37.085808],[-89.195511,37.088572],[-89.231722,37.089883],[-89.239948,37.092814],[-89.244011,37.100594],[-89.253973,37.099393],[-89.273631,37.126968]]]}},{"type":"Feature","properties":{"GEOID":"17045","NAME":"Edgar","state":"IL","wildfire_risk_score":10.019,"wildfire_eal_total":3334.88,"risk_band":"High","source":"FEMA National Risk Index v1.20 (December 2025)"},"geometry":{"type":"Polygon","coordinates":[[[-87.968777,39.79235],[-87.937029,39.792371],[-87.937645,39.879803],[-87.615161,39.881579],[-87.617422,39.868608],[-87.557533,39.868784],[-87.581679,39.882307],[-87.5331864205842,39.8829997374169],[-87.5316578789999,39.4771090156042],[-87.689275,39.476771],[-87.687622,39.487363],[-87.960179,39.481309],[-87.968777,39.79235]]]}},{"type":"Feature","properties":{"GEOID":"17039","NAME":"De Witt","state":"IL","wildfire_risk_score":2.099,"wildfire_eal_total":806.55,"risk_band":"Low","source":"FEMA National Risk Index v1.20 (December 2025)"},"geometry":{"type":"Polygon","coordinates":[[[-89.148764,40.282038],[-88.977392,40.283192],[-88.574885,40.281501],[-88.687993,40.142269],[-88.688188,40.098552],[-88.745344,40.098813],[-88.745164,40.055191],[-89.144764,40.048853],[-89.148764,40.282038]]]}},{"type":"Feature","properties":{"GEOID":"17003","NAME":"Alexander","state":"IL","wildfire_risk_score":2.131,"wildfire_eal_total":557.21,"risk_band":"Low","source":"FEMA National Risk Index v1.20 (December 2025)"},"geometry":{"type":"Polygon","coordinates":[[[-89.518393,37.289354],[-89.509699,37.31426],[-89.4865181498393,37.3345496947572],[-89.248566,37.335298],[-89.222638,37.332047],[-89.207271,37.322201],[-89.202723,37.289376],[-89.21051,37.280329],[-89.220971,37.279111],[-89.24593,37.263943],[-89.256451,37.227612],[-89.261954,37.230806],[-89.267716,37.226267],[-89.261279,37.220051],[-89.264268,37.212052],[-89.259259,37.21068],[-89.262732,37.201398],[-89.252329,37.196127],[-89.255905,37.193041],[-89.251919,37.190892],[-89.26731,37.180525],[-89.263502,37.17549],[-89.266451,37.170771],[-89.261327,37.166676],[-89.269039,37.159487],[-89.256793,37.161144],[-89.257881,37.146585],[-89.273631,37.126968],[-89.253973,37.099393],[-89.244011,37.100594],[-89.239948,37.092814],[-89.231722,37.089883],[-89.195511,37.088572],[-89.19721,37.085808],[-89.184635,37.079056],[-89.179637,37.06909],[-89.173545,37.070109],[-89.182509,37.037275],[-89.178975,37.020928],[-89.166447,37.003337],[-89.132685,36.9822],[-89.170008,36.970298],[-89.185491,36.973518],[-89.192097,36.979995],[-89.200793,37.016164],[-89.234053,37.037277],[-89.25493,37.072014],[-89.259936,37.064071],[-89.30829,37.068371],[-89.310819,37.057897],[-89.304752,37.047565],[-89.260003,37.023288],[-89.257608,37.015496],[-89.263527,37.00005],[-89.278628,36.98867],[-89.29213,36.992189],[-89.322982,37.01609],[-89.378277,37.039605],[-89.385434,37.05513],[-89.375712,37.080505],[-89.37871,37.094586],[-89.38805,37.107481],[-89.41173,37.122507],[-89.42558,37.138235],[-89.461862,37.199517],[-89.4675,37.221844],[-89.458302,37.240368],[-89.458827,37.248661],[-89.470525,37.253357],[-89.489915,37.251315],[-89.513905,37.277164],[-89.518393,37.289354]]]}},{"type":"Feature","properties":{"GEOID":"17097","NAME":"Lake","state":"IL","wildfire_risk_score":44.943,"wildfire_eal_total":43964.54,"risk_band":"High","source":"FEMA National Risk Index v1.20 (December 2025)"},"geometry":{"type":"Polygon","coordinates":[[[-88.199551,42.183254],[-88.1993911160847,42.4960178674171],[-87.802091,42.492576],[-87.798071,42.471721],[-87.804582,42.431218],[-87.80326,42.390478],[-87.816804,42.361586],[-87.823518,42.364178],[-87.834769,42.301522],[-87.828569,42.269922],[-87.811515,42.228452],[-87.7591420524805,42.1522549693357],[-88.199584,42.15426],[-88.199551,42.183254]]]}},{"type":"Feature","properties":{"GEOID":"17175","NAME":"Stark","state":"IL","wildfire_risk_score":0.827,"wildfire_eal_total":344.14,"risk_band":"Low","source":"FEMA National Risk Index v1.20 (December 2025)"},"geometry":{"type":"Polygon","coordinates":[[[-89.985376,40.98983],[-89.984559,41.149394],[-89.868152,41.149493],[-89.867793,41.23443],[-89.638708,41.233862],[-89.638727,40.973707],[-89.985479,40.974495],[-89.985376,40.98983]]]}},{"type":"Feature","properties":{"GEOID":"17043","NAME":"DuPage","state":"IL","wildfire_risk_score":33.747,"wildfire_eal_total":22343.78,"risk_band":"High","source":"FEMA National Risk Index v1.20 (December 2025)"},"geometry":{"type":"Polygon","coordinates":[[[-88.262876,41.982435],[-88.262875,41.986378],[-87.920476,41.993886],[-87.914264,41.716598],[-87.920865,41.716441],[-87.947845,41.695132],[-87.966674,41.686742],[-88.028973,41.685242],[-88.030352,41.728894],[-88.261952,41.724652],[-88.262876,41.982435]]]}},{"type":"Feature","properties":{"GEOID":"17017","NAME":"Cass","state":"IL","wildfire_risk_score":0.286,"wildfire_eal_total":107.41,"risk_band":"Low","source":"FEMA National Risk Index v1.20 (December 2025)"},"geometry":{"type":"Polygon","coordinates":[[[-90.583534,39.87675],[-90.575581,39.891261],[-90.55428,39.901364],[-90.538162,39.918239],[-90.532113,39.946012],[-90.511115,39.967605],[-90.510887,39.993822],[-90.453501,40.010997],[-90.434978,40.021528],[-90.428638,40.060345],[-90.393432,40.078759],[-90.393431,40.091866],[-90.370756,40.123249],[-90.354524,40.124217],[-90.3424,40.116756],[-90.336129,40.122491],[-90.333367,40.118138],[-90.3146,40.115595],[-90.312791,40.10315],[-90.303314,40.092814],[-90.301045,40.083527],[-90.304987,40.077905],[-90.290595,40.068894],[-90.293243,40.064498],[-90.287837,40.063784],[-90.285729,40.055744],[-90.272349,40.054917],[-90.265827,40.062138],[-90.247309,40.056581],[-90.244908,40.061004],[-90.243559,40.057894],[-90.234102,40.060902],[-90.227907,40.051553],[-90.222716,40.05507],[-90.21634,40.051486],[-90.213323,40.059221],[-90.211491,40.055314],[-90.206764,40.060236],[-90.203644,40.052909],[-90.194667,40.05377],[-90.186296,40.061647],[-90.189476,40.065448],[-90.182664,40.066987],[-90.182893,40.062581],[-90.176472,40.060135],[-90.156351,40.061216],[-90.150257,40.067586],[-90.134837,40.062254],[-90.126753,40.076619],[-90.112935,40.080998],[-90.099151,40.077845],[-90.095431,40.081058],[-90.094411,40.0771],[-90.087617,40.079816],[-90.087993,40.083999],[-90.081207,40.080082],[-90.079354,40.087253],[-90.070217,40.089989],[-90.071792,40.093925],[-90.065733,40.093357],[-90.064662,40.100145],[-90.051126,40.099643],[-90.043438,40.108806],[-90.039213,40.102569],[-90.031912,40.110719],[-90.031871,40.105488],[-90.012863,40.100836],[-90.004918,40.108993],[-89.999816,40.103327],[-89.99508,40.110846],[-89.994405,39.87286],[-90.583534,39.87675]]]}},{"type":"Feature","properties":{"GEOID":"17129","NAME":"Menard","state":"IL","wildfire_risk_score":3.594,"wildfire_eal_total":1069.21,"risk_band":"Moderate","source":"FEMA National Risk Index v1.20 (December 2025)"},"geometry":{"type":"Polygon","coordinates":[[[-89.99509,40.108908],[-89.98317,40.113394],[-89.988698,40.118383],[-89.986649,40.129006],[-89.973948,40.127131],[-89.974604,40.135705],[-89.966191,40.143071],[-89.958872,40.134361],[-89.954153,40.13662],[-89.951485,40.132051],[-89.948842,40.13534],[-89.945477,40.130477],[-89.944903,40.133697],[-89.937173,40.132012],[-89.941577,40.136746],[-89.926058,40.13995],[-89.907546,40.131611],[-89.908401,40.137786],[-89.898118,40.127795],[-89.884963,40.128212],[-89.885844,40.134535],[-89.872554,40.137415],[-89.864373,40.12788],[-89.843257,40.126368],[-89.838114,40.130339],[-89.833979,40.124413],[-89.810077,40.121214],[-89.809562,40.124591],[-89.794367,40.123805],[-89.7922,40.128572],[-89.780355,40.12707],[-89.773421,40.132226],[-89.749196,40.126852],[-89.734049,40.132747],[-89.734066,40.137673],[-89.730033,40.135622],[-89.727395,40.14265],[-89.719152,40.140327],[-89.70857,40.146953],[-89.704326,40.140627],[-89.694344,40.14091],[-89.686681,40.146785],[-89.685936,40.153646],[-89.670867,40.154147],[-89.668962,40.160663],[-89.660684,40.15603],[-89.638762,40.155147],[-89.601688,40.122378],[-89.60112,40.092284],[-89.579128,40.092415],[-89.578289,39.976127],[-89.698259,39.975309],[-89.701864,39.916787],[-89.769143,39.916865],[-89.769168,39.90235],[-89.994506,39.901925],[-89.99509,40.108908]]]}},{"type":"Feature","properties":{"GEOID":"17155","NAME":"Putnam","state":"IL","wildfire_risk_score":4.358,"wildfire_eal_total":1443.89,"risk_band":"Moderate","source":"FEMA National Risk Index v1.20 (December 2025)"},"geometry":{"type":"Polygon","coordinates":[[[-89.466432,41.192216],[-89.466389,41.233872],[-89.356729,41.233039],[-89.337083,41.281667],[-89.342422,41.293167],[-89.33802,41.299704],[-89.283466,41.312385],[-89.263543,41.322457],[-89.224854,41.3131],[-89.163705,41.310187],[-89.162237,41.104008],[-89.358437,41.103849],[-89.335892,41.117269],[-89.32927,41.147931],[-89.466101,41.148524],[-89.466432,41.192216]]]}},{"type":"Feature","properties":{"GEOID":"17185","NAME":"Wabash","state":"IL","wildfire_risk_score":0.445,"wildfire_eal_total":173.03,"risk_band":"Low","source":"FEMA National Risk Index v1.20 (December 2025)"},"geometry":{"type":"Polygon","coordinates":[[[-87.990921,38.265034],[-87.988834,38.273598],[-87.973264,38.273927],[-87.978009,38.27726],[-87.973968,38.284566],[-87.951092,38.290935],[-87.956907,38.306405],[-87.946246,38.310664],[-87.947168,38.318624],[-87.95803,38.319635],[-87.954445,38.339733],[-87.957862,38.348032],[-87.967298,38.353556],[-87.977221,38.377839],[-87.973069,38.389353],[-87.964956,38.391072],[-87.975722,38.401095],[-87.970428,38.402218],[-87.970228,38.410641],[-87.960368,38.41934],[-87.952249,38.418103],[-87.950592,38.422591],[-87.95557,38.42479],[-87.947512,38.429438],[-87.952576,38.432276],[-87.945265,38.441995],[-87.948544,38.445894],[-87.942888,38.449629],[-87.948506,38.453312],[-87.941768,38.4622],[-87.948216,38.463521],[-87.945015,38.472564],[-87.948295,38.471079],[-87.947959,38.478747],[-87.952889,38.479746],[-87.949006,38.485702],[-87.956055,38.490187],[-87.956815,38.4971],[-87.948298,38.50505],[-87.953146,38.510945],[-87.948197,38.514065],[-87.955044,38.515043],[-87.953355,38.518956],[-87.937174,38.528145],[-87.943737,38.541008],[-87.952895,38.543287],[-87.952448,38.554814],[-87.958739,38.561011],[-87.955895,38.56959],[-87.651529,38.568166],[-87.650704,38.55624],[-87.670071,38.545237],[-87.645345,38.510159],[-87.656741,38.501757],[-87.672382,38.507396],[-87.685921,38.491843],[-87.714047,38.47988],[-87.744644,38.477266],[-87.755355,38.46396],[-87.755931,38.455876],[-87.740525,38.454716],[-87.730369,38.447884],[-87.730699,38.442908],[-87.739767,38.437977],[-87.745254,38.408996],[-87.783079,38.368862],[-87.806075,38.363143],[-87.823411,38.345968],[-87.831982,38.326973],[-87.830953,38.299365],[-87.84345,38.278172],[-87.85113,38.27512],[-87.863032,38.280172],[-87.866248,38.28998],[-87.86112,38.307826],[-87.870537,38.31222],[-87.880083,38.305353],[-87.887849,38.285299],[-87.91111,38.268031],[-87.91947,38.274547],[-87.909536,38.296061],[-87.916489,38.299372],[-87.933556,38.295896],[-87.939212,38.282923],[-87.952198,38.273102],[-87.942067,38.260301],[-87.95761,38.250046],[-87.960225,38.237118],[-87.968968,38.237389],[-87.981868,38.256444],[-87.99083,38.258529],[-87.990921,38.265034]]]}},{"type":"Feature","properties":{"GEOID":"17031","NAME":"Cook","state":"IL","wildfire_risk_score":55.789,"wildfire_eal_total":56109.59,"risk_band":"High","source":"FEMA National Risk Index v1.20 (December 2025)"},"geometry":{"type":"Polygon","coordinates":[[[-88.263641,42.066873],[-88.238186,42.066985],[-88.238449,42.154249],[-87.7591420524805,42.1522549693357],[-87.724661,42.107727],[-87.681465,42.078441],[-87.671462,42.058334],[-87.668982,42.029142],[-87.649907,41.978518],[-87.63148,41.963478],[-87.641446,41.961694],[-87.640738,41.953851],[-87.627115,41.917059],[-87.620679,41.913214],[-87.625542,41.910471],[-87.624052,41.904232],[-87.614276,41.893642],[-87.602369,41.896335],[-87.613689,41.890544],[-87.616537,41.882396],[-87.616251,41.868933],[-87.605855,41.866849],[-87.60945,41.845233],[-87.600549,41.826833],[-87.575801,41.796291],[-87.579498,41.793433],[-87.57286,41.779343],[-87.554196,41.760577],[-87.540749,41.75726],[-87.543265,41.751997],[-87.531061,41.748068],[-87.524622,41.723522],[-87.529018,41.715376],[-87.524165,41.708314],[-87.525705,41.470283],[-87.790303,41.469846],[-87.792793,41.55854],[-87.909377,41.556819],[-87.91193,41.643933],[-88.027688,41.641506],[-88.028973,41.685242],[-87.966674,41.686742],[-87.947845,41.695132],[-87.920865,41.716441],[-87.914264,41.716598],[-87.920476,41.993886],[-88.262875,41.986378],[-88.263641,42.066873]]]}},{"type":"Feature","properties":{"GEOID":"17035","NAME":"Cumberland","state":"IL","wildfire_risk_score":4.676,"wildfire_eal_total":1251.62,"risk_band":"Moderate","source":"FEMA National Risk Index v1.20 (December 2025)"},"geometry":{"type":"Polygon","coordinates":[[[-88.471157,39.356224],[-88.47083,39.374515],[-88.012121,39.378968],[-88.007766,39.173925],[-88.470865,39.171463],[-88.471157,39.356224]]]}},{"type":"Feature","properties":{"GEOID":"17189","NAME":"Washington","state":"IL","wildfire_risk_score":3.88,"wildfire_eal_total":1307.3,"risk_band":"Moderate","source":"FEMA National Risk Index v1.20 (December 2025)"},"geometry":{"type":"Polygon","coordinates":[[[-89.704245,38.415779],[-89.694771,38.416675],[-89.692102,38.419844],[-89.696427,38.425284],[-89.686557,38.43006],[-89.685323,38.4252],[-89.677553,38.4248],[-89.67817,38.431853],[-89.672045,38.429011],[-89.67386,38.434818],[-89.667257,38.43223],[-89.668448,38.44042],[-89.664018,38.445368],[-89.645898,38.441531],[-89.646988,38.447325],[-89.638854,38.445219],[-89.637765,38.450326],[-89.633768,38.44716],[-89.63478,38.45163],[-89.627677,38.450743],[-89.629202,38.462668],[-89.623246,38.460812],[-89.6127,38.47349],[-89.589432,38.475618],[-89.577666,38.483461],[-89.57321,38.478017],[-89.572447,38.482831],[-89.564834,38.482808],[-89.568559,38.475937],[-89.558323,38.474748],[-89.552915,38.478149],[-89.540047,38.474197],[-89.54128,38.47978],[-89.528644,38.4811],[-89.513851,38.472538],[-89.490107,38.47174],[-89.491501,38.477375],[-89.48188,38.46859],[-89.455145,38.479769],[-89.447542,38.489585],[-89.434,38.49093],[-89.427754,38.499179],[-89.410077,38.487356],[-89.405914,38.495642],[-89.401142,38.489131],[-89.395904,38.489934],[-89.397807,38.494857],[-89.37989,38.494414],[-89.373107,38.500421],[-89.373383,38.496934],[-89.36737,38.497923],[-89.367899,38.505491],[-89.361094,38.505991],[-89.366261,38.507839],[-89.359243,38.508818],[-89.360177,38.516769],[-89.353223,38.518653],[-89.344903,38.514278],[-89.347052,38.513346],[-89.345297,38.509959],[-89.326801,38.513533],[-89.317276,38.508585],[-89.310847,38.512375],[-89.310077,38.508915],[-89.299959,38.510914],[-89.301703,38.508332],[-89.294745,38.505001],[-89.284703,38.509514],[-89.272094,38.504377],[-89.263956,38.510463],[-89.143866,38.503089],[-89.147597,38.212895],[-89.703256,38.219404],[-89.704245,38.415779]]]}},{"type":"Feature","properties":{"GEOID":"17071","NAME":"Henderson","state":"IL","wildfire_risk_score":1.654,"wildfire_eal_total":480.39,"risk_band":"Low","source":"FEMA National Risk Index v1.20 (December 2025)"},"geometry":{"type":"Polygon","coordinates":[[[-91.185428463588,40.6380706559482],[-91.12082,40.672777],[-91.110927,40.703262],[-91.115735,40.725168],[-91.110424,40.745528],[-91.091703,40.779708],[-91.097649,40.805575],[-91.092993,40.821079],[-91.05643,40.848387],[-91.044653,40.868356],[-91.021562,40.884021],[-91.009536,40.900565],[-90.962916,40.924957],[-90.952233,40.954047],[-90.958142,40.979767],[-90.945949,41.006495],[-90.942253,41.034702],[-90.9489900261598,41.0702495855382],[-90.785194,41.068749],[-90.789652,40.63575],[-91.185428463588,40.6380706559482]]]}},{"type":"Feature","properties":{"GEOID":"17127","NAME":"Massac","state":"IL","wildfire_risk_score":7.634,"wildfire_eal_total":1997.41,"risk_band":"Moderate","source":"FEMA National Risk Index v1.20 (December 2025)"},"geometry":{"type":"Polygon","coordinates":[[[-88.928757,37.302848],[-88.897561,37.317491],[-88.896417,37.330073],[-88.905071,37.335743],[-88.710738,37.337081],[-88.49033,37.159462],[-88.4904732961543,37.0682476376822],[-88.521436,37.065584],[-88.566839,37.0755],[-88.589453,37.099],[-88.625889,37.119458],[-88.693983,37.141155],[-88.732105,37.143956],[-88.80572,37.188595],[-88.9279411539598,37.2261636574322],[-88.928757,37.302848]]]}},{"type":"Feature","properties":{"GEOID":"17157","NAME":"Randolph","state":"IL","wildfire_risk_score":6.234,"wildfire_eal_total":1764.19,"risk_band":"Moderate","source":"FEMA National Risk Index v1.20 (December 2025)"},"geometry":{"type":"Polygon","coordinates":[[[-90.2053496184049,38.0866563883558],[-90.035997,38.1357],[-90.036316,38.223246],[-89.592797,38.219271],[-89.595073,37.955343],[-89.65631,37.858679],[-89.664439,37.829131],[-89.680773,37.822095],[-89.6744157937809,37.8030052944616],[-89.71748,37.825724],[-89.739873,37.84693],[-89.754104,37.846358],[-89.782035,37.855092],[-89.786369,37.851734],[-89.80036,37.868625],[-89.799333,37.881517],[-89.842649,37.905196],[-89.862949,37.896906],[-89.881475,37.879591],[-89.901832,37.869822],[-89.923185,37.870672],[-89.950594,37.881526],[-89.973642,37.917661],[-89.974918,37.926719],[-89.959646,37.940196],[-89.947429,37.940336],[-89.932467,37.947497],[-89.925085,37.960021],[-89.93586,37.959574],[-89.940754,37.971038],[-89.978919,37.962791],[-90.00011,37.964563],[-90.03169,37.995028],[-90.052433,38.006152],[-90.057269,38.014362],[-90.08826,38.015772],[-90.117423,38.031708],[-90.126194,38.040702],[-90.130788,38.062341],[-90.157855,38.074798],[-90.17716,38.071152],[-90.2053496184049,38.0866563883558]]]}},{"type":"Feature","properties":{"GEOID":"17163","NAME":"St. Clair","state":"IL","wildfire_risk_score":15.076,"wildfire_eal_total":5161.87,"risk_band":"High","source":"FEMA National Risk Index v1.20 (December 2025)"},"geometry":{"type":"Polygon","coordinates":[[[-90.263814,38.520552],[-90.224212,38.575051],[-90.191811,38.598951],[-90.17801,38.63375],[-90.1812424797994,38.6600622552243],[-89.706949,38.655019],[-89.703256,38.219404],[-89.899043,38.220755],[-89.904471,38.227145],[-89.897486,38.232078],[-89.908736,38.237586],[-89.907539,38.243089],[-89.917276,38.251826],[-89.914524,38.258792],[-89.925213,38.273256],[-89.918857,38.285852],[-89.9113,38.284699],[-89.917187,38.277815],[-89.908797,38.276179],[-89.902501,38.281468],[-89.906836,38.293597],[-89.904085,38.297833],[-89.913057,38.308105],[-90.036107,38.308936],[-90.036096,38.323537],[-90.145562,38.412053],[-90.1454,38.426674],[-90.263814,38.520552]]]}},{"type":"Feature","properties":{"GEOID":"17117","NAME":"Macoupin","state":"IL","wildfire_risk_score":9.288,"wildfire_eal_total":2740.87,"risk_band":"Moderate","source":"FEMA National Risk Index v1.20 (December 2025)"},"geometry":{"type":"Polygon","coordinates":[[[-90.153782,39.520315],[-89.701661,39.523316],[-89.699276,39.348048],[-89.703692,39.34803],[-89.698555,38.998979],[-90.145984,38.999303],[-90.153782,39.520315]]]}},{"type":"Feature","properties":{"GEOID":"17093","NAME":"Kendall","state":"IL","wildfire_risk_score":14.249,"wildfire_eal_total":8395.94,"risk_band":"High","source":"FEMA National Risk Index v1.20 (December 2025)"},"geometry":{"type":"Polygon","coordinates":[[[-88.60362,41.719546],[-88.261275,41.724656],[-88.252231,41.463066],[-88.595961,41.457129],[-88.60362,41.719546]]]}},{"type":"Feature","properties":{"GEOID":"17149","NAME":"Pike","state":"IL","wildfire_risk_score":0.954,"wildfire_eal_total":399.83,"risk_band":"Low","source":"FEMA National Risk Index v1.20 (December 2025)"},"geometry":{"type":"Polygon","coordinates":[[[-91.369953,39.745042],[-91.365125,39.758723],[-90.915961,39.7572],[-90.916669,39.844927],[-90.894252,39.841058],[-90.571424,39.838961],[-90.566976,39.826883],[-90.597204,39.794851],[-90.606931,39.776376],[-90.607634,39.763873],[-90.628422,39.729485],[-90.640984,39.717426],[-90.646012,39.702791],[-90.633491,39.673008],[-90.608871,39.640287],[-90.604991,39.620064],[-90.572443,39.542997],[-90.592092,39.486979],[-90.610502,39.457447],[-90.616807,39.423878],[-90.613775,39.395416],[-90.9367782192347,39.3994865557296],[-90.948299,39.407502],[-90.993789,39.422959],[-91.03827,39.448436],[-91.059439,39.46886],[-91.064305,39.494643],[-91.079769,39.507728],[-91.100307,39.538695],[-91.153628,39.548248],[-91.168419,39.564928],[-91.174651,39.593313],[-91.181936,39.602677],[-91.229317,39.620853],[-91.27614,39.665759],[-91.352749,39.715279],[-91.370009,39.732524],[-91.369953,39.745042]]]}},{"type":"Feature","properties":{"GEOID":"17013","NAME":"Calhoun","state":"IL","wildfire_risk_score":0.573,"wildfire_eal_total":309.25,"risk_band":"Low","source":"FEMA National Risk Index v1.20 (December 2025)"},"geometry":{"type":"Polygon","coordinates":[[[-90.9367782192347,39.3994865557296],[-90.613775,39.395416],[-90.62229,39.365089],[-90.611303,39.311494],[-90.60243,39.292693],[-90.609796,39.259812],[-90.597989,39.24333],[-90.59123,39.198624],[-90.598887,39.181513],[-90.61205,39.167275],[-90.615009,39.145544],[-90.58927,39.076036],[-90.581406,39.06568],[-90.59001,39.050679],[-90.574321,39.029788],[-90.574429,39.003138],[-90.567587,38.989727],[-90.543172,38.964698],[-90.523678,38.95454],[-90.487225,38.967729],[-90.450809944078,38.9677586842657],[-90.472122,38.958838],[-90.482419,38.94446],[-90.486974,38.925982],[-90.507451,38.902767],[-90.545872,38.874008],[-90.583388,38.86903],[-90.625122,38.888654],[-90.635896,38.903941],[-90.663466,38.927384],[-90.675949,38.96214],[-90.678193,38.991851],[-90.713629,39.053977],[-90.682744,39.088348],[-90.681086,39.10059],[-90.686051,39.117785],[-90.707902,39.15086],[-90.726981,39.251173],[-90.733976,39.259098],[-90.751599,39.265432],[-90.793461,39.309498],[-90.816851,39.320496],[-90.8475,39.345272],[-90.893777,39.367343],[-90.904862,39.379403],[-90.928745,39.387544],[-90.9367782192347,39.3994865557296]]]}},{"type":"Feature","properties":{"GEOID":"17201","NAME":"Winnebago","state":"IL","wildfire_risk_score":32.665,"wildfire_eal_total":17062.92,"risk_band":"High","source":"FEMA National Risk Index v1.20 (December 2025)"},"geometry":{"type":"Polygon","coordinates":[[[-89.4014163930295,42.5004329299029],[-88.940391,42.495046],[-88.939732,42.15232],[-89.172803,42.150417],[-89.173,42.204241],[-89.396192,42.201916],[-89.4014163930295,42.5004329299029]]]}},{"type":"Feature","properties":{"GEOID":"17057","NAME":"Fulton","state":"IL","wildfire_risk_score":4.93,"wildfire_eal_total":1631.93,"risk_band":"Moderate","source":"FEMA National Risk Index v1.20 (December 2025)"},"geometry":{"type":"Polygon","coordinates":[[[-90.451916,40.188803],[-90.444339,40.714868],[-89.986064,40.712361],[-89.989018,40.625835],[-89.87368,40.624975],[-89.872462,40.513225],[-89.884358,40.500039],[-89.88793,40.474656],[-89.914278,40.440345],[-89.955176,40.420184],[-89.983758,40.392636],[-90.033026,40.377806],[-90.043062,40.370026],[-90.052796,40.347476],[-90.049853,40.337406],[-90.053245,40.327772],[-90.068859,40.31248],[-90.06874,40.2961],[-90.094072,40.268895],[-90.107293,40.2609],[-90.127482,40.22697],[-90.163495,40.216581],[-90.178488,40.197894],[-90.193528,40.192075],[-90.199635,40.183812],[-90.451916,40.188803]]]}},{"type":"Feature","properties":{"GEOID":"17025","NAME":"Clay","state":"IL","wildfire_risk_score":5.28,"wildfire_eal_total":1582.27,"risk_band":"Moderate","source":"FEMA National Risk Index v1.20 (December 2025)"},"geometry":{"type":"Polygon","coordinates":[[[-88.698232,38.625047],[-88.693531,38.914617],[-88.361745,38.910847],[-88.361758,38.852124],[-88.258583,38.847529],[-88.257798,38.730923],[-88.28351,38.731807],[-88.287079,38.727936],[-88.282574,38.725588],[-88.286062,38.720231],[-88.28164,38.720354],[-88.286393,38.718138],[-88.282294,38.716227],[-88.286286,38.711022],[-88.28149,38.695688],[-88.284926,38.694885],[-88.28455,38.681632],[-88.272297,38.663558],[-88.275443,38.654478],[-88.297534,38.634732],[-88.289263,38.630105],[-88.292142,38.626201],[-88.280931,38.624605],[-88.285929,38.61934],[-88.2693,38.618415],[-88.271096,38.611951],[-88.252561,38.605637],[-88.250836,38.59997],[-88.698459,38.606062],[-88.698232,38.625047]]]}},{"type":"Feature","properties":{"GEOID":"17099","NAME":"LaSalle","state":"IL","wildfire_risk_score":21.279,"wildfire_eal_total":8377.25,"risk_band":"High","source":"FEMA National Risk Index v1.20 (December 2025)"},"geometry":{"type":"Polygon","coordinates":[[[-89.16715,41.628657],[-88.60224,41.631389],[-88.58624,41.108293],[-88.930881,41.1059],[-88.93139,40.92774],[-89.047718,40.925749],[-89.047394,41.104786],[-89.162237,41.104008],[-89.16715,41.628657]]]}},{"type":"Feature","properties":{"GEOID":"17109","NAME":"McDonough","state":"IL","wildfire_risk_score":0.859,"wildfire_eal_total":289.52,"risk_band":"Low","source":"FEMA National Risk Index v1.20 (December 2025)"},"geometry":{"type":"Polygon","coordinates":[[[-90.90959,40.289838],[-90.904216,40.639201],[-90.445627,40.627638],[-90.450227,40.276335],[-90.909756,40.284394],[-90.90959,40.289838]]]}},{"type":"Feature","properties":{"GEOID":"17021","NAME":"Christian","state":"IL","wildfire_risk_score":9.033,"wildfire_eal_total":3556.04,"risk_band":"Moderate","source":"FEMA National Risk Index v1.20 (December 2025)"},"geometry":{"type":"Polygon","coordinates":[[[-89.535028,39.641138],[-89.478473,39.640842],[-89.478923,39.683964],[-89.425051,39.683696],[-89.425171,39.762022],[-89.417843,39.759205],[-89.419155,39.751434],[-89.410203,39.744031],[-89.397087,39.742153],[-89.373918,39.758646],[-89.362948,39.755635],[-89.360034,39.767517],[-89.354136,39.772093],[-89.329159,39.763581],[-89.325307,39.766184],[-89.327918,39.769694],[-89.303122,39.775813],[-89.292104,39.792754],[-89.262541,39.804385],[-89.248546,39.825737],[-89.236212,39.821813],[-89.23164,39.816041],[-89.234176,39.813088],[-89.18819,39.817524],[-89.160747,39.804706],[-89.151474,39.804792],[-89.151463,39.80125],[-89.141967,39.801273],[-89.139125,39.655131],[-89.025691,39.654637],[-89.025382,39.34592],[-89.530836,39.348864],[-89.535028,39.641138]]]}},{"type":"Feature","properties":{"GEOID":"17135","NAME":"Montgomery","state":"IL","wildfire_risk_score":13.645,"wildfire_eal_total":4111.37,"risk_band":"High","source":"FEMA National Risk Index v1.20 (December 2025)"},"geometry":{"type":"Polygon","coordinates":[[[-89.703692,39.34803],[-89.699276,39.348048],[-89.701661,39.523316],[-89.533526,39.524592],[-89.530836,39.348864],[-89.139807,39.348888],[-89.139464,39.217773],[-89.250513,39.217512],[-89.250309,39.028185],[-89.586344,39.028329],[-89.586092,38.999456],[-89.698555,38.998979],[-89.703692,39.34803]]]}},{"type":"Feature","properties":{"GEOID":"17191","NAME":"Wayne","state":"IL","wildfire_risk_score":1.463,"wildfire_eal_total":615.35,"risk_band":"Low","source":"FEMA National Risk Index v1.20 (December 2025)"},"geometry":{"type":"Polygon","coordinates":[[[-88.702197,38.271932],[-88.698459,38.606062],[-88.148194,38.597987],[-88.1509,38.256097],[-88.701956,38.256609],[-88.702197,38.271932]]]}},{"type":"Feature","properties":{"GEOID":"17063","NAME":"Grundy","state":"IL","wildfire_risk_score":15.681,"wildfire_eal_total":10548.9,"risk_band":"High","source":"FEMA National Risk Index v1.20 (December 2025)"},"geometry":{"type":"Polygon","coordinates":[[[-88.595961,41.457129],[-88.252231,41.463066],[-88.240889,41.114383],[-88.58624,41.108293],[-88.595961,41.457129]]]}},{"type":"Feature","properties":{"GEOID":"17139","NAME":"Moultrie","state":"IL","wildfire_risk_score":4.326,"wildfire_eal_total":998.17,"risk_band":"Moderate","source":"FEMA National Risk Index v1.20 (December 2025)"},"geometry":{"type":"Polygon","coordinates":[[[-88.812709,39.740486],[-88.75784,39.739907],[-88.75866,39.792067],[-88.473182,39.791837],[-88.470505,39.447041],[-88.584273,39.447582],[-88.584543,39.476988],[-88.603185,39.477031],[-88.603211,39.491599],[-88.622235,39.491904],[-88.62239,39.506496],[-88.64117,39.506696],[-88.641468,39.520958],[-88.716875,39.521209],[-88.717457,39.579335],[-88.809051,39.580241],[-88.812709,39.740486]]]}},{"type":"Feature","properties":{"GEOID":"17169","NAME":"Schuyler","state":"IL","wildfire_risk_score":0.35,"wildfire_eal_total":90.64,"risk_band":"Low","source":"FEMA National Risk Index v1.20 (December 2025)"},"geometry":{"type":"Polygon","coordinates":[[[-90.913471,40.104527],[-90.909756,40.284394],[-90.450227,40.276335],[-90.451916,40.188803],[-90.199635,40.183812],[-90.202671,40.16069],[-90.21336,40.151291],[-90.268144,40.154563],[-90.307551,40.139951],[-90.335173,40.13724],[-90.348841,40.125603],[-90.372836,40.122363],[-90.393431,40.091866],[-90.393432,40.078759],[-90.428638,40.060345],[-90.434978,40.021528],[-90.453501,40.010997],[-90.504348,39.997033],[-90.515705,39.984352],[-90.526823,39.987604],[-90.523853,39.983303],[-90.526946,39.982115],[-90.52956,39.985112],[-90.543596,39.980359],[-90.607134,39.981658],[-90.601947,40.003317],[-90.619012,40.0153],[-90.616921,40.020512],[-90.611296,40.017564],[-90.607282,40.020836],[-90.607258,40.029506],[-90.611664,40.032912],[-90.616123,40.027329],[-90.630387,40.023664],[-90.633506,40.02897],[-90.653351,40.033143],[-90.652098,40.039203],[-90.661528,40.04664],[-90.67507,40.045979],[-90.677567,40.059887],[-90.671995,40.08013],[-90.694506,40.079378],[-90.70916,40.090423],[-90.699928,40.09445],[-90.696007,40.103967],[-90.913471,40.104527]]]}},{"type":"Feature","properties":{"GEOID":"17015","NAME":"Carroll","state":"IL","wildfire_risk_score":13.073,"wildfire_eal_total":3904.11,"risk_band":"High","source":"FEMA National Risk Index v1.20 (December 2025)"},"geometry":{"type":"Polygon","coordinates":[[[-90.3173312688908,42.1936467132019],[-89.688486,42.199112],[-89.685366,41.93034],[-90.1518383787674,41.92891733574],[-90.163847,41.944934],[-90.164135,41.956178],[-90.146225,41.981329],[-90.140061,42.003252],[-90.151579,42.030633],[-90.164485,42.042105],[-90.168358,42.075779],[-90.161504,42.098912],[-90.162895,42.116718],[-90.17097,42.125198],[-90.190452,42.125779],[-90.201404,42.130937],[-90.207421,42.149109],[-90.216107,42.15673],[-90.3173312688908,42.1936467132019]]]}},{"type":"Feature","properties":{"GEOID":"17005","NAME":"Bond","state":"IL","wildfire_risk_score":7.506,"wildfire_eal_total":2321.43,"risk_band":"Moderate","source":"FEMA National Risk Index v1.20 (December 2025)"},"geometry":{"type":"Polygon","coordinates":[[[-89.639265,38.999129],[-89.586092,38.999456],[-89.586344,39.028329],[-89.250309,39.028185],[-89.250305,38.999191],[-89.25736,38.99917],[-89.254185,38.741907],[-89.597321,38.743236],[-89.599593,38.87453],[-89.636874,38.874278],[-89.639265,38.999129]]]}},{"type":"Feature","properties":{"GEOID":"17187","NAME":"Warren","state":"IL","wildfire_risk_score":0.191,"wildfire_eal_total":91.33,"risk_band":"Low","source":"FEMA National Risk Index v1.20 (December 2025)"},"geometry":{"type":"Polygon","coordinates":[[[-90.789633,40.637409],[-90.785194,41.068749],[-90.439423,41.063995],[-90.445627,40.627638],[-90.789633,40.637409]]]}},{"type":"Feature","properties":{"GEOID":"17145","NAME":"Perry","state":"IL","wildfire_risk_score":3.849,"wildfire_eal_total":1098.82,"risk_band":"Moderate","source":"FEMA National Risk Index v1.20 (December 2025)"},"geometry":{"type":"Polygon","coordinates":[[[-89.594765,37.969821],[-89.592797,38.219271],[-89.147597,38.212895],[-89.149841,38.125054],[-89.129632,38.124767],[-89.12922,38.109272],[-89.132314,38.103333],[-89.137296,38.104127],[-89.115253,38.093796],[-89.119155,38.090384],[-89.115656,38.085492],[-89.12272,38.082294],[-89.118501,38.070185],[-89.123336,38.070087],[-89.119096,38.067621],[-89.123225,38.063314],[-89.117072,38.06389],[-89.126924,38.053011],[-89.132945,38.054164],[-89.130429,38.047768],[-89.139131,38.046345],[-89.139038,38.034318],[-89.14683,38.031487],[-89.136072,38.01803],[-89.144984,38.010664],[-89.140147,37.995736],[-89.164814,37.95506],[-89.177597,37.950311],[-89.20618,37.950204],[-89.595073,37.955343],[-89.594765,37.969821]]]}},{"type":"Feature","properties":{"GEOID":"17065","NAME":"Hamilton","state":"IL","wildfire_risk_score":1.145,"wildfire_eal_total":598.04,"risk_band":"Low","source":"FEMA National Risk Index v1.20 (December 2025)"},"geometry":{"type":"Polygon","coordinates":[[[-88.7066,37.921904],[-88.702391,38.256661],[-88.370367,38.255481],[-88.37453,37.907678],[-88.706622,37.906797],[-88.7066,37.921904]]]}},{"type":"Feature","properties":{"GEOID":"17159","NAME":"Richland","state":"IL","wildfire_risk_score":2.735,"wildfire_eal_total":840.13,"risk_band":"Moderate","source":"FEMA National Risk Index v1.20 (December 2025)"},"geometry":{"type":"Polygon","coordinates":[[[-88.29532,38.636707],[-88.275443,38.654478],[-88.272297,38.663558],[-88.28455,38.681632],[-88.284926,38.694885],[-88.28149,38.695688],[-88.286286,38.711022],[-88.282294,38.716227],[-88.286393,38.718138],[-88.28164,38.720354],[-88.286062,38.720231],[-88.282574,38.725588],[-88.287079,38.727936],[-88.28351,38.731807],[-88.257798,38.730923],[-88.258583,38.847529],[-87.908113,38.850107],[-87.912286,38.570104],[-88.147803,38.569037],[-88.148194,38.597987],[-88.253978,38.599502],[-88.249131,38.601508],[-88.252561,38.605637],[-88.271096,38.611951],[-88.2693,38.618415],[-88.285929,38.61934],[-88.280931,38.624605],[-88.292142,38.626201],[-88.288711,38.629047],[-88.29532,38.636707]]]}},{"type":"Feature","properties":{"GEOID":"17079","NAME":"Jasper","state":"IL","wildfire_risk_score":2.354,"wildfire_eal_total":1205.87,"risk_band":"Low","source":"FEMA National Risk Index v1.20 (December 2025)"},"geometry":{"type":"Polygon","coordinates":[[[-88.362779,39.001229],[-88.360654,39.171118],[-87.950385,39.174882],[-87.945919,38.850148],[-88.150265,38.846953],[-88.361758,38.852124],[-88.362779,39.001229]]]}},{"type":"Feature","properties":{"GEOID":"17049","NAME":"Effingham","state":"IL","wildfire_risk_score":10.878,"wildfire_eal_total":3968.67,"risk_band":"High","source":"FEMA National Risk Index v1.20 (December 2025)"},"geometry":{"type":"Polygon","coordinates":[[[-88.806644,38.931007],[-88.805325,39.216263],[-88.470906,39.215029],[-88.470865,39.171463],[-88.360654,39.171118],[-88.361745,38.910847],[-88.579884,38.915385],[-88.806795,38.911585],[-88.806644,38.931007]]]}},{"type":"Feature","properties":{"GEOID":"17067","NAME":"Hancock","state":"IL","wildfire_risk_score":1.431,"wildfire_eal_total":482.05,"risk_band":"Low","source":"FEMA National Risk Index v1.20 (December 2025)"},"geometry":{"type":"Polygon","coordinates":[[[-91.506947,40.21555],[-91.505828,40.238839],[-91.490524,40.259498],[-91.492727,40.278217],[-91.46214,40.342414],[-91.444833,40.36317],[-91.415695,40.381381],[-91.38836,40.384929],[-91.375746,40.391879],[-91.37245,40.411475],[-91.381468,40.44604],[-91.364915,40.484168],[-91.364211,40.500043],[-91.381857,40.528247],[-91.404125,40.539127],[-91.406851,40.547557],[-91.401482,40.559458],[-91.379752,40.57445],[-91.353989,40.606553],[-91.306524,40.626231],[-91.247851,40.63839],[-91.022222,40.634956],[-90.904216,40.639201],[-90.911969,40.193088],[-91.5050369123376,40.1999250958141],[-91.506947,40.21555]]]}},{"type":"Feature","properties":{"GEOID":"17179","NAME":"Tazewell","state":"IL","wildfire_risk_score":7.952,"wildfire_eal_total":2905.06,"risk_band":"Moderate","source":"FEMA National Risk Index v1.20 (December 2025)"},"geometry":{"type":"Polygon","coordinates":[[[-89.918362,40.437886],[-89.88793,40.474656],[-89.882194,40.505402],[-89.85409,40.522853],[-89.775415,40.552709],[-89.741422,40.550928],[-89.697072,40.562032],[-89.681138,40.552341],[-89.667872,40.559269],[-89.654319,40.574207],[-89.658,40.602625],[-89.612374,40.646457],[-89.610973,40.652322],[-89.616548,40.658321],[-89.613756,40.665081],[-89.591948,40.684515],[-89.553625,40.702284],[-89.546414,40.722994],[-89.553433,40.747636],[-89.330092,40.748257],[-89.327343,40.615566],[-89.269831,40.616097],[-89.26374,40.325344],[-89.714927,40.319218],[-89.717104,40.435655],[-89.92468,40.435921],[-89.918362,40.437886]]]}},{"type":"Feature","properties":{"GEOID":"17085","NAME":"Jo Daviess","state":"IL","wildfire_risk_score":21.469,"wildfire_eal_total":7895.59,"risk_band":"High","source":"FEMA National Risk Index v1.20 (December 2025)"},"geometry":{"type":"Polygon","coordinates":[[[-90.656527,42.489203],[-90.642843,42.508481],[-89.9264661378398,42.5057871623833],[-89.919772,42.196881],[-90.3173312688908,42.1936467132019],[-90.328273,42.201047],[-90.356964,42.205445],[-90.391108,42.225473],[-90.419326,42.254467],[-90.430735,42.284211],[-90.415937,42.322699],[-90.443874,42.355218],[-90.462619,42.367253],[-90.477279,42.383794],[-90.555018,42.416138],[-90.560439,42.432897],[-90.567968,42.440389],[-90.606328,42.451505],[-90.646727,42.471904],[-90.654027,42.478503],[-90.656527,42.489203]]]}},{"type":"Feature","properties":{"GEOID":"17167","NAME":"Sangamon","state":"IL","wildfire_risk_score":18.798,"wildfire_eal_total":7324.68,"risk_band":"High","source":"FEMA National Risk Index v1.20 (December 2025)"},"geometry":{"type":"Polygon","coordinates":[[[-89.994506,39.901925],[-89.769168,39.90235],[-89.769143,39.916865],[-89.701864,39.916787],[-89.698259,39.975309],[-89.483826,39.976733],[-89.483498,39.933151],[-89.404969,39.932717],[-89.404984,39.918187],[-89.217846,39.91699],[-89.217475,39.813217],[-89.234176,39.813088],[-89.23164,39.816041],[-89.236212,39.821813],[-89.248546,39.825737],[-89.259752,39.806782],[-89.296953,39.789502],[-89.303122,39.775813],[-89.327918,39.769694],[-89.325307,39.766184],[-89.329159,39.763581],[-89.354136,39.772093],[-89.360034,39.767517],[-89.362948,39.755635],[-89.373918,39.758646],[-89.397087,39.742153],[-89.410203,39.744031],[-89.419155,39.751434],[-89.417843,39.759205],[-89.425171,39.762022],[-89.425051,39.683696],[-89.478923,39.683964],[-89.478473,39.640842],[-89.535028,39.641138],[-89.533526,39.524592],[-89.926037,39.522104],[-89.924001,39.558435],[-89.984745,39.718079],[-89.985562,39.785356],[-89.993539,39.785393],[-89.994506,39.901925]]]}},{"type":"Feature","properties":{"GEOID":"17133","NAME":"Monroe","state":"IL","wildfire_risk_score":1.908,"wildfire_eal_total":1257.59,"risk_band":"Low","source":"FEMA National Risk Index v1.20 (December 2025)"},"geometry":{"type":"Polygon","coordinates":[[[-90.371719,38.304354],[-90.370819,38.333554],[-90.349132,38.377458],[-90.292782,38.428651],[-90.2638283400561,38.5205107006385],[-90.1454,38.426674],[-90.145562,38.412053],[-90.036096,38.323537],[-90.036107,38.308936],[-89.913057,38.308105],[-89.904085,38.297833],[-89.906836,38.293597],[-89.902501,38.281468],[-89.908797,38.276179],[-89.917187,38.277815],[-89.9113,38.284699],[-89.918857,38.285852],[-89.925213,38.273256],[-89.914524,38.258792],[-89.917276,38.251826],[-89.907539,38.243089],[-89.908736,38.237586],[-89.896751,38.230267],[-89.904471,38.227145],[-89.899043,38.220755],[-90.036316,38.223246],[-90.035997,38.1357],[-90.2053496184049,38.0866563883558],[-90.243116,38.112669],[-90.274928,38.157615],[-90.290765,38.170453],[-90.331554,38.18758],[-90.353902,38.213855],[-90.366388,38.245874],[-90.371719,38.304354]]]}},{"type":"Feature","properties":{"GEOID":"17059","NAME":"Gallatin","state":"IL","wildfire_risk_score":1.209,"wildfire_eal_total":311.53,"risk_band":"Low","source":"FEMA National Risk Index v1.20 (December 2025)"},"geometry":{"type":"Polygon","coordinates":[[[-88.374907,37.614073],[-88.374521,37.908391],[-88.136538,37.907737],[-88.135888,37.915946],[-88.109871,37.903671],[-88.098566,37.889986],[-88.0929181297755,37.8917409009076],[-88.084385,37.885582],[-88.059425,37.848732],[-88.028217,37.838585],[-88.028693,37.827109],[-88.043831,37.821525],[-88.080854,37.830902],[-88.090092,37.825642],[-88.090039,37.816771],[-88.067716,37.80057],[-88.037623,37.809864],[-88.030036,37.806508],[-88.02803,37.799224],[-88.035827,37.791917],[-88.042602,37.76712],[-88.059588,37.742608],[-88.122412,37.709685],[-88.159372,37.661847],[-88.156827,37.632801],[-88.141747,37.602845],[-88.140783,37.585217],[-88.134281,37.574636],[-88.152679,37.573813],[-88.167691,37.592689],[-88.179963,37.599228],[-88.375434,37.599595],[-88.374907,37.614073]]]}},{"type":"Feature","properties":{"GEOID":"17181","NAME":"Union","state":"IL","wildfire_risk_score":9.224,"wildfire_eal_total":2375.02,"risk_band":"Moderate","source":"FEMA National Risk Index v1.20 (December 2025)"},"geometry":{"type":"Polygon","coordinates":[[[-89.5217295671219,37.5662095222196],[-89.5215174256744,37.5721520897118],[-89.509531,37.578877],[-89.50095,37.577239],[-89.50213,37.570554],[-89.474243,37.562091],[-89.465084,37.564412],[-89.453087,37.580113],[-89.45476,37.586402],[-89.447899,37.597984],[-89.453202,37.60009],[-89.041401,37.596576],[-89.044799,37.329717],[-89.221721,37.335245],[-89.4865181498393,37.3345496947572],[-89.447556,37.340475],[-89.432836,37.347056],[-89.42132,37.392077],[-89.439769,37.4372],[-89.475525,37.471388],[-89.516447,37.535558],[-89.5217295671219,37.5662095222196]]]}},{"type":"Feature","properties":{"GEOID":"17193","NAME":"White","state":"IL","wildfire_risk_score":2.226,"wildfire_eal_total":698.89,"risk_band":"Low","source":"FEMA National Risk Index v1.20 (December 2025)"},"geometry":{"type":"Polygon","coordinates":[[[-88.374422,37.953555],[-88.370375,38.255319],[-88.027749,38.255661],[-88.027677,38.259894],[-87.990628,38.259629],[-87.979629,38.24055],[-87.985627,38.217993],[-87.975819,38.197834],[-87.936443,38.171355],[-87.934299,38.156459],[-87.926388,38.15884],[-87.922901,38.173291],[-87.912553,38.170759],[-87.911428,38.16174],[-87.92827,38.150893],[-87.926627,38.142546],[-87.935135,38.139428],[-87.945472,38.126616],[-87.955872,38.132897],[-87.965755,38.132621],[-87.974272,38.121981],[-87.975299,38.110053],[-87.99831,38.108488],[-88.013118,38.103527],[-88.016729,38.097257],[-88.01139,38.084691],[-88.004697,38.083965],[-87.960463,38.099086],[-87.956664,38.086202],[-87.967226,38.067105],[-88.00133,38.051545],[-88.032632,38.051745],[-88.042132,38.046345],[-88.042136,38.039012],[-88.034132,38.032045],[-88.017631,38.034745],[-88.007631,38.029145],[-88.016931,38.024045],[-88.025831,38.007245],[-88.012574,37.977062],[-88.012929,37.966544],[-88.020868,37.959351],[-88.036793,37.956793],[-88.030415,37.930104],[-88.035345,37.925528],[-88.048661,37.926757],[-88.059767,37.933856],[-88.069613,37.926848],[-88.063023,37.918196],[-88.02006,37.9129],[-88.013355,37.894854],[-88.020284,37.888051],[-88.029138,37.892637],[-88.055373,37.891238],[-88.094476,37.905962],[-88.097892,37.901517],[-88.0929181297755,37.8917409009076],[-88.098566,37.889986],[-88.109871,37.903671],[-88.135888,37.915946],[-88.136538,37.907737],[-88.374521,37.908391],[-88.374422,37.953555]]]}},{"type":"Feature","properties":{"GEOID":"17101","NAME":"Lawrence","state":"IL","wildfire_risk_score":0.541,"wildfire_eal_total":198.87,"risk_band":"Low","source":"FEMA National Risk Index v1.20 (December 2025)"},"geometry":{"type":"Polygon","coordinates":[[[-87.912286,38.570104],[-87.908113,38.850107],[-87.5320635292666,38.8525034558356],[-87.525893,38.848795],[-87.521681,38.826576],[-87.527342,38.818121],[-87.495905,38.785434],[-87.49743,38.777438],[-87.514548,38.771821],[-87.511969,38.767538],[-87.498216,38.768307],[-87.504006,38.74971],[-87.49652,38.739336],[-87.505339,38.73497],[-87.519519,38.710455],[-87.522039,38.69335],[-87.531231,38.684036],[-87.597247,38.665314],[-87.605817,38.646518],[-87.62012,38.639489],[-87.616152,38.623215],[-87.627348,38.60544],[-87.624143,38.596955],[-87.613461,38.595042],[-87.61196,38.589248],[-87.622897,38.586198],[-87.637627,38.592654],[-87.639567,38.574163],[-87.651529,38.568166],[-87.912286,38.570104]]]}},{"type":"Feature","properties":{"GEOID":"17131","NAME":"Mercer","state":"IL","wildfire_risk_score":1.081,"wildfire_eal_total":719.26,"risk_band":"Low","source":"FEMA National Risk Index v1.20 (December 2025)"},"geometry":{"type":"Polygon","coordinates":[[[-91.114186,41.250029],[-91.08688,41.294371],[-91.074841,41.305578],[-91.0719555241451,41.3333590479676],[-90.433737,41.326989],[-90.439423,41.063995],[-90.9489900261598,41.0702495855382],[-90.946627,41.096632],[-90.989663,41.155716],[-91.007586,41.166183],[-91.041536,41.166138],[-91.07298,41.207151],[-91.112333,41.239003],[-91.114186,41.250029]]]}},{"type":"Feature","properties":{"GEOID":"17177","NAME":"Stephenson","state":"IL","wildfire_risk_score":26.972,"wildfire_eal_total":10630.94,"risk_band":"High","source":"FEMA National Risk Index v1.20 (December 2025)"},"geometry":{"type":"Polygon","coordinates":[[[-89.9264661378398,42.5057871623833],[-89.4014163930295,42.5004329299029],[-89.396192,42.201916],[-89.919772,42.196881],[-89.9264661378398,42.5057871623833]]]}},{"type":"Feature","properties":{"GEOID":"17203","NAME":"Woodford","state":"IL","wildfire_risk_score":3.34,"wildfire_eal_total":2038.32,"risk_band":"Moderate","source":"FEMA National Risk Index v1.20 (December 2025)"},"geometry":{"type":"Polygon","coordinates":[[[-89.563626,40.782133],[-89.559495,40.799098],[-89.526744,40.842286],[-89.52659,40.853185],[-89.498757,40.874063],[-89.491143,40.894328],[-89.472522,40.921205],[-88.93139,40.92774],[-88.929331,40.753337],[-88.986896,40.752297],[-88.984704,40.665032],[-89.04532,40.663939],[-89.044368,40.627428],[-89.101569,40.625036],[-89.101134,40.612326],[-89.134217,40.61149],[-89.133752,40.596734],[-89.269397,40.594318],[-89.269831,40.616097],[-89.327343,40.615566],[-89.330092,40.748257],[-89.553433,40.747636],[-89.563626,40.782133]]]}},{"type":"Feature","properties":{"GEOID":"17113","NAME":"McLean","state":"IL","wildfire_risk_score":8.874,"wildfire_eal_total":3588.88,"risk_band":"Moderate","source":"FEMA National Risk Index v1.20 (December 2025)"},"geometry":{"type":"Polygon","coordinates":[[[-89.269397,40.594318],[-89.133752,40.596734],[-89.134217,40.61149],[-89.101134,40.612326],[-89.101569,40.625036],[-89.044368,40.627428],[-89.04532,40.663939],[-88.984704,40.665032],[-88.986896,40.752297],[-88.584272,40.757608],[-88.582344,40.670729],[-88.575216,40.670616],[-88.574502,40.61655],[-88.459475,40.617345],[-88.460418,40.281935],[-89.26265,40.280919],[-89.269397,40.594318]]]}},{"type":"Feature","properties":{"GEOID":"17115","NAME":"Macon","state":"IL","wildfire_risk_score":21.151,"wildfire_eal_total":7600.69,"risk_band":"High","source":"FEMA National Risk Index v1.20 (December 2025)"},"geometry":{"type":"Polygon","coordinates":[[[-89.217846,39.91699],[-89.143451,39.917647],[-89.144764,40.048853],[-88.745164,40.055191],[-88.745671,39.792146],[-88.75866,39.792067],[-88.75784,39.739907],[-88.812709,39.740486],[-88.810575,39.653222],[-89.139125,39.655131],[-89.141967,39.801273],[-89.151463,39.80125],[-89.151474,39.804792],[-89.160747,39.804706],[-89.18819,39.817524],[-89.217473,39.813666],[-89.217846,39.91699]]]}},{"type":"Feature","properties":{"GEOID":"17019","NAME":"Champaign","state":"IL","wildfire_risk_score":16.158,"wildfire_eal_total":5993.7,"risk_band":"High","source":"FEMA National Risk Index v1.20 (December 2025)"},"geometry":{"type":"Polygon","coordinates":[[[-88.463551,40.223271],[-88.459957,40.39885],[-87.932387,40.3994],[-87.92876,40.225619],[-87.942103,40.225482],[-87.937645,39.879803],[-88.462207,39.879092],[-88.463551,40.223271]]]}},{"type":"Feature","properties":{"GEOID":"17073","NAME":"Henry","state":"IL","wildfire_risk_score":7.125,"wildfire_eal_total":2799.5,"risk_band":"Moderate","source":"FEMA National Risk Index v1.20 (December 2025)"},"geometry":{"type":"Polygon","coordinates":[[[-90.437265,41.173437],[-90.43193,41.456834],[-90.421129,41.457634],[-90.376663,41.478662],[-90.369427,41.496734],[-90.352231,41.508832],[-90.332657,41.514001],[-90.315059,41.509204],[-90.304716,41.517791],[-90.250123,41.522755],[-90.225842,41.529917],[-90.216737,41.537916],[-90.195324,41.540686],[-90.179098,41.573487],[-90.185536,41.584574],[-89.862351,41.584005],[-89.857369,41.51837],[-89.8575,41.238511],[-89.857616,41.234479],[-89.867793,41.23443],[-89.868152,41.149493],[-90.437652,41.151463],[-90.437265,41.173437]]]}},{"type":"Feature","properties":{"GEOID":"17137","NAME":"Morgan","state":"IL","wildfire_risk_score":1.845,"wildfire_eal_total":653.3,"risk_band":"Low","source":"FEMA National Risk Index v1.20 (December 2025)"},"geometry":{"type":"Polygon","coordinates":[[[-90.597204,39.794851],[-90.565737,39.83007],[-90.582435,39.854574],[-90.583534,39.87675],[-89.994405,39.87286],[-89.993539,39.785393],[-89.985562,39.785356],[-89.984745,39.718079],[-89.924001,39.558435],[-89.926037,39.522104],[-90.301831,39.520344],[-90.300666,39.636541],[-90.338126,39.636633],[-90.337812,39.665583],[-90.372969,39.665781],[-90.371256,39.753122],[-90.483316,39.753434],[-90.483063,39.78924],[-90.599105,39.79006],[-90.597204,39.794851]]]}},{"type":"Feature","properties":{"GEOID":"17151","NAME":"Pope","state":"IL","wildfire_risk_score":8.174,"wildfire_eal_total":2363.4,"risk_band":"Moderate","source":"FEMA National Risk Index v1.20 (December 2025)"},"geometry":{"type":"Polygon","coordinates":[[[-88.710744,37.427585],[-88.708546,37.599059],[-88.412697,37.599625],[-88.4152637088206,37.4234930977791],[-88.450127,37.411717],[-88.470224,37.396255],[-88.476592,37.386875],[-88.484462,37.345609],[-88.515939,37.284043],[-88.506942,37.266656],[-88.508031,37.260261],[-88.487277,37.244077],[-88.471753,37.220155],[-88.447764,37.203527],[-88.433782,37.16407],[-88.424403,37.152428],[-88.443538,37.109192],[-88.444767,37.095256],[-88.460594,37.074298],[-88.4904732961543,37.0682476376822],[-88.49033,37.159462],[-88.710738,37.337081],[-88.710744,37.427585]]]}},{"type":"Feature","properties":{"GEOID":"17023","NAME":"Clark","state":"IL","wildfire_risk_score":8.111,"wildfire_eal_total":2512.91,"risk_band":"Moderate","source":"FEMA National Risk Index v1.20 (December 2025)"},"geometry":{"type":"Polygon","coordinates":[[[-88.013944,39.48079],[-87.687622,39.487363],[-87.689275,39.476771],[-87.5316578789999,39.4771090156042],[-87.531646,39.348062],[-87.544013,39.352907],[-87.5544,39.340488],[-87.584852,39.337329],[-87.60592,39.311076],[-87.621176,39.304162],[-87.598416,39.300086],[-87.609915,39.281415],[-87.601948,39.275165],[-87.604947,39.260212],[-87.593486,39.247452],[-87.580652,39.255237],[-87.571333,39.251381],[-87.579319,39.243552],[-87.577029,39.211123],[-87.605173,39.185897],[-87.6204,39.185195],[-87.620521,39.17033],[-87.640434,39.166727],[-87.641412,39.160351],[-87.6293662476107,39.1575316188601],[-87.657018,39.15786],[-87.656919,39.172179],[-87.747096,39.172391],[-87.746174,39.17922],[-88.007766,39.173925],[-88.013944,39.48079]]]}},{"type":"Feature","properties":{"GEOID":"17195","NAME":"Whiteside","state":"IL","wildfire_risk_score":14.122,"wildfire_eal_total":4636.75,"risk_band":"High","source":"FEMA National Risk Index v1.20 (December 2025)"},"geometry":{"type":"Polygon","coordinates":[[[-90.246714,41.75476],[-90.236773,41.762598],[-90.24717,41.762609],[-90.2423802567555,41.7829645079628],[-90.181973,41.80707],[-90.183765,41.83624],[-90.173006,41.857402],[-90.170041,41.876439],[-90.153584,41.906614],[-90.1518383787674,41.92891733574],[-89.628907,41.930044],[-89.631494,41.584949],[-90.185536,41.584574],[-90.183675,41.59019],[-90.166037,41.59416],[-90.159878,41.630495],[-90.173913,41.640069],[-90.163814,41.639217],[-90.16185,41.644614],[-90.189532,41.663374],[-90.236182,41.679496],[-90.22686,41.683484],[-90.22679,41.692521],[-90.23205,41.691862],[-90.231159,41.69576],[-90.244956,41.702379],[-90.234083,41.725011],[-90.238667,41.727265],[-90.236509,41.740747],[-90.244268,41.740383],[-90.247917,41.746877],[-90.246714,41.75476]]]}},{"type":"Feature","properties":{"GEOID":"17095","NAME":"Knox","state":"IL","wildfire_risk_score":1.113,"wildfire_eal_total":445.75,"risk_band":"Low","source":"FEMA National Risk Index v1.20 (December 2025)"},"geometry":{"type":"Polygon","coordinates":[[[-90.444084,40.729392],[-90.437652,41.151463],[-89.984559,41.149394],[-89.986064,40.712361],[-90.444339,40.714868],[-90.444084,40.729392]]]}},{"type":"Feature","properties":{"GEOID":"17011","NAME":"Bureau","state":"IL","wildfire_risk_score":13.041,"wildfire_eal_total":4291.14,"risk_band":"High","source":"FEMA National Risk Index v1.20 (December 2025)"},"geometry":{"type":"Polygon","coordinates":[[[-89.862351,41.584005],[-89.166561,41.585289],[-89.163705,41.310187],[-89.224854,41.3131],[-89.268851,41.32182],[-89.283466,41.312385],[-89.33802,41.299704],[-89.342422,41.293167],[-89.337083,41.281667],[-89.356729,41.233039],[-89.466389,41.233872],[-89.466101,41.148524],[-89.638536,41.148545],[-89.638708,41.233862],[-89.857616,41.234479],[-89.857369,41.51837],[-89.862351,41.584005]]]}},{"type":"Feature","properties":{"GEOID":"17051","NAME":"Fayette","state":"IL","wildfire_risk_score":15.808,"wildfire_eal_total":5267.26,"risk_band":"High","source":"FEMA National Risk Index v1.20 (December 2025)"},"geometry":{"type":"Polygon","coordinates":[[[-89.25736,38.99917],[-89.250305,38.999191],[-89.250513,39.217512],[-88.805325,39.216263],[-88.806795,38.911585],[-88.693531,38.914617],[-88.695165,38.826299],[-89.138138,38.824209],[-89.138393,38.736331],[-89.254185,38.742018],[-89.25736,38.99917]]]}},{"type":"Feature","properties":{"GEOID":"17147","NAME":"Piatt","state":"IL","wildfire_risk_score":3.976,"wildfire_eal_total":1499.33,"risk_band":"Moderate","source":"FEMA National Risk Index v1.20 (December 2025)"},"geometry":{"type":"Polygon","coordinates":[[[-88.745957,39.858136],[-88.745344,40.098813],[-88.688188,40.098552],[-88.687993,40.142269],[-88.574885,40.281501],[-88.460418,40.281935],[-88.462328,39.79182],[-88.745671,39.792146],[-88.745957,39.858136]]]}},{"type":"Feature","properties":{"GEOID":"17103","NAME":"Lee","state":"IL","wildfire_risk_score":9.447,"wildfire_eal_total":3426.94,"risk_band":"Moderate","source":"FEMA National Risk Index v1.20 (December 2025)"},"geometry":{"type":"Polygon","coordinates":[[[-89.632233,41.678611],[-89.62933,41.901617],[-89.479989,41.902502],[-89.476197,41.909291],[-89.464596,41.911625],[-89.422412,41.905567],[-89.422193,41.899928],[-89.431761,41.89398],[-89.413157,41.885536],[-89.411106,41.894692],[-89.398652,41.902833],[-89.360392,41.902616],[-89.360578,41.888018],[-88.941279,41.891752],[-88.938679,41.628316],[-89.16715,41.628657],[-89.166561,41.585289],[-89.631494,41.584949],[-89.632233,41.678611]]]}},{"type":"Feature","properties":{"GEOID":"17171","NAME":"Scott","state":"IL","wildfire_risk_score":0.095,"wildfire_eal_total":56.47,"risk_band":"Low","source":"FEMA National Risk Index v1.20 (December 2025)"},"geometry":{"type":"Polygon","coordinates":[[[-90.646012,39.702791],[-90.640984,39.717426],[-90.628422,39.729485],[-90.607634,39.763873],[-90.606931,39.776376],[-90.599105,39.79006],[-90.483063,39.78924],[-90.483316,39.753434],[-90.371256,39.753122],[-90.372969,39.665781],[-90.337812,39.665583],[-90.338126,39.636633],[-90.300666,39.636541],[-90.301831,39.520344],[-90.581055,39.521728],[-90.572293,39.539166],[-90.57662,39.559536],[-90.604991,39.620064],[-90.608871,39.640287],[-90.633491,39.673008],[-90.646012,39.702791]]]}},{"type":"Feature","properties":{"GEOID":"17165","NAME":"Saline","state":"IL","wildfire_risk_score":8.556,"wildfire_eal_total":1934.55,"risk_band":"Moderate","source":"FEMA National Risk Index v1.20 (December 2025)"},"geometry":{"type":"Polygon","coordinates":[[[-88.708566,37.608327],[-88.706622,37.906797],[-88.37453,37.907678],[-88.375455,37.599023],[-88.708546,37.599059],[-88.708566,37.608327]]]}},{"type":"Feature","properties":{"GEOID":"17009","NAME":"Brown","state":"IL","wildfire_risk_score":0.223,"wildfire_eal_total":84.4,"risk_band":"Low","source":"FEMA National Risk Index v1.20 (December 2025)"},"geometry":{"type":"Polygon","coordinates":[[[-90.917031,39.902205],[-90.913469,40.104455],[-90.696007,40.103967],[-90.699928,40.09445],[-90.70916,40.090423],[-90.694506,40.079378],[-90.671995,40.08013],[-90.677567,40.059887],[-90.67507,40.045979],[-90.661528,40.04664],[-90.652098,40.039203],[-90.653351,40.033143],[-90.633506,40.02897],[-90.630387,40.023664],[-90.616123,40.027329],[-90.611664,40.032912],[-90.607258,40.029506],[-90.607282,40.020836],[-90.611296,40.017564],[-90.616921,40.020512],[-90.619012,40.0153],[-90.601947,40.003317],[-90.607134,39.981658],[-90.543596,39.980359],[-90.52956,39.985112],[-90.525964,39.982275],[-90.527478,39.98701],[-90.520727,39.988311],[-90.512193,39.983914],[-90.511115,39.967605],[-90.532113,39.946012],[-90.538162,39.918239],[-90.55428,39.901364],[-90.575581,39.891261],[-90.5849,39.875047],[-90.582435,39.854574],[-90.571424,39.838961],[-90.894252,39.841058],[-90.916669,39.844927],[-90.917031,39.902205]]]}},{"type":"Feature","properties":{"GEOID":"17007","NAME":"Boone","state":"IL","wildfire_risk_score":8.302,"wildfire_eal_total":2848.24,"risk_band":"Moderate","source":"FEMA National Risk Index v1.20 (December 2025)"},"geometry":{"type":"Polygon","coordinates":[[[-88.940992,42.239391],[-88.940391,42.495046],[-88.7074208085447,42.4935859308696],[-88.705585,42.153537],[-88.939732,42.15232],[-88.940992,42.239391]]]}},{"type":"Feature","properties":{"GEOID":"17055","NAME":"Franklin","state":"IL","wildfire_risk_score":5.757,"wildfire_eal_total":1338.14,"risk_band":"Moderate","source":"FEMA National Risk Index v1.20 (December 2025)"},"geometry":{"type":"Polygon","coordinates":[[[-89.17824,37.952557],[-89.164814,37.95506],[-89.155106,37.967815],[-89.153843,37.977575],[-89.140147,37.995736],[-89.144984,38.010664],[-89.136072,38.01803],[-89.14683,38.031487],[-89.139038,38.034318],[-89.139131,38.046345],[-89.130429,38.047768],[-89.132945,38.054164],[-89.126924,38.053011],[-89.117072,38.06389],[-89.123225,38.063314],[-89.119096,38.067621],[-89.123336,38.070087],[-89.118501,38.070185],[-89.12272,38.082294],[-89.115656,38.085492],[-89.119155,38.090384],[-89.115253,38.093796],[-89.137296,38.104127],[-89.132314,38.103333],[-89.12922,38.109272],[-89.129632,38.124767],[-88.704606,38.125195],[-88.706759,37.863457],[-89.151176,37.861999],[-89.150834,37.950196],[-89.17824,37.952557]]]}},{"type":"Feature","properties":{"GEOID":"17089","NAME":"Kane","state":"IL","wildfire_risk_score":32.729,"wildfire_eal_total":20753.89,"risk_band":"High","source":"FEMA National Risk Index v1.20 (December 2025)"},"geometry":{"type":"Polygon","coordinates":[[[-88.602566,41.806847],[-88.601958,42.066469],[-88.58833,42.066462],[-88.588657,42.15359],[-88.238449,42.154249],[-88.238186,42.066985],[-88.263641,42.066873],[-88.261952,41.724652],[-88.601933,41.719563],[-88.602566,41.806847]]]}},{"type":"Feature","properties":{"GEOID":"17033","NAME":"Crawford","state":"IL","wildfire_risk_score":1.972,"wildfire_eal_total":917.39,"risk_band":"Low","source":"FEMA National Risk Index v1.20 (December 2025)"},"geometry":{"type":"Polygon","coordinates":[[[-87.950385,39.174882],[-87.746174,39.17922],[-87.747096,39.172391],[-87.656919,39.172179],[-87.657018,39.15786],[-87.6293662476107,39.1575316188601],[-87.631571,39.152986],[-87.642175,39.157097],[-87.651719,39.150602],[-87.658201,39.138404],[-87.655239,39.132283],[-87.6351,39.122298],[-87.641588,39.114542],[-87.651022,39.116439],[-87.652796,39.106839],[-87.614881,39.102655],[-87.620978,39.088096],[-87.615964,39.082566],[-87.595559,39.078978],[-87.572588,39.057286],[-87.580252,39.039377],[-87.569696,39.019413],[-87.578654,38.999502],[-87.560427,38.992425],[-87.565193,38.988795],[-87.576984,38.99127],[-87.576531,38.986711],[-87.529496,38.971925],[-87.512187,38.954417],[-87.521851,38.940069],[-87.516628,38.932995],[-87.518826,38.923205],[-87.527702,38.918449],[-87.527295,38.907215],[-87.516728,38.904123],[-87.533695,38.900957],[-87.535703,38.887207],[-87.539122,38.896119],[-87.544089,38.895093],[-87.544292,38.888953],[-87.534919,38.878874],[-87.54737,38.875614],[-87.543188,38.864214],[-87.553394,38.86241],[-87.5320635292666,38.8525034558356],[-87.945919,38.850148],[-87.950385,39.174882]]]}},{"type":"Feature","properties":{"GEOID":"17107","NAME":"Logan","state":"IL","wildfire_risk_score":1.495,"wildfire_eal_total":598.42,"risk_band":"Low","source":"FEMA National Risk Index v1.20 (December 2025)"},"geometry":{"type":"Polygon","coordinates":[[[-89.603598,40.218378],[-89.602981,40.320273],[-89.26374,40.325344],[-89.26265,40.280919],[-89.148772,40.28252],[-89.143451,39.917647],[-89.404984,39.918187],[-89.404969,39.932717],[-89.483498,39.933151],[-89.483826,39.976733],[-89.578289,39.976127],[-89.579128,40.092415],[-89.60112,40.092284],[-89.603598,40.218378]]]}},{"type":"Feature","properties":{"GEOID":"17087","NAME":"Johnson","state":"IL","wildfire_risk_score":11.26,"wildfire_eal_total":2632.96,"risk_band":"High","source":"FEMA National Risk Index v1.20 (December 2025)"},"geometry":{"type":"Polygon","coordinates":[[[-89.044494,37.384004],[-89.041401,37.596576],[-88.708546,37.599277],[-88.710738,37.337081],[-88.905071,37.335743],[-88.896417,37.330073],[-88.897561,37.317491],[-88.926533,37.303233],[-88.942024,37.304016],[-88.963092,37.2975],[-88.968511,37.303136],[-89.003136,37.311223],[-89.018265,37.309146],[-89.044689,37.294111],[-89.044494,37.384004]]]}},{"type":"Feature","properties":{"GEOID":"17123","NAME":"Marshall","state":"IL","wildfire_risk_score":4.389,"wildfire_eal_total":1350.7,"risk_band":"Moderate","source":"FEMA National Risk Index v1.20 (December 2025)"},"geometry":{"type":"Polygon","coordinates":[[[-89.638692,40.986908],[-89.638536,41.148545],[-89.32927,41.147931],[-89.335892,41.117269],[-89.358437,41.103849],[-89.047394,41.104786],[-89.047718,40.925749],[-89.472522,40.921205],[-89.455306,40.935507],[-89.447693,40.973246],[-89.638727,40.973707],[-89.638692,40.986908]]]}},{"type":"Feature","properties":{"GEOID":"17141","NAME":"Ogle","state":"IL","wildfire_risk_score":11.419,"wildfire_eal_total":4571.46,"risk_band":"High","source":"FEMA National Risk Index v1.20 (December 2025)"},"geometry":{"type":"Polygon","coordinates":[[[-89.688486,42.199112],[-89.173,42.204241],[-89.172803,42.150417],[-88.939732,42.15232],[-88.941279,41.891752],[-89.360578,41.888018],[-89.360392,41.902616],[-89.398652,41.902833],[-89.411106,41.894692],[-89.413157,41.885536],[-89.431761,41.89398],[-89.422193,41.899928],[-89.422412,41.905567],[-89.464596,41.911625],[-89.476197,41.909291],[-89.479989,41.902502],[-89.62933,41.901617],[-89.628907,41.930044],[-89.685366,41.93034],[-89.688486,42.199112]]]}},{"type":"Feature","properties":{"GEOID":"17183","NAME":"Vermilion","state":"IL","wildfire_risk_score":22.678,"wildfire_eal_total":7545.9,"risk_band":"High","source":"FEMA National Risk Index v1.20 (December 2025)"},"geometry":{"type":"Polygon","coordinates":[[[-87.942103,40.225482],[-87.92876,40.225619],[-87.935309,40.485923],[-87.5263661821947,40.4912369959331],[-87.5331864205842,39.8829997374169],[-87.581679,39.882307],[-87.557533,39.868784],[-87.617422,39.868608],[-87.615161,39.881579],[-87.937645,39.879803],[-87.942103,40.225482]]]}},{"type":"Feature","properties":{"GEOID":"17091","NAME":"Kankakee","state":"IL","wildfire_risk_score":20.261,"wildfire_eal_total":7170.18,"risk_band":"High","source":"FEMA National Risk Index v1.20 (December 2025)"},"geometry":{"type":"Polygon","coordinates":[[[-88.251501,41.114218],[-88.240889,41.114383],[-88.244144,41.201566],[-88.01181,41.205508],[-88.013919,41.292447],[-87.5267288667182,41.2980520023116],[-87.5263437902207,41.0103386177154],[-88.2473,40.99456],[-88.251501,41.114218]]]}},{"type":"Feature","properties":{"GEOID":"17121","NAME":"Marion","state":"IL","wildfire_risk_score":15.458,"wildfire_eal_total":4366.96,"risk_band":"High","source":"FEMA National Risk Index v1.20 (December 2025)"},"geometry":{"type":"Polygon","coordinates":[[[-89.144315,38.476621],[-89.138138,38.824209],[-88.695165,38.826299],[-88.698961,38.474914],[-89.144315,38.476621]]]}},{"type":"Feature","properties":{"GEOID":"17037","NAME":"DeKalb","state":"IL","wildfire_risk_score":6.425,"wildfire_eal_total":2203.23,"risk_band":"Moderate","source":"FEMA National Risk Index v1.20 (December 2025)"},"geometry":{"type":"Polygon","coordinates":[[[-88.942146,42.06505],[-88.938936,42.065068],[-88.939732,42.15232],[-88.588657,42.15359],[-88.58833,42.066462],[-88.601958,42.066469],[-88.60224,41.631389],[-88.938679,41.628316],[-88.942146,42.06505]]]}},{"type":"Feature","properties":{"GEOID":"17199","NAME":"Williamson","state":"IL","wildfire_risk_score":14.186,"wildfire_eal_total":4288.24,"risk_band":"High","source":"FEMA National Risk Index v1.20 (December 2025)"},"geometry":{"type":"Polygon","coordinates":[[[-89.152642,37.686803],[-89.151176,37.861999],[-88.706759,37.863457],[-88.708546,37.599277],[-88.97721,37.59626],[-89.153617,37.600237],[-89.152642,37.686803]]]}},{"type":"Feature","properties":{"GEOID":"17053","NAME":"Ford","state":"IL","wildfire_risk_score":1.781,"wildfire_eal_total":683.9,"risk_band":"Low","source":"FEMA National Risk Index v1.20 (December 2025)"},"geometry":{"type":"Polygon","coordinates":[[[-88.459801,40.416926],[-88.459475,40.617345],[-88.23495,40.618208],[-88.2473,40.99456],[-88.131935,40.997777],[-88.1179,40.487856],[-87.935309,40.485923],[-87.931712,40.3994],[-88.459957,40.39885],[-88.459801,40.416926]]]}},{"type":"Feature","properties":{"GEOID":"17077","NAME":"Jackson","state":"IL","wildfire_risk_score":11.45,"wildfire_eal_total":2855.39,"risk_band":"High","source":"FEMA National Risk Index v1.20 (December 2025)"},"geometry":{"type":"Polygon","coordinates":[[[-89.680773,37.822095],[-89.664439,37.829131],[-89.65631,37.858679],[-89.595073,37.955343],[-89.150834,37.950196],[-89.153617,37.600237],[-89.453202,37.60009],[-89.447899,37.597984],[-89.45476,37.586402],[-89.4538,37.578139],[-89.470505,37.562167],[-89.50213,37.570554],[-89.502362,37.577997],[-89.5215174256744,37.5721520897118],[-89.516538,37.584504],[-89.486062,37.580853],[-89.47603,37.590226],[-89.478399,37.598869],[-89.517718,37.641217],[-89.514255,37.689923],[-89.52573,37.698441],[-89.583316,37.713261],[-89.596566,37.732886],[-89.615586,37.74235],[-89.617278,37.74972],[-89.64953,37.745498],[-89.663352,37.750052],[-89.667993,37.759484],[-89.66038,37.786296],[-89.6744157937809,37.8030052944616],[-89.680773,37.822095]]]}},{"type":"Feature","properties":{"GEOID":"17001","NAME":"Adams","state":"IL","wildfire_risk_score":5.216,"wildfire_eal_total":1839.77,"risk_band":"Moderate","source":"FEMA National Risk Index v1.20 (December 2025)"},"geometry":{"type":"Polygon","coordinates":[[[-91.512974,40.181062],[-91.5050369123376,40.1999250958141],[-90.911969,40.193088],[-90.915961,39.7572],[-91.365125,39.758723],[-91.361571,39.787548],[-91.367966,39.800403],[-91.377971,39.811273],[-91.432919,39.840554],[-91.446385,39.870394],[-91.443513,39.893583],[-91.420878,39.914865],[-91.41936,39.927717],[-91.465315,39.983995],[-91.494878,40.036453],[-91.489606,40.057435],[-91.509245,40.121876],[-91.511749,40.147091],[-91.508224,40.157665],[-91.512974,40.181062]]]}},{"type":"Feature","properties":{"GEOID":"17069","NAME":"Hardin","state":"IL","wildfire_risk_score":5.344,"wildfire_eal_total":1457.54,"risk_band":"Moderate","source":"FEMA National Risk Index v1.20 (December 2025)"},"geometry":{"type":"Polygon","coordinates":[[[-88.415412,37.423821],[-88.412697,37.599625],[-88.179963,37.599228],[-88.167691,37.592689],[-88.152679,37.573813],[-88.137286,37.575306],[-88.122938,37.569345],[-88.088049,37.535124],[-88.072242,37.528826],[-88.062568,37.513563],[-88.065218,37.489422],[-88.085229,37.47154],[-88.135142,37.471626],[-88.281667,37.452596],[-88.312585,37.440591],[-88.365471,37.401663],[-88.39734,37.421644],[-88.415412,37.423821]]]}},{"type":"Feature","properties":{"GEOID":"17083","NAME":"Jersey","state":"IL","wildfire_risk_score":0.477,"wildfire_eal_total":321.75,"risk_band":"Low","source":"FEMA National Risk Index v1.20 (December 2025)"},"geometry":{"type":"Polygon","coordinates":[[[-90.603569,39.117592],[-90.597688,39.125702],[-90.597959,39.136752],[-90.582803,39.144327],[-90.585364,39.161553],[-90.575257,39.167203],[-90.582106,39.176927],[-90.580587,39.184895],[-90.57334,39.184097],[-90.574615,39.178623],[-90.570442,39.177785],[-90.566059,39.180824],[-90.570114,39.183372],[-90.555465,39.188986],[-90.545483,39.190079],[-90.54396,39.183183],[-90.536454,39.192857],[-90.53054,39.187343],[-90.526816,39.192449],[-90.52301,39.187053],[-90.503236,39.181705],[-90.505821,39.172916],[-90.502458,39.163745],[-90.495793,39.160235],[-90.487879,39.164074],[-90.487624,39.175005],[-90.313289,39.174289],[-90.31393,39.225128],[-90.201769,39.225497],[-90.202681,39.258192],[-90.193699,39.258235],[-90.193872,39.26196],[-90.148121,39.261947],[-90.145984,38.999303],[-90.273959,38.999036],[-90.2757143876519,38.9234478502008],[-90.309454,38.92412],[-90.395816,38.960037],[-90.440078,38.967364],[-90.487225,38.967729],[-90.519644,38.953943],[-90.534657,38.958499],[-90.570169,38.99329],[-90.576101,39.009383],[-90.575404,39.033032],[-90.59001,39.050679],[-90.581406,39.06568],[-90.58927,39.076036],[-90.603569,39.117592]]]}},{"type":"Feature","properties":{"GEOID":"17081","NAME":"Jefferson","state":"IL","wildfire_risk_score":9.701,"wildfire_eal_total":2786.57,"risk_band":"High","source":"FEMA National Risk Index v1.20 (December 2025)"},"geometry":{"type":"Polygon","coordinates":[[[-89.147598,38.21286],[-89.144388,38.473878],[-88.698961,38.474914],[-88.704606,38.125195],[-89.149841,38.125054],[-89.147598,38.21286]]]}},{"type":"Feature","properties":{"GEOID":"17041","NAME":"Douglas","state":"IL","wildfire_risk_score":4.198,"wildfire_eal_total":1178.93,"risk_band":"Moderate","source":"FEMA National Risk Index v1.20 (December 2025)"},"geometry":{"type":"Polygon","coordinates":[[[-88.473182,39.791837],[-88.462328,39.79182],[-88.462207,39.879092],[-87.937645,39.879803],[-87.937029,39.792371],[-87.968777,39.79235],[-87.966347,39.685973],[-88.063013,39.681311],[-88.063518,39.652657],[-88.472073,39.651588],[-88.473182,39.791837]]]}},{"type":"Feature","properties":{"GEOID":"17173","NAME":"Shelby","state":"IL","wildfire_risk_score":12.564,"wildfire_eal_total":4939.6,"risk_band":"High","source":"FEMA National Risk Index v1.20 (December 2025)"},"geometry":{"type":"Polygon","coordinates":[[[-89.139801,39.336289],[-89.139807,39.348888],[-89.025382,39.34592],[-89.02568,39.654183],[-88.810575,39.653222],[-88.809051,39.580241],[-88.717457,39.579335],[-88.716875,39.521209],[-88.641468,39.520958],[-88.64117,39.506696],[-88.62239,39.506496],[-88.622235,39.491904],[-88.603211,39.491599],[-88.603185,39.477031],[-88.584543,39.476988],[-88.584273,39.447582],[-88.470505,39.447041],[-88.470906,39.215029],[-89.139412,39.217242],[-89.139801,39.336289]]]}},{"type":"Feature","properties":{"GEOID":"17061","NAME":"Greene","state":"IL","wildfire_risk_score":0.254,"wildfire_eal_total":108.13,"risk_band":"Low","source":"FEMA National Risk Index v1.20 (December 2025)"},"geometry":{"type":"Polygon","coordinates":[[[-90.622139,39.368277],[-90.613775,39.395416],[-90.616807,39.423878],[-90.610502,39.457447],[-90.592092,39.486979],[-90.581055,39.521728],[-90.153782,39.520315],[-90.148069,39.261947],[-90.193872,39.26196],[-90.193699,39.258235],[-90.202681,39.258192],[-90.201769,39.225497],[-90.31393,39.225128],[-90.313289,39.174289],[-90.487624,39.175005],[-90.487879,39.164074],[-90.495793,39.160235],[-90.502458,39.163745],[-90.505821,39.172916],[-90.503236,39.181705],[-90.52301,39.187053],[-90.526816,39.192449],[-90.53054,39.187343],[-90.536454,39.192857],[-90.54396,39.183183],[-90.545483,39.190079],[-90.555465,39.188986],[-90.570114,39.183372],[-90.566059,39.180824],[-90.570442,39.177785],[-90.574615,39.178623],[-90.57334,39.184097],[-90.580587,39.184895],[-90.582106,39.176927],[-90.575257,39.167203],[-90.585364,39.161553],[-90.582803,39.144327],[-90.597959,39.136752],[-90.597688,39.125702],[-90.603569,39.117592],[-90.61454,39.14229],[-90.614646,39.153789],[-90.61205,39.167275],[-90.592095,39.19579],[-90.592289,39.21823],[-90.597989,39.24333],[-90.609796,39.259812],[-90.60243,39.292693],[-90.611303,39.311494],[-90.622139,39.368277]]]}},{"type":"Feature","properties":{"GEOID":"17143","NAME":"Peoria","state":"IL","wildfire_risk_score":9.796,"wildfire_eal_total":2895.31,"risk_band":"High","source":"FEMA National Risk Index v1.20 (December 2025)"},"geometry":{"type":"Polygon","coordinates":[[[-89.988917,40.629523],[-89.985479,40.974495],[-89.447693,40.973246],[-89.455306,40.935507],[-89.472522,40.921205],[-89.488637,40.898784],[-89.498757,40.874063],[-89.523976,40.856723],[-89.526744,40.842286],[-89.559495,40.799098],[-89.563626,40.782133],[-89.546414,40.722994],[-89.552742,40.703764],[-89.591948,40.684515],[-89.613756,40.665081],[-89.616548,40.658321],[-89.610973,40.652322],[-89.612374,40.646457],[-89.658,40.602625],[-89.654601,40.573038],[-89.673559,40.55506],[-89.682911,40.552591],[-89.697072,40.562032],[-89.741422,40.550928],[-89.775415,40.552709],[-89.81357,40.540564],[-89.872462,40.513225],[-89.87368,40.624975],[-89.989018,40.625835],[-89.988917,40.629523]]]}},{"type":"Feature","properties":{"GEOID":"17111","NAME":"McHenry","state":"IL","wildfire_risk_score":31.616,"wildfire_eal_total":24530.51,"risk_band":"High","source":"FEMA National Risk Index v1.20 (December 2025)"},"geometry":{"type":"Polygon","coordinates":[[[-88.70738,42.493587],[-88.1993911160847,42.4960178674171],[-88.199584,42.15426],[-88.705585,42.153537],[-88.70738,42.493587]]]}},{"type":"Feature","properties":{"GEOID":"17029","NAME":"Coles","state":"IL","wildfire_risk_score":9.542,"wildfire_eal_total":3204.72,"risk_band":"Moderate","source":"FEMA National Risk Index v1.20 (December 2025)"},"geometry":{"type":"Polygon","coordinates":[[[-88.472073,39.651588],[-88.063518,39.652657],[-88.063013,39.681311],[-87.966347,39.685973],[-87.960179,39.481309],[-88.013944,39.48079],[-88.012121,39.378968],[-88.47083,39.374515],[-88.472073,39.651588]]]}},{"type":"Feature","properties":{"GEOID":"17075","NAME":"Iroquois","state":"IL","wildfire_risk_score":3.531,"wildfire_eal_total":1260.72,"risk_band":"Moderate","source":"FEMA National Risk Index v1.20 (December 2025)"},"geometry":{"type":"Polygon","coordinates":[[[-88.131123,40.997867],[-87.5263437902207,41.0103386177154],[-87.5263661821947,40.4912369959331],[-87.972454,40.48566],[-88.1179,40.487856],[-88.131123,40.997867]]]}},{"type":"Feature","properties":{"GEOID":"17119","NAME":"Madison","state":"IL","wildfire_risk_score":14.758,"wildfire_eal_total":5590.24,"risk_band":"High","source":"FEMA National Risk Index v1.20 (December 2025)"},"geometry":{"type":"Polygon","coordinates":[[[-90.275439,38.934823],[-90.273959,38.999036],[-89.639265,38.999129],[-89.636874,38.874278],[-89.599593,38.87453],[-89.595103,38.655948],[-90.1812424797994,38.6600622552243],[-90.18641,38.67475],[-90.20921,38.70275],[-90.20991,38.72605],[-90.176309,38.754449],[-90.166409,38.772649],[-90.123107,38.798048],[-90.114707,38.815048],[-90.109407,38.843548],[-90.113327,38.849306],[-90.166409,38.876348],[-90.19761,38.887648],[-90.223041,38.907389],[-90.250248,38.919344],[-90.2757143876519,38.9234478502008],[-90.275439,38.934823]]]}}]}