{"type":"FeatureCollection","metadata":{"state":"IN","boundary_source":"U.S. Census Bureau 2024 Cartographic Boundary File (counties, 1:500,000)","risk_source":"FEMA National Risk Index v1.20 (December 2025)"},"features":[{"type":"Feature","properties":{"GEOID":"18089","NAME":"Lake","state":"IN","wildfire_risk_score":66.062,"wildfire_eal_total":119845.59,"risk_band":"High","source":"FEMA National Risk Index v1.20 (December 2025)"},"geometry":{"type":"Polygon","coordinates":[[[-87.526729,41.298175],[-87.524165,41.708314],[-87.521308,41.710031],[-87.504514,41.691569],[-87.470742,41.672835],[-87.446803,41.683212],[-87.438033,41.664563],[-87.433639,41.668144],[-87.439336,41.680131],[-87.424877,41.690073],[-87.415816,41.688183],[-87.407927,41.68027],[-87.414493,41.675749],[-87.408736,41.670285],[-87.421152,41.659516],[-87.437033,41.655159],[-87.420765,41.641011],[-87.41154,41.643695],[-87.36886,41.630039],[-87.304431,41.619494],[-87.293491,41.623677],[-87.278081,41.620145],[-87.2226429797274,41.6241704979427],[-87.218862,41.242027],[-87.226372,41.235507],[-87.28573,41.215202],[-87.33146,41.182988],[-87.380983,41.17251],[-87.393796,41.162806],[-87.414338,41.16223],[-87.4466,41.174347],[-87.5265867699935,41.1660900920026],[-87.526729,41.298175]]]}},{"type":"Feature","properties":{"GEOID":"18041","NAME":"Fayette","state":"IN","wildfire_risk_score":4.58,"wildfire_eal_total":1317.61,"risk_band":"Low","source":"FEMA National Risk Index v1.20 (December 2025)"},"geometry":{"type":"Polygon","coordinates":[[[-85.301584,39.787579],[-85.183472,39.788397],[-85.185089,39.715515],[-85.034575,39.714764],[-85.036087,39.526213],[-85.29811,39.525476],[-85.301584,39.787579]]]}},{"type":"Feature","properties":{"GEOID":"18069","NAME":"Huntington","state":"IN","wildfire_risk_score":9.606,"wildfire_eal_total":3493.42,"risk_band":"Moderate","source":"FEMA National Risk Index v1.20 (December 2025)"},"geometry":{"type":"Polygon","coordinates":[[[-85.643841,41.002305],[-85.335643,41.00525],[-85.334667,40.654413],[-85.638587,40.653129],[-85.643841,41.002305]]]}},{"type":"Feature","properties":{"GEOID":"18147","NAME":"Spencer","state":"IN","wildfire_risk_score":29.358,"wildfire_eal_total":13930.29,"risk_band":"High","source":"FEMA National Risk Index v1.20 (December 2025)"},"geometry":{"type":"Polygon","coordinates":[[[-87.268445,37.879164],[-87.26795,37.925172],[-87.240918,37.952269],[-87.231904,37.948123],[-87.225701,37.971667],[-87.196218,37.987454],[-87.183026,38.002759],[-87.175894,38.002662],[-87.175506,38.006712],[-87.183193,38.010158],[-87.17034,38.010923],[-87.16848,38.018469],[-87.153598,38.019496],[-87.153568,38.025013],[-87.166353,38.029522],[-87.154557,38.031483],[-87.15312,38.054303],[-87.147914,38.059002],[-87.133357,38.055231],[-87.124288,38.043909],[-87.08842,38.049814],[-87.097919,38.059328],[-87.087587,38.08552],[-87.075161,38.096409],[-87.072332,38.11828],[-87.017453,38.118301],[-87.01749,38.20358],[-86.791497,38.20513],[-86.791316,38.180071],[-86.803177,38.181637],[-86.795333,38.157356],[-86.806271,38.142837],[-86.800424,38.1396],[-86.802879,38.134335],[-86.795083,38.123412],[-86.807151,38.117839],[-86.800542,38.110657],[-86.792448,38.116644],[-86.784425,38.110364],[-86.788097,38.106329],[-86.785027,38.102512],[-86.76861,38.102794],[-86.769225,38.087316],[-86.780759,38.078443],[-86.765205,38.058344],[-86.780611,38.053043],[-86.779681,38.04388],[-86.786901,38.040541],[-86.780103,38.040108],[-86.783088,38.036199],[-86.776947,38.030753],[-86.7757,38.034021],[-86.767158,38.030178],[-86.781981,38.026171],[-86.775784,38.024042],[-86.777865,38.010055],[-86.773899,38.009168],[-86.772273,37.998276],[-86.78682,38.000682],[-86.796405,38.014794],[-86.800709,38.014854],[-86.801931,38.007402],[-86.8134847074746,37.9981700594416],[-86.823491,37.998939],[-86.863224,37.982495],[-86.901983,37.946448],[-86.917949,37.93724],[-86.978957,37.9302],[-87.034166,37.906265],[-87.046146,37.89154],[-87.043285,37.868552],[-87.062069,37.814177],[-87.069675,37.801513],[-87.096034,37.785259],[-87.111008,37.782354],[-87.129629,37.786608],[-87.141506,37.816317],[-87.162319,37.840159],[-87.220342,37.849081],[-87.268445,37.879164]]]}},{"type":"Feature","properties":{"GEOID":"18129","NAME":"Posey","state":"IN","wildfire_risk_score":3.626,"wildfire_eal_total":1393.84,"risk_band":"Low","source":"FEMA National Risk Index v1.20 (December 2025)"},"geometry":{"type":"Polygon","coordinates":[[[-88.09776,37.904026],[-88.086237,37.905713],[-88.055373,37.891238],[-88.015155,37.890792],[-88.022513,37.914756],[-88.063023,37.918196],[-88.069613,37.926848],[-88.059767,37.933856],[-88.048661,37.926757],[-88.035345,37.925528],[-88.030415,37.930104],[-88.036793,37.956793],[-88.020868,37.959351],[-88.012929,37.966544],[-88.012574,37.977062],[-88.025831,38.007245],[-88.016931,38.024045],[-88.007631,38.029145],[-88.017631,38.034745],[-88.034132,38.032045],[-88.042136,38.039012],[-88.042132,38.046345],[-88.032632,38.051745],[-88.00133,38.051545],[-87.967226,38.067105],[-87.956664,38.086202],[-87.960463,38.099086],[-88.004697,38.083965],[-88.01139,38.084691],[-88.014633,38.090398],[-88.013118,38.103527],[-87.975299,38.110053],[-87.974272,38.121981],[-87.965755,38.132621],[-87.955872,38.132897],[-87.945472,38.126616],[-87.935135,38.139428],[-87.926627,38.142546],[-87.92827,38.150893],[-87.911428,38.16174],[-87.912553,38.170759],[-87.922901,38.173291],[-87.926388,38.15884],[-87.934299,38.156459],[-87.936443,38.171355],[-87.969865,38.191786],[-87.983973,38.209107],[-87.9837006083838,38.2303534791738],[-87.799169,38.22858],[-87.799677,38.201944],[-87.688208,38.201001],[-87.688918,38.12471],[-87.696775,38.124843],[-87.7007119389009,37.8977573894514],[-87.723635,37.892058],[-87.738125,37.894698],[-87.762591,37.890739],[-87.786407,37.876556],[-87.829773,37.876425],[-87.846443,37.887992],[-87.846489,37.893534],[-87.87254,37.920999],[-87.892471,37.92793],[-87.904789,37.924892],[-87.938365,37.890802],[-87.941021,37.879168],[-87.936228,37.867937],[-87.910276,37.843416],[-87.904595,37.812526],[-87.911087,37.805158],[-87.932554,37.797672],[-87.944506,37.775256],[-87.95259,37.771742],[-87.997102,37.797672],[-88.015144,37.80193],[-88.02803,37.799224],[-88.030036,37.806508],[-88.037623,37.809864],[-88.067716,37.80057],[-88.090039,37.816771],[-88.090092,37.825642],[-88.080854,37.830902],[-88.043831,37.821525],[-88.033011,37.824383],[-88.025921,37.832694],[-88.033309,37.841917],[-88.065036,37.853172],[-88.078529,37.879118],[-88.094956,37.893689],[-88.09776,37.904026]]]}},{"type":"Feature","properties":{"GEOID":"18161","NAME":"Union","state":"IN","wildfire_risk_score":0.413,"wildfire_eal_total":225.72,"risk_band":"Low","source":"FEMA National Risk Index v1.20 (December 2025)"},"geometry":{"type":"Polygon","coordinates":[[[-85.0361,39.569162],[-85.034408,39.729263],[-84.8143808402518,39.7266199184851],[-84.8153652290776,39.5219502743529],[-85.036087,39.526213],[-85.0361,39.569162]]]}},{"type":"Feature","properties":{"GEOID":"18035","NAME":"Delaware","state":"IN","wildfire_risk_score":21.819,"wildfire_eal_total":8136.89,"risk_band":"High","source":"FEMA National Risk Index v1.20 (December 2025)"},"geometry":{"type":"Polygon","coordinates":[[[-85.578616,40.379312],[-85.219901,40.379034],[-85.214386,40.076889],[-85.576197,40.077143],[-85.578616,40.379312]]]}},{"type":"Feature","properties":{"GEOID":"18139","NAME":"Rush","state":"IN","wildfire_risk_score":1.24,"wildfire_eal_total":533.25,"risk_band":"Low","source":"FEMA National Risk Index v1.20 (December 2025)"},"geometry":{"type":"Polygon","coordinates":[[[-85.633491,39.786177],[-85.301584,39.787579],[-85.297575,39.453275],[-85.629327,39.45275],[-85.633491,39.786177]]]}},{"type":"Feature","properties":{"GEOID":"18065","NAME":"Henry","state":"IN","wildfire_risk_score":9.065,"wildfire_eal_total":3039.57,"risk_band":"Moderate","source":"FEMA National Risk Index v1.20 (December 2025)"},"geometry":{"type":"Polygon","coordinates":[[[-85.59688,39.791901],[-85.596678,39.872926],[-85.576798,39.872808],[-85.576197,40.077143],[-85.214386,40.076889],[-85.213496,40.00438],[-85.201473,40.004521],[-85.200945,39.873799],[-85.220728,39.873576],[-85.221118,39.788449],[-85.596916,39.786519],[-85.59688,39.791901]]]}},{"type":"Feature","properties":{"GEOID":"18027","NAME":"Daviess","state":"IN","wildfire_risk_score":22.392,"wildfire_eal_total":6691.97,"risk_band":"High","source":"FEMA National Risk Index v1.20 (December 2025)"},"geometry":{"type":"Polygon","coordinates":[[[-87.279173,38.693938],[-87.267012,38.700722],[-87.269632,38.708427],[-87.256886,38.71968],[-87.260944,38.733854],[-87.249995,38.72561],[-87.247003,38.728892],[-87.254483,38.735654],[-87.248949,38.741699],[-87.238204,38.742676],[-87.252964,38.756762],[-87.2479,38.758232],[-87.243872,38.750047],[-87.239047,38.749866],[-87.244601,38.758244],[-87.239193,38.766148],[-87.243153,38.768839],[-87.25285,38.764671],[-87.257788,38.768599],[-87.255551,38.778704],[-87.24046,38.781175],[-87.240888,38.801539],[-87.2466,38.807701],[-87.239915,38.819264],[-87.233885,38.816616],[-87.237171,38.810905],[-87.226737,38.812331],[-87.225917,38.804233],[-87.215285,38.812626],[-87.218733,38.822091],[-87.214217,38.823536],[-87.210482,38.807343],[-87.203083,38.815145],[-87.203667,38.825598],[-87.191633,38.815421],[-87.190175,38.823757],[-87.197192,38.826562],[-87.195376,38.831316],[-87.187475,38.825517],[-87.186034,38.834581],[-87.171509,38.83109],[-87.175267,38.841599],[-87.185979,38.844557],[-87.183633,38.847439],[-87.144728,38.839541],[-87.139521,38.850239],[-87.14101,38.860281],[-87.147554,38.865837],[-87.126414,38.860084],[-87.135836,38.871963],[-87.132721,38.875232],[-87.126004,38.869616],[-87.1207,38.871635],[-87.130584,38.886139],[-87.124404,38.891025],[-87.113862,38.887663],[-87.122989,38.895716],[-87.120832,38.8989],[-87.11023,38.893937],[-87.103733,38.901129],[-87.091647,38.897542],[-87.09137,38.901594],[-87.098771,38.903974],[-86.904252,38.904204],[-86.904227,38.817511],[-86.922943,38.817238],[-86.924186,38.505358],[-86.936589,38.504262],[-86.942513,38.492593],[-86.955398,38.491706],[-86.956217,38.503439],[-86.977992,38.502388],[-86.995547,38.513567],[-87.000003,38.509217],[-87.012968,38.511957],[-87.023427,38.507225],[-87.033151,38.51218],[-87.045073,38.510865],[-87.061208,38.500703],[-87.072369,38.5147],[-87.085437,38.512244],[-87.081835,38.520675],[-87.093377,38.5234],[-87.107653,38.537705],[-87.118277,38.535225],[-87.121967,38.525422],[-87.135492,38.531922],[-87.13911,38.526272],[-87.135367,38.519153],[-87.151243,38.515814],[-87.156473,38.520301],[-87.154714,38.527381],[-87.170279,38.531842],[-87.17369,38.541662],[-87.182591,38.547619],[-87.20712,38.551709],[-87.220945,38.538829],[-87.242097,38.54493],[-87.237435,38.552387],[-87.248328,38.559539],[-87.237258,38.563122],[-87.247774,38.570943],[-87.239665,38.573472],[-87.23757,38.581037],[-87.249384,38.586889],[-87.2451,38.595582],[-87.248586,38.599551],[-87.239316,38.604548],[-87.245381,38.603679],[-87.255275,38.612364],[-87.250498,38.615065],[-87.238824,38.610548],[-87.252958,38.631454],[-87.250013,38.635461],[-87.240629,38.632128],[-87.235881,38.635681],[-87.252235,38.647682],[-87.249725,38.652996],[-87.238655,38.648384],[-87.238893,38.65964],[-87.255698,38.655223],[-87.258761,38.661441],[-87.245984,38.677884],[-87.250028,38.678913],[-87.257226,38.665929],[-87.260592,38.666962],[-87.273424,38.681149],[-87.261819,38.687621],[-87.279173,38.693938]]]}},{"type":"Feature","properties":{"GEOID":"18071","NAME":"Jackson","state":"IN","wildfire_risk_score":8.333,"wildfire_eal_total":3272.0,"risk_band":"Moderate","source":"FEMA National Risk Index v1.20 (December 2025)"},"geometry":{"type":"Polygon","coordinates":[[[-86.318133,39.04881],[-86.080272,39.05027],[-86.079844,39.035903],[-85.860573,39.04091],[-85.862447,39.048919],[-85.847279,39.05523],[-85.842044,39.063032],[-85.828264,39.063587],[-85.816454,39.070888],[-85.798804,39.068536],[-85.795233,38.812373],[-85.80725,38.789377],[-85.804905,38.77954],[-85.819429,38.776503],[-85.829813,38.764231],[-85.832348,38.751819],[-85.843358,38.744764],[-85.842325,38.739353],[-85.847227,38.735298],[-85.870879,38.729537],[-85.869559,38.726171],[-85.879209,38.729351],[-85.881404,38.725026],[-85.885986,38.735013],[-85.893351,38.729746],[-85.891886,38.736543],[-85.900442,38.742199],[-85.89616,38.750056],[-85.900587,38.753814],[-85.908919,38.751161],[-85.909677,38.757112],[-85.911139,38.747353],[-85.918592,38.754185],[-85.916663,38.74566],[-85.928004,38.750661],[-85.927507,38.756062],[-85.93651,38.755834],[-85.936569,38.762837],[-85.950101,38.753842],[-85.950073,38.760547],[-85.960862,38.764185],[-85.967874,38.75512],[-85.976641,38.752393],[-85.98062,38.759052],[-85.985414,38.757929],[-85.984252,38.768115],[-86.010944,38.756713],[-86.016789,38.758081],[-86.015529,38.765367],[-86.020409,38.767566],[-86.026175,38.755757],[-86.031843,38.761321],[-86.043316,38.76245],[-86.062376,38.778334],[-86.075066,38.774727],[-86.091705,38.783399],[-86.097709,38.781079],[-86.102356,38.765755],[-86.134944,38.762425],[-86.163576,38.774832],[-86.172332,38.772844],[-86.184102,38.783588],[-86.189881,38.776626],[-86.205499,38.781814],[-86.197651,38.773769],[-86.213161,38.77938],[-86.218736,38.771134],[-86.224068,38.779147],[-86.240821,38.765912],[-86.249015,38.768023],[-86.257129,38.763498],[-86.254103,38.770118],[-86.257117,38.772006],[-86.26405,38.764948],[-86.275281,38.763795],[-86.280389,38.991028],[-86.317474,38.99087],[-86.318133,39.04881]]]}},{"type":"Feature","properties":{"GEOID":"18175","NAME":"Washington","state":"IN","wildfire_risk_score":10.751,"wildfire_eal_total":3418.2,"risk_band":"Moderate","source":"FEMA National Risk Index v1.20 (December 2025)"},"geometry":{"type":"Polygon","coordinates":[[[-86.310058,38.733131],[-86.302225,38.735815],[-86.301927,38.730425],[-86.299722,38.729706],[-86.300257,38.733673],[-86.290402,38.736323],[-86.282819,38.76631],[-86.279662,38.76307],[-86.26405,38.764948],[-86.25547,38.771879],[-86.255787,38.763011],[-86.249015,38.768023],[-86.240821,38.765912],[-86.224068,38.779147],[-86.21655,38.771372],[-86.214945,38.778741],[-86.197651,38.773769],[-86.205499,38.781814],[-86.189881,38.776626],[-86.184102,38.783588],[-86.172332,38.772844],[-86.163576,38.774832],[-86.134944,38.762425],[-86.102356,38.765755],[-86.09334,38.78346],[-86.075066,38.774727],[-86.062376,38.778334],[-86.043316,38.76245],[-86.031843,38.761321],[-86.026175,38.755757],[-86.020409,38.767566],[-86.015529,38.765367],[-86.016789,38.758081],[-86.010944,38.756713],[-85.984252,38.768115],[-85.985414,38.757929],[-85.98062,38.759052],[-85.976641,38.752393],[-85.967874,38.75512],[-85.960862,38.764185],[-85.950073,38.760547],[-85.950101,38.753842],[-85.936569,38.762837],[-85.93651,38.755834],[-85.927507,38.756062],[-85.928004,38.750661],[-85.916663,38.74566],[-85.918592,38.754185],[-85.911139,38.747353],[-85.911694,38.756586],[-85.908919,38.751161],[-85.900587,38.753814],[-85.89616,38.750056],[-85.900442,38.742199],[-85.891886,38.736543],[-85.893351,38.729746],[-85.888334,38.734443],[-85.885643,38.575412],[-85.848575,38.576266],[-85.847588,38.54714],[-85.866341,38.547095],[-85.866268,38.518425],[-85.884708,38.518152],[-85.884776,38.503469],[-85.957102,38.501949],[-85.956195,38.488956],[-85.993317,38.48854],[-85.99462,38.418345],[-86.308674,38.422875],[-86.310058,38.733131]]]}},{"type":"Feature","properties":{"GEOID":"18123","NAME":"Perry","state":"IN","wildfire_risk_score":5.948,"wildfire_eal_total":1928.45,"risk_band":"Low","source":"FEMA National Risk Index v1.20 (December 2025)"},"geometry":{"type":"Polygon","coordinates":[[[-86.811685,38.000446],[-86.798293,38.015528],[-86.78682,38.000682],[-86.772273,37.998276],[-86.773899,38.009168],[-86.777865,38.010055],[-86.775784,38.024042],[-86.781981,38.026171],[-86.76707,38.029178],[-86.774401,38.033877],[-86.776947,38.030753],[-86.783088,38.036199],[-86.780103,38.040108],[-86.786901,38.040541],[-86.779681,38.04388],[-86.780611,38.053043],[-86.765205,38.058344],[-86.780759,38.078443],[-86.769225,38.087316],[-86.76861,38.102794],[-86.785027,38.102512],[-86.788097,38.106329],[-86.784425,38.110364],[-86.792448,38.116644],[-86.800542,38.110657],[-86.807151,38.117839],[-86.795083,38.123412],[-86.802879,38.134335],[-86.800424,38.1396],[-86.806271,38.142837],[-86.795333,38.157356],[-86.803177,38.181637],[-86.791316,38.180071],[-86.792152,38.2491],[-86.678992,38.248062],[-86.679511,38.263086],[-86.570136,38.266328],[-86.571685,38.207539],[-86.460425,38.206825],[-86.4610337136873,38.1211745670961],[-86.466217,38.106781],[-86.458833,38.096006],[-86.434046,38.086763],[-86.430091,38.078638],[-86.432789,38.067171],[-86.452192,38.05049],[-86.519404,38.041241],[-86.524969,38.027879],[-86.525174,37.968228],[-86.50662,37.930719],[-86.534156,37.917007],[-86.588581,37.921159],[-86.599848,37.906754],[-86.598108,37.867382],[-86.609163,37.855408],[-86.638265,37.842718],[-86.658268,37.844144],[-86.661233,37.862761],[-86.644039,37.898202],[-86.650087,37.910616],[-86.680929,37.91501],[-86.718462,37.893123],[-86.734718,37.896587],[-86.779915,37.955462],[-86.79551,37.989453],[-86.811685,38.000446]]]}},{"type":"Feature","properties":{"GEOID":"18125","NAME":"Pike","state":"IN","wildfire_risk_score":11.578,"wildfire_eal_total":3296.24,"risk_band":"Moderate","source":"FEMA National Risk Index v1.20 (December 2025)"},"geometry":{"type":"Polygon","coordinates":[[[-87.462916,38.467518],[-87.462892,38.533519],[-87.435986,38.52837],[-87.431842,38.538348],[-87.426006,38.540575],[-87.415904,38.526768],[-87.409869,38.527147],[-87.406214,38.54044],[-87.38381,38.537772],[-87.379712,38.531881],[-87.381389,38.517863],[-87.369667,38.512153],[-87.361416,38.523061],[-87.36993,38.539228],[-87.355054,38.543528],[-87.323962,38.524044],[-87.309267,38.519938],[-87.301231,38.510263],[-87.287886,38.511842],[-87.255884,38.526585],[-87.247608,38.543562],[-87.237629,38.545549],[-87.220945,38.538829],[-87.20371,38.55222],[-87.175497,38.543954],[-87.171509,38.532771],[-87.154714,38.527381],[-87.156473,38.520301],[-87.151243,38.515814],[-87.135367,38.519153],[-87.13911,38.526272],[-87.135492,38.531922],[-87.124657,38.524945],[-87.115088,38.536903],[-87.100511,38.534406],[-87.093377,38.5234],[-87.081835,38.520675],[-87.085437,38.512244],[-87.072369,38.5147],[-87.073067,38.232596],[-87.298388,38.231671],[-87.298218,38.245886],[-87.316893,38.246077],[-87.316243,38.381482],[-87.319528,38.382762],[-87.320926,38.377083],[-87.324935,38.378114],[-87.324421,38.383608],[-87.32726,38.377953],[-87.331355,38.381691],[-87.339252,38.378803],[-87.339996,38.38702],[-87.349944,38.381906],[-87.348172,38.386244],[-87.357244,38.387894],[-87.357647,38.382413],[-87.369714,38.376999],[-87.371893,38.381429],[-87.376528,38.377137],[-87.379673,38.383436],[-87.385348,38.3754],[-87.387106,38.382864],[-87.393472,38.381915],[-87.395378,38.375719],[-87.398608,38.380028],[-87.398985,38.374384],[-87.407583,38.375501],[-87.407327,38.43632],[-87.444549,38.436125],[-87.444503,38.465489],[-87.462916,38.467518]]]}},{"type":"Feature","properties":{"GEOID":"18061","NAME":"Harrison","state":"IN","wildfire_risk_score":18.13,"wildfire_eal_total":6969.57,"risk_band":"High","source":"FEMA National Risk Index v1.20 (December 2025)"},"geometry":{"type":"Polygon","coordinates":[[[-86.327677,38.182736],[-86.312786,38.178126],[-86.309963,38.181841],[-86.318196,38.188104],[-86.310427,38.18965],[-86.306511,38.202519],[-86.289721,38.202027],[-86.295082,38.209066],[-86.288433,38.212869],[-86.298119,38.220921],[-86.293301,38.224579],[-86.283857,38.220901],[-86.276956,38.227126],[-86.274762,38.279956],[-86.280424,38.284824],[-86.277792,38.286775],[-86.269792,38.278391],[-86.265547,38.286246],[-86.256689,38.284355],[-86.253137,38.2919],[-86.255122,38.296499],[-86.264951,38.295874],[-86.264026,38.304106],[-86.258855,38.305643],[-86.269594,38.307942],[-86.275804,38.300415],[-86.276218,38.30854],[-86.289724,38.31652],[-86.283222,38.324182],[-86.285644,38.331864],[-86.278498,38.320833],[-86.273474,38.321105],[-86.276363,38.340306],[-86.271629,38.342445],[-86.275142,38.349515],[-86.281773,38.349383],[-86.271534,38.360692],[-86.265003,38.362005],[-86.247158,38.34946],[-86.25273,38.35526],[-86.248372,38.363692],[-86.258048,38.366831],[-86.261179,38.380438],[-86.258976,38.389375],[-86.252367,38.383172],[-86.245581,38.387424],[-86.261602,38.394841],[-86.259047,38.398092],[-86.251417,38.395642],[-86.251716,38.406132],[-86.264841,38.411114],[-86.255045,38.422685],[-86.032769,38.417897],[-86.032557,38.330825],[-86.014313,38.330645],[-86.014216,38.301812],[-85.995394,38.301849],[-85.992411,38.272789],[-85.973706,38.272763],[-85.973848,38.258132],[-85.955199,38.25774],[-85.958023,38.185939],[-85.900099,38.185471],[-85.909133,38.144387],[-85.905266,38.088933],[-85.913839,38.071961],[-85.921275,38.03032],[-85.931221,38.016018],[-85.947114,38.005085],[-86.029509,37.99264],[-86.035103,37.984358],[-86.034355,37.964621],[-86.046736,37.958995],[-86.064859,37.975618],[-86.075463,37.997183],[-86.086341,38.004931],[-86.1283,38.016192],[-86.176557,38.01023],[-86.220711,38.028178],[-86.233339,38.039625],[-86.267203,38.056798],[-86.277704,38.082481],[-86.2791,38.100754],[-86.270269,38.129783],[-86.272847,38.140835],[-86.28711,38.157939],[-86.327677,38.182736]]]}},{"type":"Feature","properties":{"GEOID":"18083","NAME":"Knox","state":"IN","wildfire_risk_score":8.206,"wildfire_eal_total":2651.35,"risk_band":"Moderate","source":"FEMA National Risk Index v1.20 (December 2025)"},"geometry":{"type":"Polygon","coordinates":[[[-87.756714,38.460299],[-87.744644,38.477266],[-87.714047,38.47988],[-87.685921,38.491843],[-87.672382,38.507396],[-87.656741,38.501757],[-87.650092,38.504606],[-87.646226,38.51509],[-87.655283,38.5208],[-87.670071,38.545237],[-87.650704,38.55624],[-87.651529,38.568166],[-87.639567,38.574163],[-87.637627,38.592654],[-87.622897,38.586198],[-87.61196,38.589248],[-87.613461,38.595042],[-87.624143,38.596955],[-87.627348,38.60544],[-87.616152,38.623215],[-87.62012,38.639489],[-87.605817,38.646518],[-87.597247,38.665314],[-87.531231,38.684036],[-87.522039,38.69335],[-87.519519,38.710455],[-87.505339,38.73497],[-87.49652,38.739336],[-87.504006,38.74971],[-87.498216,38.768307],[-87.511969,38.767538],[-87.514548,38.771821],[-87.49743,38.777438],[-87.495905,38.785434],[-87.527342,38.818121],[-87.521681,38.826576],[-87.525893,38.848795],[-87.553394,38.86241],[-87.543188,38.864214],[-87.54737,38.875614],[-87.534919,38.878874],[-87.544292,38.888953],[-87.544089,38.895093],[-87.539122,38.896119],[-87.535703,38.887207],[-87.536591,38.895566],[-87.531337,38.901786],[-87.241067,38.901591],[-87.241027,38.907874],[-87.129882,38.907315],[-87.09137,38.901594],[-87.094876,38.896768],[-87.103733,38.901129],[-87.11023,38.893937],[-87.122473,38.897676],[-87.113862,38.887663],[-87.124404,38.891025],[-87.130584,38.886139],[-87.1207,38.871635],[-87.126004,38.869616],[-87.132721,38.875232],[-87.135836,38.871963],[-87.126414,38.860084],[-87.147554,38.865837],[-87.14101,38.860281],[-87.139521,38.850239],[-87.144728,38.839541],[-87.183633,38.847439],[-87.185979,38.844557],[-87.175267,38.841599],[-87.171509,38.83109],[-87.186034,38.834581],[-87.187475,38.825517],[-87.191551,38.83089],[-87.196981,38.830169],[-87.190175,38.823757],[-87.192243,38.814688],[-87.201845,38.825998],[-87.205206,38.823633],[-87.203083,38.815145],[-87.210482,38.807343],[-87.210995,38.820901],[-87.216054,38.823644],[-87.215285,38.812626],[-87.225917,38.804233],[-87.228287,38.813463],[-87.238824,38.81206],[-87.233885,38.816616],[-87.238937,38.819642],[-87.2466,38.807701],[-87.240888,38.801539],[-87.24046,38.781175],[-87.255551,38.778704],[-87.257788,38.768599],[-87.25285,38.764671],[-87.243153,38.768839],[-87.239193,38.766148],[-87.244601,38.758244],[-87.239047,38.749866],[-87.243872,38.750047],[-87.2479,38.758232],[-87.252964,38.756762],[-87.238204,38.742676],[-87.248949,38.741699],[-87.254483,38.735654],[-87.247003,38.728892],[-87.249995,38.72561],[-87.260944,38.733854],[-87.256886,38.71968],[-87.269632,38.708427],[-87.267012,38.700722],[-87.279173,38.693938],[-87.261819,38.687621],[-87.273424,38.681149],[-87.260592,38.666962],[-87.257226,38.665929],[-87.250028,38.678913],[-87.245984,38.677884],[-87.258761,38.661441],[-87.255698,38.655223],[-87.238893,38.65964],[-87.238655,38.648384],[-87.249725,38.652996],[-87.252235,38.647682],[-87.235881,38.635681],[-87.240629,38.632128],[-87.250013,38.635461],[-87.252958,38.631454],[-87.238824,38.610548],[-87.250498,38.615065],[-87.255275,38.612364],[-87.245381,38.603679],[-87.239316,38.604548],[-87.248586,38.599551],[-87.2451,38.595582],[-87.249384,38.586889],[-87.23757,38.581037],[-87.239665,38.573472],[-87.247774,38.570943],[-87.238074,38.560647],[-87.248328,38.559539],[-87.237435,38.552387],[-87.253053,38.538245],[-87.255884,38.526585],[-87.287886,38.511842],[-87.302302,38.510426],[-87.309267,38.519938],[-87.360233,38.544128],[-87.36993,38.539228],[-87.361416,38.523061],[-87.36432,38.516009],[-87.372548,38.512157],[-87.381389,38.517863],[-87.379712,38.531881],[-87.38381,38.537772],[-87.406214,38.54044],[-87.409869,38.527147],[-87.415904,38.526768],[-87.426006,38.540575],[-87.431842,38.538348],[-87.435986,38.52837],[-87.466183,38.532887],[-87.470377,38.520566],[-87.479159,38.52748],[-87.472189,38.520268],[-87.473805,38.51278],[-87.491755,38.505286],[-87.495786,38.494145],[-87.516138,38.50381],[-87.532505,38.499519],[-87.529301,38.512773],[-87.539946,38.518656],[-87.549462,38.511645],[-87.541064,38.492044],[-87.570021,38.490582],[-87.580721,38.500017],[-87.585893,38.497784],[-87.586982,38.492351],[-87.579882,38.484376],[-87.59965,38.450603],[-87.609652,38.446779],[-87.625273,38.449554],[-87.635238,38.442229],[-87.639268,38.455523],[-87.652071,38.449158],[-87.655674,38.451249],[-87.651256,38.457895],[-87.65681,38.458649],[-87.664128,38.449218],[-87.673481,38.446475],[-87.671499,38.440445],[-87.662765,38.437729],[-87.664162,38.430874],[-87.680848,38.431762],[-87.71552,38.417093],[-87.7436874802689,38.4143881679825],[-87.739767,38.437977],[-87.730699,38.442908],[-87.730369,38.447884],[-87.740525,38.454716],[-87.755931,38.455876],[-87.756714,38.460299]]]}},{"type":"Feature","properties":{"GEOID":"18145","NAME":"Shelby","state":"IN","wildfire_risk_score":4.707,"wildfire_eal_total":1741.67,"risk_band":"Low","source":"FEMA National Risk Index v1.20 (December 2025)"},"geometry":{"type":"Polygon","coordinates":[[[-85.95276,39.41974],[-85.951721,39.697136],[-85.632505,39.698455],[-85.63063,39.350205],[-85.952005,39.347373],[-85.95276,39.41974]]]}},{"type":"Feature","properties":{"GEOID":"18107","NAME":"Montgomery","state":"IN","wildfire_risk_score":11.355,"wildfire_eal_total":3830.56,"risk_band":"Moderate","source":"FEMA National Risk Index v1.20 (December 2025)"},"geometry":{"type":"Polygon","coordinates":[[[-87.092563,40.214806],[-86.695637,40.214367],[-86.695127,39.864845],[-87.091542,39.867265],[-87.092563,40.214806]]]}},{"type":"Feature","properties":{"GEOID":"18183","NAME":"Whitley","state":"IN","wildfire_risk_score":10.146,"wildfire_eal_total":3722.51,"risk_band":"Moderate","source":"FEMA National Risk Index v1.20 (December 2025)"},"geometry":{"type":"Polygon","coordinates":[[[-85.686574,41.178376],[-85.652715,41.178489],[-85.651928,41.294776],[-85.536288,41.295241],[-85.53718,41.266157],[-85.307781,41.264158],[-85.309791,41.178889],[-85.338276,41.179065],[-85.335643,41.00525],[-85.683198,41.001909],[-85.686574,41.178376]]]}},{"type":"Feature","properties":{"GEOID":"18051","NAME":"Gibson","state":"IN","wildfire_risk_score":6.17,"wildfire_eal_total":2264.12,"risk_band":"Low","source":"FEMA National Risk Index v1.20 (December 2025)"},"geometry":{"type":"Polygon","coordinates":[[[-87.9877210369393,38.2569149976135],[-87.972259,38.247039],[-87.968968,38.237389],[-87.960225,38.237118],[-87.95761,38.250046],[-87.942067,38.260301],[-87.952198,38.273102],[-87.939212,38.282923],[-87.933556,38.295896],[-87.916489,38.299372],[-87.909536,38.296061],[-87.91947,38.274547],[-87.91111,38.268031],[-87.887849,38.285299],[-87.880083,38.305353],[-87.870537,38.31222],[-87.86112,38.307826],[-87.866248,38.28998],[-87.863032,38.280172],[-87.85113,38.27512],[-87.84345,38.278172],[-87.830953,38.299365],[-87.831982,38.326973],[-87.823411,38.345968],[-87.806075,38.363143],[-87.783079,38.368862],[-87.7436874802689,38.4143881679825],[-87.708652,38.418659],[-87.680848,38.431762],[-87.664162,38.430874],[-87.662765,38.437729],[-87.671499,38.440445],[-87.673481,38.446475],[-87.664128,38.449218],[-87.65681,38.458649],[-87.651256,38.457895],[-87.655674,38.451249],[-87.652071,38.449158],[-87.639268,38.455523],[-87.635238,38.442229],[-87.625273,38.449554],[-87.609652,38.446779],[-87.59965,38.450603],[-87.579882,38.484376],[-87.586982,38.492351],[-87.585893,38.497784],[-87.580721,38.500017],[-87.570021,38.490582],[-87.54018,38.492824],[-87.549462,38.511645],[-87.545216,38.51735],[-87.530691,38.515214],[-87.530426,38.498407],[-87.516138,38.50381],[-87.495786,38.494145],[-87.491755,38.505286],[-87.473805,38.51278],[-87.472189,38.520268],[-87.479159,38.52748],[-87.470377,38.520566],[-87.468691,38.531921],[-87.462892,38.533519],[-87.462499,38.465724],[-87.444503,38.465489],[-87.444549,38.436125],[-87.407327,38.43632],[-87.407583,38.375501],[-87.398985,38.374384],[-87.398608,38.380028],[-87.395378,38.375719],[-87.393472,38.381915],[-87.387106,38.382864],[-87.385348,38.3754],[-87.379673,38.383436],[-87.376528,38.377137],[-87.371893,38.381429],[-87.369714,38.376999],[-87.357647,38.382413],[-87.357244,38.387894],[-87.348172,38.386244],[-87.349944,38.381906],[-87.339996,38.38702],[-87.339252,38.378803],[-87.331355,38.381691],[-87.32726,38.377953],[-87.324421,38.383608],[-87.324935,38.378114],[-87.320269,38.377519],[-87.319528,38.382762],[-87.315886,38.38023],[-87.31703,38.201753],[-87.466744,38.201286],[-87.467284,38.165403],[-87.688374,38.168419],[-87.688208,38.201001],[-87.799677,38.201944],[-87.799169,38.22858],[-87.9837006083838,38.2303534791738],[-87.979629,38.24055],[-87.9877210369393,38.2569149976135]]]}},{"type":"Feature","properties":{"GEOID":"18029","NAME":"Dearborn","state":"IN","wildfire_risk_score":12.277,"wildfire_eal_total":5333.71,"risk_band":"Moderate","source":"FEMA National Risk Index v1.20 (December 2025)"},"geometry":{"type":"Polygon","coordinates":[[[-85.132508,38.948055],[-85.065574,39.307232],[-84.819451,39.305152],[-84.820157,39.10548],[-84.893203,39.06248],[-84.896726,39.053304],[-84.8773646668687,39.0316002471835],[-84.897688,39.013366],[-84.913544,39.018638],[-84.936012,39.005187],[-84.94606,39.00627],[-84.944017,39.000507],[-84.953289,38.999204],[-84.953866,38.994892],[-84.964247,38.997772],[-84.969707,38.992408],[-84.997467,38.996823],[-85.003564,38.975221],[-85.020121,38.982413],[-85.024668,38.974498],[-85.041523,38.975396],[-85.051198,38.966908],[-85.046072,38.956679],[-85.058203,38.958099],[-85.059406,38.9481],[-85.066614,38.950023],[-85.064563,38.954942],[-85.068079,38.957139],[-85.072445,38.948009],[-85.082642,38.952241],[-85.096344,38.935446],[-85.10447,38.94043],[-85.118762,38.937196],[-85.120877,38.944425],[-85.114088,38.956144],[-85.132508,38.948055]]]}},{"type":"Feature","properties":{"GEOID":"18001","NAME":"Adams","state":"IN","wildfire_risk_score":10.401,"wildfire_eal_total":2286.18,"risk_band":"Moderate","source":"FEMA National Risk Index v1.20 (December 2025)"},"geometry":{"type":"Polygon","coordinates":[[[-85.073861,40.917823],[-84.802922,40.922568],[-84.8024847798091,40.5722121057691],[-85.068479,40.56824],[-85.073861,40.917823]]]}},{"type":"Feature","properties":{"GEOID":"18151","NAME":"Steuben","state":"IN","wildfire_risk_score":12.945,"wildfire_eal_total":4842.05,"risk_band":"Moderate","source":"FEMA National Risk Index v1.20 (December 2025)"},"geometry":{"type":"Polygon","coordinates":[[[-85.196637,41.759735],[-84.805883,41.760216],[-84.8046882846078,41.530134018066],[-85.194084,41.526437],[-85.196637,41.759735]]]}},{"type":"Feature","properties":{"GEOID":"18007","NAME":"Benton","state":"IN","wildfire_risk_score":1.177,"wildfire_eal_total":530.58,"risk_band":"Low","source":"FEMA National Risk Index v1.20 (December 2025)"},"geometry":{"type":"Polygon","coordinates":[[[-87.5263661821947,40.4912369959331],[-87.5260482321639,40.7368850502659],[-87.096819,40.73649],[-87.093676,40.475745],[-87.5265964885746,40.4768761200948],[-87.5263661821947,40.4912369959331]]]}},{"type":"Feature","properties":{"GEOID":"18043","NAME":"Floyd","state":"IN","wildfire_risk_score":19.275,"wildfire_eal_total":7704.99,"risk_band":"High","source":"FEMA National Risk Index v1.20 (December 2025)"},"geometry":{"type":"Polygon","coordinates":[[[-86.033104,38.385195],[-86.032769,38.417897],[-85.99462,38.418345],[-85.994629,38.410865],[-85.966886,38.410876],[-85.966719,38.403659],[-85.807726,38.404313],[-85.761072,38.350396],[-85.782964,38.338939],[-85.789889,38.339931],[-85.783291,38.331865],[-85.79715,38.332478],[-85.794087,38.324845],[-85.783358,38.321602],[-85.79328,38.315278],[-85.787931,38.30817],[-85.795961,38.306571],[-85.7910785029457,38.2877617033438],[-85.829216,38.276508],[-85.836168,38.26529],[-85.839091,38.239729],[-85.844381,38.231048],[-85.880264,38.203369],[-85.8995474485423,38.1803704758282],[-85.900099,38.185471],[-85.958023,38.185939],[-85.955199,38.25774],[-85.973848,38.258132],[-85.973706,38.272763],[-85.992411,38.272789],[-85.995394,38.301849],[-86.014216,38.301812],[-86.014313,38.330645],[-86.032557,38.330825],[-86.033104,38.385195]]]}},{"type":"Feature","properties":{"GEOID":"18167","NAME":"Vigo","state":"IN","wildfire_risk_score":27.004,"wildfire_eal_total":11060.45,"risk_band":"High","source":"FEMA National Risk Index v1.20 (December 2025)"},"geometry":{"type":"Polygon","coordinates":[[[-87.620485,39.307133],[-87.60592,39.311076],[-87.584852,39.337329],[-87.5544,39.340488],[-87.544013,39.352907],[-87.531646,39.348062],[-87.5321874761397,39.607306],[-87.199012,39.607137],[-87.200107,39.519858],[-87.238964,39.52062],[-87.240379,39.259064],[-87.6041078977191,39.2594582614714],[-87.601948,39.275165],[-87.609915,39.281415],[-87.597323,39.296957],[-87.605348,39.303217],[-87.618964,39.301691],[-87.620485,39.307133]]]}},{"type":"Feature","properties":{"GEOID":"18057","NAME":"Hamilton","state":"IN","wildfire_risk_score":20.293,"wildfire_eal_total":12897.91,"risk_band":"High","source":"FEMA National Risk Index v1.20 (December 2025)"},"geometry":{"type":"Polygon","coordinates":[[[-86.242743,40.215834],[-85.861903,40.218936],[-85.862395,39.928943],[-86.240736,39.926062],[-86.242743,40.215834]]]}},{"type":"Feature","properties":{"GEOID":"18053","NAME":"Grant","state":"IN","wildfire_risk_score":15.649,"wildfire_eal_total":4380.99,"risk_band":"High","source":"FEMA National Risk Index v1.20 (December 2025)"},"geometry":{"type":"Polygon","coordinates":[[[-85.864791,40.651693],[-85.448825,40.653607],[-85.44433,40.37914],[-85.862296,40.378367],[-85.864791,40.651693]]]}},{"type":"Feature","properties":{"GEOID":"18085","NAME":"Kosciusko","state":"IN","wildfire_risk_score":24.427,"wildfire_eal_total":9818.21,"risk_band":"High","source":"FEMA National Risk Index v1.20 (December 2025)"},"geometry":{"type":"Polygon","coordinates":[[[-86.077551,41.172868],[-86.054047,41.173147],[-86.05923,41.435812],[-85.653507,41.436856],[-85.652715,41.178489],[-85.686574,41.178376],[-85.684181,41.046716],[-86.018664,41.041878],[-86.018414,41.086118],[-86.075939,41.084878],[-86.077551,41.172868]]]}},{"type":"Feature","properties":{"GEOID":"18045","NAME":"Fountain","state":"IN","wildfire_risk_score":6.489,"wildfire_eal_total":2210.83,"risk_band":"Low","source":"FEMA National Risk Index v1.20 (December 2025)"},"geometry":{"type":"Polygon","coordinates":[[[-87.440263,39.960303],[-87.431731,39.96869],[-87.427393,39.981944],[-87.433385,39.994188],[-87.4354,40.023509],[-87.424224,40.039872],[-87.431499,40.047748],[-87.417438,40.058684],[-87.404886,40.135557],[-87.407347,40.142169],[-87.433471,40.153504],[-87.438774,40.164458],[-87.4199,40.192258],[-87.347925,40.216802],[-87.311889,40.250036],[-87.296365,40.255546],[-87.281378,40.278391],[-87.249292,40.299609],[-87.244898,40.309252],[-87.170128,40.334831],[-87.136221,40.338715],[-87.092148,40.366612],[-87.090008,39.952995],[-87.420221,39.952452],[-87.440263,39.960303]]]}},{"type":"Feature","properties":{"GEOID":"18103","NAME":"Miami","state":"IN","wildfire_risk_score":9.097,"wildfire_eal_total":2637.99,"risk_band":"Moderate","source":"FEMA National Risk Index v1.20 (December 2025)"},"geometry":{"type":"Polygon","coordinates":[[[-86.169144,40.931329],[-86.168459,40.996097],[-85.946436,40.999195],[-85.939525,40.650991],[-85.864791,40.651693],[-85.863641,40.565525],[-86.165024,40.562649],[-86.169144,40.931329]]]}},{"type":"Feature","properties":{"GEOID":"18131","NAME":"Pulaski","state":"IN","wildfire_risk_score":1.94,"wildfire_eal_total":739.12,"risk_band":"Low","source":"FEMA National Risk Index v1.20 (December 2025)"},"geometry":{"type":"Polygon","coordinates":[[[-86.930925,40.984583],[-86.93017,41.172318],[-86.467046,41.171442],[-86.468509,40.909889],[-86.930759,40.912418],[-86.930925,40.984583]]]}},{"type":"Feature","properties":{"GEOID":"18095","NAME":"Madison","state":"IN","wildfire_risk_score":19.179,"wildfire_eal_total":6605.11,"risk_band":"High","source":"FEMA National Risk Index v1.20 (December 2025)"},"geometry":{"type":"Polygon","coordinates":[[[-85.863578,40.132998],[-85.862296,40.378367],[-85.578589,40.379524],[-85.576192,39.945756],[-85.862489,39.943618],[-85.863578,40.132998]]]}},{"type":"Feature","properties":{"GEOID":"18055","NAME":"Greene","state":"IN","wildfire_risk_score":8.397,"wildfire_eal_total":2692.42,"risk_band":"Moderate","source":"FEMA National Risk Index v1.20 (December 2025)"},"geometry":{"type":"Polygon","coordinates":[[[-87.241063,39.100794],[-87.240737,39.171773],[-86.683002,39.165746],[-86.682853,38.904697],[-87.017356,38.902593],[-87.241027,38.907874],[-87.241063,39.100794]]]}},{"type":"Feature","properties":{"GEOID":"18073","NAME":"Jasper","state":"IN","wildfire_risk_score":18.67,"wildfire_eal_total":8296.1,"risk_band":"High","source":"FEMA National Risk Index v1.20 (December 2025)"},"geometry":{"type":"Polygon","coordinates":[[[-87.276508,40.965947],[-87.275882,41.218595],[-87.226372,41.235507],[-87.192521,41.265213],[-87.131339,41.286245],[-87.059724,41.26952],[-86.977017,41.221549],[-86.968125,41.219658],[-86.930079,41.236798],[-86.930759,40.912418],[-86.987438,40.912177],[-86.986438,40.837921],[-87.099793,40.837607],[-87.09839,40.736541],[-87.267298,40.736582],[-87.26905,40.911517],[-87.276449,40.911477],[-87.276508,40.965947]]]}},{"type":"Feature","properties":{"GEOID":"18121","NAME":"Parke","state":"IN","wildfire_risk_score":9.637,"wildfire_eal_total":2614.92,"risk_band":"Moderate","source":"FEMA National Risk Index v1.20 (December 2025)"},"geometry":{"type":"Polygon","coordinates":[[[-87.433667,39.935165],[-87.423161,39.943681],[-87.420221,39.952452],[-87.091006,39.953009],[-87.091542,39.867265],[-87.009477,39.866705],[-87.013062,39.604787],[-87.382418,39.607937],[-87.381442,39.617354],[-87.392326,39.635374],[-87.395919,39.654043],[-87.388756,39.663893],[-87.390147,39.676588],[-87.38152,39.693401],[-87.385584,39.700066],[-87.379912,39.707025],[-87.384418,39.718573],[-87.377492,39.741568],[-87.380567,39.766766],[-87.374279,39.777844],[-87.374596,39.792434],[-87.384676,39.80869],[-87.385538,39.833365],[-87.370076,39.839229],[-87.353863,39.862077],[-87.379013,39.876164],[-87.36784,39.885871],[-87.378593,39.902769],[-87.409827,39.913514],[-87.41331,39.918379],[-87.405186,39.923778],[-87.406797,39.928482],[-87.422175,39.92594],[-87.433667,39.935165]]]}},{"type":"Feature","properties":{"GEOID":"18117","NAME":"Orange","state":"IN","wildfire_risk_score":12.786,"wildfire_eal_total":3859.52,"risk_band":"Moderate","source":"FEMA National Risk Index v1.20 (December 2025)"},"geometry":{"type":"Polygon","coordinates":[[[-86.683102,38.686561],[-86.308701,38.688101],[-86.308868,38.394069],[-86.681424,38.394767],[-86.683102,38.686561]]]}},{"type":"Feature","properties":{"GEOID":"18105","NAME":"Monroe","state":"IN","wildfire_risk_score":31.17,"wildfire_eal_total":16106.17,"risk_band":"High","source":"FEMA National Risk Index v1.20 (December 2025)"},"geometry":{"type":"Polygon","coordinates":[[[-86.68561,39.336043],[-86.666329,39.329145],[-86.662976,39.334242],[-86.65638,39.330646],[-86.658398,39.350284],[-86.651551,39.355593],[-86.630818,39.346948],[-86.630844,39.340755],[-86.381395,39.339752],[-86.379937,39.25108],[-86.372408,39.250905],[-86.370066,39.048375],[-86.318133,39.04881],[-86.317474,38.99087],[-86.682277,38.992404],[-86.68561,39.336043]]]}},{"type":"Feature","properties":{"GEOID":"18113","NAME":"Noble","state":"IN","wildfire_risk_score":16.603,"wildfire_eal_total":5474.37,"risk_band":"High","source":"FEMA National Risk Index v1.20 (December 2025)"},"geometry":{"type":"Polygon","coordinates":[[[-85.654747,41.523347],[-85.194084,41.526437],[-85.192094,41.264209],[-85.53718,41.266157],[-85.536288,41.295241],[-85.651928,41.294776],[-85.654747,41.523347]]]}},{"type":"Feature","properties":{"GEOID":"18015","NAME":"Carroll","state":"IN","wildfire_risk_score":7.156,"wildfire_eal_total":2853.18,"risk_band":"Low","source":"FEMA National Risk Index v1.20 (December 2025)"},"geometry":{"type":"Polygon","coordinates":[[[-86.77423,40.664026],[-86.758301,40.664282],[-86.742693,40.678367],[-86.744243,40.682473],[-86.7557,40.676964],[-86.762228,40.67989],[-86.748705,40.688404],[-86.761936,40.700094],[-86.758687,40.710203],[-86.747824,40.716263],[-86.757526,40.723757],[-86.747764,40.73754],[-86.525143,40.735445],[-86.525164,40.692419],[-86.373521,40.69246],[-86.375762,40.431851],[-86.694665,40.432156],[-86.695353,40.561874],[-86.771293,40.562082],[-86.77423,40.664026]]]}},{"type":"Feature","properties":{"GEOID":"18011","NAME":"Boone","state":"IN","wildfire_risk_score":6.997,"wildfire_eal_total":4100.39,"risk_band":"Low","source":"FEMA National Risk Index v1.20 (December 2025)"},"geometry":{"type":"Polygon","coordinates":[[[-86.695821,40.039949],[-86.695804,40.178657],[-86.242365,40.180778],[-86.240736,39.926062],[-86.695071,39.92277],[-86.695821,40.039949]]]}},{"type":"Feature","properties":{"GEOID":"18149","NAME":"Starke","state":"IN","wildfire_risk_score":13.136,"wildfire_eal_total":4332.1,"risk_band":"Moderate","source":"FEMA National Risk Index v1.20 (December 2025)"},"geometry":{"type":"Polygon","coordinates":[[[-86.929782,41.234397],[-86.920543,41.245028],[-86.870265,41.264553],[-86.814652,41.273501],[-86.783473,41.285465],[-86.739995,41.321708],[-86.699982,41.402647],[-86.671152,41.413776],[-86.642542,41.432639],[-86.466603,41.432968],[-86.467046,41.171442],[-86.93017,41.172318],[-86.929782,41.234397]]]}},{"type":"Feature","properties":{"GEOID":"18047","NAME":"Franklin","state":"IN","wildfire_risk_score":14.854,"wildfire_eal_total":5791.13,"risk_band":"Moderate","source":"FEMA National Risk Index v1.20 (December 2025)"},"geometry":{"type":"Polygon","coordinates":[[[-85.29811,39.525476],[-84.8153652290776,39.5219502743529],[-84.819451,39.305152],[-85.217883,39.308474],[-85.29654,39.268291],[-85.29811,39.525476]]]}},{"type":"Feature","properties":{"GEOID":"18059","NAME":"Hancock","state":"IN","wildfire_risk_score":4.866,"wildfire_eal_total":2536.95,"risk_band":"Low","source":"FEMA National Risk Index v1.20 (December 2025)"},"geometry":{"type":"Polygon","coordinates":[[[-85.954013,39.869646],[-85.938067,39.869812],[-85.937587,39.927137],[-85.862395,39.928943],[-85.862489,39.943618],[-85.576192,39.945756],[-85.576798,39.872808],[-85.596678,39.872926],[-85.596916,39.786519],[-85.633491,39.786177],[-85.633228,39.698462],[-85.951721,39.697136],[-85.954013,39.869646]]]}},{"type":"Feature","properties":{"GEOID":"18099","NAME":"Marshall","state":"IN","wildfire_risk_score":6.711,"wildfire_eal_total":2410.93,"risk_band":"Low","source":"FEMA National Risk Index v1.20 (December 2025)"},"geometry":{"type":"Polygon","coordinates":[[[-86.467108,41.476459],[-86.059451,41.479154],[-86.054047,41.173147],[-86.467046,41.171442],[-86.467108,41.476459]]]}},{"type":"Feature","properties":{"GEOID":"18171","NAME":"Warren","state":"IN","wildfire_risk_score":2.481,"wildfire_eal_total":1194.98,"risk_band":"Low","source":"FEMA National Risk Index v1.20 (December 2025)"},"geometry":{"type":"Polygon","coordinates":[[[-87.5314544432537,40.1482925113968],[-87.5265964885746,40.4768761200948],[-87.092774,40.475737],[-87.092148,40.366612],[-87.136221,40.338715],[-87.170128,40.334831],[-87.244898,40.309252],[-87.249292,40.299609],[-87.281378,40.278391],[-87.296365,40.255546],[-87.311889,40.250036],[-87.347925,40.216802],[-87.4199,40.192258],[-87.438774,40.164458],[-87.433471,40.153504],[-87.405983,40.140678],[-87.406667,40.127508],[-87.49041,40.127406],[-87.490455,40.148422],[-87.5314544432537,40.1482925113968]]]}},{"type":"Feature","properties":{"GEOID":"18181","NAME":"White","state":"IN","wildfire_risk_score":7.379,"wildfire_eal_total":2429.98,"risk_band":"Moderate","source":"FEMA National Risk Index v1.20 (December 2025)"},"geometry":{"type":"Polygon","coordinates":[[[-87.099793,40.837607],[-86.986438,40.837921],[-86.987438,40.912177],[-86.581532,40.910925],[-86.581739,40.735765],[-86.747764,40.73754],[-86.752676,40.733866],[-86.757526,40.723757],[-86.747824,40.716263],[-86.758687,40.710203],[-86.761936,40.700094],[-86.748705,40.688404],[-86.762228,40.67989],[-86.742266,40.679593],[-86.758301,40.664282],[-86.77423,40.664026],[-86.771293,40.562082],[-87.095357,40.562895],[-87.099793,40.837607]]]}},{"type":"Feature","properties":{"GEOID":"18017","NAME":"Cass","state":"IN","wildfire_risk_score":11.069,"wildfire_eal_total":2918.98,"risk_band":"Moderate","source":"FEMA National Risk Index v1.20 (December 2025)"},"geometry":{"type":"Polygon","coordinates":[[[-86.581616,40.750387],[-86.581532,40.910925],[-86.169012,40.909836],[-86.165024,40.562649],[-86.374417,40.561361],[-86.373521,40.69246],[-86.525164,40.692419],[-86.525143,40.735445],[-86.581739,40.735765],[-86.581616,40.750387]]]}},{"type":"Feature","properties":{"GEOID":"18081","NAME":"Johnson","state":"IN","wildfire_risk_score":19.688,"wildfire_eal_total":11786.06,"risk_band":"High","source":"FEMA National Risk Index v1.20 (December 2025)"},"geometry":{"type":"Polygon","coordinates":[[[-86.2515,39.37122],[-86.249885,39.633645],[-85.95208,39.638345],[-85.952005,39.347373],[-86.251684,39.341672],[-86.2515,39.37122]]]}},{"type":"Feature","properties":{"GEOID":"18039","NAME":"Elkhart","state":"IN","wildfire_risk_score":32.888,"wildfire_eal_total":16493.19,"risk_band":"High","source":"FEMA National Risk Index v1.20 (December 2025)"},"geometry":{"type":"Polygon","coordinates":[[[-86.0625749882628,41.7605284110677],[-85.6597500080009,41.7591008018301],[-85.653507,41.436856],[-86.05923,41.435812],[-86.0625749882628,41.7605284110677]]]}},{"type":"Feature","properties":{"GEOID":"18067","NAME":"Howard","state":"IN","wildfire_risk_score":14.599,"wildfire_eal_total":4908.66,"risk_band":"Moderate","source":"FEMA National Risk Index v1.20 (December 2025)"},"geometry":{"type":"Polygon","coordinates":[[[-86.375501,40.489007],[-86.374417,40.561361],[-85.863641,40.565525],[-85.862117,40.406889],[-86.242812,40.402914],[-86.242992,40.373661],[-86.280755,40.373734],[-86.280829,40.388339],[-86.309325,40.388372],[-86.309249,40.431712],[-86.375762,40.431851],[-86.375501,40.489007]]]}},{"type":"Feature","properties":{"GEOID":"18013","NAME":"Brown","state":"IN","wildfire_risk_score":8.27,"wildfire_eal_total":2446.45,"risk_band":"Moderate","source":"FEMA National Risk Index v1.20 (December 2025)"},"geometry":{"type":"Polygon","coordinates":[[[-86.381395,39.339752],[-86.085601,39.344189],[-86.080272,39.05027],[-86.370066,39.048375],[-86.372408,39.250905],[-86.379937,39.25108],[-86.381395,39.339752]]]}},{"type":"Feature","properties":{"GEOID":"18109","NAME":"Morgan","state":"IN","wildfire_risk_score":23.092,"wildfire_eal_total":10752.86,"risk_band":"High","source":"FEMA National Risk Index v1.20 (December 2025)"},"geometry":{"type":"Polygon","coordinates":[[[-86.687561,39.521902],[-86.672899,39.529454],[-86.672729,39.535429],[-86.66404,39.538683],[-86.66095,39.546981],[-86.651407,39.549992],[-86.653151,39.559645],[-86.648319,39.565874],[-86.653513,39.564601],[-86.659594,39.579206],[-86.651942,39.595694],[-86.65665,39.601395],[-86.465605,39.600769],[-86.465931,39.630032],[-86.249885,39.633645],[-86.251684,39.341672],[-86.630844,39.340755],[-86.632206,39.470214],[-86.686875,39.470691],[-86.687561,39.521902]]]}},{"type":"Feature","properties":{"GEOID":"18003","NAME":"Allen","state":"IN","wildfire_risk_score":39.122,"wildfire_eal_total":25347.34,"risk_band":"High","source":"FEMA National Risk Index v1.20 (December 2025)"},"geometry":{"type":"Polygon","coordinates":[[[-85.338276,41.179065],[-85.309791,41.178889],[-85.307781,41.264158],[-84.8035868929108,41.2709330422073],[-84.802922,40.922568],[-85.33603,40.917082],[-85.338276,41.179065]]]}},{"type":"Feature","properties":{"GEOID":"18169","NAME":"Wabash","state":"IN","wildfire_risk_score":9.669,"wildfire_eal_total":2913.74,"risk_band":"Moderate","source":"FEMA National Risk Index v1.20 (December 2025)"},"geometry":{"type":"Polygon","coordinates":[[[-85.946436,40.999195],[-85.945561,41.042876],[-85.684181,41.046716],[-85.683198,41.001909],[-85.643841,41.002305],[-85.638587,40.653129],[-85.939525,40.650991],[-85.946436,40.999195]]]}},{"type":"Feature","properties":{"GEOID":"18115","NAME":"Ohio","state":"IN","wildfire_risk_score":0.891,"wildfire_eal_total":438.71,"risk_band":"Low","source":"FEMA National Risk Index v1.20 (December 2025)"},"geometry":{"type":"Polygon","coordinates":[[[-85.135832,38.929578],[-85.132508,38.948055],[-85.120125,38.956073],[-85.113179,38.955023],[-85.120877,38.944425],[-85.118762,38.937196],[-85.10447,38.94043],[-85.096344,38.935446],[-85.082642,38.952241],[-85.072445,38.948009],[-85.068079,38.957139],[-85.064563,38.954942],[-85.066614,38.950023],[-85.059406,38.9481],[-85.058203,38.958099],[-85.046072,38.956679],[-85.051198,38.966908],[-85.041523,38.975396],[-85.024668,38.974498],[-85.020121,38.982413],[-85.003564,38.975221],[-84.997467,38.996823],[-84.969707,38.992408],[-84.964247,38.997772],[-84.953866,38.994892],[-84.953289,38.999204],[-84.944017,39.000507],[-84.94606,39.00627],[-84.936012,39.005187],[-84.913544,39.018638],[-84.897688,39.013366],[-84.8773646668687,39.0316002471835],[-84.850607,39.004693],[-84.830619,38.974898],[-84.83516,38.957961],[-84.877762,38.920357],[-84.878817,38.913405],[-84.8711586444968,38.9016816688014],[-85.140312,38.903194],[-85.135832,38.929578]]]}},{"type":"Feature","properties":{"GEOID":"18177","NAME":"Wayne","state":"IN","wildfire_risk_score":20.706,"wildfire_eal_total":5956.23,"risk_band":"High","source":"FEMA National Risk Index v1.20 (December 2025)"},"geometry":{"type":"Polygon","coordinates":[[[-85.221117,39.829751],[-85.220728,39.873576],[-85.200945,39.873799],[-85.201473,40.004521],[-84.8109326101136,40.0050789081381],[-84.8143808402518,39.7266199184851],[-85.034408,39.729263],[-85.034575,39.714764],[-85.185089,39.715515],[-85.183472,39.788397],[-85.221118,39.788449],[-85.221117,39.829751]]]}},{"type":"Feature","properties":{"GEOID":"18135","NAME":"Randolph","state":"IN","wildfire_risk_score":7.093,"wildfire_eal_total":1989.8,"risk_band":"Low","source":"FEMA National Risk Index v1.20 (December 2025)"},"geometry":{"type":"Polygon","coordinates":[[[-85.218758,40.306706],[-84.8036640116333,40.310092925774],[-84.8109326101136,40.0050789081381],[-85.213496,40.00438],[-85.218758,40.306706]]]}},{"type":"Feature","properties":{"GEOID":"18137","NAME":"Ripley","state":"IN","wildfire_risk_score":7.983,"wildfire_eal_total":2410.64,"risk_band":"Moderate","source":"FEMA National Risk Index v1.20 (December 2025)"},"geometry":{"type":"Polygon","coordinates":[[[-85.444658,39.000659],[-85.440054,39.195617],[-85.217883,39.308474],[-85.0651,39.310069],[-85.135832,38.929578],[-85.202849,38.928523],[-85.203166,38.913803],[-85.444897,38.912998],[-85.444658,39.000659]]]}},{"type":"Feature","properties":{"GEOID":"18023","NAME":"Clinton","state":"IN","wildfire_risk_score":5.503,"wildfire_eal_total":1939.79,"risk_band":"Low","source":"FEMA National Risk Index v1.20 (December 2025)"},"geometry":{"type":"Polygon","coordinates":[[[-86.695637,40.214367],[-86.694665,40.432156],[-86.309249,40.431712],[-86.309325,40.388372],[-86.280829,40.388339],[-86.280755,40.373734],[-86.242992,40.373661],[-86.242365,40.180778],[-86.695804,40.178657],[-86.695637,40.214367]]]}},{"type":"Feature","properties":{"GEOID":"18133","NAME":"Putnam","state":"IN","wildfire_risk_score":9.987,"wildfire_eal_total":3358.69,"risk_band":"Moderate","source":"FEMA National Risk Index v1.20 (December 2025)"},"geometry":{"type":"Polygon","coordinates":[[[-87.014539,39.488091],[-87.009477,39.866705],[-86.686843,39.864842],[-86.687406,39.630437],[-86.641745,39.63004],[-86.643499,39.617371],[-86.65665,39.601395],[-86.651942,39.595694],[-86.659594,39.579206],[-86.653513,39.564601],[-86.648319,39.565874],[-86.653151,39.559645],[-86.651407,39.549992],[-86.66095,39.546981],[-86.66404,39.538683],[-86.672729,39.535429],[-86.672899,39.529454],[-86.687561,39.521902],[-86.68571,39.470063],[-87.014533,39.473572],[-87.014539,39.488091]]]}},{"type":"Feature","properties":{"GEOID":"18025","NAME":"Crawford","state":"IN","wildfire_risk_score":8.461,"wildfire_eal_total":1826.57,"risk_band":"Moderate","source":"FEMA National Risk Index v1.20 (December 2025)"},"geometry":{"type":"Polygon","coordinates":[[[-86.681424,38.394767],[-86.308868,38.394069],[-86.308674,38.422875],[-86.255045,38.422685],[-86.264841,38.411114],[-86.251716,38.406132],[-86.251417,38.395642],[-86.259047,38.398092],[-86.261602,38.394841],[-86.245581,38.387424],[-86.252367,38.383172],[-86.258976,38.389375],[-86.261179,38.380438],[-86.258048,38.366831],[-86.248372,38.363692],[-86.25273,38.35526],[-86.247158,38.34946],[-86.265003,38.362005],[-86.271534,38.360692],[-86.281773,38.349383],[-86.275142,38.349515],[-86.271629,38.342445],[-86.276363,38.340306],[-86.273474,38.321105],[-86.278498,38.320833],[-86.285644,38.331864],[-86.283222,38.324182],[-86.289724,38.31652],[-86.276218,38.30854],[-86.275804,38.300415],[-86.269594,38.307942],[-86.258855,38.305643],[-86.264026,38.304106],[-86.264951,38.295874],[-86.255122,38.296499],[-86.253137,38.2919],[-86.256689,38.284355],[-86.265547,38.286246],[-86.269792,38.278391],[-86.277792,38.286775],[-86.280424,38.284824],[-86.274762,38.279956],[-86.276956,38.227126],[-86.283857,38.220901],[-86.293301,38.224579],[-86.298119,38.220921],[-86.288433,38.212869],[-86.295082,38.209066],[-86.289721,38.202027],[-86.306511,38.202519],[-86.310427,38.18965],[-86.318196,38.188104],[-86.309819,38.180451],[-86.315156,38.177769],[-86.329672384455,38.1817018461543],[-86.357717,38.198807],[-86.373801,38.193352],[-86.378151,38.185845],[-86.377434,38.171379],[-86.37174,38.164183],[-86.328028,38.154786],[-86.321191,38.147005],[-86.323847,38.138412],[-86.340556,38.127737],[-86.379775,38.129274],[-86.401879,38.104329],[-86.429541,38.125281],[-86.449793,38.127223],[-86.4610337136873,38.1211745670961],[-86.460425,38.206825],[-86.571685,38.207539],[-86.570136,38.266328],[-86.679511,38.263086],[-86.681424,38.394767]]]}},{"type":"Feature","properties":{"GEOID":"18119","NAME":"Owen","state":"IN","wildfire_risk_score":11.514,"wildfire_eal_total":3535.9,"risk_band":"Moderate","source":"FEMA National Risk Index v1.20 (December 2025)"},"geometry":{"type":"Polygon","coordinates":[[[-87.054832,39.269901],[-87.053646,39.342621],[-86.942473,39.342043],[-86.939981,39.473345],[-86.632206,39.470214],[-86.630818,39.346948],[-86.651551,39.355593],[-86.658398,39.350284],[-86.65638,39.330646],[-86.662976,39.334242],[-86.666329,39.329145],[-86.68561,39.336043],[-86.683002,39.165746],[-87.054578,39.168086],[-87.054832,39.269901]]]}},{"type":"Feature","properties":{"GEOID":"18019","NAME":"Clark","state":"IN","wildfire_risk_score":20.674,"wildfire_eal_total":9509.62,"risk_band":"High","source":"FEMA National Risk Index v1.20 (December 2025)"},"geometry":{"type":"Polygon","coordinates":[[[-85.994633,38.429686],[-85.993317,38.48854],[-85.956195,38.488956],[-85.957102,38.501949],[-85.884776,38.503469],[-85.884708,38.518152],[-85.866268,38.518425],[-85.866341,38.547095],[-85.847588,38.54714],[-85.847893,38.561269],[-85.821162,38.561418],[-85.821457,38.57539],[-85.812158,38.575553],[-85.812343,38.582911],[-85.802994,38.58301],[-85.803143,38.590261],[-85.793629,38.590333],[-85.793584,38.604814],[-85.496666,38.606736],[-85.496452,38.59222],[-85.478701,38.592434],[-85.478762,38.586178],[-85.4285934968577,38.5863523967306],[-85.415821,38.563558],[-85.415745,38.546723],[-85.422441,38.532931],[-85.466864,38.51084],[-85.498866,38.468242],[-85.524787,38.457636],[-85.586033,38.450092],[-85.604457,38.44082],[-85.618281,38.426353],[-85.632937,38.395666],[-85.638678,38.363948],[-85.655355,38.323849],[-85.683561,38.295469],[-85.740857,38.267866],[-85.760933,38.271977],[-85.772268,38.285587],[-85.7910785029457,38.2877617033438],[-85.795961,38.306571],[-85.787931,38.30817],[-85.79328,38.315278],[-85.783358,38.321602],[-85.794087,38.324845],[-85.79715,38.332478],[-85.783291,38.331865],[-85.789889,38.339931],[-85.782964,38.338939],[-85.761072,38.350396],[-85.807726,38.404313],[-85.966719,38.403659],[-85.966886,38.410876],[-85.994629,38.410865],[-85.994633,38.429686]]]}},{"type":"Feature","properties":{"GEOID":"18153","NAME":"Sullivan","state":"IN","wildfire_risk_score":2.799,"wildfire_eal_total":1079.74,"risk_band":"Low","source":"FEMA National Risk Index v1.20 (December 2025)"},"geometry":{"type":"Polygon","coordinates":[[[-87.658201,39.138404],[-87.651719,39.150602],[-87.642175,39.157097],[-87.628743,39.153917],[-87.642065,39.162477],[-87.63649,39.168833],[-87.620521,39.17033],[-87.6204,39.185195],[-87.605173,39.185897],[-87.577029,39.211123],[-87.579319,39.243552],[-87.571333,39.251381],[-87.580652,39.255237],[-87.593486,39.247452],[-87.6041078977191,39.2594582614714],[-87.240379,39.259064],[-87.241067,38.901591],[-87.5225092886878,38.9023946478127],[-87.516728,38.904123],[-87.527295,38.907215],[-87.527702,38.918449],[-87.518826,38.923205],[-87.516628,38.932995],[-87.521851,38.940069],[-87.512187,38.954417],[-87.529496,38.971925],[-87.576531,38.986711],[-87.576984,38.99127],[-87.565193,38.988795],[-87.560427,38.992425],[-87.578654,38.999502],[-87.569696,39.019413],[-87.580252,39.039377],[-87.572588,39.057286],[-87.595559,39.078978],[-87.615964,39.082566],[-87.620978,39.088096],[-87.614881,39.102655],[-87.652796,39.106839],[-87.651022,39.116439],[-87.641588,39.114542],[-87.6351,39.122298],[-87.655239,39.132283],[-87.658201,39.138404]]]}},{"type":"Feature","properties":{"GEOID":"18077","NAME":"Jefferson","state":"IN","wildfire_risk_score":9.415,"wildfire_eal_total":3120.11,"risk_band":"Moderate","source":"FEMA National Risk Index v1.20 (December 2025)"},"geometry":{"type":"Polygon","coordinates":[[[-85.684068,38.823873],[-85.63844,38.824182],[-85.638403,38.817597],[-85.628855,38.817583],[-85.628847,38.824139],[-85.610595,38.824247],[-85.610999,38.853769],[-85.573776,38.853745],[-85.573806,38.882658],[-85.537431,38.88278],[-85.5382,38.912217],[-85.203166,38.913803],[-85.2014516870153,38.6910523612589],[-85.221124,38.700957],[-85.246505,38.731821],[-85.268495,38.740165],[-85.305325,38.741546],[-85.365216,38.730468],[-85.41954,38.735513],[-85.436299,38.728484],[-85.452361,38.708194],[-85.456755,38.692252],[-85.455486,38.68209],[-85.438742,38.659319],[-85.439284,38.607406],[-85.4285934968577,38.5863523967306],[-85.478762,38.586178],[-85.478701,38.592434],[-85.496452,38.59222],[-85.496666,38.606736],[-85.56998,38.606155],[-85.570926,38.678455],[-85.60819,38.67874],[-85.608678,38.707858],[-85.64576,38.708018],[-85.646218,38.729859],[-85.664274,38.730018],[-85.664357,38.736888],[-85.683338,38.736731],[-85.684068,38.823873]]]}},{"type":"Feature","properties":{"GEOID":"18127","NAME":"Porter","state":"IN","wildfire_risk_score":60.528,"wildfire_eal_total":111518.91,"risk_band":"High","source":"FEMA National Risk Index v1.20 (December 2025)"},"geometry":{"type":"Polygon","coordinates":[[[-87.2226429797274,41.6241704979427],[-87.175701,41.634177],[-87.162094,41.635394],[-87.158673,41.631399],[-87.158097,41.641591],[-87.150469,41.641418],[-87.147446,41.635919],[-87.146956,41.646168],[-87.09905,41.65177],[-86.9327203259478,41.7095240688235],[-86.92956,41.249079],[-86.930079,41.236798],[-86.937691,41.230209],[-86.968125,41.219658],[-86.977017,41.221549],[-87.059724,41.26952],[-87.122124,41.286365],[-87.192521,41.265213],[-87.218862,41.242027],[-87.2226429797274,41.6241704979427]]]}},{"type":"Feature","properties":{"GEOID":"18075","NAME":"Jay","state":"IN","wildfire_risk_score":5.184,"wildfire_eal_total":1617.68,"risk_band":"Low","source":"FEMA National Risk Index v1.20 (December 2025)"},"geometry":{"type":"Polygon","coordinates":[[[-85.219901,40.379034],[-85.206831,40.379182],[-85.201146,40.567242],[-84.8024847798091,40.5722121057691],[-84.8036640116333,40.310092925774],[-85.218758,40.306706],[-85.219901,40.379034]]]}},{"type":"Feature","properties":{"GEOID":"18163","NAME":"Vanderburgh","state":"IN","wildfire_risk_score":31.202,"wildfire_eal_total":14273.13,"risk_band":"High","source":"FEMA National Risk Index v1.20 (December 2025)"},"geometry":{"type":"Polygon","coordinates":[[[-87.700467,37.89889],[-87.696775,38.124843],[-87.688918,38.12471],[-87.688374,38.168419],[-87.467284,38.165403],[-87.473011,38.035135],[-87.449867,38.03517],[-87.4511705981016,37.941083673096],[-87.49689,37.911167],[-87.511499,37.906426],[-87.556567,37.928606],[-87.576988,37.952287],[-87.575729,37.967778],[-87.584545,37.974657],[-87.596171,37.97486],[-87.603298,37.967287],[-87.60559,37.950144],[-87.619049,37.938517],[-87.627892,37.922253],[-87.620795,37.907676],[-87.587141,37.884858],[-87.583925,37.872485],[-87.606599,37.838669],[-87.635806,37.827015],[-87.655171,37.826037],[-87.675538,37.831732],[-87.681633,37.855917],[-87.666817,37.879851],[-87.665259,37.892851],[-87.679131,37.902951],[-87.700467,37.89889]]]}},{"type":"Feature","properties":{"GEOID":"18155","NAME":"Switzerland","state":"IN","wildfire_risk_score":3.022,"wildfire_eal_total":1077.66,"risk_band":"Low","source":"FEMA National Risk Index v1.20 (December 2025)"},"geometry":{"type":"Polygon","coordinates":[[[-85.203589,38.816917],[-85.202849,38.928523],[-85.135832,38.929578],[-85.140312,38.903194],[-84.8711586444968,38.9016816688014],[-84.812746,38.895132],[-84.785234,38.880439],[-84.791002,38.860572],[-84.829958,38.830632],[-84.811645,38.792766],[-84.814641,38.784488],[-84.828857,38.783271],[-84.887285,38.794776],[-84.943641,38.775427],[-84.991927,38.778537],[-85.101405,38.726551],[-85.136697,38.700236],[-85.173048,38.688022],[-85.2014516870153,38.6910523612589],[-85.203589,38.816917]]]}},{"type":"Feature","properties":{"GEOID":"18021","NAME":"Clay","state":"IN","wildfire_risk_score":6.838,"wildfire_eal_total":2543.14,"risk_band":"Low","source":"FEMA National Risk Index v1.20 (December 2025)"},"geometry":{"type":"Polygon","coordinates":[[[-87.240699,39.186217],[-87.238964,39.52062],[-87.200107,39.519858],[-87.199012,39.607137],[-87.013062,39.604787],[-87.014533,39.473572],[-86.939981,39.473345],[-86.942473,39.342043],[-87.053646,39.342621],[-87.054578,39.168086],[-87.240737,39.171773],[-87.240699,39.186217]]]}},{"type":"Feature","properties":{"GEOID":"18031","NAME":"Decatur","state":"IN","wildfire_risk_score":6.807,"wildfire_eal_total":3268.94,"risk_band":"Low","source":"FEMA National Risk Index v1.20 (December 2025)"},"geometry":{"type":"Polygon","coordinates":[[[-85.687161,39.189026],[-85.684515,39.350049],[-85.63063,39.350205],[-85.629327,39.45275],[-85.297575,39.453275],[-85.29654,39.268291],[-85.56632,39.132761],[-85.686783,39.130859],[-85.687161,39.189026]]]}},{"type":"Feature","properties":{"GEOID":"18097","NAME":"Marion","state":"IN","wildfire_risk_score":22.296,"wildfire_eal_total":8865.04,"risk_band":"High","source":"FEMA National Risk Index v1.20 (December 2025)"},"geometry":{"type":"Polygon","coordinates":[[[-86.328121,39.866125],[-86.326293,39.924029],[-85.937587,39.927137],[-85.938067,39.869812],[-85.954013,39.869646],[-85.95208,39.638345],[-86.326341,39.632177],[-86.328121,39.866125]]]}},{"type":"Feature","properties":{"GEOID":"18091","NAME":"LaPorte","state":"IN","wildfire_risk_score":35.242,"wildfire_eal_total":18424.51,"risk_band":"High","source":"FEMA National Risk Index v1.20 (December 2025)"},"geometry":{"type":"Polygon","coordinates":[[[-86.9327203259478,41.7095240688235],[-86.916394,41.716385],[-86.90913,41.726938],[-86.824828,41.76024],[-86.524222859982,41.7594561006795],[-86.526682,41.65044],[-86.487567,41.649325],[-86.486378,41.595864],[-86.486433,41.570545],[-86.498158,41.561083],[-86.500286,41.52101],[-86.52494,41.519675],[-86.524711,41.432886],[-86.642542,41.432639],[-86.671152,41.413776],[-86.699982,41.402647],[-86.739995,41.321708],[-86.783473,41.285465],[-86.814652,41.273501],[-86.870265,41.264553],[-86.920543,41.245028],[-86.930079,41.236798],[-86.9327203259478,41.7095240688235]]]}},{"type":"Feature","properties":{"GEOID":"18101","NAME":"Martin","state":"IN","wildfire_risk_score":2.608,"wildfire_eal_total":967.15,"risk_band":"Low","source":"FEMA National Risk Index v1.20 (December 2025)"},"geometry":{"type":"Polygon","coordinates":[[[-86.924212,38.530602],[-86.922943,38.817238],[-86.904227,38.817511],[-86.904252,38.904204],[-86.682853,38.904697],[-86.682359,38.526378],[-86.837462,38.526468],[-86.84418,38.51517],[-86.869432,38.506529],[-86.880053,38.494796],[-86.900552,38.50129],[-86.91291,38.495965],[-86.920021,38.497995],[-86.924186,38.505358],[-86.924212,38.530602]]]}},{"type":"Feature","properties":{"GEOID":"18141","NAME":"St. Joseph","state":"IN","wildfire_risk_score":22.169,"wildfire_eal_total":9087.52,"risk_band":"High","source":"FEMA National Risk Index v1.20 (December 2025)"},"geometry":{"type":"Polygon","coordinates":[[[-86.526009,41.672304],[-86.524222859982,41.7594561006795],[-86.0625749882628,41.7605284110677],[-86.059451,41.479154],[-86.467108,41.476459],[-86.466603,41.432968],[-86.524711,41.432886],[-86.52494,41.519675],[-86.500286,41.52101],[-86.498158,41.561083],[-86.486433,41.570545],[-86.48646,41.616395],[-86.487567,41.649325],[-86.526682,41.65044],[-86.526009,41.672304]]]}},{"type":"Feature","properties":{"GEOID":"18087","NAME":"LaGrange","state":"IN","wildfire_risk_score":29.93,"wildfire_eal_total":7765.44,"risk_band":"High","source":"FEMA National Risk Index v1.20 (December 2025)"},"geometry":{"type":"Polygon","coordinates":[[[-85.6597500080009,41.7591008018301],[-85.1967737374204,41.7597353928585],[-85.194084,41.526437],[-85.654747,41.523347],[-85.6597500080009,41.7591008018301]]]}},{"type":"Feature","properties":{"GEOID":"18063","NAME":"Hendricks","state":"IN","wildfire_risk_score":10.655,"wildfire_eal_total":5509.86,"risk_band":"Moderate","source":"FEMA National Risk Index v1.20 (December 2025)"},"geometry":{"type":"Polygon","coordinates":[[[-86.695071,39.92277],[-86.326293,39.924029],[-86.326341,39.632177],[-86.465931,39.630032],[-86.465605,39.600769],[-86.65665,39.601395],[-86.643499,39.617371],[-86.641745,39.63004],[-86.687406,39.630437],[-86.686843,39.864842],[-86.695127,39.864845],[-86.695071,39.92277]]]}},{"type":"Feature","properties":{"GEOID":"18159","NAME":"Tipton","state":"IN","wildfire_risk_score":1.399,"wildfire_eal_total":901.05,"risk_band":"Low","source":"FEMA National Risk Index v1.20 (December 2025)"},"geometry":{"type":"Polygon","coordinates":[[[-86.242992,40.373661],[-86.242812,40.402914],[-85.862117,40.406889],[-85.861903,40.218936],[-86.242743,40.215834],[-86.242992,40.373661]]]}},{"type":"Feature","properties":{"GEOID":"18049","NAME":"Fulton","state":"IN","wildfire_risk_score":5.375,"wildfire_eal_total":1666.27,"risk_band":"Low","source":"FEMA National Risk Index v1.20 (December 2025)"},"geometry":{"type":"Polygon","coordinates":[[[-86.468509,40.909889],[-86.467046,41.171442],[-86.077551,41.172868],[-86.075939,41.084878],[-86.018414,41.086118],[-86.018664,41.041878],[-85.945561,41.042876],[-85.945402,40.999256],[-86.168459,40.996097],[-86.169012,40.909836],[-86.468509,40.909889]]]}},{"type":"Feature","properties":{"GEOID":"18033","NAME":"DeKalb","state":"IN","wildfire_risk_score":11.991,"wildfire_eal_total":4145.66,"risk_band":"Moderate","source":"FEMA National Risk Index v1.20 (December 2025)"},"geometry":{"type":"Polygon","coordinates":[[[-85.194084,41.526437],[-84.8046882846078,41.530134018066],[-84.8035868929108,41.2709330422073],[-85.192094,41.264209],[-85.194084,41.526437]]]}},{"type":"Feature","properties":{"GEOID":"18165","NAME":"Vermillion","state":"IN","wildfire_risk_score":7.347,"wildfire_eal_total":2172.19,"risk_band":"Low","source":"FEMA National Risk Index v1.20 (December 2025)"},"geometry":{"type":"Polygon","coordinates":[[[-87.533256,39.871982],[-87.5314569182137,40.1481271184891],[-87.490455,40.148422],[-87.49041,40.127406],[-87.406667,40.127508],[-87.417438,40.058684],[-87.431499,40.047748],[-87.424224,40.039872],[-87.4354,40.023509],[-87.433385,39.994188],[-87.427393,39.981944],[-87.431731,39.96869],[-87.440263,39.960303],[-87.420221,39.952452],[-87.43319,39.931384],[-87.422175,39.92594],[-87.406797,39.928482],[-87.405186,39.923778],[-87.41331,39.918379],[-87.409827,39.913514],[-87.378593,39.902769],[-87.36784,39.885871],[-87.379013,39.876164],[-87.353863,39.862077],[-87.370076,39.839229],[-87.385538,39.833365],[-87.384676,39.80869],[-87.374596,39.792434],[-87.374279,39.777844],[-87.380567,39.766766],[-87.377492,39.741568],[-87.384418,39.718573],[-87.379912,39.707025],[-87.385584,39.700066],[-87.38152,39.693401],[-87.390147,39.676588],[-87.388756,39.663893],[-87.395919,39.654043],[-87.392326,39.635374],[-87.381442,39.617354],[-87.382418,39.607937],[-87.5321874761397,39.607306],[-87.533256,39.871982]]]}},{"type":"Feature","properties":{"GEOID":"18157","NAME":"Tippecanoe","state":"IN","wildfire_risk_score":29.039,"wildfire_eal_total":14294.74,"risk_band":"High","source":"FEMA National Risk Index v1.20 (December 2025)"},"geometry":{"type":"Polygon","coordinates":[[[-87.095357,40.562895],[-86.695353,40.561874],[-86.695637,40.214367],[-87.092563,40.214806],[-87.095357,40.562895]]]}},{"type":"Feature","properties":{"GEOID":"18111","NAME":"Newton","state":"IN","wildfire_risk_score":10.274,"wildfire_eal_total":3619.75,"risk_band":"Moderate","source":"FEMA National Risk Index v1.20 (December 2025)"},"geometry":{"type":"Polygon","coordinates":[[[-87.526696,41.149222],[-87.5265867699935,41.1660900920026],[-87.448296,41.174206],[-87.414338,41.16223],[-87.393796,41.162806],[-87.380983,41.17251],[-87.324599,41.186203],[-87.275882,41.218595],[-87.276449,40.911477],[-87.26905,40.911517],[-87.267298,40.736582],[-87.5260482321639,40.7368850502659],[-87.526696,41.149222]]]}},{"type":"Feature","properties":{"GEOID":"18079","NAME":"Jennings","state":"IN","wildfire_risk_score":14.218,"wildfire_eal_total":4539.44,"risk_band":"Moderate","source":"FEMA National Risk Index v1.20 (December 2025)"},"geometry":{"type":"Polygon","coordinates":[[[-85.799834,39.128897],[-85.56632,39.132761],[-85.440054,39.195617],[-85.444897,38.912998],[-85.5382,38.912217],[-85.537431,38.88278],[-85.573806,38.882658],[-85.573776,38.853745],[-85.610999,38.853769],[-85.610595,38.824247],[-85.628847,38.824139],[-85.628855,38.817583],[-85.638403,38.817597],[-85.63844,38.824182],[-85.679676,38.8241],[-85.684068,38.823873],[-85.683839,38.815406],[-85.697237,38.814793],[-85.70575,38.818797],[-85.710258,38.827516],[-85.723187,38.823027],[-85.733191,38.831812],[-85.730854,38.824604],[-85.743284,38.818694],[-85.747474,38.822267],[-85.747033,38.815411],[-85.753023,38.820773],[-85.75829,38.818831],[-85.757181,38.815122],[-85.76821,38.815127],[-85.771051,38.80975],[-85.779474,38.812682],[-85.783425,38.807145],[-85.795357,38.807508],[-85.799834,39.128897]]]}},{"type":"Feature","properties":{"GEOID":"18005","NAME":"Bartholomew","state":"IN","wildfire_risk_score":26.113,"wildfire_eal_total":13089.26,"risk_band":"High","source":"FEMA National Risk Index v1.20 (December 2025)"},"geometry":{"type":"Polygon","coordinates":[[[-86.085601,39.344189],[-85.684515,39.350049],[-85.686783,39.130859],[-85.799834,39.128897],[-85.798804,39.068536],[-85.816454,39.070888],[-85.828264,39.063587],[-85.842044,39.063032],[-85.847279,39.05523],[-85.862447,39.048919],[-85.860573,39.04091],[-86.079844,39.035903],[-86.085601,39.344189]]]}},{"type":"Feature","properties":{"GEOID":"18037","NAME":"Dubois","state":"IN","wildfire_risk_score":16.762,"wildfire_eal_total":6443.94,"risk_band":"High","source":"FEMA National Risk Index v1.20 (December 2025)"},"geometry":{"type":"Polygon","coordinates":[[[-87.073124,38.437046],[-87.072369,38.5147],[-87.061208,38.500703],[-87.045073,38.510865],[-87.033151,38.51218],[-87.023427,38.507225],[-87.012968,38.511957],[-87.000003,38.509217],[-86.995547,38.513567],[-86.977992,38.502388],[-86.956217,38.503439],[-86.955398,38.491706],[-86.947663,38.490453],[-86.933048,38.505367],[-86.924186,38.505358],[-86.913987,38.495995],[-86.900552,38.50129],[-86.878902,38.49492],[-86.869432,38.506529],[-86.84418,38.51517],[-86.837462,38.526468],[-86.682359,38.526378],[-86.678992,38.248062],[-86.792152,38.2491],[-86.791497,38.20513],[-87.073141,38.203821],[-87.073124,38.437046]]]}},{"type":"Feature","properties":{"GEOID":"18173","NAME":"Warrick","state":"IN","wildfire_risk_score":35.56,"wildfire_eal_total":23481.73,"risk_band":"High","source":"FEMA National Risk Index v1.20 (December 2025)"},"geometry":{"type":"Polygon","coordinates":[[[-87.473032,38.049424],[-87.466744,38.201286],[-87.31703,38.201753],[-87.316893,38.246077],[-87.298218,38.245886],[-87.298388,38.231671],[-87.073067,38.232596],[-87.073141,38.203821],[-87.01749,38.20358],[-87.017453,38.118301],[-87.072332,38.11828],[-87.075161,38.096409],[-87.087587,38.08552],[-87.097919,38.059328],[-87.08842,38.049814],[-87.124288,38.043909],[-87.133357,38.055231],[-87.147914,38.059002],[-87.15312,38.054303],[-87.154557,38.031483],[-87.166353,38.029522],[-87.153568,38.025013],[-87.153598,38.019496],[-87.16848,38.018469],[-87.17034,38.010923],[-87.183193,38.010158],[-87.175506,38.006712],[-87.175894,38.002662],[-87.183026,38.002759],[-87.196218,37.987454],[-87.225701,37.971667],[-87.231904,37.948123],[-87.240918,37.952269],[-87.26795,37.925172],[-87.2690218582973,37.8779740345985],[-87.319754,37.905524],[-87.344933,37.911164],[-87.385434,37.93767],[-87.413325,37.944714],[-87.4511705981016,37.941083673096],[-87.449867,38.03517],[-87.473011,38.035135],[-87.473032,38.049424]]]}},{"type":"Feature","properties":{"GEOID":"18093","NAME":"Lawrence","state":"IN","wildfire_risk_score":15.585,"wildfire_eal_total":5713.85,"risk_band":"High","source":"FEMA National Risk Index v1.20 (December 2025)"},"geometry":{"type":"Polygon","coordinates":[[[-86.683513,38.761965],[-86.682277,38.992404],[-86.280389,38.991028],[-86.275281,38.763795],[-86.284633,38.765084],[-86.282041,38.761124],[-86.291558,38.742541],[-86.290402,38.736323],[-86.300257,38.733673],[-86.299722,38.729706],[-86.302225,38.735815],[-86.310058,38.733131],[-86.308701,38.688101],[-86.683102,38.686561],[-86.683513,38.761965]]]}},{"type":"Feature","properties":{"GEOID":"18179","NAME":"Wells","state":"IN","wildfire_risk_score":4.962,"wildfire_eal_total":1929.9,"risk_band":"Low","source":"FEMA National Risk Index v1.20 (December 2025)"},"geometry":{"type":"Polygon","coordinates":[[[-85.448825,40.653607],[-85.334667,40.654413],[-85.33603,40.917082],[-85.073861,40.917823],[-85.068479,40.56824],[-85.447014,40.566929],[-85.448825,40.653607]]]}},{"type":"Feature","properties":{"GEOID":"18009","NAME":"Blackford","state":"IN","wildfire_risk_score":2.545,"wildfire_eal_total":905.95,"risk_band":"Low","source":"FEMA National Risk Index v1.20 (December 2025)"},"geometry":{"type":"Polygon","coordinates":[[[-85.447014,40.566929],[-85.201146,40.567242],[-85.206831,40.379182],[-85.444323,40.378746],[-85.447014,40.566929]]]}},{"type":"Feature","properties":{"GEOID":"18143","NAME":"Scott","state":"IN","wildfire_risk_score":6.139,"wildfire_eal_total":2171.3,"risk_band":"Low","source":"FEMA National Risk Index v1.20 (December 2025)"},"geometry":{"type":"Polygon","coordinates":[[[-85.888334,38.734443],[-85.881404,38.725026],[-85.879209,38.729351],[-85.869559,38.726171],[-85.870879,38.729537],[-85.847227,38.735298],[-85.842325,38.739353],[-85.843358,38.744764],[-85.832348,38.751819],[-85.829813,38.764231],[-85.819429,38.776503],[-85.804905,38.77954],[-85.80725,38.789377],[-85.794277,38.808268],[-85.783425,38.807145],[-85.779474,38.812682],[-85.771051,38.80975],[-85.76821,38.815127],[-85.757181,38.815122],[-85.75829,38.818831],[-85.753023,38.820773],[-85.747033,38.815411],[-85.747474,38.822267],[-85.743284,38.818694],[-85.730854,38.824604],[-85.733191,38.831812],[-85.723187,38.823027],[-85.710258,38.827516],[-85.703263,38.816577],[-85.683839,38.815406],[-85.683338,38.736731],[-85.664357,38.736888],[-85.664274,38.730018],[-85.646218,38.729859],[-85.64576,38.708018],[-85.608678,38.707858],[-85.60819,38.67874],[-85.570926,38.678455],[-85.56998,38.606155],[-85.793584,38.604814],[-85.793629,38.590333],[-85.803143,38.590261],[-85.802994,38.58301],[-85.812343,38.582911],[-85.812158,38.575553],[-85.821457,38.57539],[-85.821162,38.561418],[-85.847893,38.561269],[-85.848575,38.576266],[-85.885643,38.575412],[-85.888334,38.734443]]]}}]}