{"type":"FeatureCollection","metadata":{"state":"KS","boundary_source":"U.S. Census Bureau 2024 Cartographic Boundary File (counties, 1:500,000)","risk_source":"FEMA National Risk Index v1.20 (December 2025)"},"features":[{"type":"Feature","properties":{"GEOID":"20099","NAME":"Labette","state":"KS","wildfire_risk_score":38.581,"wildfire_eal_total":16896.36,"risk_band":"Low","source":"FEMA National Risk Index v1.20 (December 2025)"},"geometry":{"type":"Polygon","coordinates":[[[-95.522651,37.063507],[-95.51798,37.259019],[-95.52113,37.38399],[-95.074972,37.383823],[-95.073509,36.999509],[-95.5224149880945,36.9992810582678],[-95.522651,37.063507]]]}},{"type":"Feature","properties":{"GEOID":"20059","NAME":"Franklin","state":"KS","wildfire_risk_score":50.223,"wildfire_eal_total":54279.25,"risk_band":"Moderate","source":"FEMA National Risk Index v1.20 (December 2025)"},"geometry":{"type":"Polygon","coordinates":[[[-95.509014,38.658965],[-95.508042,38.695268],[-95.501223,38.695263],[-95.500738,38.738808],[-95.056412,38.738587],[-95.056667,38.694902],[-95.065772,38.694903],[-95.065831,38.389945],[-95.508328,38.390278],[-95.509014,38.658965]]]}},{"type":"Feature","properties":{"GEOID":"20171","NAME":"Scott","state":"KS","wildfire_risk_score":22.042,"wildfire_eal_total":6286.11,"risk_band":"Low","source":"FEMA National Risk Index v1.20 (December 2025)"},"geometry":{"type":"Polygon","coordinates":[[[-101.128379,38.700603],[-100.688006,38.700021],[-100.684699,38.264137],[-101.125438,38.264509],[-101.128379,38.700603]]]}},{"type":"Feature","properties":{"GEOID":"20013","NAME":"Brown","state":"KS","wildfire_risk_score":71.406,"wildfire_eal_total":226473.24,"risk_band":"Moderate","source":"FEMA National Risk Index v1.20 (December 2025)"},"geometry":{"type":"Polygon","coordinates":[[[-95.788977,39.769568],[-95.7881114096839,40.0004520166495],[-95.339896,39.999999],[-95.33974,39.65298],[-95.788941,39.653001],[-95.788977,39.769568]]]}},{"type":"Feature","properties":{"GEOID":"20069","NAME":"Gray","state":"KS","wildfire_risk_score":39.059,"wildfire_eal_total":23922.82,"risk_band":"Low","source":"FEMA National Risk Index v1.20 (December 2025)"},"geometry":{"type":"Polygon","coordinates":[[[-100.664951,37.868089],[-100.664166,38.00253],[-100.22661,38.001015],[-100.227416,37.826842],[-100.214637,37.826808],[-100.216229,37.47519],[-100.652642,37.474848],[-100.651748,37.828712],[-100.665172,37.828831],[-100.664951,37.868089]]]}},{"type":"Feature","properties":{"GEOID":"20093","NAME":"Kearny","state":"KS","wildfire_risk_score":32.156,"wildfire_eal_total":21668.91,"risk_band":"Low","source":"FEMA National Risk Index v1.20 (December 2025)"},"geometry":{"type":"Polygon","coordinates":[[[-101.54192,37.914575],[-101.542312,38.263207],[-101.103268,38.264557],[-101.103778,37.829035],[-101.089886,37.829115],[-101.089667,37.736337],[-101.527063,37.736314],[-101.526964,37.827626],[-101.542757,37.827594],[-101.54192,37.914575]]]}},{"type":"Feature","properties":{"GEOID":"20165","NAME":"Rush","state":"KS","wildfire_risk_score":42.525,"wildfire_eal_total":46630.58,"risk_band":"Low","source":"FEMA National Risk Index v1.20 (December 2025)"},"geometry":{"type":"Polygon","coordinates":[[[-99.58644,38.55296],[-99.585087,38.696537],[-99.032971,38.696759],[-99.032408,38.348334],[-99.584794,38.349386],[-99.58644,38.55296]]]}},{"type":"Feature","properties":{"GEOID":"20075","NAME":"Hamilton","state":"KS","wildfire_risk_score":27.481,"wildfire_eal_total":15988.39,"risk_band":"Low","source":"FEMA National Risk Index v1.20 (December 2025)"},"geometry":{"type":"Polygon","coordinates":[[[-102.044644,38.045532],[-102.04451007292,38.2624115834718],[-101.542312,38.263207],[-101.542757,37.827594],[-101.526964,37.827626],[-101.527063,37.736314],[-102.041989965863,37.7385406283736],[-102.044644,38.045532]]]}},{"type":"Feature","properties":{"GEOID":"20131","NAME":"Nemaha","state":"KS","wildfire_risk_score":82.824,"wildfire_eal_total":701930.04,"risk_band":"High","source":"FEMA National Risk Index v1.20 (December 2025)"},"geometry":{"type":"Polygon","coordinates":[[[-96.239705,39.65333],[-96.2392078816029,40.0006909657961],[-95.7881114096839,40.0004520166495],[-95.789098,39.565943],[-96.238969,39.56622],[-96.239705,39.65333]]]}},{"type":"Feature","properties":{"GEOID":"20149","NAME":"Pottawatomie","state":"KS","wildfire_risk_score":90.744,"wildfire_eal_total":2391313.62,"risk_band":"High","source":"FEMA National Risk Index v1.20 (December 2025)"},"geometry":{"type":"Polygon","coordinates":[[[-96.727743,39.426851],[-96.713046,39.436533],[-96.721904,39.444095],[-96.70862,39.460374],[-96.688123,39.461153],[-96.689825,39.468289],[-96.682116,39.482761],[-96.678935,39.48341],[-96.681146,39.476887],[-96.677212,39.473241],[-96.66765,39.475418],[-96.656697,39.500202],[-96.649612,39.506769],[-96.641626,39.506444],[-96.642616,39.522109],[-96.620675,39.538355],[-96.615616,39.531773],[-96.592122,39.543832],[-96.588805,39.546194],[-96.591075,39.552937],[-96.580362,39.566332],[-96.035952,39.5661],[-96.035899,39.129784],[-96.04121,39.127482],[-96.04398,39.141174],[-96.061246,39.142412],[-96.091054,39.15471],[-96.083867,39.163263],[-96.060748,39.157296],[-96.05682,39.16119],[-96.083557,39.193504],[-96.09626,39.191841],[-96.106968,39.201032],[-96.122757,39.187124],[-96.152843,39.192576],[-96.176741,39.188616],[-96.181567,39.206333],[-96.194785,39.20761],[-96.203415,39.20021],[-96.212995,39.199935],[-96.234956,39.212132],[-96.244207,39.208],[-96.254517,39.191235],[-96.269382,39.178963],[-96.283851,39.184828],[-96.294205,39.195453],[-96.311317,39.195896],[-96.324729,39.186051],[-96.331176,39.165707],[-96.328377,39.160887],[-96.33732,39.162145],[-96.346639,39.153906],[-96.358292,39.156525],[-96.357625,39.173022],[-96.377787,39.164137],[-96.403387,39.1817],[-96.445679,39.190648],[-96.461169,39.188605],[-96.464211,39.176288],[-96.460371,39.168445],[-96.473059,39.164676],[-96.484661,39.179409],[-96.494316,39.168133],[-96.516097,39.170956],[-96.517084,39.187627],[-96.556201,39.179862],[-96.56059,39.197723],[-96.530969,39.195745],[-96.519209,39.198912],[-96.518719,39.205597],[-96.53912,39.214843],[-96.547152,39.208988],[-96.561899,39.241128],[-96.579897,39.234341],[-96.587271,39.238676],[-96.586469,39.243751],[-96.572909,39.244394],[-96.572978,39.252464],[-96.578387,39.256192],[-96.576249,39.249547],[-96.591002,39.249619],[-96.595161,39.252385],[-96.595362,39.262491],[-96.610012,39.266598],[-96.635002,39.28705],[-96.639476,39.292656],[-96.632595,39.295041],[-96.633454,39.298642],[-96.656634,39.317008],[-96.64656,39.326182],[-96.659779,39.325062],[-96.669635,39.331369],[-96.671282,39.336897],[-96.661106,39.343279],[-96.670355,39.343752],[-96.691131,39.360018],[-96.684198,39.371938],[-96.695724,39.373396],[-96.719668,39.394803],[-96.726297,39.403866],[-96.716569,39.40719],[-96.714943,39.419514],[-96.727743,39.426851]]]}},{"type":"Feature","properties":{"GEOID":"20097","NAME":"Kiowa","state":"KS","wildfire_risk_score":82.793,"wildfire_eal_total":554281.83,"risk_band":"High","source":"FEMA National Risk Index v1.20 (December 2025)"},"geometry":{"type":"Polygon","coordinates":[[[-99.55958,37.734888],[-99.01355,37.73297],[-99.011499,37.384263],[-99.555774,37.381112],[-99.55958,37.734888]]]}},{"type":"Feature","properties":{"GEOID":"20161","NAME":"Riley","state":"KS","wildfire_risk_score":89.536,"wildfire_eal_total":1887497.66,"risk_band":"High","source":"FEMA National Risk Index v1.20 (December 2025)"},"geometry":{"type":"Polygon","coordinates":[[[-96.961592,39.2208],[-96.958719,39.566432],[-96.580459,39.56621],[-96.591075,39.552937],[-96.588805,39.546194],[-96.592122,39.543832],[-96.615616,39.531773],[-96.620675,39.538355],[-96.642616,39.522109],[-96.641626,39.506444],[-96.649612,39.506769],[-96.656697,39.500202],[-96.66765,39.475418],[-96.677212,39.473241],[-96.681146,39.476887],[-96.678935,39.48341],[-96.682116,39.482761],[-96.689825,39.468289],[-96.688123,39.461153],[-96.695722,39.457913],[-96.706931,39.461507],[-96.713415,39.45505],[-96.721904,39.444095],[-96.713046,39.436533],[-96.727743,39.426851],[-96.714943,39.419514],[-96.714734,39.410058],[-96.726297,39.403866],[-96.695724,39.373396],[-96.684198,39.371938],[-96.691131,39.360018],[-96.670355,39.343752],[-96.661106,39.343279],[-96.671282,39.336897],[-96.666788,39.328465],[-96.64656,39.326182],[-96.656634,39.317008],[-96.633454,39.298642],[-96.632595,39.295041],[-96.639476,39.292656],[-96.635002,39.28705],[-96.610012,39.266598],[-96.595362,39.262491],[-96.595161,39.252385],[-96.591002,39.249619],[-96.576249,39.249547],[-96.578387,39.256192],[-96.570993,39.25016],[-96.572909,39.244394],[-96.588249,39.242573],[-96.587271,39.238676],[-96.579897,39.234341],[-96.561899,39.241128],[-96.547152,39.208988],[-96.53912,39.214843],[-96.518719,39.205597],[-96.519209,39.198912],[-96.530969,39.195745],[-96.56059,39.197723],[-96.556201,39.179862],[-96.517084,39.187627],[-96.516097,39.170956],[-96.494316,39.168133],[-96.484661,39.179409],[-96.473059,39.164676],[-96.460371,39.168445],[-96.464211,39.176288],[-96.461498,39.187951],[-96.452047,39.191178],[-96.412348,39.185011],[-96.389773,39.173757],[-96.390796,39.043257],[-96.501166,39.043666],[-96.500962,39.072681],[-96.706122,39.073077],[-96.706257,39.09116],[-96.721906,39.091383],[-96.73606,39.079957],[-96.743455,39.081955],[-96.743439,39.087659],[-96.851409,39.088176],[-96.851269,39.10074],[-96.832239,39.119645],[-96.830985,39.139228],[-96.84967,39.13928],[-96.849879,39.219012],[-96.961592,39.2208]]]}},{"type":"Feature","properties":{"GEOID":"20203","NAME":"Wichita","state":"KS","wildfire_risk_score":9.955,"wildfire_eal_total":3552.31,"risk_band":"Low","source":"FEMA National Risk Index v1.20 (December 2025)"},"geometry":{"type":"Polygon","coordinates":[[[-101.567094,38.699669],[-101.128379,38.700603],[-101.125438,38.264509],[-101.567482,38.263145],[-101.567094,38.699669]]]}},{"type":"Feature","properties":{"GEOID":"20209","NAME":"Wyandotte","state":"KS","wildfire_risk_score":46.183,"wildfire_eal_total":31894.01,"risk_band":"Low","source":"FEMA National Risk Index v1.20 (December 2025)"},"geometry":{"type":"Polygon","coordinates":[[[-94.908828,39.043417],[-94.908275,39.128654],[-94.901394,39.128686],[-94.900191,39.202911],[-94.777238,39.201001],[-94.763138,39.179903],[-94.741938,39.170203],[-94.714137,39.170403],[-94.680336,39.184303],[-94.659162,39.174126],[-94.661397,39.162742],[-94.655787,39.15568],[-94.639779,39.153707],[-94.608657,39.161044],[-94.590661,39.154767],[-94.588413,39.149869],[-94.589898,39.138979],[-94.60829,39.117944],[-94.6075174403161,39.0440857494166],[-94.803326,39.04352],[-94.842483,39.060918],[-94.867749,39.060193],[-94.883566,39.050689],[-94.891141,39.030679],[-94.888431,39.016142],[-94.908765,38.991401],[-94.908828,39.043417]]]}},{"type":"Feature","properties":{"GEOID":"20005","NAME":"Atchison","state":"KS","wildfire_risk_score":72.742,"wildfire_eal_total":325821.86,"risk_band":"Moderate","source":"FEMA National Risk Index v1.20 (December 2025)"},"geometry":{"type":"Polygon","coordinates":[[[-95.570261,39.477006],[-95.570348,39.56587],[-95.564314,39.565858],[-95.564126,39.652872],[-95.115189,39.652549],[-95.115256,39.640536],[-95.112806,39.643363],[-95.098882,39.63467],[-95.098006,39.620871],[-95.086932,39.620739],[-95.08544,39.615074],[-95.05338996101,39.6153235402286],[-95.046445,39.601606],[-95.049277,39.589583],[-95.059519,39.579132],[-95.07216,39.576122],[-95.095736,39.580618],[-95.106406,39.575252],[-95.113557,39.553941],[-95.106596,39.537657],[-95.082714,39.516712],[-95.052177,39.499996],[-95.047133,39.474971],[-95.04078,39.466387],[-95.015825,39.452809],[-94.990172,39.446192],[-94.9688486217732,39.4190729027552],[-95.570351,39.41905],[-95.570261,39.477006]]]}},{"type":"Feature","properties":{"GEOID":"20011","NAME":"Bourbon","state":"KS","wildfire_risk_score":44.847,"wildfire_eal_total":30881.59,"risk_band":"Low","source":"FEMA National Risk Index v1.20 (December 2025)"},"geometry":{"type":"Polygon","coordinates":[[[-95.088082,37.732476],[-95.087943,37.819697],[-95.079692,37.8198],[-95.077876,38.037706],[-94.6139813464919,38.0370573442828],[-94.6177338243197,37.6731053668666],[-95.088012,37.674519],[-95.088082,37.732476]]]}},{"type":"Feature","properties":{"GEOID":"20043","NAME":"Doniphan","state":"KS","wildfire_risk_score":51.845,"wildfire_eal_total":54996.77,"risk_band":"Moderate","source":"FEMA National Risk Index v1.20 (December 2025)"},"geometry":{"type":"Polygon","coordinates":[[[-95.339896,39.999999],[-95.30829,39.999998],[-95.302507,39.984357],[-95.269886,39.969396],[-95.250254,39.948644],[-95.204428,39.938949],[-95.20069,39.928155],[-95.206196,39.909557],[-95.201935,39.904053],[-95.179453,39.900062],[-95.149657,39.905948],[-95.143802,39.901918],[-95.142718,39.885889],[-95.137092,39.878351],[-95.090158,39.86314],[-95.037767,39.865542],[-95.027931,39.871522],[-95.02524,39.8897],[-95.013152,39.899953],[-94.986975,39.89667],[-94.959276,39.901671],[-94.934493,39.893366],[-94.927252,39.880258],[-94.942407,39.861066],[-94.939767,39.85193],[-94.916918,39.836138],[-94.886933,39.833098],[-94.877044,39.823754],[-94.875944,39.813294],[-94.884084,39.794234],[-94.929654,39.788282],[-94.935302,39.77561],[-94.912293,39.759338],[-94.869644,39.772894],[-94.860743,39.763094],[-94.862943,39.742994],[-94.875643,39.730494],[-94.899316,39.724042],[-94.918324,39.728794],[-94.944741,39.744377],[-94.960086,39.743065],[-94.971206,39.729305],[-94.971317,39.68641],[-94.981557,39.678634],[-95.009023,39.675765],[-95.024595,39.668485],[-95.049518,39.637876],[-95.054925,39.624995],[-95.05338996101,39.6153235402286],[-95.08544,39.615074],[-95.086932,39.620739],[-95.098006,39.620871],[-95.098882,39.63467],[-95.112806,39.643363],[-95.115256,39.640536],[-95.115189,39.652549],[-95.33974,39.65298],[-95.339896,39.999999]]]}},{"type":"Feature","properties":{"GEOID":"20137","NAME":"Norton","state":"KS","wildfire_risk_score":31.298,"wildfire_eal_total":13457.75,"risk_band":"Low","source":"FEMA National Risk Index v1.20 (December 2025)"},"geometry":{"type":"Polygon","coordinates":[[[-100.180419,39.574119],[-100.177794883236,40.0015929864604],[-99.6253240088811,40.001865850441],[-99.627953,39.567437],[-100.180351,39.56689],[-100.180419,39.574119]]]}},{"type":"Feature","properties":{"GEOID":"20117","NAME":"Marshall","state":"KS","wildfire_risk_score":81.234,"wildfire_eal_total":476674.5,"risk_band":"High","source":"FEMA National Risk Index v1.20 (December 2025)"},"geometry":{"type":"Polygon","coordinates":[[[-96.80666,39.716632],[-96.805768,40.0013709706497],[-96.2392078816029,40.0006909657961],[-96.238969,39.56622],[-96.806544,39.566423],[-96.80666,39.716632]]]}},{"type":"Feature","properties":{"GEOID":"20129","NAME":"Morton","state":"KS","wildfire_risk_score":73.06,"wildfire_eal_total":292712.73,"risk_band":"Moderate","source":"FEMA National Risk Index v1.20 (December 2025)"},"geometry":{"type":"Polygon","coordinates":[[[-102.042121525407,37.1267152528182],[-102.041585760593,37.3891904308032],[-101.556606,37.388485],[-101.555260303913,36.9954138768669],[-102.042089,36.993016],[-102.042121525407,37.1267152528182]]]}},{"type":"Feature","properties":{"GEOID":"20175","NAME":"Seward","state":"KS","wildfire_risk_score":88.391,"wildfire_eal_total":966172.05,"risk_band":"High","source":"FEMA National Risk Index v1.20 (December 2025)"},"geometry":{"type":"Polygon","coordinates":[[[-101.068106,37.387779],[-100.633831,37.387577],[-100.633327,36.999936],[-101.066451000186,36.9979220177139],[-101.068106,37.387779]]]}},{"type":"Feature","properties":{"GEOID":"20087","NAME":"Jefferson","state":"KS","wildfire_risk_score":67.716,"wildfire_eal_total":233572.75,"risk_band":"Moderate","source":"FEMA National Risk Index v1.20 (December 2025)"},"geometry":{"type":"Polygon","coordinates":[[[-95.598348,39.073514],[-95.594653,39.081904],[-95.594711,39.129275],[-95.589305,39.129159],[-95.589295,39.419086],[-95.180891,39.419218],[-95.180125,39.128889],[-95.187963,39.128909],[-95.187103,39.044109],[-95.279583,39.047198],[-95.285649,39.0454],[-95.282247,39.037],[-95.285425,39.032162],[-95.29185,39.0415],[-95.29795,39.0423],[-95.315051,39.0347],[-95.340731,39.031712],[-95.358347,39.035264],[-95.38989,39.049874],[-95.403188,39.061262],[-95.430669,39.0693],[-95.456659,39.068259],[-95.493821,39.053954],[-95.513902,39.067151],[-95.542847,39.069103],[-95.582345,39.053998],[-95.596759,39.064672],[-95.598348,39.073514]]]}},{"type":"Feature","properties":{"GEOID":"20205","NAME":"Wilson","state":"KS","wildfire_risk_score":58.969,"wildfire_eal_total":93236.73,"risk_band":"Moderate","source":"FEMA National Risk Index v1.20 (December 2025)"},"geometry":{"type":"Polygon","coordinates":[[[-95.962596,37.417774],[-95.960876,37.734304],[-95.525499,37.732759],[-95.52556,37.383979],[-95.961605,37.386636],[-95.962596,37.417774]]]}},{"type":"Feature","properties":{"GEOID":"20111","NAME":"Lyon","state":"KS","wildfire_risk_score":88.263,"wildfire_eal_total":1220693.14,"risk_band":"High","source":"FEMA National Risk Index v1.20 (December 2025)"},"geometry":{"type":"Polygon","coordinates":[[[-96.357028,38.175425],[-96.352613,38.739021],[-95.945924,38.739112],[-95.945661,38.695363],[-95.949654,38.695385],[-95.949994,38.259706],[-95.958502,38.259718],[-95.958862,38.170939],[-96.357028,38.175425]]]}},{"type":"Feature","properties":{"GEOID":"20167","NAME":"Russell","state":"KS","wildfire_risk_score":58.906,"wildfire_eal_total":84127.33,"risk_band":"Moderate","source":"FEMA National Risk Index v1.20 (December 2025)"},"geometry":{"type":"Polygon","coordinates":[[[-99.042337,38.711801],[-99.0375,39.133121],[-98.483748,39.132671],[-98.486108,38.696878],[-99.042626,38.696807],[-99.042337,38.711801]]]}},{"type":"Feature","properties":{"GEOID":"20057","NAME":"Ford","state":"KS","wildfire_risk_score":68.034,"wildfire_eal_total":166743.31,"risk_band":"Moderate","source":"FEMA National Risk Index v1.20 (December 2025)"},"geometry":{"type":"Polygon","coordinates":[[[-100.227322,37.8559],[-100.22709,37.914018],[-99.569879,37.913016],[-99.570576,37.825634],[-99.560272,37.825587],[-99.556119,37.467722],[-100.216229,37.47519],[-100.214637,37.826808],[-100.227416,37.826842],[-100.227322,37.8559]]]}},{"type":"Feature","properties":{"GEOID":"20197","NAME":"Wabaunsee","state":"KS","wildfire_risk_score":88.613,"wildfire_eal_total":1275041.4,"risk_band":"High","source":"FEMA National Risk Index v1.20 (December 2025)"},"geometry":{"type":"Polygon","coordinates":[[[-96.501679,38.91332],[-96.501166,39.043666],[-96.390796,39.043257],[-96.389046,39.172878],[-96.377787,39.164137],[-96.357625,39.173022],[-96.358292,39.156525],[-96.346639,39.153906],[-96.33732,39.162145],[-96.328377,39.160887],[-96.331176,39.165707],[-96.324729,39.186051],[-96.311317,39.195896],[-96.294205,39.195453],[-96.283851,39.184828],[-96.269382,39.178963],[-96.254517,39.191235],[-96.244207,39.208],[-96.233671,39.212279],[-96.212995,39.199935],[-96.203415,39.20021],[-96.194785,39.20761],[-96.181567,39.206333],[-96.176741,39.188616],[-96.152843,39.192576],[-96.122757,39.187124],[-96.106968,39.201032],[-96.09626,39.191841],[-96.083557,39.193504],[-96.057232,39.162649],[-96.060748,39.157296],[-96.085841,39.162756],[-96.090892,39.158718],[-96.088225,39.152339],[-96.061246,39.142412],[-96.04398,39.141174],[-96.04121,39.127482],[-96.020336,39.120235],[-96.003788,39.132],[-95.993049,39.133387],[-95.992856,39.124998],[-96.005222,39.121798],[-96.009184,39.116151],[-95.995048,39.109309],[-95.972607,39.111569],[-95.956264,39.099043],[-95.946754,39.098685],[-95.945924,38.739112],[-96.389749,38.738984],[-96.390398,38.825858],[-96.501397,38.826188],[-96.501679,38.91332]]]}},{"type":"Feature","properties":{"GEOID":"20061","NAME":"Geary","state":"KS","wildfire_risk_score":81.966,"wildfire_eal_total":696979.52,"risk_band":"High","source":"FEMA National Risk Index v1.20 (December 2025)"},"geometry":{"type":"Polygon","coordinates":[[[-96.963461,38.994448],[-96.961693,39.220076],[-96.849879,39.219012],[-96.84967,39.13928],[-96.830985,39.139228],[-96.832239,39.119645],[-96.851269,39.10074],[-96.851409,39.088176],[-96.743439,39.087659],[-96.743455,39.081955],[-96.73606,39.079957],[-96.721906,39.091383],[-96.706257,39.09116],[-96.706122,39.073077],[-96.500962,39.072681],[-96.501556,38.869704],[-96.92671,38.87035],[-96.926209,38.978941],[-96.933846,38.978545],[-96.932835,38.972857],[-96.939374,38.97677],[-96.947627,38.970603],[-96.949653,38.976951],[-96.950393,38.971274],[-96.96347,38.964901],[-96.963461,38.994448]]]}},{"type":"Feature","properties":{"GEOID":"20105","NAME":"Lincoln","state":"KS","wildfire_risk_score":59.319,"wildfire_eal_total":71747.37,"risk_band":"Moderate","source":"FEMA National Risk Index v1.20 (December 2025)"},"geometry":{"type":"Polygon","coordinates":[[[-98.490149,39.21978],[-97.929746,39.219273],[-97.928592,38.871099],[-98.484861,38.870791],[-98.483748,39.132671],[-98.489997,39.132697],[-98.490149,39.21978]]]}},{"type":"Feature","properties":{"GEOID":"20017","NAME":"Chase","state":"KS","wildfire_risk_score":80.375,"wildfire_eal_total":470059.7,"risk_band":"High","source":"FEMA National Risk Index v1.20 (December 2025)"},"geometry":{"type":"Polygon","coordinates":[[[-96.840971,38.230832],[-96.840929,38.261284],[-96.836979,38.262147],[-96.837654,38.348636],[-96.819475,38.348502],[-96.819509,38.522449],[-96.35378,38.521657],[-96.358099,38.085817],[-96.840772,38.085622],[-96.840971,38.230832]]]}},{"type":"Feature","properties":{"GEOID":"20083","NAME":"Hodgeman","state":"KS","wildfire_risk_score":45.611,"wildfire_eal_total":48956.4,"risk_band":"Low","source":"FEMA National Risk Index v1.20 (December 2025)"},"geometry":{"type":"Polygon","coordinates":[[[-100.227137,38.262237],[-99.570493,38.262137],[-99.569879,37.913016],[-100.22709,37.914018],[-100.227137,38.262237]]]}},{"type":"Feature","properties":{"GEOID":"20179","NAME":"Sheridan","state":"KS","wildfire_risk_score":15.712,"wildfire_eal_total":8375.94,"risk_band":"Low","source":"FEMA National Risk Index v1.20 (December 2025)"},"geometry":{"type":"Polygon","coordinates":[[[-100.721467,39.19128],[-100.720213,39.568034],[-100.161667,39.567277],[-100.1642,39.132071],[-100.721296,39.133381],[-100.721467,39.19128]]]}},{"type":"Feature","properties":{"GEOID":"20051","NAME":"Ellis","state":"KS","wildfire_risk_score":60.687,"wildfire_eal_total":133492.62,"risk_band":"Moderate","source":"FEMA National Risk Index v1.20 (December 2025)"},"geometry":{"type":"Polygon","coordinates":[[[-99.597709,38.725429],[-99.591776,39.132357],[-99.0375,39.133121],[-99.042626,38.696807],[-99.598323,38.696514],[-99.597709,38.725429]]]}},{"type":"Feature","properties":{"GEOID":"20139","NAME":"Osage","state":"KS","wildfire_risk_score":74.936,"wildfire_eal_total":249386.35,"risk_band":"Moderate","source":"FEMA National Risk Index v1.20 (December 2025)"},"geometry":{"type":"Polygon","coordinates":[[[-95.950212,38.44145],[-95.946587,38.869973],[-95.500724,38.869815],[-95.501223,38.695263],[-95.508042,38.695268],[-95.509014,38.658965],[-95.508267,38.433933],[-95.950282,38.434105],[-95.950212,38.44145]]]}},{"type":"Feature","properties":{"GEOID":"20065","NAME":"Graham","state":"KS","wildfire_risk_score":33.015,"wildfire_eal_total":16778.92,"risk_band":"Low","source":"FEMA National Risk Index v1.20 (December 2025)"},"geometry":{"type":"Polygon","coordinates":[[[-100.163574,39.24778],[-100.161667,39.567277],[-99.602176,39.567328],[-99.605187,39.132481],[-100.163548,39.131908],[-100.163574,39.24778]]]}},{"type":"Feature","properties":{"GEOID":"20123","NAME":"Mitchell","state":"KS","wildfire_risk_score":33.302,"wildfire_eal_total":18843.85,"risk_band":"Low","source":"FEMA National Risk Index v1.20 (December 2025)"},"geometry":{"type":"Polygon","coordinates":[[[-98.490068,39.241666],[-98.487384,39.567492],[-97.928462,39.566915],[-97.929746,39.219273],[-98.490149,39.21978],[-98.490068,39.241666]]]}},{"type":"Feature","properties":{"GEOID":"20145","NAME":"Pawnee","state":"KS","wildfire_risk_score":55.121,"wildfire_eal_total":66383.5,"risk_band":"Moderate","source":"FEMA National Risk Index v1.20 (December 2025)"},"geometry":{"type":"Polygon","coordinates":[[[-99.584794,38.349386],[-99.032408,38.348334],[-99.032309,38.261227],[-98.912583,38.261088],[-98.913136,38.000451],[-99.350289,38.000745],[-99.350359,38.087594],[-99.569533,38.087372],[-99.570493,38.262137],[-99.584207,38.262179],[-99.584794,38.349386]]]}},{"type":"Feature","properties":{"GEOID":"20055","NAME":"Finney","state":"KS","wildfire_risk_score":46.438,"wildfire_eal_total":37938.11,"risk_band":"Moderate","source":"FEMA National Risk Index v1.20 (December 2025)"},"geometry":{"type":"Polygon","coordinates":[[[-101.102995,37.977444],[-101.103268,38.264557],[-100.227137,38.262237],[-100.22661,38.001015],[-100.664166,38.00253],[-100.665172,37.828831],[-100.651748,37.828712],[-100.652251,37.736275],[-101.089667,37.736337],[-101.089886,37.829115],[-101.103778,37.829035],[-101.102995,37.977444]]]}},{"type":"Feature","properties":{"GEOID":"20187","NAME":"Stanton","state":"KS","wildfire_risk_score":30.439,"wildfire_eal_total":14380.84,"risk_band":"Low","source":"FEMA National Risk Index v1.20 (December 2025)"},"geometry":{"type":"Polygon","coordinates":[[[-102.041899,37.541186],[-102.041989965863,37.7385406283736],[-101.527063,37.736314],[-101.52581,37.388392],[-102.041585760593,37.3891904308032],[-102.041899,37.541186]]]}},{"type":"Feature","properties":{"GEOID":"20031","NAME":"Coffey","state":"KS","wildfire_risk_score":78.499,"wildfire_eal_total":265714.47,"risk_band":"High","source":"FEMA National Risk Index v1.20 (December 2025)"},"geometry":{"type":"Polygon","coordinates":[[[-95.95856,38.156256],[-95.958502,38.259718],[-95.949994,38.259706],[-95.950282,38.434105],[-95.508267,38.433933],[-95.507474,38.259248],[-95.516757,38.259296],[-95.51897,38.03823],[-95.959046,38.040195],[-95.95856,38.156256]]]}},{"type":"Feature","properties":{"GEOID":"20041","NAME":"Dickinson","state":"KS","wildfire_risk_score":83.938,"wildfire_eal_total":640290.82,"risk_band":"High","source":"FEMA National Risk Index v1.20 (December 2025)"},"geometry":{"type":"Polygon","coordinates":[[[-97.381207,38.917227],[-97.381205,38.9289],[-97.371727,38.928925],[-97.371154,39.131961],[-96.963177,39.1323],[-96.96347,38.964901],[-96.950393,38.971274],[-96.949653,38.976951],[-96.947627,38.970603],[-96.939374,38.97677],[-96.932835,38.972857],[-96.933846,38.978545],[-96.926209,38.978941],[-96.92671,38.87035],[-96.890245,38.870067],[-96.890065,38.812255],[-96.927234,38.81216],[-96.927374,38.696005],[-96.933924,38.65535],[-96.929738,38.651544],[-96.930286,38.609362],[-97.371911,38.609353],[-97.372124,38.914127],[-97.381207,38.917227]]]}},{"type":"Feature","properties":{"GEOID":"20193","NAME":"Thomas","state":"KS","wildfire_risk_score":15.394,"wildfire_eal_total":7735.98,"risk_band":"Low","source":"FEMA National Risk Index v1.20 (December 2025)"},"geometry":{"type":"Polygon","coordinates":[[[-101.391761,39.136198],[-101.389068,39.568369],[-100.720213,39.568034],[-100.721296,39.133381],[-101.391761,39.136198]]]}},{"type":"Feature","properties":{"GEOID":"20067","NAME":"Grant","state":"KS","wildfire_risk_score":51.113,"wildfire_eal_total":66848.98,"risk_band":"Moderate","source":"FEMA National Risk Index v1.20 (December 2025)"},"geometry":{"type":"Polygon","coordinates":[[[-101.527063,37.736314],[-101.089667,37.736337],[-101.089653,37.387721],[-101.52581,37.388392],[-101.527063,37.736314]]]}},{"type":"Feature","properties":{"GEOID":"20049","NAME":"Elk","state":"KS","wildfire_risk_score":91.698,"wildfire_eal_total":1245198.15,"risk_band":"High","source":"FEMA National Risk Index v1.20 (December 2025)"},"geometry":{"type":"Polygon","coordinates":[[[-96.526327,37.500024],[-96.5253,37.607015],[-95.961002,37.603761],[-95.964399,37.299232],[-96.524873,37.30273],[-96.526327,37.500024]]]}},{"type":"Feature","properties":{"GEOID":"20159","NAME":"Rice","state":"KS","wildfire_risk_score":76.845,"wildfire_eal_total":341776.14,"risk_band":"High","source":"FEMA National Risk Index v1.20 (December 2025)"},"geometry":{"type":"Polygon","coordinates":[[[-98.48064,38.434674],[-98.480377,38.521841],[-97.924269,38.522755],[-97.922136,38.173713],[-98.142268,38.173918],[-98.142181,38.159538],[-98.215924,38.15875],[-98.216032,38.173498],[-98.472794,38.172757],[-98.472437,38.260741],[-98.479841,38.26079],[-98.48064,38.434674]]]}},{"type":"Feature","properties":{"GEOID":"20025","NAME":"Clark","state":"KS","wildfire_risk_score":87.913,"wildfire_eal_total":1174418.19,"risk_band":"High","source":"FEMA National Risk Index v1.20 (December 2025)"},"geometry":{"type":"Polygon","coordinates":[[[-100.107248,37.474836],[-99.556119,37.467722],[-99.555774,37.381112],[-99.543189,37.381124],[-99.5411159015717,36.9995725260596],[-100.089483739431,37.0020915224233],[-100.091529,37.386892],[-100.107422,37.387092],[-100.107248,37.474836]]]}},{"type":"Feature","properties":{"GEOID":"20141","NAME":"Osborne","state":"KS","wildfire_risk_score":52.067,"wildfire_eal_total":48153.19,"risk_band":"Moderate","source":"FEMA National Risk Index v1.20 (December 2025)"},"geometry":{"type":"Polygon","coordinates":[[[-99.04864,39.306932],[-99.044398,39.568035],[-98.487384,39.567492],[-98.489997,39.132697],[-99.047687,39.133014],[-99.04864,39.306932]]]}},{"type":"Feature","properties":{"GEOID":"20015","NAME":"Butler","state":"KS","wildfire_risk_score":95.642,"wildfire_eal_total":5483960.81,"risk_band":"High","source":"FEMA National Risk Index v1.20 (December 2025)"},"geometry":{"type":"Polygon","coordinates":[[[-97.15345,37.825166],[-97.152913,38.087704],[-96.522782,38.08637],[-96.52569,37.476405],[-97.153331,37.475544],[-97.15345,37.825166]]]}},{"type":"Feature","properties":{"GEOID":"20125","NAME":"Montgomery","state":"KS","wildfire_risk_score":70.229,"wildfire_eal_total":149317.02,"risk_band":"Moderate","source":"FEMA National Risk Index v1.20 (December 2025)"},"geometry":{"type":"Polygon","coordinates":[[[-95.964571,37.067579],[-95.964666,37.386656],[-95.52113,37.38399],[-95.51798,37.259019],[-95.5224149880945,36.9992810582678],[-95.9642699335572,36.9990936072442],[-95.964571,37.067579]]]}},{"type":"Feature","properties":{"GEOID":"20039","NAME":"Decatur","state":"KS","wildfire_risk_score":30.057,"wildfire_eal_total":15667.54,"risk_band":"Low","source":"FEMA National Risk Index v1.20 (December 2025)"},"geometry":{"type":"Polygon","coordinates":[[[-100.741097,39.655233],[-100.738825845252,40.0022284244175],[-100.177794883236,40.0015929864604],[-100.180351,39.56689],[-100.740873,39.568043],[-100.741097,39.655233]]]}},{"type":"Feature","properties":{"GEOID":"20089","NAME":"Jewell","state":"KS","wildfire_risk_score":44.307,"wildfire_eal_total":30002.21,"risk_band":"Low","source":"FEMA National Risk Index v1.20 (December 2025)"},"geometry":{"type":"Polygon","coordinates":[[[-98.505167,39.568632],[-98.5044549849831,40.0023285653691],[-97.931825546011,40.0020500230574],[-97.931844,39.566921],[-98.505167,39.568632]]]}},{"type":"Feature","properties":{"GEOID":"20095","NAME":"Kingman","state":"KS","wildfire_risk_score":86.705,"wildfire_eal_total":829568.14,"risk_band":"High","source":"FEMA National Risk Index v1.20 (December 2025)"},"geometry":{"type":"Polygon","coordinates":[[[-98.464895,37.645296],[-98.464804,37.732675],[-97.807823,37.733855],[-97.807057,37.386293],[-98.464951,37.384086],[-98.464895,37.645296]]]}},{"type":"Feature","properties":{"GEOID":"20113","NAME":"McPherson","state":"KS","wildfire_risk_score":67.366,"wildfire_eal_total":235275.84,"risk_band":"Moderate","source":"FEMA National Risk Index v1.20 (December 2025)"},"geometry":{"type":"Polygon","coordinates":[[[-97.924783,38.318683],[-97.924795,38.60988],[-97.371911,38.609353],[-97.37175,38.173673],[-97.922136,38.173713],[-97.924783,38.318683]]]}},{"type":"Feature","properties":{"GEOID":"20151","NAME":"Pratt","state":"KS","wildfire_risk_score":80.598,"wildfire_eal_total":389225.77,"risk_band":"High","source":"FEMA National Risk Index v1.20 (December 2025)"},"geometry":{"type":"Polygon","coordinates":[[[-99.015348,37.643861],[-99.013318,37.825336],[-98.464899,37.824512],[-98.464663,37.471013],[-99.012598,37.470421],[-99.015348,37.643861]]]}},{"type":"Feature","properties":{"GEOID":"20045","NAME":"Douglas","state":"KS","wildfire_risk_score":55.757,"wildfire_eal_total":89518.57,"risk_band":"Moderate","source":"FEMA National Risk Index v1.20 (December 2025)"},"geometry":{"type":"Polygon","coordinates":[[[-95.501402,39.029511],[-95.500254,39.056656],[-95.48877,39.05477],[-95.456659,39.068259],[-95.430669,39.0693],[-95.403188,39.061262],[-95.38989,39.049874],[-95.358347,39.035264],[-95.340731,39.031712],[-95.315051,39.0347],[-95.29795,39.0423],[-95.29185,39.0415],[-95.285425,39.032162],[-95.282247,39.037],[-95.285649,39.0454],[-95.279583,39.047198],[-95.187103,39.044109],[-95.186189,38.964542],[-95.169539,38.966471],[-95.164123,38.98163],[-95.13969,38.969388],[-95.11091,38.969338],[-95.100856,38.956219],[-95.085232,38.953836],[-95.074453,38.964369],[-95.086799,38.974327],[-95.086688,38.98022],[-95.06876,38.987104],[-95.06071,38.985625],[-95.056258,38.98212],[-95.056412,38.738587],[-95.500738,38.738808],[-95.501402,39.029511]]]}},{"type":"Feature","properties":{"GEOID":"20101","NAME":"Lane","state":"KS","wildfire_risk_score":28.244,"wildfire_eal_total":18070.65,"risk_band":"Low","source":"FEMA National Risk Index v1.20 (December 2025)"},"geometry":{"type":"Polygon","coordinates":[[[-100.688006,38.700021],[-100.2472,38.698165],[-100.244393,38.26229],[-100.684699,38.264137],[-100.688006,38.700021]]]}},{"type":"Feature","properties":{"GEOID":"20003","NAME":"Anderson","state":"KS","wildfire_risk_score":37.15,"wildfire_eal_total":16196.2,"risk_band":"Low","source":"FEMA National Risk Index v1.20 (December 2025)"},"geometry":{"type":"Polygon","coordinates":[[[-95.518728,38.103718],[-95.516757,38.259296],[-95.507474,38.259248],[-95.508328,38.390278],[-95.065831,38.389945],[-95.065103,38.258648],[-95.075459,38.258714],[-95.077876,38.037706],[-95.51897,38.03823],[-95.518728,38.103718]]]}},{"type":"Feature","properties":{"GEOID":"20073","NAME":"Greenwood","state":"KS","wildfire_risk_score":91.317,"wildfire_eal_total":1695212.44,"risk_band":"High","source":"FEMA National Risk Index v1.20 (December 2025)"},"geometry":{"type":"Polygon","coordinates":[[[-96.525838,37.715425],[-96.522782,38.08637],[-96.358099,38.085817],[-96.357277,38.17266],[-95.958862,38.170939],[-95.961002,37.603761],[-96.5253,37.607015],[-96.525838,37.715425]]]}},{"type":"Feature","properties":{"GEOID":"20007","NAME":"Barber","state":"KS","wildfire_risk_score":92.271,"wildfire_eal_total":2226748.02,"risk_band":"High","source":"FEMA National Risk Index v1.20 (December 2025)"},"geometry":{"type":"Polygon","coordinates":[[[-99.012598,37.470421],[-98.464663,37.471013],[-98.464951,37.384086],[-98.349804,37.384056],[-98.3471489755077,36.9979618781261],[-99.0003029130325,36.9995103040991],[-99.001294,37.384296],[-99.011499,37.384263],[-99.012598,37.470421]]]}},{"type":"Feature","properties":{"GEOID":"20121","NAME":"Miami","state":"KS","wildfire_risk_score":35.464,"wildfire_eal_total":25950.29,"risk_band":"Low","source":"FEMA National Risk Index v1.20 (December 2025)"},"geometry":{"type":"Polygon","coordinates":[[[-95.065945,38.403272],[-95.065772,38.694903],[-95.056667,38.694902],[-95.056412,38.738587],[-94.6095089421737,38.7381018369191],[-94.613275403738,38.3887183678658],[-95.065831,38.389945],[-95.065945,38.403272]]]}},{"type":"Feature","properties":{"GEOID":"20147","NAME":"Phillips","state":"KS","wildfire_risk_score":58.27,"wildfire_eal_total":57583.71,"risk_band":"Moderate","source":"FEMA National Risk Index v1.20 (December 2025)"},"geometry":{"type":"Polygon","coordinates":[[[-99.62811,39.726681],[-99.6253240088811,40.001865850441],[-99.067021970224,40.0021702872539],[-99.06622,39.568125],[-99.627953,39.567437],[-99.62811,39.726681]]]}},{"type":"Feature","properties":{"GEOID":"20201","NAME":"Washington","state":"KS","wildfire_risk_score":77.894,"wildfire_eal_total":370127.52,"risk_band":"High","source":"FEMA National Risk Index v1.20 (December 2025)"},"geometry":{"type":"Polygon","coordinates":[[[-97.369198,39.922262],[-97.3691991185285,40.0020598786434],[-96.805768,40.0013709706497],[-96.806544,39.566423],[-97.368574,39.567018],[-97.369198,39.922262]]]}},{"type":"Feature","properties":{"GEOID":"20019","NAME":"Chautauqua","state":"KS","wildfire_risk_score":90.903,"wildfire_eal_total":1447294.15,"risk_band":"High","source":"FEMA National Risk Index v1.20 (December 2025)"},"geometry":{"type":"Polygon","coordinates":[[[-96.525465,37.095273],[-96.524873,37.30273],[-95.964399,37.299232],[-95.9642699335572,36.9990936072442],[-96.5255776738603,36.9987120358304],[-96.525465,37.095273]]]}},{"type":"Feature","properties":{"GEOID":"20119","NAME":"Meade","state":"KS","wildfire_risk_score":87.627,"wildfire_eal_total":1296453.07,"risk_band":"High","source":"FEMA National Risk Index v1.20 (December 2025)"},"geometry":{"type":"Polygon","coordinates":[[[-100.65264,37.416691],[-100.652642,37.474848],[-100.107248,37.474836],[-100.107422,37.387092],[-100.091529,37.386892],[-100.089483739431,37.0020915224233],[-100.633327,36.999936],[-100.633831,37.387577],[-100.652728,37.387627],[-100.65264,37.416691]]]}},{"type":"Feature","properties":{"GEOID":"20077","NAME":"Harper","state":"KS","wildfire_risk_score":79.485,"wildfire_eal_total":336472.89,"risk_band":"High","source":"FEMA National Risk Index v1.20 (December 2025)"},"geometry":{"type":"Polygon","coordinates":[[[-98.349804,37.384056],[-97.804566,37.386298],[-97.8023129924768,36.9987129775427],[-98.3471489755077,36.9979618781261],[-98.349804,37.384056]]]}},{"type":"Feature","properties":{"GEOID":"20199","NAME":"Wallace","state":"KS","wildfire_risk_score":30.28,"wildfire_eal_total":14871.31,"risk_band":"Low","source":"FEMA National Risk Index v1.20 (December 2025)"},"geometry":{"type":"Polygon","coordinates":[[[-102.047188609269,39.1331465624163],[-101.478195,39.134761],[-101.484383,38.700166],[-102.045212,38.697567],[-102.047188609269,39.1331465624163]]]}},{"type":"Feature","properties":{"GEOID":"20107","NAME":"Linn","state":"KS","wildfire_risk_score":36.323,"wildfire_eal_total":24549.07,"risk_band":"Low","source":"FEMA National Risk Index v1.20 (December 2025)"},"geometry":{"type":"Polygon","coordinates":[[[-95.077067,38.095891],[-95.075459,38.258714],[-95.065103,38.258648],[-95.065831,38.389945],[-94.613275403738,38.3887183678658],[-94.6139813464919,38.0370573442828],[-95.077876,38.037706],[-95.077067,38.095891]]]}},{"type":"Feature","properties":{"GEOID":"20091","NAME":"Johnson","state":"KS","wildfire_risk_score":61.228,"wildfire_eal_total":137635.95,"risk_band":"Moderate","source":"FEMA National Risk Index v1.20 (December 2025)"},"geometry":{"type":"Polygon","coordinates":[[[-95.056355,38.980801],[-95.033275,38.975505],[-95.025293,38.982311],[-95.021817,38.999624],[-95.014057,39.000858],[-94.956545,38.981972],[-94.944388,38.98639],[-94.931924,39.001108],[-94.923349,39.002633],[-94.916243,38.9969],[-94.921748,38.985786],[-94.917493,38.984289],[-94.888431,39.016142],[-94.891141,39.030679],[-94.883566,39.050689],[-94.867749,39.060193],[-94.842483,39.060918],[-94.803326,39.04352],[-94.6075174403161,39.0440857494166],[-94.6095089421737,38.7381018369191],[-95.056412,38.738587],[-95.056355,38.980801]]]}},{"type":"Feature","properties":{"GEOID":"20173","NAME":"Sedgwick","state":"KS","wildfire_risk_score":94.434,"wildfire_eal_total":3299371.33,"risk_band":"High","source":"FEMA National Risk Index v1.20 (December 2025)"},"geometry":{"type":"Polygon","coordinates":[[[-97.808348,37.646788],[-97.807823,37.733855],[-97.698692,37.735056],[-97.701841,37.912457],[-97.152476,37.912733],[-97.153331,37.475544],[-97.8076,37.474184],[-97.808348,37.646788]]]}},{"type":"Feature","properties":{"GEOID":"20191","NAME":"Sumner","state":"KS","wildfire_risk_score":64.79,"wildfire_eal_total":131290.29,"risk_band":"Moderate","source":"FEMA National Risk Index v1.20 (December 2025)"},"geometry":{"type":"Polygon","coordinates":[[[-97.8076,37.474184],[-97.153331,37.475544],[-97.147721,36.999111],[-97.8023129924768,36.9987129775427],[-97.8076,37.474184]]]}},{"type":"Feature","properties":{"GEOID":"20181","NAME":"Sherman","state":"KS","wildfire_risk_score":28.085,"wildfire_eal_total":15326.73,"risk_band":"Low","source":"FEMA National Risk Index v1.20 (December 2025)"},"geometry":{"type":"Polygon","coordinates":[[[-102.049763830217,39.568180000858],[-101.389068,39.568369],[-101.391717,39.135117],[-102.047188609269,39.1331465624163],[-102.049763830217,39.568180000858]]]}},{"type":"Feature","properties":{"GEOID":"20103","NAME":"Leavenworth","state":"KS","wildfire_risk_score":59.001,"wildfire_eal_total":105848.01,"risk_band":"Moderate","source":"FEMA National Risk Index v1.20 (December 2025)"},"geometry":{"type":"Polygon","coordinates":[[[-95.187963,39.128909],[-95.180125,39.128889],[-95.180891,39.419218],[-94.9688486217732,39.4190729027552],[-94.947864,39.408604],[-94.945577,39.393851],[-94.937158,39.386531],[-94.92311,39.384492],[-94.901823,39.392798],[-94.888972,39.392432],[-94.879281,39.37978],[-94.88136,39.370383],[-94.902497,39.360383],[-94.910641,39.348335],[-94.900049,39.300192],[-94.882576,39.283328],[-94.84632,39.268481],[-94.831471,39.256273],[-94.825663,39.241729],[-94.834896,39.223842],[-94.831679,39.215938],[-94.820687,39.208626],[-94.783838,39.207154],[-94.775538,39.200602],[-94.900191,39.202911],[-94.901394,39.128686],[-94.908275,39.128654],[-94.908765,38.991401],[-94.913796,38.986484],[-94.921748,38.985786],[-94.916243,38.9969],[-94.923349,39.002633],[-94.931924,39.001108],[-94.944388,38.98639],[-94.956545,38.981972],[-95.003617,38.99893],[-95.021132,39.000003],[-95.026045,38.992337],[-95.025293,38.982311],[-95.033275,38.975505],[-95.043907,38.975126],[-95.066631,38.987052],[-95.084768,38.982365],[-95.086799,38.974327],[-95.074453,38.964369],[-95.085232,38.953836],[-95.100856,38.956219],[-95.11091,38.969338],[-95.13969,38.969388],[-95.164123,38.98163],[-95.169539,38.966471],[-95.186189,38.964542],[-95.187963,39.128909]]]}},{"type":"Feature","properties":{"GEOID":"20155","NAME":"Reno","state":"KS","wildfire_risk_score":95.547,"wildfire_eal_total":4292553.48,"risk_band":"High","source":"FEMA National Risk Index v1.20 (December 2025)"},"geometry":{"type":"Polygon","coordinates":[[[-98.472794,38.172757],[-98.216032,38.173498],[-98.215924,38.15875],[-98.142181,38.159538],[-98.142268,38.173918],[-97.701841,38.173814],[-97.698692,37.735056],[-98.464804,37.732675],[-98.464899,37.824512],[-98.472257,37.824497],[-98.472794,38.172757]]]}},{"type":"Feature","properties":{"GEOID":"20109","NAME":"Logan","state":"KS","wildfire_risk_score":31.552,"wildfire_eal_total":13492.07,"risk_band":"Low","source":"FEMA National Risk Index v1.20 (December 2025)"},"geometry":{"type":"Polygon","coordinates":[[[-101.483217,38.758511],[-101.478195,39.134761],[-100.811858,39.13336],[-100.818698,38.699861],[-101.484383,38.700166],[-101.483217,38.758511]]]}},{"type":"Feature","properties":{"GEOID":"20133","NAME":"Neosho","state":"KS","wildfire_risk_score":21.056,"wildfire_eal_total":9214.35,"risk_band":"Low","source":"FEMA National Risk Index v1.20 (December 2025)"},"geometry":{"type":"Polygon","coordinates":[[[-95.525904,37.645604],[-95.525499,37.732759],[-95.088082,37.732476],[-95.088189,37.383837],[-95.52556,37.383979],[-95.525904,37.645604]]]}},{"type":"Feature","properties":{"GEOID":"20079","NAME":"Harvey","state":"KS","wildfire_risk_score":67.335,"wildfire_eal_total":241237.59,"risk_band":"Moderate","source":"FEMA National Risk Index v1.20 (December 2025)"},"geometry":{"type":"Polygon","coordinates":[[[-97.702164,38.073582],[-97.701841,38.173814],[-97.153093,38.174634],[-97.152476,37.912733],[-97.701969,37.911325],[-97.702164,38.073582]]]}},{"type":"Feature","properties":{"GEOID":"20001","NAME":"Allen","state":"KS","wildfire_risk_score":22.36,"wildfire_eal_total":11455.99,"risk_band":"Low","source":"FEMA National Risk Index v1.20 (December 2025)"},"geometry":{"type":"Polygon","coordinates":[[[-95.525222,37.747338],[-95.524862,37.820285],[-95.519308,37.820259],[-95.519092,37.827824],[-95.51897,38.03823],[-95.077876,38.037706],[-95.079692,37.8198],[-95.087943,37.819697],[-95.088082,37.732476],[-95.525499,37.732759],[-95.525222,37.747338]]]}},{"type":"Feature","properties":{"GEOID":"20021","NAME":"Cherokee","state":"KS","wildfire_risk_score":56.298,"wildfire_eal_total":65190.52,"risk_band":"Moderate","source":"FEMA National Risk Index v1.20 (December 2025)"},"geometry":{"type":"Polygon","coordinates":[[[-95.075246,37.296012],[-95.075166,37.339937],[-94.617636,37.338417],[-94.617964,36.998905],[-95.073509,36.999509],[-95.075246,37.296012]]]}},{"type":"Feature","properties":{"GEOID":"20153","NAME":"Rawlins","state":"KS","wildfire_risk_score":36.768,"wildfire_eal_total":29053.84,"risk_band":"Low","source":"FEMA National Risk Index v1.20 (December 2025)"},"geometry":{"type":"Polygon","coordinates":[[[-101.41124,39.999997],[-100.738825845252,40.0022284244175],[-100.740873,39.568043],[-101.413913,39.568361],[-101.41124,39.999997]]]}},{"type":"Feature","properties":{"GEOID":"20037","NAME":"Crawford","state":"KS","wildfire_risk_score":33.715,"wildfire_eal_total":16430.0,"risk_band":"Low","source":"FEMA National Risk Index v1.20 (December 2025)"},"geometry":{"type":"Polygon","coordinates":[[[-95.088479,37.558258],[-95.088012,37.674519],[-94.6177338243197,37.6731053668666],[-94.617636,37.338417],[-95.075166,37.339937],[-95.074972,37.383823],[-95.088189,37.383837],[-95.088479,37.558258]]]}},{"type":"Feature","properties":{"GEOID":"20029","NAME":"Cloud","state":"KS","wildfire_risk_score":62.118,"wildfire_eal_total":99457.87,"risk_band":"Moderate","source":"FEMA National Risk Index v1.20 (December 2025)"},"geometry":{"type":"Polygon","coordinates":[[[-97.931957,39.593766],[-97.931482,39.653767],[-97.36867,39.654043],[-97.369839,39.306011],[-97.929097,39.306397],[-97.928462,39.566915],[-97.931844,39.566921],[-97.931957,39.593766]]]}},{"type":"Feature","properties":{"GEOID":"20085","NAME":"Jackson","state":"KS","wildfire_risk_score":89.186,"wildfire_eal_total":1233491.54,"risk_band":"High","source":"FEMA National Risk Index v1.20 (December 2025)"},"geometry":{"type":"Polygon","coordinates":[[[-96.035809,39.554347],[-96.035952,39.5661],[-95.789098,39.565943],[-95.788941,39.653001],[-95.564126,39.652872],[-95.564314,39.565858],[-95.570348,39.56587],[-95.570351,39.41905],[-95.589295,39.419086],[-95.589472,39.216081],[-96.035573,39.21652],[-96.035809,39.554347]]]}},{"type":"Feature","properties":{"GEOID":"20081","NAME":"Haskell","state":"KS","wildfire_risk_score":24.936,"wildfire_eal_total":12386.5,"risk_band":"Low","source":"FEMA National Risk Index v1.20 (December 2025)"},"geometry":{"type":"Polygon","coordinates":[[[-101.090227,37.561988],[-101.089667,37.736337],[-100.652251,37.736275],[-100.652728,37.387627],[-101.089653,37.387721],[-101.090227,37.561988]]]}},{"type":"Feature","properties":{"GEOID":"20195","NAME":"Trego","state":"KS","wildfire_risk_score":46.819,"wildfire_eal_total":56171.81,"risk_band":"Moderate","source":"FEMA National Risk Index v1.20 (December 2025)"},"geometry":{"type":"Polygon","coordinates":[[[-100.15176,38.842325],[-100.14794,39.132179],[-99.591776,39.132357],[-99.598323,38.696514],[-100.153823,38.697341],[-100.15176,38.842325]]]}},{"type":"Feature","properties":{"GEOID":"20033","NAME":"Comanche","state":"KS","wildfire_risk_score":94.625,"wildfire_eal_total":2676710.38,"risk_band":"High","source":"FEMA National Risk Index v1.20 (December 2025)"},"geometry":{"type":"Polygon","coordinates":[[[-99.54474,37.260516],[-99.543189,37.381124],[-99.001294,37.384296],[-99.0003029130325,36.9995103040991],[-99.5411159015717,36.9995725260596],[-99.54474,37.260516]]]}},{"type":"Feature","properties":{"GEOID":"20135","NAME":"Ness","state":"KS","wildfire_risk_score":50.509,"wildfire_eal_total":46664.56,"risk_band":"Moderate","source":"FEMA National Risk Index v1.20 (December 2025)"},"geometry":{"type":"Polygon","coordinates":[[[-100.247745,38.654408],[-100.2472,38.698165],[-99.585087,38.696537],[-99.584207,38.262179],[-100.244393,38.26229],[-100.247745,38.654408]]]}},{"type":"Feature","properties":{"GEOID":"20023","NAME":"Cheyenne","state":"KS","wildfire_risk_score":62.945,"wildfire_eal_total":74504.85,"risk_band":"Moderate","source":"FEMA National Risk Index v1.20 (December 2025)"},"geometry":{"type":"Polygon","coordinates":[[[-102.051744,40.003078],[-101.411042549953,40.0023645110938],[-101.413913,39.568361],[-102.049763830217,39.568180000858],[-102.051744,40.003078]]]}},{"type":"Feature","properties":{"GEOID":"20169","NAME":"Saline","state":"KS","wildfire_risk_score":82.411,"wildfire_eal_total":670708.75,"risk_band":"High","source":"FEMA National Risk Index v1.20 (December 2025)"},"geometry":{"type":"Polygon","coordinates":[[[-97.92856,38.958264],[-97.371614,38.957852],[-97.371727,38.928925],[-97.381205,38.9289],[-97.381209,38.914319],[-97.372124,38.914127],[-97.371911,38.609353],[-97.924795,38.60988],[-97.92856,38.958264]]]}},{"type":"Feature","properties":{"GEOID":"20189","NAME":"Stevens","state":"KS","wildfire_risk_score":74.587,"wildfire_eal_total":163052.89,"risk_band":"Moderate","source":"FEMA National Risk Index v1.20 (December 2025)"},"geometry":{"type":"Polygon","coordinates":[[[-101.556606,37.388485],[-101.068106,37.387779],[-101.066451000186,36.9979220177139],[-101.555260303913,36.9954138768669],[-101.556606,37.388485]]]}},{"type":"Feature","properties":{"GEOID":"20071","NAME":"Greeley","state":"KS","wildfire_risk_score":6.266,"wildfire_eal_total":2834.18,"risk_band":"Low","source":"FEMA National Risk Index v1.20 (December 2025)"},"geometry":{"type":"Polygon","coordinates":[[[-102.045263,38.505395],[-102.045212,38.697567],[-101.567094,38.699669],[-101.567482,38.263145],[-102.04451007292,38.2624115834718],[-102.045263,38.505395]]]}},{"type":"Feature","properties":{"GEOID":"20047","NAME":"Edwards","state":"KS","wildfire_risk_score":52.481,"wildfire_eal_total":58176.06,"risk_band":"Moderate","source":"FEMA National Risk Index v1.20 (December 2025)"},"geometry":{"type":"Polygon","coordinates":[[[-99.569879,37.913016],[-99.569533,38.087372],[-99.350359,38.087594],[-99.350289,38.000745],[-99.022136,38.000236],[-99.022627,37.825358],[-99.013318,37.825336],[-99.01355,37.73297],[-99.55958,37.734888],[-99.560272,37.825587],[-99.570576,37.825634],[-99.569879,37.913016]]]}},{"type":"Feature","properties":{"GEOID":"20183","NAME":"Smith","state":"KS","wildfire_risk_score":40.903,"wildfire_eal_total":30444.79,"risk_band":"Low","source":"FEMA National Risk Index v1.20 (December 2025)"},"geometry":{"type":"Polygon","coordinates":[[[-99.067113,39.930422],[-99.067021970224,40.0021702872539],[-98.5044549849831,40.0023285653691],[-98.505266,39.567603],[-99.06622,39.568125],[-99.067113,39.930422]]]}},{"type":"Feature","properties":{"GEOID":"20127","NAME":"Morris","state":"KS","wildfire_risk_score":84.065,"wildfire_eal_total":474826.14,"risk_band":"High","source":"FEMA National Risk Index v1.20 (December 2025)"},"geometry":{"type":"Polygon","coordinates":[[[-96.933022,38.657858],[-96.930409,38.696009],[-96.927374,38.696005],[-96.927234,38.81216],[-96.890065,38.812255],[-96.890245,38.870067],[-96.501556,38.869704],[-96.501397,38.826188],[-96.390398,38.825858],[-96.389749,38.738984],[-96.352613,38.739021],[-96.35378,38.521657],[-96.929969,38.522412],[-96.929738,38.651544],[-96.933022,38.657858]]]}},{"type":"Feature","properties":{"GEOID":"20185","NAME":"Stafford","state":"KS","wildfire_risk_score":81.107,"wildfire_eal_total":452102.53,"risk_band":"High","source":"FEMA National Risk Index v1.20 (December 2025)"},"geometry":{"type":"Polygon","coordinates":[[[-99.022008,37.897897],[-99.022136,38.000236],[-98.913136,38.000451],[-98.912583,38.261088],[-98.472437,38.260741],[-98.472257,37.824497],[-99.022627,37.825358],[-99.022008,37.897897]]]}},{"type":"Feature","properties":{"GEOID":"20115","NAME":"Marion","state":"KS","wildfire_risk_score":78.085,"wildfire_eal_total":349518.59,"risk_band":"High","source":"FEMA National Risk Index v1.20 (December 2025)"},"geometry":{"type":"Polygon","coordinates":[[[-97.371932,38.522161],[-97.371911,38.609353],[-97.150746,38.60956],[-96.930286,38.609362],[-96.929969,38.522412],[-96.819509,38.522449],[-96.819475,38.348502],[-96.837654,38.348636],[-96.840772,38.085622],[-97.152913,38.087704],[-97.153093,38.174634],[-97.37175,38.173673],[-97.371932,38.522161]]]}},{"type":"Feature","properties":{"GEOID":"20163","NAME":"Rooks","state":"KS","wildfire_risk_score":50.477,"wildfire_eal_total":68630.73,"risk_band":"Moderate","source":"FEMA National Risk Index v1.20 (December 2025)"},"geometry":{"type":"Polygon","coordinates":[[[-99.605478,39.220092],[-99.602176,39.567328],[-99.044398,39.568035],[-99.047687,39.133014],[-99.605187,39.132481],[-99.605478,39.220092]]]}},{"type":"Feature","properties":{"GEOID":"20207","NAME":"Woodson","state":"KS","wildfire_risk_score":75.954,"wildfire_eal_total":196104.85,"risk_band":"High","source":"FEMA National Risk Index v1.20 (December 2025)"},"geometry":{"type":"Polygon","coordinates":[[[-95.961408,37.821985],[-95.958134,37.821938],[-95.959046,38.040195],[-95.51897,38.03823],[-95.519092,37.827824],[-95.519308,37.820259],[-95.524862,37.820285],[-95.525499,37.732759],[-95.960876,37.734304],[-95.961408,37.821985]]]}},{"type":"Feature","properties":{"GEOID":"20053","NAME":"Ellsworth","state":"KS","wildfire_risk_score":77.385,"wildfire_eal_total":370769.9,"risk_band":"High","source":"FEMA National Risk Index v1.20 (December 2025)"},"geometry":{"type":"Polygon","coordinates":[[[-98.48554,38.783951],[-98.484861,38.870791],[-97.928592,38.871099],[-97.924269,38.522755],[-98.480377,38.521841],[-98.479958,38.696916],[-98.486108,38.696878],[-98.48554,38.783951]]]}},{"type":"Feature","properties":{"GEOID":"20063","NAME":"Gove","state":"KS","wildfire_risk_score":39.249,"wildfire_eal_total":34597.43,"risk_band":"Low","source":"FEMA National Risk Index v1.20 (December 2025)"},"geometry":{"type":"Polygon","coordinates":[[[-100.818795,38.717989],[-100.811858,39.13336],[-100.14794,39.132179],[-100.153823,38.697341],[-100.818698,38.699861],[-100.818795,38.717989]]]}},{"type":"Feature","properties":{"GEOID":"20157","NAME":"Republic","state":"KS","wildfire_risk_score":41.476,"wildfire_eal_total":29822.8,"risk_band":"Low","source":"FEMA National Risk Index v1.20 (December 2025)"},"geometry":{"type":"Polygon","coordinates":[[[-97.933417,39.827436],[-97.931825546011,40.0020500230574],[-97.3691991185285,40.0020598786434],[-97.36867,39.654043],[-97.931482,39.653767],[-97.933417,39.827436]]]}},{"type":"Feature","properties":{"GEOID":"20035","NAME":"Cowley","state":"KS","wildfire_risk_score":91.571,"wildfire_eal_total":1657629.31,"risk_band":"High","source":"FEMA National Risk Index v1.20 (December 2025)"},"geometry":{"type":"Polygon","coordinates":[[[-97.153331,37.475544],[-96.52569,37.476405],[-96.5255776738603,36.9987120358304],[-97.147721,36.999111],[-97.153331,37.475544]]]}},{"type":"Feature","properties":{"GEOID":"20143","NAME":"Ottawa","state":"KS","wildfire_risk_score":72.646,"wildfire_eal_total":224103.15,"risk_band":"Moderate","source":"FEMA National Risk Index v1.20 (December 2025)"},"geometry":{"type":"Polygon","coordinates":[[[-97.931614,39.277094],[-97.929097,39.306397],[-97.369839,39.306011],[-97.371614,38.957852],[-97.92856,38.958395],[-97.931614,39.277094]]]}},{"type":"Feature","properties":{"GEOID":"20027","NAME":"Clay","state":"KS","wildfire_risk_score":73.473,"wildfire_eal_total":220308.95,"risk_band":"Moderate","source":"FEMA National Risk Index v1.20 (December 2025)"},"geometry":{"type":"Polygon","coordinates":[[[-97.370972,39.156946],[-97.368574,39.567018],[-96.958719,39.566432],[-96.96138,39.132325],[-97.371154,39.131961],[-97.370972,39.156946]]]}},{"type":"Feature","properties":{"GEOID":"20177","NAME":"Shawnee","state":"KS","wildfire_risk_score":75.318,"wildfire_eal_total":277029.2,"risk_band":"Moderate","source":"FEMA National Risk Index v1.20 (December 2025)"},"geometry":{"type":"Polygon","coordinates":[[[-96.038996,39.129759],[-96.035899,39.129784],[-96.035573,39.21652],[-95.589472,39.216081],[-95.589305,39.129159],[-95.594711,39.129275],[-95.596759,39.064672],[-95.582345,39.053998],[-95.542847,39.069103],[-95.513902,39.067151],[-95.500254,39.056656],[-95.500724,38.869815],[-95.946587,38.869973],[-95.946754,39.098685],[-95.956264,39.099043],[-95.972607,39.111569],[-95.995048,39.109309],[-96.009184,39.116151],[-96.005222,39.121798],[-95.992856,39.124998],[-95.993049,39.133387],[-96.003788,39.132],[-96.016997,39.12033],[-96.033783,39.124057],[-96.038996,39.129759]]]}},{"type":"Feature","properties":{"GEOID":"20009","NAME":"Barton","state":"KS","wildfire_risk_score":74.078,"wildfire_eal_total":207593.55,"risk_band":"Moderate","source":"FEMA National Risk Index v1.20 (December 2025)"},"geometry":{"type":"Polygon","coordinates":[[[-99.032699,38.435012],[-99.032971,38.696759],[-98.479958,38.696916],[-98.479841,38.26079],[-99.032309,38.261227],[-99.032699,38.435012]]]}}]}