{"type":"FeatureCollection","metadata":{"state":"MA","boundary_source":"U.S. Census Bureau 2024 Cartographic Boundary File (counties, 1:500,000)","risk_source":"FEMA National Risk Index v1.20 (December 2025)"},"features":[{"type":"Feature","properties":{"GEOID":"25001","NAME":"Barnstable","state":"MA","wildfire_risk_score":53.212,"wildfire_eal_total":59279.79,"risk_band":"High","source":"FEMA National Risk Index v1.20 (December 2025)"},"geometry":{"type":"Polygon","coordinates":[[[-70.686981,41.52949],[-70.668057,41.5329],[-70.666508,41.539958],[-70.654302,41.549926],[-70.653899,41.56516],[-70.640948,41.577325],[-70.652449,41.60521],[-70.640003,41.624616],[-70.646782,41.635028],[-70.642047,41.635566],[-70.644868,41.640218],[-70.65327,41.638982],[-70.650724,41.64613],[-70.633734,41.648933],[-70.620533,41.657266],[-70.631725,41.663695],[-70.640724,41.659456],[-70.651956,41.663044],[-70.653754,41.66709],[-70.648613,41.670328],[-70.632917,41.670448],[-70.636347,41.680002],[-70.662036,41.68094],[-70.645962,41.693794],[-70.617572,41.701141],[-70.623847,41.703723],[-70.626529,41.712995],[-70.6430739126182,41.7176035866855],[-70.632706,41.737759],[-70.620785,41.74753],[-70.632555,41.762904],[-70.565363,41.786669],[-70.5372893339932,41.8108590611294],[-70.517411,41.790953],[-70.471552,41.761563],[-70.399988,41.741721],[-70.295561,41.734412],[-70.273879,41.72431],[-70.281774,41.72242],[-70.290249,41.729502],[-70.296268,41.725261],[-70.382836,41.734679],[-70.396384,41.727868],[-70.362586,41.711901],[-70.362871,41.705088],[-70.34205,41.701361],[-70.328503,41.703916],[-70.327362,41.711263],[-70.300552,41.708495],[-70.267101,41.712875],[-70.265348,41.707187],[-70.251195,41.707339],[-70.248368,41.711682],[-70.240186,41.710649],[-70.235304,41.722457],[-70.240777,41.727528],[-70.216073,41.742981],[-70.189254,41.751982],[-70.141533,41.760072],[-70.121978,41.758841],[-70.064314,41.772845],[-70.022707,41.788352],[-70.008462,41.800786],[-70.003842,41.80852],[-70.009013,41.876625],[-70.000188,41.886938],[-70.02424,41.896343],[-70.013606,41.90121],[-70.013369,41.905986],[-70.032305,41.920441],[-70.027392,41.929331],[-70.044995,41.930049],[-70.061617,41.923496],[-70.054203,41.920949],[-70.065671,41.911658],[-70.06901,41.884924],[-70.077225,41.943358],[-70.077421,41.985497],[-70.083775,42.012041],[-70.095595,42.032832],[-70.123043,42.051668],[-70.155415,42.062409],[-70.178468,42.05642],[-70.19497,42.036399],[-70.205889,42.032691],[-70.192341,42.023157],[-70.173758,42.027357],[-70.166884,42.034575],[-70.171008,42.028045],[-70.179601,42.021858],[-70.190834,42.020028],[-70.208741,42.030749],[-70.228617,42.053932],[-70.24354,42.060569],[-70.238087,42.072878],[-70.225626,42.078601],[-70.189305,42.082337],[-70.115968,42.067638],[-70.082624,42.054657],[-70.058531,42.040363],[-70.033501,42.017736],[-69.986085,41.949597],[-69.945314,41.845222],[-69.928652,41.74125],[-69.928393,41.708449],[-69.933746,41.678631],[-69.943728,41.664783],[-69.957775,41.620364],[-69.967192,41.611956],[-69.983183,41.608295],[-69.988412,41.594432],[-69.988215,41.554704],[-69.997682,41.54233],[-70.008377,41.54144],[-70.013606,41.551046],[-69.993879,41.576299],[-69.992215,41.603319],[-69.970489,41.645458],[-69.996359,41.667184],[-70.014211,41.671971],[-70.065702,41.662357],[-70.089238,41.662813],[-70.140877,41.650423],[-70.195193,41.647913],[-70.245867,41.628479],[-70.265424,41.609333],[-70.26913,41.625742],[-70.28132,41.635125],[-70.296009,41.63438],[-70.316626,41.625448],[-70.329924,41.634578],[-70.351634,41.634687],[-70.379151,41.611361],[-70.437246,41.605329],[-70.461278,41.57182],[-70.485571,41.554244],[-70.528623,41.546721],[-70.546823,41.551411],[-70.633607,41.538254],[-70.643627,41.532357],[-70.656625,41.514779],[-70.673049,41.523648],[-70.685408,41.521335],[-70.686981,41.52949]]]}},{"type":"Feature","properties":{"GEOID":"25017","NAME":"Middlesex","state":"MA","wildfire_risk_score":72.774,"wildfire_eal_total":268163.22,"risk_band":"High","source":"FEMA National Risk Index v1.20 (December 2025)"},"geometry":{"type":"Polygon","coordinates":[[[-71.89877002948,42.7114218822193],[-71.294205,42.69699],[-71.2551987703894,42.7366383439844],[-71.238179,42.669419],[-71.24249,42.662346],[-71.256188,42.657145],[-71.171758,42.616545],[-71.182023,42.608431],[-71.164879,42.598021],[-71.154419,42.615268],[-71.135456,42.599116],[-71.058766,42.609077],[-71.033998,42.585493],[-71.028312,42.574082],[-71.03546,42.570259],[-71.05704,42.574019],[-71.070978,42.555889],[-71.07515,42.531035],[-71.067267,42.524983],[-71.038599,42.52396],[-71.040989,42.519847],[-71.0349,42.506758],[-71.043774,42.501199],[-71.039908,42.495949],[-71.052629,42.486057],[-71.054214,42.476903],[-71.020377,42.43825],[-71.040568,42.401982],[-71.051945,42.397619],[-71.050002,42.393471],[-71.055295,42.387097],[-71.070896,42.388996],[-71.066944,42.394755],[-71.080932,42.382133],[-71.064059,42.369001],[-71.069478,42.369046],[-71.077952,42.358735],[-71.113196,42.35311],[-71.11723,42.367367],[-71.130997,42.373892],[-71.132373,42.368891],[-71.148332,42.361119],[-71.167625,42.360073],[-71.174798,42.350265],[-71.166699,42.340009],[-71.167565,42.333441],[-71.157036,42.33039],[-71.178935,42.314316],[-71.164702,42.30383],[-71.191247,42.282992],[-71.19322,42.288014],[-71.20524,42.289568],[-71.213275,42.306161],[-71.226688,42.30825],[-71.228727,42.319278],[-71.246799,42.321061],[-71.252937,42.326756],[-71.269958,42.328086],[-71.32975,42.312991],[-71.30846,42.270709],[-71.302922,42.248274],[-71.332496,42.249075],[-71.329695,42.233328],[-71.343166,42.220613],[-71.338505,42.21523],[-71.351479,42.211546],[-71.34417,42.200703],[-71.404427,42.188433],[-71.402295,42.178794],[-71.430174,42.179386],[-71.444067,42.174889],[-71.464005,42.158199],[-71.478119,42.156782],[-71.478027,42.165871],[-71.497378,42.166643],[-71.502626,42.191416],[-71.539277,42.18973],[-71.555738,42.182503],[-71.556782,42.19245],[-71.58291,42.195559],[-71.602221,42.218101],[-71.586759,42.259545],[-71.556584,42.268134],[-71.539632,42.262793],[-71.518221,42.267715],[-71.506478,42.264276],[-71.48635,42.310449],[-71.486797,42.330189],[-71.551126,42.326395],[-71.58521,42.310952],[-71.605266,42.33016],[-71.604099,42.336769],[-71.625825,42.349724],[-71.610007,42.357403],[-71.603065,42.367267],[-71.607759,42.370022],[-71.580186,42.386976],[-71.604251,42.397703],[-71.58526,42.407097],[-71.5591,42.411943],[-71.543394,42.466452],[-71.560367,42.47435],[-71.529841,42.519841],[-71.53878,42.54303],[-71.580287,42.550467],[-71.594624,42.543378],[-71.619927,42.552502],[-71.635885,42.540001],[-71.639206,42.530957],[-71.635869,42.524024],[-71.678969,42.53043],[-71.664601,42.611598],[-71.775755,42.64423],[-71.775325,42.636663],[-71.844843,42.637985],[-71.858483,42.633815],[-71.857757,42.674982],[-71.897103,42.703728],[-71.89877002948,42.7114218822193]]]}},{"type":"Feature","properties":{"GEOID":"25025","NAME":"Suffolk","state":"MA","wildfire_risk_score":8.969,"wildfire_eal_total":2365.79,"risk_band":"Low","source":"FEMA National Risk Index v1.20 (December 2025)"},"geometry":{"type":"MultiPolygon","coordinates":[[[[-70.93091,42.321605],[-70.925969,42.321909],[-70.925308,42.317223],[-70.93076,42.319027],[-70.93091,42.321605]]],[[[-70.932091,42.332698],[-70.929717,42.333973],[-70.922598,42.326144],[-70.931414,42.328267],[-70.932091,42.332698]]],[[[-70.94278,42.327181],[-70.940749,42.328139],[-70.934947,42.326807],[-70.939854,42.324245],[-70.94278,42.327181]]],[[[-70.958094,42.31165],[-70.951492,42.313564],[-70.948515,42.311937],[-70.95434,42.308587],[-70.958094,42.31165]]],[[[-70.977402,42.312294],[-70.957268,42.331661],[-70.952805,42.330627],[-70.965732,42.313469],[-70.977402,42.312294]]],[[[-70.989162,42.328304],[-70.983078,42.327156],[-70.985667,42.318733],[-70.991621,42.326294],[-70.989162,42.328304]]],[[[-71.016643,42.313731],[-71.006364,42.320911],[-70.999534,42.31992],[-71.011487,42.309299],[-71.016643,42.313731]]],[[[-71.190904,42.283248],[-71.164702,42.30383],[-71.152113,42.294588],[-71.146883,42.29728],[-71.123711,42.322716],[-71.116537,42.323939],[-71.105516,42.343812],[-71.10657,42.349912],[-71.122855,42.351861],[-71.157036,42.33039],[-71.167565,42.333441],[-71.166699,42.340009],[-71.174798,42.350265],[-71.167625,42.360073],[-71.148332,42.361119],[-71.132373,42.368891],[-71.130997,42.373892],[-71.11723,42.367367],[-71.113196,42.35311],[-71.077952,42.358735],[-71.069478,42.369046],[-71.064059,42.369001],[-71.080932,42.382133],[-71.066944,42.394755],[-71.070896,42.388996],[-71.055295,42.387097],[-71.050002,42.393471],[-71.051945,42.397619],[-71.040568,42.401982],[-71.020377,42.43825],[-71.025836,42.444709],[-71.018757,42.450118],[-71.009671,42.441047],[-71.010777,42.434568],[-70.999857,42.431296],[-70.99012,42.434877],[-70.982294,42.431296],[-70.968594,42.444396],[-70.959934,42.441218],[-70.982994,42.423996],[-70.990595,42.407098],[-70.979791,42.390561],[-70.967273,42.388229],[-70.972706,42.381759],[-70.966627,42.367599],[-70.968034,42.357591],[-70.958599,42.35551],[-70.953022,42.343973],[-70.97454,42.35925],[-70.972828,42.371928],[-70.988128,42.368512],[-71.00024,42.372418],[-71.002822,42.365945],[-70.997719,42.360562],[-70.988035,42.36188],[-70.985317,42.358316],[-70.98955,42.354495],[-71.003741,42.356037],[-71.007807,42.347145],[-71.0277,42.358625],[-71.026916,42.363769],[-71.037999,42.363753],[-71.047018,42.37312],[-71.052642,42.370788],[-71.049673,42.356598],[-71.010177,42.337557],[-71.015664,42.330518],[-71.024151,42.333159],[-71.047648,42.328087],[-71.047426,42.323428],[-71.032777,42.313472],[-71.042335,42.311693],[-71.047616,42.303378],[-71.037974,42.288675],[-71.042782,42.277102],[-71.053284,42.277502],[-71.053836,42.271699],[-71.062189,42.267159],[-71.067815,42.271396],[-71.089403,42.26969],[-71.103672,42.259723],[-71.11146,42.260769],[-71.109347,42.24799],[-71.126377,42.239162],[-71.122602,42.234515],[-71.130749,42.227911],[-71.142681,42.235998],[-71.146642,42.255755],[-71.158584,42.255155],[-71.174154,42.267021],[-71.174972,42.276004],[-71.183159,42.275913],[-71.190904,42.283248]]]]}},{"type":"Feature","properties":{"GEOID":"25021","NAME":"Norfolk","state":"MA","wildfire_risk_score":49.777,"wildfire_eal_total":60866.87,"risk_band":"Moderate","source":"FEMA National Risk Index v1.20 (December 2025)"},"geometry":{"type":"MultiPolygon","coordinates":[[[[-70.844664,42.242271],[-70.841241,42.244546],[-70.849277,42.247331],[-70.844627,42.260426],[-70.8246607239285,42.2659346457723],[-70.7814619230446,42.2487180195672],[-70.789041,42.24017],[-70.781973,42.236432],[-70.78868,42.232597],[-70.784814,42.225881],[-70.827015,42.200786],[-70.8408,42.213118],[-70.85338,42.239607],[-70.844664,42.242271]]],[[[-71.173715,42.318051],[-71.128728,42.349463],[-71.10657,42.349912],[-71.105516,42.343812],[-71.116537,42.323939],[-71.123711,42.322716],[-71.140135,42.302147],[-71.152113,42.294588],[-71.178935,42.314316],[-71.173715,42.318051]]],[[[-71.501263,42.111685],[-71.501393,42.116677],[-71.478522,42.131378],[-71.478119,42.156782],[-71.464005,42.158199],[-71.444067,42.174889],[-71.430174,42.179386],[-71.402295,42.178794],[-71.404427,42.188433],[-71.34417,42.200703],[-71.351479,42.211546],[-71.338505,42.21523],[-71.343166,42.220613],[-71.329695,42.233328],[-71.332496,42.249075],[-71.302922,42.248274],[-71.327327,42.313746],[-71.269958,42.328086],[-71.231144,42.320841],[-71.226688,42.30825],[-71.213275,42.306161],[-71.20524,42.289568],[-71.19322,42.288014],[-71.183159,42.275913],[-71.174972,42.276004],[-71.174154,42.267021],[-71.158584,42.255155],[-71.146642,42.255755],[-71.142681,42.235998],[-71.130749,42.227911],[-71.122602,42.234515],[-71.126377,42.239162],[-71.109347,42.24799],[-71.11146,42.260769],[-71.103672,42.259723],[-71.089403,42.26969],[-71.067815,42.271396],[-71.062189,42.267159],[-71.053836,42.271699],[-71.053284,42.277502],[-71.042782,42.277102],[-71.032108,42.288565],[-71.036797,42.301392],[-71.025837,42.299698],[-71.021523,42.294346],[-71.010807,42.30451],[-70.987428,42.30608],[-71.005206,42.300599],[-71.004616,42.294481],[-71.02231,42.288188],[-70.996002,42.266837],[-70.985278,42.264347],[-70.973357,42.263009],[-70.956219,42.270794],[-70.953186,42.279854],[-70.949284,42.274205],[-70.951185,42.261266],[-70.959361,42.262597],[-70.965811,42.257765],[-70.95727,42.254988],[-70.962402,42.248354],[-70.959495,42.245328],[-70.927227,42.257381],[-70.925897,42.26917],[-70.918236,42.271861],[-70.9082859092802,42.2647153306132],[-70.91739,42.263899],[-70.917081,42.2556],[-70.933491,42.25],[-70.92349,42.2259],[-70.914745,42.225115],[-70.924877,42.15758],[-71.364344,41.985293],[-71.3814657108006,41.9850843199885],[-71.381401,42.018798],[-71.498258301062,42.0172202331592],[-71.49553,42.099962],[-71.501263,42.111685]]]]}},{"type":"Feature","properties":{"GEOID":"25013","NAME":"Hampden","state":"MA","wildfire_risk_score":39.313,"wildfire_eal_total":20794.86,"risk_band":"Moderate","source":"FEMA National Risk Index v1.20 (December 2025)"},"geometry":{"type":"Polygon","coordinates":[[[-73.074845,42.106146],[-73.061206,42.118112],[-73.069285,42.130869],[-73.071113,42.148206],[-73.03492,42.143652],[-73.00185,42.251017],[-73.000278,42.312597],[-72.953825,42.34386],[-72.895638,42.340702],[-72.894788,42.331491],[-72.885208,42.332612],[-72.880602,42.265382],[-72.912302,42.239133],[-72.87218,42.216439],[-72.857634,42.24048],[-72.813422,42.245004],[-72.812576,42.234954],[-72.793414,42.236854],[-72.791987,42.217302],[-72.782111,42.217271],[-72.781039,42.199749],[-72.686861,42.18339],[-72.690515,42.213076],[-72.670033,42.216504],[-72.66777,42.225456],[-72.656536,42.227739],[-72.634585,42.273943],[-72.613138,42.286265],[-72.601209,42.281259],[-72.599173,42.267381],[-72.618009,42.248369],[-72.623656,42.231656],[-72.603803,42.213867],[-72.593448,42.211557],[-72.403947,42.231847],[-72.395478,42.185737],[-72.358219,42.189802],[-72.364667,42.20726],[-72.352323,42.207014],[-72.34168,42.219232],[-72.270548,42.237126],[-72.268231,42.229311],[-72.257614,42.229874],[-72.247013,42.242094],[-72.221218,42.245252],[-72.262792,42.202534],[-72.263924,42.183831],[-72.200626,42.161287],[-72.199348,42.153707],[-72.135011,42.161784],[-72.135715,42.0302453396816],[-72.528131,42.034295],[-72.590233,42.024695],[-72.606933,42.024995],[-72.607933,42.030795],[-72.755838,42.036195],[-72.757538,42.033295],[-72.751738,42.030195],[-72.757467,42.020947],[-72.762151,42.021527],[-72.759738,42.016995],[-72.766739,42.002995],[-72.816741,41.997595],[-72.813541,42.036494],[-73.0532880861326,42.0398619684613],[-73.054651,42.0576],[-73.061742,42.061939],[-73.058153,42.066753],[-73.073087,42.094213],[-73.074845,42.106146]]]}},{"type":"Feature","properties":{"GEOID":"25015","NAME":"Hampshire","state":"MA","wildfire_risk_score":35.814,"wildfire_eal_total":26204.4,"risk_band":"Moderate","source":"FEMA National Risk Index v1.20 (December 2025)"},"geometry":{"type":"Polygon","coordinates":[[[-73.065772,42.389111],[-73.011683,42.379683],[-72.968583,42.540012],[-72.979036,42.541617],[-72.975409,42.556037],[-72.876849,42.541197],[-72.875461,42.525897],[-72.87032,42.52515],[-72.875155,42.507249],[-72.871136,42.484041],[-72.763792,42.463665],[-72.7643,42.460156],[-72.758287,42.460926],[-72.765937,42.451681],[-72.75711,42.452413],[-72.757758,42.445883],[-72.700877,42.45292],[-72.704392,42.40555],[-72.489891,42.433816],[-72.483696,42.407481],[-72.375022,42.420819],[-72.366576,42.403506],[-72.366141,42.378239],[-72.356365,42.366507],[-72.359376,42.345566],[-72.351128,42.329563],[-72.360478,42.3087],[-72.356018,42.303283],[-72.350373,42.304168],[-72.351459,42.309993],[-72.328333,42.318558],[-72.328219,42.325248],[-72.314253,42.343688],[-72.284231,42.35201],[-72.274639,42.301963],[-72.210795,42.31138],[-72.216745,42.294056],[-72.203281,42.291182],[-72.212043,42.282652],[-72.212779,42.269805],[-72.217649,42.270172],[-72.21046,42.247205],[-72.247013,42.242094],[-72.257614,42.229874],[-72.268231,42.229311],[-72.270548,42.237126],[-72.34168,42.219232],[-72.352323,42.207014],[-72.364667,42.20726],[-72.358219,42.189802],[-72.395478,42.185737],[-72.403947,42.231847],[-72.593448,42.211557],[-72.603803,42.213867],[-72.623656,42.231656],[-72.618009,42.248369],[-72.599173,42.267381],[-72.601209,42.281259],[-72.613138,42.286265],[-72.634585,42.273943],[-72.656536,42.227739],[-72.66777,42.225456],[-72.670033,42.216504],[-72.690515,42.213076],[-72.686861,42.18339],[-72.781039,42.199749],[-72.782111,42.217271],[-72.791987,42.217302],[-72.793414,42.236854],[-72.812576,42.234954],[-72.813422,42.245004],[-72.857634,42.24048],[-72.87218,42.216439],[-72.912302,42.239133],[-72.880602,42.265382],[-72.885208,42.332612],[-72.894788,42.331491],[-72.895638,42.340702],[-72.953825,42.34386],[-73.001909,42.311785],[-73.005354,42.3052],[-73.016858,42.311089],[-73.029398,42.308568],[-73.040752,42.320183],[-73.062886,42.328951],[-73.068508,42.38072],[-73.065772,42.389111]]]}},{"type":"Feature","properties":{"GEOID":"25011","NAME":"Franklin","state":"MA","wildfire_risk_score":36.991,"wildfire_eal_total":22653.66,"risk_band":"Moderate","source":"FEMA National Risk Index v1.20 (December 2025)"},"geometry":{"type":"Polygon","coordinates":[[[-73.0230149955487,42.7411352241426],[-72.2830328756509,42.7215587083791],[-72.271956,42.674672],[-72.258537,42.675424],[-72.257325,42.66794],[-72.243495,42.669248],[-72.242109,42.661642],[-72.22948,42.662666],[-72.225314,42.630426],[-72.231176,42.625862],[-72.22755,42.622074],[-72.229946,42.614388],[-72.254745,42.611614],[-72.253311,42.605336],[-72.267064,42.600813],[-72.261333,42.575922],[-72.276434,42.577374],[-72.269111,42.533425],[-72.244868,42.513439],[-72.291288,42.479525],[-72.283259,42.441189],[-72.302457,42.424019],[-72.313572,42.40664],[-72.315819,42.39454],[-72.310043,42.38739],[-72.31435,42.381656],[-72.311431,42.372206],[-72.315655,42.369479],[-72.310505,42.364294],[-72.315055,42.339411],[-72.323165,42.333523],[-72.328333,42.318558],[-72.351459,42.309993],[-72.350373,42.304168],[-72.36037,42.307791],[-72.351178,42.324884],[-72.351199,42.334417],[-72.359376,42.345566],[-72.356365,42.366507],[-72.366141,42.378239],[-72.366576,42.403506],[-72.375022,42.420819],[-72.483696,42.407481],[-72.489891,42.433816],[-72.704392,42.40555],[-72.700877,42.45292],[-72.757758,42.445883],[-72.75711,42.452413],[-72.765937,42.451681],[-72.758287,42.460926],[-72.7643,42.460156],[-72.763792,42.463665],[-72.871136,42.484041],[-72.875155,42.507249],[-72.87032,42.52515],[-72.875461,42.525897],[-72.876849,42.541197],[-72.975409,42.556037],[-72.951039,42.641006],[-72.954721,42.665624],[-72.962094,42.667023],[-72.975209,42.660824],[-72.995539,42.673156],[-72.989251,42.674233],[-72.988897,42.678663],[-72.975826,42.679422],[-72.977495,42.685913],[-72.97352,42.688808],[-72.954353,42.690276],[-72.948703,42.703635],[-73.023709,42.70269],[-73.0230149955487,42.7411352241426]]]}},{"type":"Feature","properties":{"GEOID":"25023","NAME":"Plymouth","state":"MA","wildfire_risk_score":53.785,"wildfire_eal_total":77516.18,"risk_band":"High","source":"FEMA National Risk Index v1.20 (December 2025)"},"geometry":{"type":"MultiPolygon","coordinates":[[[[-70.883352,42.340491],[-70.880207,42.342307],[-70.873953,42.343634],[-70.87605,42.341229],[-70.883352,42.340491]]],[[[-70.891755,42.338856],[-70.886251,42.339946],[-70.884777,42.339328],[-70.887529,42.338202],[-70.891755,42.338856]]],[[[-70.892296,42.328394],[-70.888954,42.328902],[-70.888775,42.328461],[-70.891952,42.327231],[-70.892296,42.328394]]],[[[-70.898407,42.340266],[-70.89721,42.343324],[-70.8956,42.343892],[-70.895156,42.338879],[-70.898407,42.340266]]],[[[-70.898439,42.331191],[-70.897063,42.333952],[-70.894065,42.33498],[-70.89608,42.330355],[-70.898439,42.331191]]],[[[-70.95108,42.289726],[-70.9357,42.296523],[-70.935272,42.302101],[-70.92638,42.301406],[-70.937332,42.284916],[-70.95108,42.289726]]],[[[-71.079343,42.095993],[-70.924877,42.15758],[-70.914745,42.225115],[-70.92349,42.2259],[-70.932435,42.252644],[-70.917081,42.2556],[-70.91739,42.263899],[-70.9082859092802,42.2647153306132],[-70.893784,42.262316],[-70.897893,42.256001],[-70.884269,42.245549],[-70.877753,42.248417],[-70.875529,42.256863],[-70.890169,42.2762],[-70.903238,42.281335],[-70.878285,42.278311],[-70.887317,42.297652],[-70.903954,42.301695],[-70.910372,42.299058],[-70.92392,42.305035],[-70.88268,42.310393],[-70.881242,42.300663],[-70.861807,42.275965],[-70.851093,42.26827],[-70.8246607239285,42.2659346457723],[-70.844627,42.260426],[-70.849277,42.247331],[-70.841152,42.243346],[-70.85338,42.239607],[-70.8408,42.213118],[-70.827015,42.200786],[-70.784814,42.225881],[-70.78868,42.232597],[-70.781973,42.236432],[-70.789041,42.24017],[-70.773944,42.254214],[-70.766338,42.254742],[-70.760158,42.235035],[-70.74723,42.221816],[-70.712993,42.204431],[-70.718707,42.184853],[-70.714301,42.168783],[-70.663931,42.108336],[-70.640169,42.088633],[-70.63848,42.081579],[-70.647349,42.076331],[-70.64819,42.068441],[-70.643208,42.050821],[-70.597892,42.00455],[-70.614046,42.006612],[-70.631919,41.992864],[-70.639137,41.993895],[-70.641199,42.005925],[-70.636387,42.01383],[-70.629857,42.001456],[-70.614223,42.011149],[-70.644337,42.045895],[-70.650874,42.046247],[-70.66936,42.037116],[-70.671666,42.02139],[-70.667512,42.01232],[-70.670934,42.007786],[-70.678798,42.00551],[-70.686798,42.012764],[-70.695809,42.013346],[-70.712204,42.007586],[-70.710034,41.999544],[-70.700025,41.998256],[-70.698981,41.987103],[-70.681357,41.979145],[-70.664482,41.960062],[-70.646785,41.949309],[-70.630321,41.947048],[-70.652507,41.978871],[-70.645546,41.975197],[-70.623945,41.943061],[-70.608166,41.940701],[-70.598078,41.947772],[-70.583572,41.950007],[-70.565974,41.936227],[-70.539189,41.926773],[-70.53787,41.920946],[-70.544916,41.918637],[-70.54741,41.911934],[-70.532084,41.889568],[-70.530494,41.865492],[-70.525567,41.85873],[-70.53255,41.840662],[-70.542065,41.831263],[-70.5372893339932,41.8108590611294],[-70.565363,41.786669],[-70.632555,41.762904],[-70.620785,41.74753],[-70.632706,41.737759],[-70.6430739126182,41.7176035866855],[-70.648805,41.718029],[-70.674064,41.691371],[-70.656596,41.715401],[-70.679228,41.727431],[-70.68826,41.723705],[-70.718739,41.73574],[-70.726331,41.732731],[-70.720949,41.72322],[-70.728526,41.722875],[-70.712028,41.707028],[-70.71423,41.701731],[-70.727477,41.702414],[-70.714906,41.691938],[-70.718355,41.690157],[-70.715593,41.675258],[-70.729395,41.68814],[-70.748868,41.697446],[-70.755347,41.694326],[-70.743402,41.674726],[-70.758376,41.680584],[-70.763842,41.676856],[-70.756712,41.666914],[-70.76236,41.667735],[-70.757065,41.652891],[-70.766457,41.648446],[-70.765463,41.641575],[-70.776709,41.650756],[-70.795216,41.650932],[-70.809001,41.658391],[-70.821598,41.654839],[-70.823262,41.648979],[-70.804664,41.641157],[-70.801063,41.629513],[-70.817683,41.623432],[-70.822074,41.627485],[-70.835296,41.624532],[-70.8431763095007,41.628486815378],[-70.845242,41.644665],[-70.886439,41.760232],[-70.904438,41.758],[-70.921782,41.791244],[-71.026288,41.778888],[-71.014591,41.799568],[-71.03657,41.816525],[-70.973717,41.860879],[-70.987256,41.905808],[-70.993152,41.906445],[-70.991978,41.915602],[-70.997132,41.916682],[-70.996752,41.927369],[-71.049485,41.963094],[-71.079343,42.095993]]]]}},{"type":"Feature","properties":{"GEOID":"25005","NAME":"Bristol","state":"MA","wildfire_risk_score":38.168,"wildfire_eal_total":24090.8,"risk_band":"Moderate","source":"FEMA National Risk Index v1.20 (December 2025)"},"geometry":{"type":"MultiPolygon","coordinates":[[[[-70.835735,41.602349],[-70.830003,41.604539],[-70.824036,41.599554],[-70.823506,41.591748],[-70.81844,41.59084],[-70.822066,41.583551],[-70.835132,41.590875],[-70.838452,41.59646],[-70.835735,41.602349]]],[[[-71.3817,41.8937517472528],[-71.3814657108006,41.9850843199885],[-71.364344,41.985293],[-71.080483,42.095539],[-71.049485,41.963094],[-70.996752,41.927369],[-70.997132,41.916682],[-70.991978,41.915602],[-70.993152,41.906445],[-70.987256,41.905808],[-70.973717,41.860879],[-71.03657,41.816525],[-71.014591,41.799568],[-71.026288,41.778888],[-70.921782,41.791244],[-70.904438,41.758],[-70.886439,41.760232],[-70.845242,41.644665],[-70.8431763095007,41.628486815378],[-70.859654,41.624124],[-70.843227,41.596565],[-70.856723,41.583709],[-70.869624,41.625608],[-70.88876,41.632815],[-70.895438,41.624204],[-70.913202,41.619266],[-70.904522,41.610361],[-70.898607,41.592654],[-70.90908,41.5937],[-70.922375,41.614337],[-70.930456,41.613271],[-70.927393,41.594064],[-70.933777,41.58043],[-70.938813,41.5777],[-70.943891,41.586015],[-70.950245,41.584598],[-70.92852,41.539776],[-70.946302,41.537564],[-70.947929,41.529802],[-70.954884,41.527567],[-70.953299,41.51501],[-70.961354,41.529698],[-70.972287,41.530765],[-70.984647,41.520445],[-70.983956,41.5089],[-71.003275,41.511912],[-71.019354,41.508857],[-71.035514,41.499047],[-71.038349,41.492182],[-71.033609,41.486802],[-71.038362,41.481105],[-71.041013,41.497534],[-71.070687,41.508877],[-71.085663,41.509292],[-71.12057,41.497448],[-71.131312,41.592308],[-71.14091,41.607405],[-71.132888,41.660102],[-71.19569,41.675102],[-71.261392,41.752301],[-71.327896,41.780501],[-71.332196,41.7923],[-71.340697,41.7983],[-71.338897,41.8083],[-71.347197,41.8231],[-71.335197,41.8355],[-71.342198,41.8448],[-71.333997,41.8623],[-71.340798,41.8816],[-71.338698,41.898399],[-71.3817,41.8937517472528]]]]}},{"type":"Feature","properties":{"GEOID":"25027","NAME":"Worcester","state":"MA","wildfire_risk_score":62.595,"wildfire_eal_total":116469.28,"risk_band":"High","source":"FEMA National Risk Index v1.20 (December 2025)"},"geometry":{"type":"Polygon","coordinates":[[[-72.313631,42.396404],[-72.306681,42.419201],[-72.283259,42.441189],[-72.291288,42.479525],[-72.244868,42.513439],[-72.269111,42.533425],[-72.276434,42.577374],[-72.261333,42.575922],[-72.267064,42.600813],[-72.253311,42.605336],[-72.254745,42.611614],[-72.229946,42.614388],[-72.22755,42.622074],[-72.231176,42.625862],[-72.225314,42.630426],[-72.22948,42.662666],[-72.242109,42.661642],[-72.243495,42.669248],[-72.257325,42.66794],[-72.258537,42.675424],[-72.271956,42.674672],[-72.2830328756509,42.7215587083791],[-71.89877002948,42.7114218822193],[-71.897103,42.703728],[-71.857757,42.674982],[-71.858483,42.633815],[-71.844843,42.637985],[-71.775325,42.636663],[-71.775755,42.64423],[-71.664601,42.611598],[-71.678969,42.53043],[-71.635869,42.524024],[-71.639206,42.530957],[-71.635885,42.540001],[-71.625126,42.550099],[-71.619927,42.552502],[-71.594624,42.543378],[-71.580287,42.550467],[-71.53878,42.54303],[-71.529841,42.519841],[-71.560367,42.47435],[-71.543394,42.466452],[-71.5591,42.411943],[-71.58526,42.407097],[-71.604251,42.397703],[-71.580186,42.386976],[-71.607759,42.370022],[-71.603065,42.367267],[-71.610007,42.357403],[-71.625825,42.349724],[-71.604099,42.336769],[-71.605266,42.33016],[-71.58521,42.310952],[-71.551126,42.326395],[-71.486797,42.330189],[-71.48635,42.310449],[-71.506478,42.264276],[-71.518221,42.267715],[-71.539632,42.262793],[-71.556584,42.268134],[-71.586759,42.259545],[-71.602221,42.218101],[-71.58291,42.195559],[-71.556782,42.19245],[-71.555738,42.182503],[-71.539277,42.18973],[-71.502626,42.191416],[-71.497378,42.166643],[-71.478027,42.165871],[-71.478522,42.131378],[-71.501393,42.116677],[-71.503078,42.110285],[-71.49553,42.099962],[-71.498258301062,42.0172202331592],[-71.799242,42.008065],[-71.80065,42.023569],[-72.135715,42.0302453396816],[-72.135011,42.161784],[-72.199348,42.153707],[-72.200626,42.161287],[-72.263924,42.183831],[-72.260159,42.205869],[-72.218068,42.248605],[-72.21046,42.247205],[-72.217649,42.270172],[-72.212779,42.269805],[-72.212043,42.282652],[-72.203281,42.291182],[-72.216745,42.294056],[-72.210795,42.31138],[-72.274639,42.301963],[-72.284231,42.35201],[-72.314253,42.343688],[-72.310505,42.364294],[-72.315655,42.369479],[-72.311431,42.372206],[-72.31435,42.381656],[-72.310043,42.38739],[-72.313631,42.396404]]]}},{"type":"Feature","properties":{"GEOID":"25009","NAME":"Essex","state":"MA","wildfire_risk_score":59.192,"wildfire_eal_total":83117.29,"risk_band":"High","source":"FEMA National Risk Index v1.20 (December 2025)"},"geometry":{"type":"MultiPolygon","coordinates":[[[[-70.580285,42.636025],[-70.575088,42.63978],[-70.573377,42.639507],[-70.575648,42.634452],[-70.580285,42.636025]]],[[[-70.592189,42.629471],[-70.588245,42.630605],[-70.586819,42.628157],[-70.588037,42.626413],[-70.592189,42.629471]]],[[[-70.593681,42.660455],[-70.589252,42.662745],[-70.587568,42.661908],[-70.590001,42.658981],[-70.593681,42.660455]]],[[[-70.723148,42.568157],[-70.721223,42.569933],[-70.72064,42.569659],[-70.721656,42.566088],[-70.723148,42.568157]]],[[[-70.783055,42.553461],[-70.781606,42.554016],[-70.780695,42.553641],[-70.782303,42.551834],[-70.783055,42.553461]]],[[[-70.788783,42.534006],[-70.787031,42.537295],[-70.782252,42.533716],[-70.787708,42.530579],[-70.788783,42.534006]]],[[[-70.802228,42.551048],[-70.79503,42.550678],[-70.794397,42.548038],[-70.802091,42.547188],[-70.802228,42.551048]]],[[[-70.817433,42.514027],[-70.812062,42.511992],[-70.812146,42.510327],[-70.81407,42.510401],[-70.817433,42.514027]]],[[[-70.835581,42.483833],[-70.833705,42.485272],[-70.833465,42.481995],[-70.835355,42.482255],[-70.835581,42.483833]]],[[[-71.254966,42.657775],[-71.24249,42.662346],[-71.238179,42.669419],[-71.2551987703894,42.7366383439844],[-71.223904,42.746689],[-71.181803,42.73759],[-71.186104,42.790689],[-71.167703,42.807389],[-71.132503,42.821389],[-71.064201,42.806289],[-71.047501,42.844089],[-71.031201,42.859089],[-70.9665,42.868989],[-70.927629,42.885326],[-70.902768,42.88653],[-70.886136,42.88261],[-70.848625,42.860939],[-70.817296,42.87229],[-70.817731,42.850613],[-70.80522,42.781798],[-70.792867,42.747118],[-70.770453,42.704824],[-70.775791,42.700669],[-70.776083,42.691264],[-70.744602,42.681308],[-70.730547,42.666563],[-70.68463,42.651813],[-70.681382,42.662263],[-70.663548,42.677603],[-70.630077,42.692699],[-70.620851,42.68684],[-70.623927,42.661635],[-70.597421,42.659605],[-70.597103,42.651468],[-70.591742,42.648508],[-70.595409,42.640322],[-70.591469,42.639821],[-70.594014,42.63503],[-70.61842,42.62864],[-70.632217,42.616795],[-70.635635,42.600243],[-70.654727,42.582234],[-70.664887,42.580436],[-70.666037,42.584082],[-70.657005,42.598255],[-70.658907,42.603504],[-70.665562,42.609102],[-70.676733,42.607527],[-70.684502,42.588858],[-70.710349,42.572568],[-70.729688,42.57151],[-70.737044,42.576863],[-70.757283,42.570455],[-70.763723,42.561678],[-70.772132,42.559606],[-70.794419,42.5645],[-70.823798,42.551866],[-70.845485,42.548196],[-70.85013,42.551144],[-70.861115,42.545128],[-70.868648,42.54852],[-70.875195,42.544344],[-70.882563,42.534887],[-70.864207,42.533429],[-70.86632,42.526729],[-70.877572,42.523502],[-70.885178,42.515269],[-70.886366,42.508611],[-70.87472,42.504931],[-70.857125,42.521492],[-70.842091,42.519495],[-70.842395,42.508786],[-70.853329,42.493015],[-70.83381,42.505868],[-70.831091,42.503596],[-70.835991,42.490496],[-70.857791,42.490296],[-70.879692,42.478796],[-70.894292,42.460896],[-70.907275,42.462855],[-70.908092,42.466896],[-70.921993,42.466696],[-70.934993,42.457896],[-70.93748,42.440088],[-70.928018,42.437216],[-70.933402,42.433435],[-70.908392,42.425197],[-70.902872,42.420053],[-70.905692,42.416197],[-70.919934,42.423587],[-70.927971,42.41713],[-70.936393,42.418097],[-70.938984,42.457024],[-70.943664,42.458338],[-70.971594,42.442696],[-70.982294,42.431296],[-70.99012,42.434877],[-70.999857,42.431296],[-71.010777,42.434568],[-71.009671,42.441047],[-71.018757,42.450118],[-71.025836,42.444709],[-71.054214,42.476903],[-71.052629,42.486057],[-71.039908,42.495949],[-71.043774,42.501199],[-71.0349,42.506758],[-71.040983,42.526262],[-71.05838,42.523621],[-71.07515,42.531035],[-71.070978,42.555889],[-71.05704,42.574019],[-71.03546,42.570259],[-71.028312,42.574082],[-71.033998,42.585493],[-71.058766,42.609077],[-71.135456,42.599116],[-71.154419,42.615268],[-71.164879,42.598021],[-71.182023,42.608431],[-71.171758,42.616545],[-71.254966,42.657775]]]]}},{"type":"Feature","properties":{"GEOID":"25019","NAME":"Nantucket","state":"MA","wildfire_risk_score":13.009,"wildfire_eal_total":8227.43,"risk_band":"Low","source":"FEMA National Risk Index v1.20 (December 2025)"},"geometry":{"type":"MultiPolygon","coordinates":[[[[-70.234054,41.285653],[-70.211712,41.275651],[-70.20173,41.276544],[-70.191747,41.286546],[-70.195788,41.290654],[-70.207434,41.288689],[-70.199115,41.29619],[-70.12446,41.293851],[-70.082072,41.299093],[-70.062565,41.308726],[-70.031332,41.339332],[-70.024421,41.360622],[-70.024031,41.368613],[-70.045586,41.383598],[-70.049053,41.391702],[-70.02038,41.369006],[-69.960277,41.278731],[-69.960181,41.264546],[-69.974983,41.246528],[-70.001603,41.239916],[-70.083489,41.244775],[-70.100495,41.240553],[-70.170356,41.257428],[-70.237144,41.285117],[-70.234054,41.285653]]],[[[-70.277262,41.310506],[-70.246552,41.306186],[-70.239816,41.295823],[-70.242739,41.28919],[-70.259665,41.296006],[-70.277262,41.310506]]],[[[-70.30897,41.336057],[-70.292027,41.337788],[-70.289325,41.335022],[-70.307001,41.332391],[-70.30897,41.336057]]]]}},{"type":"Feature","properties":{"GEOID":"25007","NAME":"Dukes","state":"MA","wildfire_risk_score":27.863,"wildfire_eal_total":14061.66,"risk_band":"Low","source":"FEMA National Risk Index v1.20 (December 2025)"},"geometry":{"type":"MultiPolygon","coordinates":[[[[-70.8071,41.458576],[-70.787014,41.476687],[-70.775489,41.477098],[-70.767993,41.487788],[-70.754901,41.491016],[-70.737602,41.504261],[-70.730166,41.503176],[-70.710222,41.518915],[-70.700619,41.521779],[-70.699431,41.513593],[-70.687309,41.512347],[-70.678278,41.51733],[-70.675188,41.513949],[-70.681562,41.507269],[-70.707037,41.50149],[-70.704541,41.49681],[-70.712266,41.49063],[-70.73437,41.486891],[-70.747205,41.47781],[-70.756712,41.479057],[-70.76099,41.473002],[-70.755664,41.467146],[-70.758138,41.463029],[-70.776308,41.457664],[-70.790395,41.446535],[-70.799996,41.446167],[-70.8071,41.458576]]],[[[-70.832039,41.259495],[-70.811965,41.264839],[-70.801561,41.25841],[-70.803315,41.250225],[-70.809245,41.249068],[-70.825508,41.252277],[-70.832039,41.259495]]],[[[-70.838777,41.347209],[-70.833802,41.353386],[-70.812309,41.355745],[-70.774974,41.349176],[-70.745066,41.376586],[-70.731859,41.397797],[-70.712432,41.40885],[-70.700964,41.43401],[-70.686881,41.441334],[-70.67186,41.442364],[-70.659652,41.460677],[-70.64215,41.462316],[-70.603555,41.482384],[-70.598444,41.481151],[-70.595803,41.468728],[-70.599843,41.458576],[-70.596516,41.454122],[-70.57485,41.468259],[-70.56328,41.469127],[-70.553277,41.452955],[-70.555588,41.430882],[-70.547567,41.415831],[-70.528581,41.4051],[-70.506984,41.400242],[-70.501306,41.385391],[-70.484503,41.38629],[-70.471687,41.3962],[-70.470788,41.412875],[-70.452497,41.42143],[-70.446233,41.39648],[-70.448262,41.353651],[-70.452244,41.349828],[-70.579165,41.350007],[-70.709826,41.341723],[-70.747541,41.329952],[-70.764188,41.318706],[-70.768687,41.303702],[-70.775665,41.300982],[-70.802083,41.314207],[-70.838777,41.347209]]],[[[-70.840375,41.452875],[-70.820595,41.458507],[-70.808051,41.445037],[-70.836868,41.441968],[-70.840375,41.452875]]],[[[-70.903598,41.430782],[-70.901011,41.434453],[-70.882207,41.432564],[-70.8803,41.437969],[-70.863668,41.442542],[-70.857103,41.450253],[-70.855824,41.440583],[-70.848563,41.432844],[-70.862663,41.424115],[-70.884405,41.421498],[-70.902347,41.421718],[-70.903598,41.430782]]],[[[-70.925416,41.451732],[-70.920666,41.454553],[-70.915165,41.451034],[-70.921186,41.445393],[-70.925416,41.451732]]],[[[-70.949185,41.415776],[-70.943735,41.415014],[-70.927475,41.431811],[-70.908587,41.422417],[-70.923341,41.422463],[-70.929039,41.415589],[-70.948996,41.409551],[-70.949185,41.415776]]]]}},{"type":"Feature","properties":{"GEOID":"25003","NAME":"Berkshire","state":"MA","wildfire_risk_score":25.191,"wildfire_eal_total":10738.89,"risk_band":"Low","source":"FEMA National Risk Index v1.20 (December 2025)"},"geometry":{"type":"Polygon","coordinates":[[[-73.508142,42.086257],[-73.264957,42.74594],[-73.0230149955487,42.7411352241426],[-73.023709,42.70269],[-72.949639,42.705111],[-72.954353,42.690276],[-72.97352,42.688808],[-72.977495,42.685913],[-72.975826,42.679422],[-72.988897,42.678663],[-72.989251,42.674233],[-72.995539,42.673156],[-72.975209,42.660824],[-72.962094,42.667023],[-72.954721,42.665624],[-72.951039,42.641006],[-72.979036,42.541617],[-72.968583,42.540012],[-73.011683,42.379683],[-73.065772,42.389111],[-73.068508,42.38072],[-73.062886,42.328951],[-73.040752,42.320183],[-73.029398,42.308568],[-73.016858,42.311089],[-73.006611,42.304794],[-73.000278,42.312597],[-73.00185,42.251017],[-73.03492,42.143652],[-73.071113,42.148206],[-73.07213,42.143548],[-73.061206,42.118112],[-73.072672,42.111684],[-73.073087,42.094213],[-73.058153,42.066753],[-73.061742,42.061939],[-73.054651,42.0576],[-73.0532880861326,42.0398619684613],[-73.496879,42.049675],[-73.508142,42.086257]]]}}]}