{"type":"FeatureCollection","metadata":{"state":"MD","boundary_source":"U.S. Census Bureau 2024 Cartographic Boundary File (counties, 1:500,000)","risk_source":"FEMA National Risk Index v1.20 (December 2025)"},"features":[{"type":"Feature","properties":{"GEOID":"24005","NAME":"Baltimore","state":"MD","wildfire_risk_score":39.536,"wildfire_eal_total":26746.6,"risk_band":"Moderate","source":"FEMA National Risk Index v1.20 (December 2025)"},"geometry":{"type":"MultiPolygon","coordinates":[[[[-76.325704,39.313973],[-76.324518,39.3138],[-76.321427,39.312851],[-76.324066,39.312627],[-76.325704,39.313973]]],[[[-76.385474,39.247556],[-76.356853,39.260953],[-76.343826,39.257256],[-76.347967,39.250108],[-76.371477,39.237951],[-76.381163,39.239628],[-76.385474,39.247556]]],[[[-76.395274,39.233302],[-76.394417,39.233973],[-76.390334,39.234736],[-76.393434,39.231862],[-76.395274,39.233302]]],[[[-76.89556,39.429487],[-76.891141,39.435041],[-76.8943,39.439802],[-76.8873,39.440502],[-76.8918,39.445402],[-76.8823,39.444202],[-76.876399,39.450802],[-76.893,39.455302],[-76.8857,39.456402],[-76.892,39.461802],[-76.88691,39.463242],[-76.8845,39.466902],[-76.888572,39.468523],[-76.88176,39.477227],[-76.876901,39.476665],[-76.876612,39.482977],[-76.866966,39.484912],[-76.868387,39.494074],[-76.8567,39.531602],[-76.787097,39.720802],[-76.5694490175137,39.7212029578839],[-76.565189,39.614504],[-76.560067,39.596056],[-76.547825,39.588219],[-76.540406,39.569087],[-76.532281,39.561559],[-76.532174,39.543977],[-76.519032,39.536711],[-76.508517,39.523787],[-76.494569,39.52655],[-76.459294,39.507195],[-76.44797,39.508458],[-76.43698,39.501964],[-76.432214,39.506616],[-76.427918,39.50172],[-76.433114,39.488268],[-76.420896,39.478414],[-76.411192,39.478529],[-76.386697,39.459705],[-76.388757,39.453768],[-76.378946,39.445427],[-76.38032,39.424817],[-76.37025,39.41529],[-76.371941,39.405102],[-76.361055,39.400255],[-76.359263,39.381404],[-76.337753,39.37332],[-76.339417,39.362204],[-76.345503,39.358303],[-76.330614,39.335424],[-76.3494,39.339229],[-76.351776,39.326453],[-76.333387,39.324075],[-76.329184,39.315036],[-76.338704,39.312754],[-76.336582,39.305111],[-76.340044,39.304533],[-76.348211,39.317627],[-76.353523,39.310407],[-76.368176,39.321764],[-76.36439,39.31184],[-76.383269,39.298317],[-76.383863,39.308432],[-76.394559,39.303559],[-76.40882,39.311743],[-76.408106,39.300064],[-76.398956,39.297029],[-76.393252,39.286268],[-76.381621,39.284278],[-76.38282,39.277549],[-76.393252,39.277714],[-76.399194,39.270262],[-76.395432,39.266823],[-76.404898,39.25554],[-76.400942,39.24904],[-76.415712,39.24781],[-76.427002,39.254896],[-76.443359,39.255914],[-76.451128,39.246683],[-76.440995,39.246683],[-76.443128,39.241114],[-76.430092,39.239066],[-76.422486,39.232531],[-76.410246,39.231518],[-76.399312,39.238698],[-76.399123,39.229047],[-76.415418,39.221774],[-76.425281,39.205708],[-76.442482,39.195408],[-76.449463,39.201595],[-76.444115,39.210435],[-76.446848,39.218261],[-76.462535,39.215775],[-76.461492,39.204067],[-76.495705,39.201876],[-76.500984,39.209376],[-76.497355,39.226915],[-76.503178,39.232071],[-76.512567,39.22848],[-76.518271,39.242011],[-76.5295838667757,39.2402981429609],[-76.529793,39.372058],[-76.711313,39.371933],[-76.711054,39.277889],[-76.618612,39.237398],[-76.631527,39.223861],[-76.66173,39.231135],[-76.700425,39.213015],[-76.706671,39.221245],[-76.74007,39.232399],[-76.7553,39.246851],[-76.763246,39.246342],[-76.76383,39.251312],[-76.794495,39.266615],[-76.784565,39.292635],[-76.778595,39.294989],[-76.796511,39.305045],[-76.794718,39.314277],[-76.814686,39.317884],[-76.818844,39.313534],[-76.825206,39.319349],[-76.835522,39.311972],[-76.835563,39.315837],[-76.853915,39.317662],[-76.862444,39.329813],[-76.875041,39.332154],[-76.882274,39.350185],[-76.879738,39.356846],[-76.873378,39.35715],[-76.888949,39.370569],[-76.891332,39.382229],[-76.878804,39.39049],[-76.874427,39.388543],[-76.873439,39.388865],[-76.885517,39.397621],[-76.878928,39.403903],[-76.884428,39.404603],[-76.881429,39.417403],[-76.874529,39.419103],[-76.886492,39.421745],[-76.889605,39.430156],[-76.89556,39.429487]]]]}},{"type":"Feature","properties":{"GEOID":"24019","NAME":"Dorchester","state":"MD","wildfire_risk_score":83.174,"wildfire_eal_total":516728.23,"risk_band":"High","source":"FEMA National Risk Index v1.20 (December 2025)"},"geometry":{"type":"MultiPolygon","coordinates":[[[[-76.065444,38.129795],[-76.064613,38.130115],[-76.061103,38.12688],[-76.064483,38.125484],[-76.065444,38.129795]]],[[[-76.088813,38.163127],[-76.087477,38.170458],[-76.080465,38.173541],[-76.087239,38.191943],[-76.08094,38.188487],[-76.058836,38.191009],[-76.056103,38.197174],[-76.070495,38.202911],[-76.063804,38.205047],[-76.048988,38.203777],[-76.036659,38.19231],[-76.04208,38.184191],[-76.029007,38.183817],[-76.022377,38.173767],[-76.040297,38.165693],[-76.0289,38.154182],[-76.038024,38.147174],[-76.051155,38.147529],[-76.063709,38.170925],[-76.076662,38.158218],[-76.084743,38.156629],[-76.088813,38.163127]]],[[[-76.089744,38.146797],[-76.084411,38.145355],[-76.085647,38.13858],[-76.090225,38.144767],[-76.089744,38.146797]]],[[[-76.09027,38.119674],[-76.086532,38.124359],[-76.084465,38.122734],[-76.085914,38.11668],[-76.089828,38.115116],[-76.09027,38.119674]]],[[[-76.264358,38.341991],[-76.254565,38.340673],[-76.258962,38.339275],[-76.251832,38.327529],[-76.254493,38.324932],[-76.264358,38.341991]]],[[[-76.332643,38.484447],[-76.324919,38.487517],[-76.326939,38.498399],[-76.310813,38.496368],[-76.287551,38.503536],[-76.288197,38.498678],[-76.281661,38.496074],[-76.26538,38.497469],[-76.2473,38.523818],[-76.226757,38.525459],[-76.220221,38.531874],[-76.222835,38.539776],[-76.234957,38.541263],[-76.244396,38.536966],[-76.2674,38.542564],[-76.274057,38.531207],[-76.279273,38.535575],[-76.275558,38.552474],[-76.281303,38.561119],[-76.290043,38.569158],[-76.305007,38.572494],[-76.291847,38.583663],[-76.289861,38.577319],[-76.280948,38.574718],[-76.266212,38.586052],[-76.272125,38.592075],[-76.26229,38.602306],[-76.274887,38.603584],[-76.284561,38.626407],[-76.269896,38.610014],[-76.260878,38.617542],[-76.251357,38.613914],[-76.254538,38.622248],[-76.249275,38.626155],[-76.235435,38.627029],[-76.236264,38.612429],[-76.212427,38.606738],[-76.170166,38.628673],[-76.164722,38.6219],[-76.168644,38.602213],[-76.161276,38.595117],[-76.152601,38.595805],[-76.141311,38.606021],[-76.114334,38.582986],[-76.088308,38.59274],[-76.086526,38.585866],[-76.077851,38.58503],[-76.07488,38.577319],[-76.043149,38.562081],[-76.026512,38.56682],[-76.0284718914266,38.5723442378142],[-75.990562,38.593261],[-75.980934,38.610054],[-75.983512,38.625114],[-75.957923,38.648036],[-75.955578,38.663465],[-75.949001,38.671804],[-75.936851,38.680137],[-75.929847,38.675987],[-75.921852,38.678413],[-75.922721,38.682003],[-75.917572,38.680114],[-75.913027,38.689059],[-75.904861,38.687648],[-75.897089,38.701322],[-75.878349,38.693531],[-75.840354,38.704185],[-75.800468,38.69691],[-75.798408,38.676338],[-75.77381,38.676383],[-75.768966,38.685821],[-75.762722,38.68622],[-75.7073556815366,38.6354031774734],[-75.701565,38.560736],[-75.727212,38.539753],[-75.74695,38.536237],[-75.757059,38.513363],[-75.764994,38.506479],[-75.79466,38.492373],[-75.815193,38.488794],[-75.823706,38.481022],[-75.814901,38.466459],[-75.83316,38.45762],[-75.836743,38.448088],[-75.821342,38.439261],[-75.821287,38.430135],[-75.828869,38.423417],[-75.845573,38.421868],[-75.850952,38.404536],[-75.838282,38.385878],[-75.869049,38.379811],[-75.871069,38.375339],[-75.863582,38.359499],[-75.912188,38.34319],[-75.913559,38.327057],[-75.92728,38.321376],[-75.938333,38.30683],[-75.938577,38.272329],[-75.954908,38.263998],[-75.951622,38.256137],[-75.954542,38.252894],[-75.940697,38.246902],[-75.949226,38.237506],[-75.97026,38.233806],[-75.961948,38.251388],[-75.982528,38.264457],[-75.980996,38.275116],[-76.000381,38.297813],[-76.017364,38.309106],[-75.981345,38.315147],[-75.965309,38.322495],[-75.961982,38.343376],[-75.957347,38.34757],[-75.966616,38.347663],[-75.975886,38.367513],[-76.012964,38.374873],[-76.005121,38.368444],[-76.011869,38.360582],[-76.012726,38.355958],[-76.006784,38.354653],[-76.012251,38.351485],[-76.017242,38.332936],[-76.041618,38.322137],[-76.04958,38.309594],[-76.062758,38.304592],[-76.044799,38.301219],[-76.026962,38.28141],[-76.040596,38.250259],[-76.05848,38.250202],[-76.044145,38.243673],[-76.032044,38.216684],[-76.040772,38.225],[-76.058166,38.228385],[-76.069129,38.238922],[-76.07488,38.254869],[-76.09972,38.253647],[-76.107592,38.262525],[-76.096508,38.257015],[-76.094073,38.262808],[-76.086526,38.262334],[-76.077019,38.269239],[-76.088308,38.272504],[-76.086645,38.279315],[-76.098885,38.280807],[-76.098766,38.291441],[-76.111296,38.286946],[-76.115879,38.291534],[-76.105659,38.295452],[-76.105778,38.301607],[-76.112195,38.298063],[-76.114453,38.304871],[-76.12194,38.298903],[-76.128833,38.302633],[-76.132279,38.289482],[-76.123542,38.281089],[-76.138524,38.281385],[-76.149185,38.271911],[-76.149876,38.284663],[-76.13941,38.292747],[-76.138934,38.299835],[-76.132398,38.301794],[-76.132041,38.307762],[-76.142499,38.313637],[-76.145114,38.310187],[-76.164366,38.315782],[-76.174705,38.324639],[-76.197166,38.3169],[-76.198948,38.324732],[-76.187777,38.324919],[-76.184925,38.327995],[-76.189798,38.331724],[-76.182667,38.336758],[-76.167456,38.321749],[-76.160563,38.320443],[-76.159494,38.327436],[-76.171972,38.335173],[-76.172091,38.345986],[-76.18243,38.359592],[-76.195859,38.36276],[-76.204653,38.371053],[-76.218683,38.365062],[-76.213803,38.386891],[-76.228183,38.394529],[-76.232342,38.389033],[-76.227113,38.380929],[-76.231986,38.377482],[-76.233887,38.365276],[-76.227232,38.348689],[-76.211902,38.338063],[-76.210713,38.329207],[-76.221409,38.323986],[-76.22034,38.310187],[-76.206079,38.300302],[-76.198829,38.289855],[-76.194551,38.294333],[-76.180172,38.292094],[-76.172091,38.297224],[-76.160474,38.290983],[-76.172209,38.29368],[-76.177795,38.290508],[-76.173555,38.28523],[-76.182073,38.280341],[-76.174705,38.270265],[-76.181004,38.270638],[-76.179577,38.266813],[-76.163249,38.248913],[-76.146297,38.249678],[-76.126623,38.242949],[-76.125717,38.239017],[-76.140556,38.231838],[-76.149787,38.234493],[-76.159375,38.245163],[-76.165489,38.242797],[-76.171734,38.247869],[-76.206474,38.298435],[-76.229644,38.314384],[-76.232937,38.34524],[-76.249666,38.364214],[-76.278068,38.382392],[-76.282844,38.415779],[-76.313153,38.456813],[-76.331559,38.473548],[-76.332643,38.484447]]]]}},{"type":"Feature","properties":{"GEOID":"24017","NAME":"Charles","state":"MD","wildfire_risk_score":19.243,"wildfire_eal_total":11448.7,"risk_band":"Low","source":"FEMA National Risk Index v1.20 (December 2025)"},"geometry":{"type":"Polygon","coordinates":[[[-77.272399,38.489935],[-77.263599,38.512344],[-77.237724,38.55187],[-77.221117,38.555217],[-77.191736,38.585424],[-77.183207,38.600381],[-77.169671,38.60687],[-77.148651,38.6056],[-77.107093,38.630719],[-77.106142,38.634247],[-77.1302,38.635017],[-77.135901,38.649817],[-77.132501,38.673816],[-77.122001,38.685816],[-77.0862651543298,38.7060278469055],[-77.04781,38.616171],[-77.038273,38.630006],[-77.027138,38.63484],[-77.020089,38.647596],[-76.991308,38.657129],[-76.965748,38.66127],[-76.904552,38.651569],[-76.878755,38.659013],[-76.863395,38.658506],[-76.748495,38.618197],[-76.740526,38.558673],[-76.70694,38.543429],[-76.704062,38.547118],[-76.689818,38.537628],[-76.675457,38.535876],[-76.662514,38.52549],[-76.674118,38.499622],[-76.684598,38.495009],[-76.699317,38.497125],[-76.714327,38.510358],[-76.752051,38.513733],[-76.774639,38.508994],[-76.822695,38.428378],[-76.848141,38.406083],[-76.850317,38.398336],[-76.87146,38.389937],[-76.873658,38.379571],[-76.852231,38.368111],[-76.84736,38.359815],[-76.8478700986576,38.3554444564043],[-76.858955,38.357635],[-76.869889,38.331817],[-76.851587,38.315968],[-76.853013,38.304778],[-76.845764,38.298996],[-76.84622,38.291768],[-76.840383,38.289184],[-76.833714,38.273271],[-76.842139,38.254491],[-76.907406,38.288467],[-76.923943,38.289725],[-76.922177,38.311339],[-76.930264,38.323091],[-76.967154,38.341571],[-76.978251,38.342283],[-76.976081,38.355941],[-76.983582,38.362999],[-76.98828,38.394975],[-77.016371,38.445572],[-77.040638,38.444618],[-77.050634,38.439785],[-77.075489,38.42471],[-77.091073,38.407546],[-77.123325,38.410646],[-77.136728,38.391799],[-77.179466,38.368537],[-77.207312,38.359867],[-77.216729,38.363159],[-77.250172,38.382781],[-77.265125,38.413501],[-77.256718,38.430446],[-77.265881,38.443802],[-77.262664,38.452666],[-77.27087,38.464073],[-77.265732,38.471237],[-77.27422,38.48177],[-77.272399,38.489935]]]}},{"type":"Feature","properties":{"GEOID":"24015","NAME":"Cecil","state":"MD","wildfire_risk_score":25.286,"wildfire_eal_total":12467.46,"risk_band":"Low","source":"FEMA National Risk Index v1.20 (December 2025)"},"geometry":{"type":"Polygon","coordinates":[[[-76.2332587690425,39.7213050468054],[-75.788596,39.722199],[-75.78745,39.637455],[-75.7666931907181,39.377537],[-75.784224,39.382549],[-75.806073,39.375258],[-75.818829,39.382299],[-75.845476,39.367698],[-75.85543,39.364562],[-75.867614,39.367813],[-75.885101,39.360843],[-75.92794,39.371456],[-75.942337,39.367752],[-75.95697,39.374603],[-75.981109,39.366569],[-75.9907603366298,39.3746183292859],[-75.986106,39.379475],[-75.995138,39.384711],[-76.039932,39.38808],[-76.040962,39.394237],[-76.035002,39.401994],[-76.00688,39.414527],[-75.997396,39.430314],[-75.982585,39.435287],[-75.966616,39.462833],[-75.983729,39.470723],[-75.9867,39.461273],[-75.997158,39.456869],[-75.99597,39.453841],[-76.009452,39.449201],[-76.012312,39.453115],[-75.994895,39.471897],[-75.995338,39.488876],[-75.98812,39.497005],[-75.980501,39.529095],[-75.962338,39.536101],[-75.969239,39.541622],[-75.968958,39.561265],[-75.957498,39.564978],[-75.944917,39.592965],[-75.957703,39.592536],[-75.973034,39.570463],[-75.999669,39.560488],[-76.006953,39.548883],[-76.002438,39.541767],[-76.006657,39.538873],[-76.036851,39.552872],[-76.045526,39.552597],[-76.04708,39.546437],[-76.0761560173746,39.5436494217347],[-76.135974,39.614108],[-76.147474,39.619407],[-76.161765,39.649621],[-76.212676,39.686405],[-76.2332587690425,39.7213050468054]]]}},{"type":"Feature","properties":{"GEOID":"24041","NAME":"Talbot","state":"MD","wildfire_risk_score":71.151,"wildfire_eal_total":181865.48,"risk_band":"High","source":"FEMA National Risk Index v1.20 (December 2025)"},"geometry":{"type":"MultiPolygon","coordinates":[[[[-76.346475,38.692048],[-76.338503,38.722294],[-76.342446,38.750896],[-76.328721,38.76641],[-76.334619,38.772911],[-76.32435,38.775096],[-76.310081,38.796846],[-76.308922,38.813346],[-76.302235,38.82516],[-76.277411,38.831419],[-76.279429,38.841154],[-76.255016,38.862268],[-76.251325,38.857613],[-76.265808,38.847512],[-76.249242,38.823888],[-76.242087,38.817355],[-76.229372,38.821372],[-76.211545,38.805502],[-76.217844,38.80013],[-76.216418,38.7867],[-76.195502,38.773174],[-76.196453,38.769468],[-76.187302,38.767615],[-76.181954,38.756495],[-76.170546,38.753714],[-76.165673,38.758626],[-76.155334,38.77234],[-76.160207,38.775027],[-76.173041,38.770302],[-76.200256,38.803001],[-76.19109,38.82966],[-76.201667639998,38.8481075215164],[-76.192384,38.863814],[-76.18224,38.858611],[-76.177869,38.865158],[-76.169918,38.865649],[-76.162458,38.880986],[-76.146495,38.882549],[-76.128003,38.875992],[-76.1214,38.88242],[-76.103512,38.882308],[-76.102675,38.890167],[-76.115502,38.913716],[-76.103674,38.939002],[-76.096956,38.944259],[-75.944256,38.916517],[-75.949153,38.913468],[-75.943084,38.906677],[-75.949188,38.903518],[-75.944358,38.897548],[-75.948616,38.89225],[-75.94046,38.884555],[-75.949638,38.884807],[-75.951469,38.880237],[-75.937644,38.879802],[-75.944396,38.875087],[-75.943077,38.870494],[-75.924331,38.860389],[-75.922797,38.854785],[-75.930373,38.850872],[-75.918975,38.846084],[-75.927771,38.838893],[-75.901267,38.824737],[-75.906455,38.819705],[-75.896316,38.812454],[-75.927963,38.799201],[-75.949455,38.778419],[-75.967086,38.779338],[-75.976409,38.765506],[-75.998947,38.755596],[-75.995376,38.736679],[-76.013206,38.733291],[-76.014427,38.726463],[-75.994163,38.709201],[-75.993049,38.696723],[-75.976791,38.697837],[-75.970397,38.68312],[-75.945248,38.674109],[-75.955578,38.663465],[-75.957923,38.648036],[-75.983512,38.625114],[-75.980934,38.610054],[-75.990562,38.593261],[-76.027717,38.572433],[-76.031622,38.581314],[-76.052894,38.594133],[-76.05337,38.603792],[-76.083674,38.616607],[-76.083079,38.623478],[-76.106253,38.623014],[-76.110769,38.612707],[-76.113384,38.621343],[-76.130972,38.637868],[-76.147158,38.63684],[-76.155611,38.658083],[-76.177319,38.676009],[-76.172566,38.681761],[-76.177201,38.692985],[-76.187064,38.693542],[-76.198592,38.676751],[-76.197723,38.671078],[-76.212808,38.681892],[-76.21343,38.692365],[-76.226932,38.69809],[-76.238725,38.712845],[-76.236742,38.72404],[-76.229253,38.727946],[-76.238165,38.736938],[-76.229253,38.739163],[-76.215348,38.728502],[-76.205485,38.739163],[-76.224618,38.751305],[-76.224618,38.760387],[-76.236145,38.763445],[-76.242563,38.759831],[-76.244345,38.749544],[-76.254803,38.749173],[-76.255093,38.736476],[-76.270277,38.724385],[-76.271867,38.710237],[-76.284157,38.720714],[-76.299171,38.719287],[-76.294377,38.733415],[-76.296635,38.745929],[-76.298655,38.749729],[-76.313391,38.74908],[-76.324919,38.74009],[-76.314698,38.737587],[-76.312756,38.730708],[-76.319333,38.729151],[-76.334017,38.703127],[-76.321865,38.689512],[-76.323156,38.679674],[-76.338229,38.677586],[-76.339709,38.670642],[-76.346475,38.692048]]],[[[-76.390694,38.766281],[-76.375241,38.782578],[-76.369887,38.778638],[-76.370836,38.765642],[-76.363261,38.746611],[-76.377362,38.742797],[-76.383625,38.745466],[-76.390694,38.766281]]]]}},{"type":"Feature","properties":{"GEOID":"24037","NAME":"St. Mary's","state":"MD","wildfire_risk_score":59.033,"wildfire_eal_total":132193.41,"risk_band":"High","source":"FEMA National Risk Index v1.20 (December 2025)"},"geometry":{"type":"MultiPolygon","coordinates":[[[[-76.747285,38.215622],[-76.742337,38.209048],[-76.74503,38.207239],[-76.747543,38.212146],[-76.747285,38.215622]]],[[[-76.796356,38.238162],[-76.794069,38.239189],[-76.78979,38.238442],[-76.793118,38.235175],[-76.796356,38.238162]]],[[[-76.812193,38.252306],[-76.810871,38.25293],[-76.808924,38.250856],[-76.809993,38.250389],[-76.812193,38.252306]]],[[[-76.873701,38.385174],[-76.867971,38.392156],[-76.850317,38.398336],[-76.848141,38.406083],[-76.822695,38.428378],[-76.774639,38.508994],[-76.76829,38.512949],[-76.714327,38.510358],[-76.693647,38.49621],[-76.674118,38.499622],[-76.652142,38.473753],[-76.653872,38.463359],[-76.624681,38.44367],[-76.608373,38.424445],[-76.597528,38.423425],[-76.565615,38.407051],[-76.558388,38.395861],[-76.534075,38.397766],[-76.500449,38.371635],[-76.484085,38.34807],[-76.488976,38.327163],[-76.4719982730692,38.3250136065112],[-76.476321,38.313544],[-76.459208,38.294426],[-76.435083,38.292747],[-76.422724,38.304778],[-76.408938,38.304498],[-76.400084,38.309478],[-76.375023,38.299419],[-76.394171,38.278233],[-76.39932,38.259284],[-76.385244,38.217751],[-76.320136,38.138339],[-76.341318,38.119334],[-76.33193,38.099604],[-76.322158,38.037902],[-76.330179,38.051195],[-76.35275,38.053182],[-76.361237,38.059542],[-76.371623,38.08174],[-76.390665,38.094067],[-76.392335,38.102896],[-76.421214,38.106039],[-76.43757,38.136107],[-76.43544,38.146629],[-76.4415,38.151022],[-76.435083,38.154947],[-76.438886,38.160834],[-76.469666,38.153358],[-76.46099,38.135413],[-76.469798,38.119264],[-76.46548,38.106602],[-76.473266,38.103035],[-76.502115,38.138882],[-76.518488,38.140951],[-76.529868,38.134083],[-76.552957,38.187209],[-76.59433,38.215814],[-76.652789,38.226389],[-76.673462,38.234401],[-76.685981,38.232768],[-76.687142,38.241336],[-76.699026,38.240683],[-76.704888,38.233635],[-76.719857,38.233154],[-76.720655,38.239842],[-76.732064,38.246003],[-76.752286,38.222121],[-76.778625,38.22847],[-76.777788,38.242922],[-76.78884,38.251229],[-76.805949,38.252275],[-76.809004,38.268972],[-76.802347,38.280743],[-76.824889,38.301152],[-76.823066,38.309068],[-76.828651,38.313543],[-76.832692,38.330139],[-76.841605,38.336758],[-76.827106,38.347384],[-76.8478700986576,38.3554444564043],[-76.849933,38.365815],[-76.8713,38.377643],[-76.873701,38.385174]]]]}},{"type":"Feature","properties":{"GEOID":"24039","NAME":"Somerset","state":"MD","wildfire_risk_score":85.814,"wildfire_eal_total":602189.64,"risk_band":"High","source":"FEMA National Risk Index v1.20 (December 2025)"},"geometry":{"type":"MultiPolygon","coordinates":[[[[-75.959616,38.137141],[-75.94728,38.170792],[-75.951566,38.178093],[-75.942375,38.187066],[-75.888073,38.203813],[-75.877751,38.198292],[-75.864104,38.200858],[-75.8372,38.218184],[-75.826385,38.216877],[-75.818661,38.22612],[-75.820325,38.230788],[-75.845281,38.231255],[-75.851396,38.226432],[-75.860611,38.229201],[-75.861324,38.232655],[-75.835298,38.249083],[-75.803212,38.252629],[-75.796255,38.26577],[-75.775938,38.270098],[-75.770069,38.283954],[-75.763324,38.285967],[-75.752342,38.284788],[-75.751803,38.280697],[-75.74855,38.284606],[-75.741649,38.279155],[-75.734516,38.283038],[-75.723802,38.276116],[-75.72081,38.267139],[-75.699447,38.264907],[-75.694432,38.266904],[-75.696404,38.274194],[-75.687226,38.289947],[-75.662679,38.298845],[-75.612764,38.278626],[-75.604689,38.259642],[-75.605826,38.249125],[-75.549399,38.185507],[-75.545898,38.17874],[-75.549377,38.16318],[-75.569602,38.153609],[-75.576689,38.140437],[-75.5717,38.131598],[-75.554496,38.123354],[-75.54708,38.107829],[-75.540106,38.108309],[-75.546058,38.097987],[-75.540397,38.096663],[-75.544119,38.091868],[-75.54087,38.08948],[-75.553328,38.084818],[-75.569518,38.087106],[-75.57154,38.075102],[-75.581588,38.068266],[-75.599586,38.069384],[-75.609085,38.075629],[-75.617522,38.073016],[-75.619323,38.058165],[-75.637122,38.051203],[-75.638008,38.044791],[-75.656317,38.052157],[-75.661827,38.041853],[-75.657378,38.031355],[-75.645851,38.020636],[-75.63504,38.021277],[-75.628943,38.007414],[-75.619543,38.005469],[-75.625611,37.989798],[-75.633833,37.984519],[-75.628839,37.976789],[-75.638221,37.979397],[-75.656088,37.962844],[-75.655375,37.953661],[-75.671681,37.966576],[-75.690424,37.966929],[-75.71315,37.976623],[-75.712893,37.988512],[-75.716102,37.98898],[-75.723945,37.983641],[-75.722662,37.97131],[-75.736514,37.963227],[-75.740226,37.974461],[-75.737137,37.982986],[-75.746763,37.987669],[-75.745099,37.980457],[-75.754012,37.975773],[-75.746525,37.969777],[-75.783815,37.972594],[-75.809272,37.955161],[-75.813194,37.966404],[-75.818661,37.967248],[-75.826148,37.952818],[-75.818643,37.946387],[-75.820949,37.938896],[-75.829901,37.938556],[-75.833154,37.930761],[-75.860727,37.91831],[-75.885032,37.911717],[-75.897285,37.926338],[-75.893055,37.928638],[-75.889915,37.953685],[-75.865721,37.951506],[-75.861205,37.955348],[-75.865246,37.965093],[-75.861918,37.973431],[-75.86786,37.977459],[-75.878675,37.969777],[-75.890084,37.976991],[-75.893292,37.974461],[-75.889727,37.969777],[-75.898429,37.974828],[-75.867385,38.023908],[-75.874231,38.02841],[-75.872808,38.031998],[-75.857507,38.038778],[-75.843498,38.027465],[-75.826439,38.045873],[-75.818898,38.044126],[-75.792159,38.056479],[-75.780275,38.065087],[-75.773739,38.077062],[-75.788238,38.086136],[-75.789783,38.072198],[-75.805588,38.073975],[-75.800597,38.061906],[-75.812913,38.058932],[-75.824246,38.072198],[-75.833058,38.067543],[-75.844265,38.072272],[-75.858944,38.067323],[-75.858881,38.060135],[-75.870988,38.059226],[-75.87202,38.071636],[-75.878823,38.076085],[-75.875585,38.080243],[-75.863939,38.080337],[-75.865721,38.088007],[-75.872524,38.089925],[-75.863701,38.090065],[-75.865493,38.099239],[-75.860136,38.096892],[-75.855822,38.104661],[-75.837563,38.113753],[-75.838252,38.126198],[-75.827674,38.133438],[-75.820681,38.125598],[-75.809035,38.135787],[-75.805351,38.128403],[-75.787762,38.13747],[-75.788475,38.145788],[-75.808084,38.140461],[-75.832922,38.151676],[-75.854299,38.141522],[-75.871663,38.14205],[-75.868636,38.134381],[-75.880293,38.137022],[-75.880814,38.148031],[-75.886756,38.1499],[-75.901492,38.145601],[-75.90482,38.14233],[-75.900355,38.14115],[-75.906703,38.137559],[-75.908072,38.142556],[-75.925735,38.151022],[-75.932628,38.149246],[-75.920618,38.131418],[-75.937089,38.124209],[-75.934607,38.117268],[-75.94178,38.111913],[-75.947774,38.119381],[-75.946057,38.126626],[-75.959616,38.137141]]],[[[-76.049977,37.990106],[-76.044932,38.025499],[-76.041,38.031956],[-76.0215,38.038449],[-76.009274,38.038427],[-76.002744,38.024937],[-75.9863,38.021946],[-75.988011,38.016573],[-75.980089,38.004891],[-75.984251,38.004006],[-75.982121,37.988548],[-75.9891,37.990443],[-75.993237,37.984953],[-75.997752,37.967622],[-75.990629,37.962941],[-75.993905,37.953489],[-76.04653,37.953586],[-76.049977,37.990106]]],[[[-76.054201,38.094273],[-76.044338,38.089316],[-76.033523,38.091],[-76.032691,38.1011],[-76.047982,38.108702],[-76.041961,38.108956],[-76.041961,38.117184],[-76.034355,38.121952],[-76.025561,38.122139],[-76.021385,38.131583],[-76.014721,38.131597],[-76.013489,38.120846],[-76.021283,38.116436],[-76.02259,38.10615],[-76.015553,38.103402],[-76.008083,38.091484],[-76.006279,38.078561],[-76.012731,38.072105],[-76.023897,38.083704],[-76.035544,38.084078],[-76.02972,38.077998],[-76.034916,38.076928],[-76.056066,38.0914],[-76.054201,38.094273]]]]}},{"type":"Feature","properties":{"GEOID":"24011","NAME":"Caroline","state":"MD","wildfire_risk_score":63.74,"wildfire_eal_total":96572.5,"risk_band":"High","source":"FEMA National Risk Index v1.20 (December 2025)"},"geometry":{"type":"Polygon","coordinates":[[[-76.015045,38.728687],[-76.009002,38.736473],[-75.995376,38.736679],[-75.998947,38.755596],[-75.976409,38.765506],[-75.967086,38.779338],[-75.949455,38.778419],[-75.927963,38.799201],[-75.896316,38.812454],[-75.906455,38.819705],[-75.901267,38.824737],[-75.927771,38.838893],[-75.918975,38.846084],[-75.930373,38.850872],[-75.922797,38.854785],[-75.924331,38.860389],[-75.943077,38.870494],[-75.944396,38.875087],[-75.937644,38.879802],[-75.951469,38.880237],[-75.949638,38.884807],[-75.94046,38.884555],[-75.948616,38.89225],[-75.944358,38.897548],[-75.949188,38.903518],[-75.943084,38.906677],[-75.949153,38.913468],[-75.943474,38.914777],[-75.949335,38.918333],[-75.952742,38.929261],[-75.947822,38.934842],[-75.953316,38.938003],[-75.947065,38.940017],[-75.951325,38.945613],[-75.942218,38.949924],[-75.93823,38.958855],[-75.9428,38.967097],[-75.93658,38.973419],[-75.940933,38.976295],[-75.908772,39.010597],[-75.9041,39.010426],[-75.903836,39.016804],[-75.897386,39.014285],[-75.882817,39.02791],[-75.876005,39.043349],[-75.878654,39.046855],[-75.848975,39.071374],[-75.847929,39.086968],[-75.834944,39.108339],[-75.791079,39.132828],[-75.7476710652218,39.1433450579713],[-75.7073556815366,38.6354031774734],[-75.762722,38.68622],[-75.768966,38.685821],[-75.77381,38.676383],[-75.798408,38.676338],[-75.802452,38.697704],[-75.840354,38.704185],[-75.878349,38.693531],[-75.897089,38.701322],[-75.904861,38.687648],[-75.913027,38.689059],[-75.917572,38.680114],[-75.922721,38.682003],[-75.921852,38.678413],[-75.929847,38.675987],[-75.936851,38.680137],[-75.945248,38.674109],[-75.970397,38.68312],[-75.976791,38.697837],[-75.993049,38.696723],[-75.994163,38.709201],[-76.015045,38.728687]]]}},{"type":"Feature","properties":{"GEOID":"24033","NAME":"Prince George's","state":"MD","wildfire_risk_score":42.335,"wildfire_eal_total":27446.37,"risk_band":"Moderate","source":"FEMA National Risk Index v1.20 (December 2025)"},"geometry":{"type":"Polygon","coordinates":[[[-77.079948,38.70901],[-77.078062,38.713427],[-77.053199,38.709915],[-77.043254,38.719011],[-77.039006,38.791645],[-76.909395,38.892812],[-77.0025892201687,38.9654839197919],[-76.986044,38.977611],[-76.984787,38.987182],[-76.991098,38.992405],[-76.908834,39.10385],[-76.903897,39.114618],[-76.907292,39.117908],[-76.90293,39.121103],[-76.885656,39.131292],[-76.870373,39.112921],[-76.84159,39.105861],[-76.837564,39.09685],[-76.827476,39.092973],[-76.834908,39.082871],[-76.832719,39.075943],[-76.838083,39.073586],[-76.835616,39.067919],[-76.803941,39.062446],[-76.792621,39.04618],[-76.776528,39.04531],[-76.761312,39.035379],[-76.747649,39.033418],[-76.749921,39.030003],[-76.740379,39.012868],[-76.698459,38.983783],[-76.703745,38.971525],[-76.694168,38.956782],[-76.692179,38.936325],[-76.681425,38.931265],[-76.690592,38.923456],[-76.669515,38.904426],[-76.676259,38.895949],[-76.671786,38.887568],[-76.676575,38.875964],[-76.691869,38.859212],[-76.698273,38.84303],[-76.696965,38.818784],[-76.712307,38.812923],[-76.708065,38.804867],[-76.710116,38.796003],[-76.702085,38.788478],[-76.712251,38.784356],[-76.714317,38.778226],[-76.700947,38.768747],[-76.697273,38.750115],[-76.684866,38.746927],[-76.684018,38.738348],[-76.694996,38.735075],[-76.693589,38.724761],[-76.70196,38.710864],[-76.694946,38.702468],[-76.697431,38.687797],[-76.686982,38.680634],[-76.701003,38.668362],[-76.683329,38.661178],[-76.69163,38.648506],[-76.692853,38.636437],[-76.678468,38.627321],[-76.672334,38.617533],[-76.672557,38.599271],[-76.680702,38.580499],[-76.672276,38.552781],[-76.675457,38.535876],[-76.689818,38.537628],[-76.704062,38.547118],[-76.70694,38.543429],[-76.740526,38.558673],[-76.748495,38.618197],[-76.863395,38.658506],[-76.878755,38.659013],[-76.904552,38.651569],[-76.965748,38.66127],[-76.991308,38.657129],[-77.020089,38.647596],[-77.027138,38.63484],[-77.038273,38.630006],[-77.04781,38.616171],[-77.0862651543298,38.7060278469055],[-77.079948,38.70901]]]}},{"type":"Feature","properties":{"GEOID":"24001","NAME":"Allegany","state":"MD","wildfire_risk_score":20.961,"wildfire_eal_total":5987.02,"risk_band":"Low","source":"FEMA National Risk Index v1.20 (December 2025)"},"geometry":{"type":"Polygon","coordinates":[[[-79.067559,39.479443],[-78.9284186738148,39.7227785587483],[-78.3428341660838,39.7225388108199],[-78.346047,39.721478],[-78.342962,39.717196],[-78.333171,39.718636],[-78.329033,39.712258],[-78.334294,39.709861],[-78.318364,39.702622],[-78.319474,39.695071],[-78.313325,39.692474],[-78.323057,39.688354],[-78.315192,39.685887],[-78.322879,39.683861],[-78.318009,39.680515],[-78.320177,39.676136],[-78.33617,39.680712],[-78.343478,39.675535],[-78.335923,39.670353],[-78.334139,39.662397],[-78.357089,39.663861],[-78.354698,39.66044],[-78.363458,39.659793],[-78.340024,39.652748],[-78.340397,39.648733],[-78.346031,39.649174],[-78.33371,39.640928],[-78.333880268313,39.6364859193412],[-78.355218,39.640576],[-78.359506,39.638081],[-78.353673,39.630787],[-78.35577,39.626258],[-78.382487,39.628216],[-78.382959,39.622246],[-78.3732,39.60953],[-78.383591,39.608912],[-78.420549,39.624021],[-78.433297,39.620569],[-78.425581,39.607599],[-78.397471,39.590232],[-78.395317,39.584215],[-78.408031,39.578593],[-78.443175,39.591155],[-78.457187,39.587379],[-78.454376,39.574319],[-78.426537,39.559155],[-78.417586,39.547155],[-78.423975,39.545103],[-78.437397,39.553472],[-78.434759,39.543988],[-78.438357,39.538753],[-78.451083,39.550192],[-78.460224,39.551184],[-78.460123,39.545848],[-78.448642,39.53996],[-78.462849,39.535758],[-78.460951,39.525987],[-78.468639,39.516789],[-78.5032,39.518652],[-78.521388,39.52479],[-78.565929,39.519444],[-78.587791,39.527912],[-78.591633,39.536891],[-78.602262,39.532112],[-78.623037,39.539512],[-78.655984,39.534695],[-78.689455,39.54577],[-78.694626,39.553251],[-78.72501,39.563973],[-78.733979,39.586618],[-78.746421,39.579544],[-78.756747,39.58069],[-78.778141,39.601364],[-78.768115,39.608704],[-78.751514,39.609947],[-78.747063,39.60569],[-78.733759,39.613931],[-78.736189,39.621708],[-78.748499,39.626262],[-78.763171,39.618897],[-78.778477,39.62265],[-78.76584,39.648487],[-78.775241,39.645687],[-78.781341,39.636787],[-78.795282,39.636766],[-78.801741,39.627488],[-78.795857,39.606934],[-78.809347,39.608063],[-78.812215,39.597717],[-78.826009,39.588829],[-78.82636,39.577333],[-78.813512,39.56772],[-78.816764,39.561691],[-78.838553,39.5673],[-78.851196,39.559924],[-78.851931,39.551848],[-78.861431,39.540965],[-78.870687,39.538767],[-78.874744,39.522611],[-78.893317,39.523756],[-78.892936,39.512755],[-78.905513,39.511545],[-78.903888,39.504716],[-78.916488,39.486544],[-78.938751,39.483732],[-78.942618,39.479614],[-78.940948,39.470541],[-78.959214,39.461893],[-78.954293,39.454703],[-78.959961,39.451644],[-78.956751,39.440264],[-78.965484,39.438455],[-79.017147,39.466977],[-79.030343,39.465403],[-79.04705,39.483351],[-79.052447,39.482315],[-79.058093,39.470811],[-79.067559,39.479443]]]}},{"type":"Feature","properties":{"GEOID":"24027","NAME":"Howard","state":"MD","wildfire_risk_score":15.553,"wildfire_eal_total":8854.79,"risk_band":"Low","source":"FEMA National Risk Index v1.20 (December 2025)"},"geometry":{"type":"Polygon","coordinates":[[[-77.187113,39.340595],[-77.16808,39.353957],[-77.151466,39.348702],[-77.125313,39.364619],[-77.10136,39.369323],[-77.061277,39.359179],[-77.049111,39.362269],[-77.025374,39.350593],[-76.969005,39.363822],[-76.959206,39.356683],[-76.946429,39.361039],[-76.910154,39.348656],[-76.905803,39.354145],[-76.889029,39.353805],[-76.875134,39.339747],[-76.878363,39.336288],[-76.875041,39.332154],[-76.862444,39.329813],[-76.852191,39.316648],[-76.835563,39.315837],[-76.835522,39.311972],[-76.825206,39.319349],[-76.818844,39.313534],[-76.814686,39.317884],[-76.794718,39.314277],[-76.796511,39.305045],[-76.778595,39.294989],[-76.785398,39.291087],[-76.79379,39.265863],[-76.76383,39.251312],[-76.763246,39.246342],[-76.7553,39.246851],[-76.74007,39.232399],[-76.706671,39.221245],[-76.705231,39.215673],[-76.696774,39.213596],[-76.712164,39.201933],[-76.72195,39.183031],[-76.74639,39.179508],[-76.763738,39.166229],[-76.782621,39.143812],[-76.790498,39.1255],[-76.822718,39.118672],[-76.828707,39.107583],[-76.840362,39.103142],[-76.870373,39.112921],[-76.885656,39.131292],[-76.907301,39.12549],[-76.929102,39.138392],[-76.948579,39.129597],[-76.958517,39.134023],[-76.951694,39.146207],[-76.975606,39.149747],[-76.973666,39.162209],[-77.000975,39.169537],[-76.997427,39.174104],[-77.005357,39.176288],[-76.998876,39.1778],[-77.008418,39.18157],[-77.004168,39.192335],[-77.012165,39.195181],[-77.00942,39.206732],[-77.032325,39.220317],[-77.044812,39.237666],[-77.061525,39.241271],[-77.070112,39.254104],[-77.097489,39.264806],[-77.133238,39.270356],[-77.140059,39.292095],[-77.170347,39.313109],[-77.187113,39.340595]]]}},{"type":"Feature","properties":{"GEOID":"24009","NAME":"Calvert","state":"MD","wildfire_risk_score":52.576,"wildfire_eal_total":91428.62,"risk_band":"High","source":"FEMA National Risk Index v1.20 (December 2025)"},"geometry":{"type":"Polygon","coordinates":[[[-76.701208,38.712755],[-76.693589,38.724761],[-76.694996,38.735075],[-76.684018,38.738348],[-76.685215,38.756087],[-76.67327,38.755404],[-76.666092,38.762232],[-76.643072,38.769275],[-76.623079,38.767278],[-76.622937,38.726662],[-76.615902,38.720804],[-76.535584,38.72148],[-76.5283115718299,38.7127443256283],[-76.532398,38.678363],[-76.511278,38.615745],[-76.51634,38.590229],[-76.517487,38.53566],[-76.506023,38.50461],[-76.492699,38.482849],[-76.415384,38.414682],[-76.402516,38.394402],[-76.381482,38.385252],[-76.390914,38.375055],[-76.387002,38.361267],[-76.421377,38.318931],[-76.438054,38.325292],[-76.451364,38.323241],[-76.455761,38.316527],[-76.468239,38.328927],[-76.4719982730692,38.3250136065112],[-76.487575,38.326257],[-76.484085,38.34807],[-76.501475,38.372497],[-76.534075,38.397766],[-76.558388,38.395861],[-76.565615,38.407051],[-76.597528,38.423425],[-76.608373,38.424445],[-76.624681,38.44367],[-76.653872,38.463359],[-76.652142,38.473753],[-76.674118,38.499622],[-76.662514,38.52549],[-76.675699,38.536511],[-76.672276,38.552781],[-76.680702,38.580499],[-76.672557,38.599271],[-76.672334,38.617533],[-76.678468,38.627321],[-76.692853,38.636437],[-76.69163,38.648506],[-76.683329,38.661178],[-76.701003,38.668362],[-76.686982,38.680634],[-76.697431,38.687797],[-76.694946,38.702468],[-76.701208,38.712755]]]}},{"type":"Feature","properties":{"GEOID":"24043","NAME":"Washington","state":"MD","wildfire_risk_score":38.2,"wildfire_eal_total":22161.11,"risk_band":"Moderate","source":"FEMA National Risk Index v1.20 (December 2025)"},"geometry":{"type":"Polygon","coordinates":[[[-78.363458,39.659793],[-78.354698,39.66044],[-78.357089,39.663861],[-78.334139,39.662397],[-78.341847,39.67785],[-78.33617,39.680712],[-78.320177,39.676136],[-78.318009,39.680515],[-78.322879,39.683861],[-78.314913,39.684504],[-78.323057,39.688354],[-78.313325,39.692474],[-78.319474,39.695071],[-78.318364,39.702622],[-78.334294,39.709861],[-78.329033,39.712258],[-78.333171,39.718636],[-78.342962,39.717196],[-78.346047,39.721478],[-78.3428341660838,39.7225388108199],[-77.469145,39.720018],[-77.493519,39.69259],[-77.50836,39.684072],[-77.497082,39.683133],[-77.492874,39.676425],[-77.520164,39.640678],[-77.530357,39.63169],[-77.545411,39.63335],[-77.550765,39.625312],[-77.570182,39.619998],[-77.586761,39.571365],[-77.599418,39.549709],[-77.597068,39.541975],[-77.613484,39.528667],[-77.622604,39.507598],[-77.623008,39.499898],[-77.61441,39.491551],[-77.622024,39.481754],[-77.616156,39.468371],[-77.626811,39.457106],[-77.626907,39.448455],[-77.634689,39.445549],[-77.63932,39.407356],[-77.647857,39.383247],[-77.673442,39.344225],[-77.6771230127463,39.3240773739412],[-77.692984,39.31845],[-77.727379,39.321666],[-77.759615,39.337331],[-77.760435,39.344171],[-77.74593,39.353221],[-77.743874,39.359947],[-77.753804,39.379624],[-77.736317,39.387744],[-77.740012,39.401694],[-77.754681,39.424658],[-77.792751,39.430593],[-77.803249,39.437136],[-77.78558,39.445367],[-77.798468,39.46067],[-77.777815,39.461924],[-77.795634,39.471259],[-77.796695,39.480498],[-77.769125,39.490281],[-77.765993,39.495724],[-77.781608,39.499067],[-77.791765,39.490789],[-77.80183,39.489395],[-77.845666,39.498628],[-77.845103,39.505845],[-77.82565,39.516895],[-77.825357,39.529177],[-77.836935,39.53217],[-77.84192,39.51847],[-77.86368,39.515032],[-77.865351,39.538381],[-77.888945,39.55595],[-77.878451,39.563493],[-77.83633,39.56637],[-77.829753,39.59105],[-77.831813,39.601105],[-77.838008,39.606125],[-77.885124,39.615775],[-77.880993,39.602852],[-77.888477,39.597343],[-77.923298,39.604852],[-77.932862,39.617676],[-77.94194,39.61879],[-77.944133,39.614617],[-77.93545,39.608076],[-77.936371,39.594508],[-77.93905,39.587139],[-77.946182,39.584814],[-77.951955,39.592709],[-77.950599,39.603944],[-77.957642,39.608614],[-77.976686,39.599744],[-78.009985,39.602893],[-78.035992,39.63572],[-78.077525,39.66888],[-78.107834,39.682137],[-78.171361,39.695612],[-78.191107,39.690262],[-78.202945,39.676653],[-78.231564,39.674382],[-78.233012,39.670471],[-78.223597,39.661097],[-78.254077,39.640089],[-78.266833,39.618818],[-78.333880268313,39.6364859193412],[-78.33371,39.640928],[-78.346031,39.649174],[-78.340397,39.648733],[-78.340024,39.652748],[-78.363458,39.659793]]]}},{"type":"Feature","properties":{"GEOID":"24025","NAME":"Harford","state":"MD","wildfire_risk_score":18.957,"wildfire_eal_total":11571.93,"risk_band":"Low","source":"FEMA National Risk Index v1.20 (December 2025)"},"geometry":{"type":"MultiPolygon","coordinates":[[[[-76.092095,39.535222],[-76.090066,39.536603],[-76.088216,39.536025],[-76.090305,39.533826],[-76.092095,39.535222]]],[[[-76.272255,39.274555],[-76.266411,39.290539],[-76.260355,39.292453],[-76.257988,39.287788],[-76.272255,39.274555]]],[[[-76.569389,39.721203],[-76.2332587690425,39.7213050468054],[-76.212676,39.686405],[-76.161765,39.649621],[-76.147474,39.619407],[-76.135974,39.614108],[-76.0761560173746,39.5436494217347],[-76.096072,39.536912],[-76.113225,39.501926],[-76.12812,39.486683],[-76.118731,39.48118],[-76.112058,39.486221],[-76.097919,39.475182],[-76.071975,39.475047],[-76.060464,39.448341],[-76.081176,39.436712],[-76.089259,39.445123],[-76.100311,39.443196],[-76.104807,39.433222],[-76.136331,39.411013],[-76.162056,39.404204],[-76.180074,39.377609],[-76.186708,39.380945],[-76.196933,39.367844],[-76.226976,39.349908],[-76.253377,39.366706],[-76.246247,39.370289],[-76.25382,39.377168],[-76.244741,39.383598],[-76.24978,39.388889],[-76.242681,39.407486],[-76.224618,39.425665],[-76.239473,39.438607],[-76.231035,39.45641],[-76.241493,39.461273],[-76.253615,39.442553],[-76.247435,39.435027],[-76.251,39.419422],[-76.254803,39.411894],[-76.269064,39.403079],[-76.265142,39.392334],[-76.2756,39.380853],[-76.272154,39.376444],[-76.28689,39.369002],[-76.265499,39.359171],[-76.265277,39.350008],[-76.258487,39.34695],[-76.256586,39.338862],[-76.277739,39.322132],[-76.281747,39.29966],[-76.296616,39.302032],[-76.289623,39.317167],[-76.298778,39.329208],[-76.294383,39.348944],[-76.322495,39.35735],[-76.313391,39.357793],[-76.305904,39.364409],[-76.302458,39.37727],[-76.307093,39.385446],[-76.35344,39.395181],[-76.358781,39.390305],[-76.361055,39.400255],[-76.371941,39.405102],[-76.373012,39.421213],[-76.38032,39.424817],[-76.378946,39.445427],[-76.388757,39.453768],[-76.386697,39.459705],[-76.411192,39.478529],[-76.420896,39.478414],[-76.433114,39.488268],[-76.427918,39.50172],[-76.432214,39.506616],[-76.43698,39.501964],[-76.44797,39.508458],[-76.459294,39.507195],[-76.494569,39.52655],[-76.508517,39.523787],[-76.519032,39.536711],[-76.532174,39.543977],[-76.532281,39.561559],[-76.540406,39.569087],[-76.547825,39.588219],[-76.560067,39.596056],[-76.565189,39.614504],[-76.569389,39.721203]]]]}},{"type":"Feature","properties":{"GEOID":"24047","NAME":"Worcester","state":"MD","wildfire_risk_score":65.872,"wildfire_eal_total":118794.13,"risk_band":"High","source":"FEMA National Risk Index v1.20 (December 2025)"},"geometry":{"type":"Polygon","coordinates":[[[-75.660614,38.046328],[-75.654258,38.052882],[-75.638008,38.044791],[-75.637122,38.051203],[-75.620666,38.056357],[-75.615234,38.074046],[-75.581588,38.068266],[-75.57154,38.075102],[-75.569518,38.087106],[-75.553328,38.084818],[-75.54087,38.08948],[-75.544119,38.091868],[-75.540397,38.096663],[-75.546058,38.097987],[-75.540106,38.108309],[-75.54708,38.107829],[-75.554496,38.123354],[-75.5717,38.131598],[-75.576689,38.140437],[-75.569602,38.153609],[-75.549377,38.16318],[-75.545898,38.17874],[-75.575836,38.211283],[-75.576652,38.220061],[-75.586817,38.223608],[-75.605826,38.249125],[-75.604689,38.259642],[-75.612764,38.278626],[-75.364641,38.290359],[-75.355454,38.314521],[-75.340959,38.320206],[-75.330675,38.331916],[-75.323205,38.331897],[-75.317387,38.345747],[-75.307011,38.35476],[-75.329739,38.38129],[-75.317104,38.404243],[-75.34125,38.45197],[-75.048939,38.451263],[-75.06137,38.389466],[-75.085518,38.32427],[-75.093888,38.323432],[-75.102947,38.311525],[-75.193796,38.096013],[-75.242469,38.027028],[-75.6243428147,37.994206251196],[-75.619728,38.007124],[-75.628943,38.007414],[-75.63504,38.021277],[-75.645851,38.020636],[-75.655822,38.029757],[-75.660614,38.046328]]]}},{"type":"Feature","properties":{"GEOID":"24003","NAME":"Anne Arundel","state":"MD","wildfire_risk_score":35.941,"wildfire_eal_total":32637.34,"risk_band":"Moderate","source":"FEMA National Risk Index v1.20 (December 2025)"},"geometry":{"type":"Polygon","coordinates":[[[-76.838493,39.104208],[-76.828707,39.107583],[-76.822718,39.118672],[-76.790498,39.1255],[-76.782621,39.143812],[-76.763738,39.166229],[-76.74639,39.179508],[-76.72195,39.183031],[-76.712164,39.201933],[-76.692833,39.21977],[-76.680953,39.220002],[-76.66173,39.231135],[-76.631527,39.223861],[-76.618612,39.237398],[-76.58328,39.207404],[-76.550086,39.197207],[-76.5330735988679,39.2076476380469],[-76.535385,39.203808],[-76.527859,39.19552],[-76.533406,39.190413],[-76.525785,39.177908],[-76.503675,39.165966],[-76.50092,39.155441],[-76.490463,39.156086],[-76.478299,39.167067],[-76.471483,39.154709],[-76.431043,39.132123],[-76.433144,39.111234],[-76.421936,39.076991],[-76.438928,39.052788],[-76.405081,39.033211],[-76.394498,39.012684],[-76.421911,38.994601],[-76.422665,38.986572],[-76.42724,38.989648],[-76.423912,38.999531],[-76.43128,39.00147],[-76.434489,38.996668],[-76.4497,38.993528],[-76.448981,38.982811],[-76.454581,38.974512],[-76.458495,38.98466],[-76.480242,38.977731],[-76.474198,38.972647],[-76.471281,38.956512],[-76.45028,38.941113],[-76.463617,38.927477],[-76.460256,38.907145],[-76.46938,38.907613],[-76.489512,38.927364],[-76.50912,38.919875],[-76.507338,38.91294],[-76.494503,38.909334],[-76.49068,38.884814],[-76.519442,38.863135],[-76.538474,38.861416],[-76.537642,38.848552],[-76.514944,38.852162],[-76.503297,38.845498],[-76.496579,38.853115],[-76.489878,38.838715],[-76.497944,38.814802],[-76.506661,38.809793],[-76.510078,38.801216],[-76.524679,38.795016],[-76.539365,38.774694],[-76.559884,38.767361],[-76.552743,38.73535],[-76.544475,38.727705],[-76.52718,38.727062],[-76.5283115718299,38.7127443256283],[-76.535584,38.72148],[-76.615902,38.720804],[-76.622937,38.726662],[-76.623079,38.767278],[-76.646727,38.768947],[-76.67327,38.755404],[-76.685215,38.756087],[-76.686358,38.748475],[-76.697273,38.750115],[-76.700947,38.768747],[-76.714017,38.776896],[-76.712251,38.784356],[-76.702085,38.788478],[-76.710116,38.796003],[-76.708065,38.804867],[-76.712307,38.812923],[-76.696965,38.818784],[-76.698273,38.84303],[-76.691869,38.859212],[-76.676575,38.875964],[-76.671786,38.887568],[-76.676259,38.895949],[-76.669515,38.904426],[-76.690592,38.923456],[-76.681425,38.931265],[-76.692179,38.936325],[-76.694168,38.956782],[-76.703745,38.971525],[-76.698459,38.983783],[-76.740379,39.012868],[-76.749921,39.030003],[-76.747649,39.033418],[-76.761312,39.035379],[-76.776528,39.04531],[-76.792621,39.04618],[-76.803941,39.062446],[-76.835616,39.067919],[-76.834908,39.082871],[-76.827117,39.089831],[-76.828523,39.095003],[-76.837564,39.09685],[-76.838493,39.104208]]]}},{"type":"Feature","properties":{"GEOID":"24023","NAME":"Garrett","state":"MD","wildfire_risk_score":31.934,"wildfire_eal_total":15013.52,"risk_band":"Moderate","source":"FEMA National Risk Index v1.20 (December 2025)"},"geometry":{"type":"Polygon","coordinates":[[[-79.4876499280808,39.2799539963283],[-79.476662,39.721078],[-78.9284186738148,39.7227785587483],[-79.068627,39.474515],[-79.08327,39.471379],[-79.100477,39.477004],[-79.105208,39.474239],[-79.094549,39.465184],[-79.107186,39.462006],[-79.102469,39.45118],[-79.116369,39.440482],[-79.110602,39.4327],[-79.129047,39.429542],[-79.128381,39.417481],[-79.14231,39.416687],[-79.143751,39.405202],[-79.149752,39.405726],[-79.151241,39.416968],[-79.160148,39.41638],[-79.159015,39.410797],[-79.166497,39.400888],[-79.162052,39.388321],[-79.178639,39.396632],[-79.176959,39.389028],[-79.184952,39.385248],[-79.197131,39.388595],[-79.21428,39.363482],[-79.231648,39.36457],[-79.232919,39.359622],[-79.256308,39.357227],[-79.253891,39.337222],[-79.267556,39.336294],[-79.270835,39.328542],[-79.282037,39.323048],[-79.290236,39.299323],[-79.314768,39.304381],[-79.346011,39.29396],[-79.343801,39.286096],[-79.350983,39.285244],[-79.35375,39.278039],[-79.387753,39.267462],[-79.400243,39.250858],[-79.42035,39.23888],[-79.425627,39.225725],[-79.454561,39.210201],[-79.465451,39.209398],[-79.473215,39.202107],[-79.486873,39.205961],[-79.4876499280808,39.2799539963283]]]}},{"type":"Feature","properties":{"GEOID":"24013","NAME":"Carroll","state":"MD","wildfire_risk_score":13.995,"wildfire_eal_total":7257.07,"risk_band":"Low","source":"FEMA National Risk Index v1.20 (December 2025)"},"geometry":{"type":"Polygon","coordinates":[[[-77.311161,39.639733],[-77.299981,39.639289],[-77.291457,39.63058],[-77.2772,39.631289],[-77.279217,39.636281],[-77.271267,39.642],[-77.275617,39.647125],[-77.265357,39.656153],[-77.266419,39.662021],[-77.255839,39.663211],[-77.234468,39.677603],[-77.24299,39.695013],[-77.216261,39.697413],[-77.216159,39.701354],[-77.226637,39.706637],[-77.215442,39.713006],[-77.217024,39.719998],[-76.787097,39.720802],[-76.8567,39.531602],[-76.868387,39.494074],[-76.866966,39.484912],[-76.876612,39.482977],[-76.876901,39.476665],[-76.88176,39.477227],[-76.888572,39.468523],[-76.8845,39.466902],[-76.88691,39.463242],[-76.892,39.461802],[-76.8857,39.456402],[-76.893,39.455302],[-76.876399,39.450802],[-76.8823,39.444202],[-76.8918,39.445402],[-76.8873,39.440502],[-76.8943,39.439802],[-76.891141,39.435041],[-76.89556,39.429487],[-76.889605,39.430156],[-76.886492,39.421745],[-76.874529,39.419103],[-76.881429,39.417403],[-76.884428,39.404603],[-76.878928,39.403903],[-76.885517,39.397621],[-76.873439,39.388865],[-76.878804,39.39049],[-76.891332,39.382229],[-76.888949,39.370569],[-76.873378,39.35715],[-76.879738,39.356846],[-76.880193,39.349718],[-76.902777,39.354377],[-76.910154,39.348656],[-76.946429,39.361039],[-76.959206,39.356683],[-76.969005,39.363822],[-77.025374,39.350593],[-77.049111,39.362269],[-77.061277,39.359179],[-77.10136,39.369323],[-77.125313,39.364619],[-77.151466,39.348702],[-77.16808,39.353957],[-77.156119,39.378939],[-77.148037,39.417755],[-77.11605,39.460344],[-77.119951,39.465585],[-77.117686,39.478619],[-77.107711,39.494556],[-77.133552,39.508551],[-77.138487,39.520518],[-77.149914,39.521944],[-77.15234,39.532498],[-77.170746,39.534753],[-77.169445,39.554118],[-77.177827,39.560868],[-77.182727,39.559342],[-77.200125,39.578588],[-77.217534,39.574549],[-77.222103,39.576398],[-77.220028,39.581872],[-77.232257,39.584352],[-77.227274,39.5878],[-77.239049,39.584917],[-77.25348,39.602831],[-77.260157,39.602511],[-77.262759,39.59406],[-77.271574,39.606221],[-77.290506,39.604508],[-77.307416,39.619101],[-77.299485,39.623577],[-77.30778,39.628181],[-77.311161,39.639733]]]}},{"type":"Feature","properties":{"GEOID":"24045","NAME":"Wicomico","state":"MD","wildfire_risk_score":80.852,"wildfire_eal_total":482090.22,"risk_band":"High","source":"FEMA National Risk Index v1.20 (December 2025)"},"geometry":{"type":"Polygon","coordinates":[[[-75.920335,38.264376],[-75.907672,38.272597],[-75.901373,38.286031],[-75.908266,38.292281],[-75.882478,38.329114],[-75.872495,38.329021],[-75.875667,38.332716],[-75.87,38.342351],[-75.856333,38.349527],[-75.849321,38.364997],[-75.8647334939071,38.3797226764125],[-75.85529,38.385345],[-75.838282,38.385878],[-75.850952,38.404536],[-75.845573,38.421868],[-75.828869,38.423417],[-75.821287,38.430135],[-75.821342,38.439261],[-75.836743,38.448088],[-75.83316,38.45762],[-75.814901,38.466459],[-75.823706,38.481022],[-75.815193,38.488794],[-75.79466,38.492373],[-75.764994,38.506479],[-75.757059,38.513363],[-75.74695,38.536237],[-75.72449,38.54123],[-75.706083,38.560544],[-75.701565,38.560736],[-75.69367,38.46008],[-75.34125,38.45197],[-75.317104,38.404243],[-75.329739,38.38129],[-75.307011,38.35476],[-75.317387,38.345747],[-75.323205,38.331897],[-75.330675,38.331916],[-75.340959,38.320206],[-75.355454,38.314521],[-75.364641,38.290359],[-75.612764,38.278626],[-75.662679,38.298845],[-75.687226,38.289947],[-75.696404,38.274194],[-75.694432,38.266904],[-75.699447,38.264907],[-75.72081,38.267139],[-75.723802,38.276116],[-75.734516,38.283038],[-75.741649,38.279155],[-75.74855,38.284606],[-75.751803,38.280697],[-75.752342,38.284788],[-75.763324,38.285967],[-75.770069,38.283954],[-75.775938,38.270098],[-75.796255,38.26577],[-75.8013719513268,38.255889905103],[-75.821869,38.261867],[-75.845637,38.257295],[-75.851579,38.247963],[-75.869625,38.2436],[-75.873089,38.246096],[-75.87,38.251696],[-75.876655,38.254775],[-75.889356,38.2395],[-75.883833,38.229006],[-75.891429,38.22756],[-75.906468,38.241804],[-75.909214,38.255838],[-75.920335,38.264376]]]}},{"type":"Feature","properties":{"GEOID":"24031","NAME":"Montgomery","state":"MD","wildfire_risk_score":25.127,"wildfire_eal_total":12601.32,"risk_band":"Low","source":"FEMA National Risk Index v1.20 (December 2025)"},"geometry":{"type":"Polygon","coordinates":[[[-77.527282,39.146236],[-77.510631,39.178484],[-77.478596,39.189168],[-77.47361,39.208407],[-77.4589223494682,39.2203363986735],[-77.168801,39.353502],[-77.18381,39.345459],[-77.186804,39.338203],[-77.170347,39.313109],[-77.140059,39.292095],[-77.133238,39.270356],[-77.082104,39.260033],[-77.065572,39.250956],[-77.059767,39.240174],[-77.044812,39.237666],[-77.032325,39.220317],[-77.00942,39.206732],[-77.012165,39.195181],[-77.004168,39.192335],[-77.008418,39.18157],[-76.998876,39.1778],[-77.005357,39.176288],[-76.997427,39.174104],[-77.000975,39.169537],[-76.973666,39.162209],[-76.975606,39.149747],[-76.95001,39.144355],[-76.958517,39.134023],[-76.946749,39.129407],[-76.929102,39.138392],[-76.907301,39.12549],[-76.888505,39.130967],[-76.907292,39.117908],[-76.903897,39.114618],[-76.908834,39.10385],[-76.991098,38.992405],[-76.984787,38.987182],[-76.986869,38.976879],[-76.994183,38.975291],[-77.0025892201687,38.9654839197919],[-77.040999,38.99511],[-77.119759,38.934343],[-77.148179,38.965002],[-77.197502,38.96681],[-77.221502,38.97131],[-77.229992,38.979858],[-77.234803,38.97631],[-77.244621,38.982535],[-77.255703,39.002409],[-77.244603,39.020109],[-77.246003,39.024909],[-77.274706,39.034091],[-77.293105,39.046508],[-77.340287,39.062991],[-77.38568,39.061987],[-77.46145,39.075151],[-77.4858,39.109303],[-77.519929,39.120925],[-77.527282,39.146236]]]}},{"type":"Feature","properties":{"GEOID":"24035","NAME":"Queen Anne's","state":"MD","wildfire_risk_score":59.606,"wildfire_eal_total":92092.72,"risk_band":"High","source":"FEMA National Risk Index v1.20 (December 2025)"},"geometry":{"type":"MultiPolygon","coordinates":[[[[-76.249176,38.908942],[-76.249088,38.913347],[-76.24309,38.912092],[-76.245763,38.905082],[-76.249176,38.908942]]],[[[-76.376202,38.850461],[-76.364678,38.873831],[-76.361727,38.939175],[-76.353828,38.957234],[-76.335987,38.97548],[-76.324528,38.995695],[-76.320274,39.023013],[-76.311766,39.035257],[-76.301606,39.038179],[-76.305281,39.026335],[-76.277478,38.982492],[-76.259913,38.983762],[-76.261815,38.978009],[-76.256586,38.975422],[-76.251238,38.976808],[-76.252783,38.980503],[-76.244092,38.980692],[-76.238641,38.973482],[-76.230916,38.973944],[-76.229425,38.979904],[-76.218929,38.970538],[-76.191431,38.979632],[-76.163988,38.999541],[-76.16287,39.006107],[-76.167773,39.020207],[-76.178281,39.031663],[-76.175487,39.042256],[-76.184207,39.046264],[-76.179865,39.053411],[-76.15896,39.065486],[-76.150229,39.078816],[-76.140621,39.079649],[-76.144791,39.093035],[-76.1344439292867,39.1043721029793],[-76.117058,39.107098],[-76.094154,39.126854],[-76.075012,39.133942],[-76.072755,39.139325],[-76.080993,39.149158],[-76.041087,39.167703],[-76.040245,39.175189],[-76.046661,39.180751],[-76.064438,39.184643],[-76.068542,39.190544],[-76.053146,39.212581],[-76.020454,39.227401],[-76.008834,39.240322],[-75.987808,39.239295],[-75.984771,39.246082],[-75.97039,39.246356],[-75.940711,39.238494],[-75.895035,39.247105],[-75.89183,39.254063],[-75.885658,39.249199],[-75.874283,39.249729],[-75.864448,39.261539],[-75.839736,39.2577],[-75.839084,39.253815],[-75.806343,39.241989],[-75.7559620947571,39.2460694205364],[-75.7476710652218,39.1433450579713],[-75.791079,39.132828],[-75.834944,39.108339],[-75.847929,39.086968],[-75.848975,39.071374],[-75.878654,39.046855],[-75.876005,39.043349],[-75.882817,39.02791],[-75.897386,39.014285],[-75.903836,39.016804],[-75.9041,39.010426],[-75.908772,39.010597],[-75.940933,38.976295],[-75.93658,38.973419],[-75.9428,38.967097],[-75.93823,38.958855],[-75.942218,38.949924],[-75.951325,38.945613],[-75.947065,38.940017],[-75.953316,38.938003],[-75.947822,38.934842],[-75.952742,38.929261],[-75.949335,38.918333],[-76.096956,38.944259],[-76.103674,38.939002],[-76.115502,38.913716],[-76.102675,38.890167],[-76.103512,38.882308],[-76.1214,38.88242],[-76.128003,38.875992],[-76.146495,38.882549],[-76.162458,38.880986],[-76.169918,38.865649],[-76.177869,38.865158],[-76.18224,38.858611],[-76.192384,38.863814],[-76.201667639998,38.8481075215164],[-76.206328,38.855585],[-76.196809,38.895091],[-76.203744,38.895852],[-76.203638,38.928382],[-76.213002,38.933563],[-76.208574,38.944003],[-76.221053,38.947515],[-76.227515,38.941594],[-76.234838,38.942524],[-76.238284,38.957866],[-76.248623,38.966737],[-76.253377,38.964889],[-76.251119,38.940213],[-76.260864,38.932726],[-76.25611,38.927086],[-76.250868,38.92825],[-76.249674,38.920907],[-76.262226,38.919976],[-76.270728,38.942062],[-76.295911,38.928663],[-76.299431,38.918542],[-76.293308,38.903241],[-76.299606,38.902675],[-76.305072,38.924313],[-76.3166,38.923018],[-76.318024,38.911288],[-76.33395,38.918118],[-76.340249,38.91183],[-76.334585,38.906634],[-76.338501,38.892474],[-76.33103,38.86432],[-76.340587,38.85574],[-76.35039,38.857399],[-76.361141,38.851992],[-76.368195,38.836125],[-76.375086,38.839474],[-76.376202,38.850461]]]]}},{"type":"Feature","properties":{"GEOID":"24029","NAME":"Kent","state":"MD","wildfire_risk_score":25.445,"wildfire_eal_total":10295.33,"risk_band":"Moderate","source":"FEMA National Risk Index v1.20 (December 2025)"},"geometry":{"type":"Polygon","coordinates":[[[-76.277367,39.151647],[-76.274637,39.16549],[-76.251032,39.199214],[-76.219338,39.261997],[-76.211253,39.269812],[-76.204218,39.268636],[-76.200092,39.280028],[-76.190181,39.281344],[-76.183131,39.290997],[-76.168882,39.290315],[-76.168288,39.294638],[-76.179093,39.300069],[-76.176778,39.306447],[-76.186024,39.312462],[-76.185581,39.319334],[-76.159673,39.335909],[-76.145524,39.334399],[-76.140717,39.32774],[-76.133468,39.332887],[-76.13495,39.35107],[-76.116356,39.360925],[-76.110527,39.372257],[-76.049846,39.370644],[-76.02299,39.361896],[-75.9907603366298,39.3746183292859],[-75.981109,39.366569],[-75.95697,39.374603],[-75.942337,39.367752],[-75.92794,39.371456],[-75.885101,39.360843],[-75.867614,39.367813],[-75.85543,39.364562],[-75.845476,39.367698],[-75.818829,39.382299],[-75.806073,39.375258],[-75.784224,39.382549],[-75.7666931907181,39.377537],[-75.7559620947571,39.2460694205364],[-75.806343,39.241989],[-75.855706,39.26182],[-75.866315,39.260859],[-75.874283,39.249729],[-75.885658,39.249199],[-75.89183,39.254063],[-75.895035,39.247105],[-75.940711,39.238494],[-75.97039,39.246356],[-75.984771,39.246082],[-75.987808,39.239295],[-76.008834,39.240322],[-76.020454,39.227401],[-76.056556,39.210338],[-76.067459,39.195435],[-76.064438,39.184643],[-76.046661,39.180751],[-76.039497,39.173027],[-76.046836,39.163208],[-76.080993,39.149158],[-76.072755,39.139325],[-76.075012,39.133942],[-76.094154,39.126854],[-76.122856,39.104847],[-76.151259,39.1081],[-76.162514,39.103815],[-76.168204,39.094917],[-76.16578,39.10942],[-76.181354,39.111577],[-76.184395,39.096422],[-76.193082,39.090569],[-76.207764,39.096333],[-76.204621,39.077023],[-76.211743,39.069727],[-76.209313,39.057795],[-76.215275,39.053203],[-76.207253,39.032993],[-76.20958,39.027089],[-76.201492,39.013508],[-76.209838,39.008766],[-76.231765,39.018518],[-76.242687,39.028926],[-76.237065,39.045521],[-76.225032,39.050231],[-76.231117,39.061017],[-76.233457,39.091385],[-76.246577,39.115999],[-76.244859,39.130644],[-76.276075,39.146225],[-76.277367,39.151647]]]}},{"type":"Feature","properties":{"GEOID":"24021","NAME":"Frederick","state":"MD","wildfire_risk_score":27.64,"wildfire_eal_total":18765.1,"risk_band":"Moderate","source":"FEMA National Risk Index v1.20 (December 2025)"},"geometry":{"type":"Polygon","coordinates":[[[-77.677164,39.324534],[-77.673442,39.344225],[-77.651552,39.375112],[-77.640411,39.402538],[-77.634689,39.445549],[-77.626907,39.448455],[-77.626811,39.457106],[-77.616156,39.468371],[-77.622024,39.481754],[-77.61441,39.491551],[-77.623008,39.499898],[-77.622604,39.507598],[-77.613484,39.528667],[-77.597068,39.541975],[-77.599418,39.549709],[-77.586761,39.571365],[-77.574752,39.61161],[-77.570182,39.619998],[-77.550765,39.625312],[-77.547508,39.632305],[-77.530357,39.63169],[-77.520164,39.640678],[-77.492874,39.676425],[-77.497082,39.683133],[-77.50836,39.684072],[-77.493519,39.69259],[-77.469145,39.720018],[-77.215709,39.719238],[-77.215442,39.713006],[-77.226637,39.706637],[-77.216159,39.701354],[-77.216261,39.697413],[-77.24299,39.695013],[-77.234468,39.677603],[-77.255839,39.663211],[-77.266419,39.662021],[-77.265357,39.656153],[-77.275617,39.647125],[-77.271267,39.642],[-77.279217,39.636281],[-77.2772,39.631289],[-77.293588,39.631185],[-77.3026,39.640213],[-77.311355,39.638029],[-77.30778,39.628181],[-77.299485,39.623577],[-77.307416,39.619101],[-77.290506,39.604508],[-77.271574,39.606221],[-77.262759,39.59406],[-77.260157,39.602511],[-77.25348,39.602831],[-77.239049,39.584917],[-77.227274,39.5878],[-77.232257,39.584352],[-77.220028,39.581872],[-77.222103,39.576398],[-77.217534,39.574549],[-77.200125,39.578588],[-77.182727,39.559342],[-77.177827,39.560868],[-77.169445,39.554118],[-77.170746,39.534753],[-77.15234,39.532498],[-77.149914,39.521944],[-77.138487,39.520518],[-77.133552,39.508551],[-77.107711,39.494556],[-77.117686,39.478619],[-77.119951,39.465585],[-77.11605,39.460344],[-77.148037,39.417755],[-77.156119,39.378939],[-77.16808,39.353957],[-77.4589223494682,39.2203363986735],[-77.46021,39.228359],[-77.486813,39.247586],[-77.543228,39.266937],[-77.560854,39.286152],[-77.561826,39.301913],[-77.566596,39.306121],[-77.592739,39.30129],[-77.615939,39.302722],[-77.650997,39.310784],[-77.677164,39.324534]]]}},{"type":"Feature","properties":{"GEOID":"24510","NAME":"Baltimore","state":"MD","wildfire_risk_score":24.046,"wildfire_eal_total":7783.37,"risk_band":"Low","source":"FEMA National Risk Index v1.20 (December 2025)"},"geometry":{"type":"Polygon","coordinates":[[[-76.711519,39.365763],[-76.711313,39.371933],[-76.529793,39.372058],[-76.5295838667757,39.2402981429609],[-76.533245,39.23925],[-76.540256,39.250387],[-76.552735,39.257472],[-76.569016,39.259221],[-76.572224,39.264741],[-76.586485,39.261337],[-76.584465,39.253792],[-76.558439,39.233727],[-76.5645,39.224614],[-76.549051,39.21375],[-76.534285,39.213208],[-76.5330735988679,39.2076476380469],[-76.550086,39.197207],[-76.58328,39.207404],[-76.611679,39.234387],[-76.711054,39.277889],[-76.711519,39.365763]]]}}]}