{"type":"FeatureCollection","metadata":{"state":"ME","boundary_source":"U.S. Census Bureau 2024 Cartographic Boundary File (counties, 1:500,000)","risk_source":"FEMA National Risk Index v1.20 (December 2025)"},"features":[{"type":"Feature","properties":{"GEOID":"23031","NAME":"York","state":"ME","wildfire_risk_score":56.266,"wildfire_eal_total":83817.8,"risk_band":"High","source":"FEMA National Risk Index v1.20 (December 2025)"},"geometry":{"type":"MultiPolygon","coordinates":[[[[-70.617249,42.99202],[-70.61243,42.991814],[-70.601349,42.981083],[-70.607834,42.977764],[-70.618523,42.985657],[-70.617249,42.99202]]],[[[-70.9890367618669,43.7921536087332],[-70.98278,43.79367],[-70.971749,43.785053],[-70.964215,43.7881],[-70.957548,43.785123],[-70.942606,43.792283],[-70.927071,43.790299],[-70.912682,43.800909],[-70.880657,43.810858],[-70.861282,43.804693],[-70.813992,43.811432],[-70.796924,43.806295],[-70.787786,43.814254],[-70.782984,43.814147],[-70.780335,43.803516],[-70.766073,43.792416],[-70.745324,43.788025],[-70.712638,43.799612],[-70.701482,43.797933],[-70.695153,43.805203],[-70.693541,43.797705],[-70.681783,43.796582],[-70.673753,43.788403],[-70.669925,43.794158],[-70.652986,43.787544],[-70.655698,43.780256],[-70.649843,43.768371],[-70.656348,43.764283],[-70.643007,43.752249],[-70.659622,43.710902],[-70.657371,43.701544],[-70.649737,43.699138],[-70.627965,43.704078],[-70.614493,43.698331],[-70.612074,43.687099],[-70.595342,43.697195],[-70.577401,43.687185],[-70.549965,43.715796],[-70.457743,43.642372],[-70.492009,43.606769],[-70.35339193799,43.535405312744],[-70.384885,43.49604],[-70.382928,43.469674],[-70.367364,43.452264],[-70.357549,43.457833],[-70.327303,43.458521],[-70.334783,43.45149],[-70.332836,43.446432],[-70.370514,43.434133],[-70.377045,43.420715],[-70.387027,43.414673],[-70.380949,43.411446],[-70.39786,43.394171],[-70.39996,43.400843],[-70.407556,43.400918],[-70.427672,43.389254],[-70.416311,43.361059],[-70.428534,43.354818],[-70.445676,43.353811],[-70.465795,43.340806],[-70.474323,43.347123],[-70.500491,43.34216],[-70.517695,43.344037],[-70.553854,43.321886],[-70.562779,43.310614],[-70.570041,43.285566],[-70.585184,43.270113],[-70.593907,43.249295],[-70.575787,43.221859],[-70.588037,43.208662],[-70.593809,43.189118],[-70.608783,43.1756],[-70.590391,43.165168],[-70.611105,43.168431],[-70.618973,43.163625],[-70.625953,43.147382],[-70.62251,43.134573],[-70.632067,43.133157],[-70.638355,43.114182],[-70.654376,43.100869],[-70.662973,43.088353],[-70.660053,43.085733],[-70.673114,43.070314],[-70.703819,43.059825],[-70.706503,43.075329],[-70.738078,43.073821],[-70.756397,43.079988],[-70.766398,43.092688],[-70.779098,43.095887],[-70.8268,43.127086],[-70.8338,43.146886],[-70.823501,43.174585],[-70.828301,43.186685],[-70.819344,43.193036],[-70.816903,43.214604],[-70.80964,43.225407],[-70.817865,43.237911],[-70.838678,43.242931],[-70.843302,43.254321],[-70.858207,43.256286],[-70.86323,43.265109],[-70.882804,43.273183],[-70.886504,43.282783],[-70.89922,43.287542],[-70.896332,43.29212],[-70.906005,43.291682],[-70.90231,43.304872],[-70.91246,43.308289],[-70.912004,43.319821],[-70.930783,43.329569],[-70.932735,43.33676],[-70.953034,43.333257],[-70.967229,43.343777],[-70.984335,43.376128],[-70.987733,43.391513],[-70.982565,43.39778],[-70.986812,43.414264],[-70.96115,43.438321],[-70.9669,43.450458],[-70.961428,43.469696],[-70.974245,43.47742],[-70.967968,43.480783],[-70.969572,43.486201],[-70.954755,43.509802],[-70.954066,43.52261],[-70.963531,43.536756],[-70.962182,43.541032],[-70.953504,43.540603],[-70.950838,43.551026],[-70.957234,43.561358],[-70.972716,43.570255],[-70.9890367618669,43.7921536087332]]]]}},{"type":"Feature","properties":{"GEOID":"23029","NAME":"Washington","state":"ME","wildfire_risk_score":21.756,"wildfire_eal_total":6138.46,"risk_band":"Moderate","source":"FEMA National Risk Index v1.20 (December 2025)"},"geometry":{"type":"MultiPolygon","coordinates":[[[[-67.322595,44.611595],[-67.309688,44.612155],[-67.311107,44.616706],[-67.301401,44.623611],[-67.289723,44.616723],[-67.282117,44.619937],[-67.260985,44.608656],[-67.263629,44.603611],[-67.280454,44.609786],[-67.280207,44.603448],[-67.308027,44.597161],[-67.314153,44.597468],[-67.313789,44.604048],[-67.318245,44.603694],[-67.322595,44.611595]]],[[[-67.331317,44.652748],[-67.327235,44.651274],[-67.334407,44.648521],[-67.331317,44.652748]]],[[[-67.337972,44.679795],[-67.332981,44.682837],[-67.330129,44.683851],[-67.333931,44.677936],[-67.337972,44.679795]]],[[[-67.355798,44.642264],[-67.354372,44.644632],[-67.352233,44.644801],[-67.353897,44.64108],[-67.355798,44.642264]]],[[[-67.359601,44.579659],[-67.35556,44.583722],[-67.350585,44.584158],[-67.355283,44.576178],[-67.359601,44.579659]]],[[[-67.361502,44.648859],[-67.361027,44.652072],[-67.356749,44.653932],[-67.356749,44.64683],[-67.361502,44.648859]]],[[[-67.36792,44.570009],[-67.362453,44.573903],[-67.361424,44.573057],[-67.367199,44.567418],[-67.36792,44.570009]]],[[[-67.369346,44.669147],[-67.364117,44.667625],[-67.350331,44.669316],[-67.356036,44.663568],[-67.366731,44.664413],[-67.369346,44.669147]]],[[[-67.374099,44.593201],[-67.372673,44.598617],[-67.368558,44.601926],[-67.366665,44.599661],[-67.374099,44.593201]]],[[[-67.393114,44.598448],[-67.38836,44.603186],[-67.383607,44.601663],[-67.390262,44.59574],[-67.393114,44.598448]]],[[[-67.396079,44.574496],[-67.394302,44.576443],[-67.392163,44.574411],[-67.395883,44.572452],[-67.396079,44.574496]]],[[[-67.396679,44.588462],[-67.393351,44.589647],[-67.392638,44.584907],[-67.396051,44.583213],[-67.396679,44.588462]]],[[[-67.40765,44.572839],[-67.403555,44.575124],[-67.406186,44.567977],[-67.408044,44.569012],[-67.40765,44.572839]]],[[[-67.429479,44.597432],[-67.426864,44.598786],[-67.426151,44.597432],[-67.427801,44.595258],[-67.429479,44.597432]]],[[[-67.443858,44.555399],[-67.433428,44.558921],[-67.431618,44.557308],[-67.435183,44.555615],[-67.443858,44.555399]]],[[[-67.464856,44.570979],[-67.457682,44.575464],[-67.453722,44.572379],[-67.460562,44.569652],[-67.464856,44.570979]]],[[[-67.474478,44.568335],[-67.471376,44.569095],[-67.469647,44.567977],[-67.474242,44.566648],[-67.474478,44.568335]]],[[[-67.483335,44.560963],[-67.481045,44.565046],[-67.478441,44.565098],[-67.481557,44.560066],[-67.483335,44.560963]]],[[[-67.491275,44.603694],[-67.490325,44.604371],[-67.486522,44.600147],[-67.491513,44.601663],[-67.491275,44.603694]]],[[[-67.507438,44.622813],[-67.504348,44.622813],[-67.497693,44.62146],[-67.503872,44.617061],[-67.507438,44.622813]]],[[[-67.536872,44.532115],[-67.532965,44.532884],[-67.529196,44.531989],[-67.533817,44.529159],[-67.536872,44.532115]]],[[[-67.541611,44.58934],[-67.534368,44.589249],[-67.533345,44.583384],[-67.523125,44.58423],[-67.515994,44.587277],[-67.51841,44.595882],[-67.514244,44.597668],[-67.481529,44.580414],[-67.4908,44.575258],[-67.512429,44.584569],[-67.520035,44.579659],[-67.521461,44.573734],[-67.511478,44.566114],[-67.489136,44.559679],[-67.491751,44.556123],[-67.51841,44.554241],[-67.533279,44.564354],[-67.541611,44.578037],[-67.541611,44.58934]]],[[[-67.563768,44.510547],[-67.534745,44.519619],[-67.516029,44.506653],[-67.510628,44.496414],[-67.526745,44.483638],[-67.531552,44.474105],[-67.539049,44.472059],[-67.54309,44.473755],[-67.545229,44.495629],[-67.563768,44.510547]]],[[[-67.602747,44.444237],[-67.601797,44.444746],[-67.595624,44.444076],[-67.599955,44.441753],[-67.602747,44.444237]]],[[[-67.611939,44.452712],[-67.605599,44.445933],[-67.608689,44.443558],[-67.614217,44.448841],[-67.611939,44.452712]]],[[[-67.621286,44.507835],[-67.617959,44.521563],[-67.599182,44.52258],[-67.604886,44.515462],[-67.602747,44.509021],[-67.587738,44.516196],[-67.585872,44.522071],[-67.577315,44.521732],[-67.58706,44.511055],[-67.583257,44.508174],[-67.590627,44.49415],[-67.580168,44.490712],[-67.562651,44.472104],[-67.570423,44.471889],[-67.566606,44.455768],[-67.589199,44.447291],[-67.603162,44.485024],[-67.614692,44.487037],[-67.603698,44.489695],[-67.604919,44.502056],[-67.620573,44.503766],[-67.621286,44.507835]]],[[[-67.622926,44.464459],[-67.616533,44.463408],[-67.61582,44.461373],[-67.618434,44.460185],[-67.622926,44.464459]]],[[[-67.634834,44.490712],[-67.632933,44.499189],[-67.629605,44.498681],[-67.631506,44.48766],[-67.634834,44.490712]]],[[[-67.647669,44.514445],[-67.644817,44.517495],[-67.625564,44.513258],[-67.645054,44.504614],[-67.647669,44.514445]]],[[[-67.66288,44.514614],[-67.659315,44.51597],[-67.658602,44.513089],[-67.660979,44.511564],[-67.66288,44.514614]]],[[[-67.669278,44.524377],[-67.665,44.531493],[-67.658583,44.530816],[-67.665238,44.521665],[-67.669278,44.524377]]],[[[-67.673794,44.490476],[-67.664287,44.495054],[-67.662861,44.494376],[-67.671893,44.487763],[-67.673794,44.490476]]],[[[-67.676676,44.470379],[-67.672645,44.473289],[-67.673794,44.465546],[-67.67522,44.466055],[-67.676676,44.470379]]],[[[-67.676884,44.463002],[-67.669858,44.463525],[-67.668565,44.462663],[-67.669516,44.460627],[-67.676884,44.463002]]],[[[-67.677597,44.482676],[-67.673794,44.481659],[-67.663899,44.484792],[-67.673171,44.475884],[-67.680389,44.480374],[-67.677597,44.482676]]],[[[-67.698751,44.487763],[-67.693046,44.486407],[-67.692654,44.483646],[-67.698578,44.485053],[-67.698751,44.487763]]],[[[-67.708638,44.460733],[-67.704353,44.460599],[-67.70493,44.458082],[-67.706832,44.456895],[-67.708638,44.460733]]],[[[-67.740846,44.470064],[-67.734165,44.469278],[-67.733214,44.465207],[-67.73773,44.463002],[-67.740846,44.470064]]],[[[-67.746745,44.465241],[-67.742959,44.465207],[-67.743197,44.463511],[-67.745098,44.462323],[-67.746745,44.465241]]],[[[-67.759296,44.49835],[-67.756724,44.49775],[-67.753004,44.505087],[-67.751548,44.494849],[-67.759296,44.49835]]],[[[-67.766489,44.530985],[-67.759597,44.533018],[-67.758884,44.531324],[-67.762211,44.529291],[-67.766489,44.530985]]],[[[-67.766014,44.537593],[-67.7634,44.53844],[-67.761261,44.537423],[-67.76744,44.534374],[-67.766014,44.537593]]],[[[-67.792159,44.480811],[-67.7798,44.47708],[-67.789024,44.472355],[-67.795955,44.476177],[-67.792159,44.480811]]],[[[-67.805944,44.517259],[-67.804043,44.519123],[-67.802398,44.512949],[-67.804281,44.51387],[-67.805944,44.517259]]],[[[-67.819492,44.510649],[-67.81046,44.512683],[-67.802631,44.497746],[-67.791208,44.493867],[-67.796675,44.482846],[-67.806182,44.485898],[-67.819492,44.510649]]],[[[-67.825857,44.442819],[-67.824092,44.445641],[-67.821144,44.445434],[-67.821734,44.44219],[-67.825857,44.442819]]],[[[-67.835892,44.536576],[-67.825672,44.540812],[-67.828762,44.536068],[-67.824246,44.517598],[-67.832802,44.519971],[-67.835892,44.536576]]],[[[-67.834941,44.485389],[-67.828286,44.485559],[-67.826147,44.490646],[-67.822582,44.487254],[-67.832089,44.479624],[-67.834941,44.485389]]],[[[-67.839457,44.544369],[-67.83613,44.552161],[-67.834228,44.547926],[-67.825909,44.549451],[-67.825909,44.545047],[-67.839457,44.544369]]],[[[-67.842072,44.462323],[-67.834042,44.460858],[-67.832735,44.45319],[-67.838475,44.450946],[-67.842072,44.462323]]],[[[-67.853956,44.450787],[-67.849915,44.452993],[-67.845161,44.449769],[-67.853956,44.448072],[-67.853956,44.450787]]],[[[-67.874361,44.374278],[-67.871328,44.374657],[-67.864394,44.366789],[-67.865977,44.366273],[-67.874361,44.374278]]],[[[-67.875584,44.445697],[-67.869405,44.456725],[-67.862987,44.45452],[-67.863938,44.447903],[-67.858901,44.445162],[-67.850628,44.423973],[-67.855144,44.418711],[-67.863225,44.423464],[-67.863938,44.418711],[-67.868929,44.420409],[-67.875584,44.445697]]],[[[-68.105017,44.939088],[-67.981851,44.955885],[-68.034161,45.180865],[-68.054985,45.252577],[-67.93976,45.267845],[-67.966881,45.351879],[-67.957928,45.353247],[-68.048012,45.639897],[-67.896955,45.665302],[-67.902264,45.680115],[-67.889326,45.671835],[-67.873581,45.669296],[-67.8054831422691,45.6802407212124],[-67.768648,45.677581],[-67.754245,45.667791],[-67.744381,45.672993],[-67.733889,45.664489],[-67.720401,45.662522],[-67.718056,45.667986],[-67.73372,45.684233],[-67.734605,45.688987],[-67.729908,45.689012],[-67.717837,45.679449],[-67.709466,45.68138],[-67.692623,45.650366],[-67.675417,45.630959],[-67.64581,45.613597],[-67.640238,45.616178],[-67.644206,45.62322],[-67.638891,45.625075],[-67.608505,45.606198],[-67.589773,45.606765],[-67.561359,45.594906],[-67.546014,45.59736],[-67.51858,45.587925],[-67.499444,45.587014],[-67.488452,45.594643],[-67.49389,45.601182],[-67.455406,45.604665],[-67.425452,45.579086],[-67.423646,45.572153],[-67.428362,45.568906],[-67.420976,45.550029],[-67.425399,45.540795],[-67.432236,45.541023],[-67.435044,45.528783],[-67.416462,45.502147],[-67.424242,45.505907],[-67.429681,45.501592],[-67.450802,45.510088],[-67.451567,45.498991],[-67.462882,45.508691],[-67.47091,45.504279],[-67.464401,45.496613],[-67.476855,45.49724],[-67.488001,45.493762],[-67.489636,45.489114],[-67.503771,45.488522],[-67.499767,45.47805],[-67.482353,45.460825],[-67.483756,45.449565],[-67.476509,45.44337],[-67.480332,45.440856],[-67.47256,45.423321],[-67.461303,45.422243],[-67.418747,45.37726],[-67.434281,45.365438],[-67.42596,45.357681],[-67.430956,45.350562],[-67.428872,45.344228],[-67.456288,45.32644],[-67.452267,45.316839],[-67.460554,45.300379],[-67.47601,45.288833],[-67.485683,45.291433],[-67.489333,45.281282],[-67.476588,45.274926],[-67.46357,45.244097],[-67.453473,45.241127],[-67.43998,45.227047],[-67.427848,45.201738],[-67.428889,45.193213],[-67.400338,45.177376],[-67.399128,45.168861],[-67.404658,45.166944],[-67.404629,45.159926],[-67.380187,45.151791],[-67.345585,45.126392],[-67.321564,45.131354],[-67.319925,45.142419],[-67.296174,45.147952],[-67.294363,45.153506],[-67.302568,45.161348],[-67.299238,45.168937],[-67.291417,45.17145],[-67.290603,45.187589],[-67.283619,45.192022],[-67.246697,45.180765],[-67.242293,45.17224],[-67.227324,45.163652],[-67.203933,45.171407],[-67.157919,45.161004],[-67.112414,45.112323],[-67.090786,45.068721],[-67.105899,45.065786],[-67.108611,45.059472],[-67.117688,45.05673],[-67.096014,45.039322],[-67.106234,45.033107],[-67.092211,45.035795],[-67.082074,45.029608],[-67.068274,45.001014],[-67.050617,44.9795],[-67.049684,44.974285],[-67.05751,44.966049],[-67.043725,44.963863],[-67.033474,44.939923],[-67.010449,44.935266],[-67.01449,44.925843],[-66.984466,44.912557],[-66.984067,44.898238],[-66.994762,44.89184],[-66.980033,44.85597],[-66.996523,44.844654],[-66.988583,44.837259],[-66.98882,44.824954],[-66.982403,44.811466],[-66.966468,44.819063],[-66.949895,44.817419],[-66.961068,44.807269],[-66.979708,44.80736],[-66.997549,44.788659],[-67.009499,44.787349],[-67.012116,44.778282],[-67.024472,44.773683],[-67.019719,44.769634],[-67.048003,44.761196],[-67.050617,44.774864],[-67.068919,44.768959],[-67.061075,44.759677],[-67.073439,44.741957],[-67.104095,44.739928],[-67.098323,44.730454],[-67.104352,44.716848],[-67.10939,44.711436],[-67.117643,44.711896],[-67.118755,44.702215],[-67.128792,44.695421],[-67.139209,44.693849],[-67.154479,44.668114],[-67.169857,44.662105],[-67.186612,44.66265],[-67.192068,44.655515],[-67.189427,44.645533],[-67.234275,44.637201],[-67.245138,44.640935],[-67.246465,44.651395],[-67.240761,44.665766],[-67.246703,44.669147],[-67.272848,44.664075],[-67.267856,44.65055],[-67.26952,44.640066],[-67.261677,44.63922],[-67.246373,44.626384],[-67.268807,44.630594],[-67.275141,44.623433],[-67.287346,44.623997],[-67.286633,44.629918],[-67.294952,44.637022],[-67.292462,44.648455],[-67.298578,44.648297],[-67.298449,44.654377],[-67.315205,44.660369],[-67.326182,44.656715],[-67.327557,44.667026],[-67.322761,44.667794],[-67.322058,44.6739],[-67.320146,44.663568],[-67.306836,44.662892],[-67.308844,44.673876],[-67.304697,44.679288],[-67.308737,44.689258],[-67.300144,44.696752],[-67.299176,44.705705],[-67.308538,44.707454],[-67.3413,44.699058],[-67.357699,44.703788],[-67.365107,44.693551],[-67.35247,44.690272],[-67.360314,44.68723],[-67.372673,44.691624],[-67.383369,44.68892],[-67.389073,44.695848],[-67.396441,44.693313],[-67.394777,44.686385],[-67.404998,44.681654],[-67.375763,44.67726],[-67.389073,44.672696],[-67.38432,44.67033],[-67.388122,44.667963],[-67.374014,44.662965],[-67.361978,44.640235],[-67.368269,44.624672],[-67.377554,44.619757],[-67.381467,44.626873],[-67.39145,44.625351],[-67.389073,44.614523],[-67.395839,44.612914],[-67.396679,44.60454],[-67.405492,44.594236],[-67.418923,44.60347],[-67.420685,44.618415],[-67.429003,44.629072],[-67.419972,44.632286],[-67.42734,44.64108],[-67.432093,44.63736],[-67.443739,44.642941],[-67.448968,44.635499],[-67.446354,44.627381],[-67.437797,44.626027],[-67.43756,44.619599],[-67.429716,44.613339],[-67.432569,44.606909],[-67.445403,44.605894],[-67.448513,44.600322],[-67.459902,44.600986],[-67.458448,44.596694],[-67.469647,44.608263],[-67.480918,44.611055],[-67.491038,44.607248],[-67.49698,44.614862],[-67.492373,44.61795],[-67.493632,44.628863],[-67.505804,44.636837],[-67.522802,44.63306],[-67.532632,44.614354],[-67.534533,44.622644],[-67.543368,44.626554],[-67.552392,44.619629],[-67.552834,44.611478],[-67.559014,44.614354],[-67.561391,44.609278],[-67.556162,44.599294],[-67.575056,44.560659],[-67.559965,44.539862],[-67.564718,44.532068],[-67.653123,44.525823],[-67.656444,44.537084],[-67.688055,44.537254],[-67.702649,44.527922],[-67.695186,44.519293],[-67.698038,44.509463],[-67.713077,44.493553],[-67.722876,44.498524],[-67.743353,44.497418],[-67.740076,44.508944],[-67.744385,44.531155],[-67.754843,44.54691],[-67.774001,44.547438],[-67.780881,44.531151],[-67.775132,44.515934],[-67.782363,44.51497],[-67.802541,44.523934],[-67.804518,44.542675],[-67.822582,44.543522],[-67.820205,44.54962],[-67.829237,44.559105],[-67.847776,44.563],[-67.850153,44.554701],[-67.842072,44.54403],[-67.851341,44.535899],[-67.851103,44.528782],[-67.865602,44.526071],[-67.852054,44.50709],[-67.851648,44.484901],[-67.868692,44.465038],[-67.881764,44.484372],[-67.891509,44.48098],[-67.877248,44.454859],[-67.888419,44.442133],[-67.888002,44.423948],[-67.893413,44.412442],[-67.889662,44.408485],[-67.900589,44.395545],[-67.912425,44.417353],[-67.909573,44.452145],[-67.916941,44.461306],[-67.924309,44.463511],[-67.925309,44.449232],[-67.935892,44.448898],[-67.928695,44.435167],[-67.931868,44.412151],[-67.937706,44.410445],[-67.954604,44.428524],[-67.963051,44.460457],[-67.970419,44.470805],[-67.9820138304501,44.4733578354039],[-67.974256,44.479111],[-67.972968,44.488633],[-67.977197,44.497953],[-67.991395,44.50281],[-68.017219,44.589087],[-67.993551,44.592162],[-68.016062,44.676676],[-68.034637,44.674142],[-68.105017,44.939088]]]]}},{"type":"Feature","properties":{"GEOID":"23003","NAME":"Aroostook","state":"ME","wildfire_risk_score":26.24,"wildfire_eal_total":9335.71,"risk_band":"High","source":"FEMA National Risk Index v1.20 (December 2025)"},"geometry":{"type":"Polygon","coordinates":[[[-70.019747,46.592166],[-69.994248,46.698564],[-69.22442,47.459686],[-69.203886,47.452203],[-69.178412,47.456615],[-69.161625,47.447354],[-69.156074,47.451035],[-69.122471,47.442413],[-69.108215,47.435831],[-69.107838,47.427711],[-69.098511,47.431217],[-69.096756,47.427013],[-69.080656,47.424068],[-69.061192,47.433052],[-69.055465,47.432274],[-69.050043,47.422446],[-69.047913,47.427387],[-69.042702,47.426651],[-69.039301,47.42217],[-69.042375,47.416331],[-69.035718,47.414435],[-69.036882,47.407977],[-69.030989,47.409055],[-69.032499,47.402216],[-69.042547,47.404633],[-69.037378,47.401504],[-69.042371,47.401143],[-69.03857,47.396901],[-69.045403,47.39191],[-69.03928,47.385052],[-69.054503,47.377967],[-69.054932,47.315298],[-69.049118,47.306471],[-69.052748,47.294403],[-69.046652,47.271097],[-69.050252,47.255876],[-69.033456,47.240984],[-68.980428,47.220125],[-68.96113,47.205582],[-68.95335,47.206749],[-68.950397,47.202476],[-68.942484,47.206386],[-68.924645,47.197791],[-68.919752,47.189859],[-68.900085,47.177719],[-68.895685,47.182883],[-68.857519,47.19095],[-68.812157,47.215461],[-68.764346,47.222044],[-68.717867,47.240919],[-68.705314,47.238066],[-68.687662,47.244215],[-68.661957,47.236327],[-68.612411,47.244803],[-68.594681,47.257419],[-68.598726,47.269879],[-68.578551,47.287551],[-68.551747,47.282226],[-68.517982,47.296092],[-68.490386,47.293815],[-68.474851,47.297534],[-68.449875,47.282142],[-68.428715,47.281519],[-68.411073,47.288325],[-68.378678,47.287561],[-68.376319,47.294257],[-68.384943,47.302923],[-68.380334,47.340242],[-68.370265,47.351052],[-68.355171,47.35707],[-68.329879,47.36023],[-68.303778,47.355524],[-68.284101,47.360389],[-68.265138,47.352543],[-68.234604,47.355035],[-68.214551,47.339637],[-68.15515,47.32542],[-68.152302,47.309878],[-68.137059,47.296068],[-68.082896,47.271921],[-68.074061,47.259764],[-68.022372,47.238236],[-67.989848,47.210054],[-67.952269,47.196142],[-67.951511,47.183547],[-67.927419,47.154955],[-67.910367,47.148143],[-67.9046,47.137556],[-67.893266,47.129943],[-67.888914,47.110063],[-67.881302,47.103913],[-67.820828,47.083518],[-67.790515,47.067921],[-67.781095,45.943032],[-67.777626,45.934207],[-67.75752,45.925926],[-67.750422,45.917898],[-67.765002,45.909791],[-67.768745,45.897951],[-67.785344,45.895648],[-67.803908,45.882895],[-67.803678,45.869379],[-67.796491,45.865788],[-67.796514,45.859961],[-67.755068,45.82367],[-67.780082,45.818194],[-67.801989,45.803546],[-67.806598,45.794723],[-67.806308,45.755405],[-67.793083,45.750559],[-67.781892,45.731189],[-67.809833,45.729274],[-67.803148,45.696127],[-67.817892,45.693705],[-67.8054831422691,45.6802407212124],[-67.873581,45.669296],[-67.889326,45.671835],[-67.902264,45.680115],[-67.896955,45.665302],[-68.260136,45.604483],[-68.257502,45.597949],[-68.300814,45.590531],[-68.414389,45.572848],[-68.433028,45.578482],[-68.426621,45.85338],[-68.432273,46.035568],[-68.436902,46.04289],[-68.436443,46.382121],[-68.694877,46.382612],[-68.69492,46.395505],[-68.821757,46.395804],[-68.821414,46.57251],[-70.0233609283763,46.5735207117177],[-70.019747,46.592166]]]}},{"type":"Feature","properties":{"GEOID":"23015","NAME":"Lincoln","state":"ME","wildfire_risk_score":18.702,"wildfire_eal_total":7112.26,"risk_band":"Moderate","source":"FEMA National Risk Index v1.20 (December 2025)"},"geometry":{"type":"MultiPolygon","coordinates":[[[[-69.323569,43.758994],[-69.313631,43.772762],[-69.300376,43.772144],[-69.314325,43.756707],[-69.323569,43.758994]]],[[[-69.395655,43.960565],[-69.394828,43.964867],[-69.387346,43.967199],[-69.391473,43.957662],[-69.395655,43.960565]]],[[[-69.42799,43.922191],[-69.422048,43.923047],[-69.427277,43.912261],[-69.42894,43.916541],[-69.42799,43.922191]]],[[[-69.441894,43.916331],[-69.439398,43.939137],[-69.432981,43.952143],[-69.420146,43.935885],[-69.438066,43.909539],[-69.442519,43.909055],[-69.441894,43.916331]]],[[[-69.588899,43.77478],[-69.582924,43.779096],[-69.581531,43.771862],[-69.588186,43.770489],[-69.588899,43.77478]]],[[[-69.602209,43.794684],[-69.599602,43.803263],[-69.59389,43.80412],[-69.599594,43.790738],[-69.603025,43.790295],[-69.602209,43.794684]]],[[[-69.618846,43.757444],[-69.610765,43.778899],[-69.605299,43.780271],[-69.613956,43.751084],[-69.618846,43.757444]]],[[[-69.635667,43.805437],[-69.633001,43.81258],[-69.628789,43.81372],[-69.626732,43.805159],[-69.635667,43.805437]]],[[[-69.813517,44.026821],[-69.790306,44.042466],[-69.782872,44.070468],[-69.787269,44.074741],[-69.785851,44.08718],[-69.768127,44.110304],[-69.758208,44.139334],[-69.656742,44.122392],[-69.665441,44.227576],[-69.650171,44.279625],[-69.542821,44.262477],[-69.521424,44.28056],[-69.506382,44.34287],[-69.409635,44.327998],[-69.416429,44.321302],[-69.436988,44.324485],[-69.451251,44.31395],[-69.440665,44.284434],[-69.449481,44.26227],[-69.432837,44.22674],[-69.403633,44.219145],[-69.40602,44.210674],[-69.372175,44.205405],[-69.337672,44.20937],[-69.303661,44.132677],[-69.311502,44.09549],[-69.303835,44.096492],[-69.282027,44.064523],[-69.282268,44.052584],[-69.29803,44.058991],[-69.298216,44.047349],[-69.318612,44.03721],[-69.327832,44.006185],[-69.334661,44.004679],[-69.345797,44.018755],[-69.357233,44.010949],[-69.363996,44.012873],[-69.3682870397625,43.9951357157085],[-69.379028,43.995418],[-69.384019,43.974212],[-69.389248,43.970791],[-69.398325,43.970694],[-69.399468,43.982422],[-69.406123,43.985842],[-69.428227,43.957276],[-69.431686,43.964546],[-69.426801,43.978317],[-69.437734,43.975751],[-69.459637,43.903316],[-69.483498,43.88028],[-69.506899,43.834817],[-69.514889,43.831298],[-69.513267,43.84479],[-69.521635,43.8607],[-69.519259,43.871153],[-69.525438,43.872181],[-69.525438,43.877149],[-69.543912,43.881615],[-69.550908,43.877971],[-69.545028,43.861241],[-69.551703,43.834628],[-69.555805,43.832688],[-69.558122,43.84066],[-69.572697,43.844012],[-69.579602,43.821571],[-69.585096,43.822128],[-69.592916,43.811382],[-69.605928,43.814862],[-69.606311,43.823434],[-69.592373,43.830895],[-69.589167,43.851299],[-69.594705,43.858878],[-69.604616,43.858004],[-69.606962,43.847674],[-69.617658,43.845274],[-69.613069,43.837453],[-69.621086,43.826814],[-69.630268,43.837016],[-69.627165,43.848874],[-69.638812,43.847845],[-69.641426,43.839103],[-69.649798,43.836287],[-69.645704,43.819384],[-69.649982,43.821785],[-69.65315,43.817194],[-69.65022,43.810981],[-69.655611,43.781039],[-69.661376,43.783385],[-69.668668,43.801399],[-69.685872,43.810123],[-69.685579,43.820546],[-69.690388,43.825386],[-69.68234,43.839898],[-69.685234,43.842308],[-69.680196,43.85645],[-69.687485,43.867701],[-69.685115,43.897015],[-69.671374,43.923561],[-69.677078,43.926984],[-69.691576,43.917226],[-69.698877,43.875946],[-69.704887,43.869096],[-69.7028415007163,43.8546571039805],[-69.714381,43.850604],[-69.722903,43.853067],[-69.730482,43.868713],[-69.729463,43.876629],[-69.743533,43.893537],[-69.707421,43.927251],[-69.724963,43.934852],[-69.719628,43.971287],[-69.700152,44.006585],[-69.813517,44.026821]]]]}},{"type":"Feature","properties":{"GEOID":"23027","NAME":"Waldo","state":"ME","wildfire_risk_score":17.621,"wildfire_eal_total":6628.78,"risk_band":"Moderate","source":"FEMA National Risk Index v1.20 (December 2025)"},"geometry":{"type":"MultiPolygon","coordinates":[[[[-68.942291,44.284361],[-68.93785,44.291975],[-68.93121,44.293438],[-68.928197,44.303227],[-68.911393,44.313279],[-68.913532,44.317531],[-68.902599,44.324503],[-68.909254,44.329773],[-68.918048,44.324503],[-68.919474,44.337594],[-68.908837,44.345361],[-68.911634,44.365027],[-68.901762,44.374711],[-68.90353,44.378613],[-68.882158,44.379568],[-68.880085,44.39309],[-68.86044,44.364907],[-68.872406,44.343966],[-68.890682,44.336396],[-68.890952,44.326713],[-68.897288,44.326634],[-68.893788,44.317583],[-68.899746,44.311919],[-68.886436,44.304435],[-68.903074,44.279937],[-68.912581,44.244532],[-68.930244,44.230956],[-68.924703,44.250831],[-68.927317,44.265131],[-68.922088,44.266833],[-68.921613,44.272279],[-68.927317,44.289975],[-68.939914,44.279596],[-68.942291,44.284361]]],[[[-68.951942,44.219623],[-68.938488,44.238402],[-68.94039,44.244872],[-68.931833,44.248618],[-68.939677,44.226481],[-68.951942,44.219623]]],[[[-68.964699,44.194644],[-68.964395,44.200757],[-68.953462,44.208254],[-68.958687,44.192094],[-68.961543,44.18951],[-68.964699,44.194644]]],[[[-68.965584,44.255428],[-68.962732,44.261386],[-68.959404,44.257981],[-68.956314,44.261556],[-68.948096,44.277676],[-68.933259,44.272789],[-68.945143,44.261726],[-68.936349,44.25662],[-68.945856,44.248278],[-68.955285,44.243618],[-68.966841,44.250892],[-68.965584,44.255428]]],[[[-68.983542,44.175111],[-68.981271,44.176897],[-68.980082,44.172636],[-68.984096,44.172095],[-68.983542,44.175111]]],[[[-69.477043,44.401352],[-69.445498,44.463839],[-69.395987,44.457078],[-69.372419,44.544585],[-69.41684,44.55108],[-69.393123,44.640375],[-69.460606,44.647054],[-69.460558,44.655611],[-69.454631,44.662815],[-69.447949,44.662175],[-69.442936,44.672381],[-69.475599,44.676678],[-69.477318,44.692061],[-69.416844,44.700981],[-69.41455,44.718701],[-69.394952,44.732193],[-69.397639,44.746785],[-69.388154,44.747547],[-69.386768,44.753372],[-69.343545,44.749819],[-69.327407,44.714442],[-69.2052,44.729586],[-69.183732,44.644023],[-68.865357,44.694217],[-68.837529,44.702125],[-68.837025,44.69233],[-68.816537,44.685804],[-68.812114,44.669322],[-68.831627,44.651609],[-68.847533,44.6215],[-68.844755,44.613493],[-68.823619,44.596019],[-68.811595,44.573719],[-68.798272,44.568096],[-68.806089,44.553634],[-68.8023408031601,44.5249197141733],[-68.80919,44.513446],[-68.805388,44.505141],[-68.807764,44.49836],[-68.827729,44.490561],[-68.835098,44.481404],[-68.825353,44.468176],[-68.812993,44.47055],[-68.811092,44.46614],[-68.829153,44.462242],[-68.880271,44.428112],[-68.886491,44.430676],[-68.897104,44.450643],[-68.921613,44.45664],[-68.943733,44.428367],[-68.998384,44.425586],[-68.981508,44.398761],[-68.987688,44.393496],[-68.982697,44.386023],[-68.9673,44.381106],[-68.948164,44.355882],[-68.949883,44.339993],[-68.963443,44.308317],[-68.980195,44.29483],[-68.98547,44.298374],[-69.003682,44.294582],[-69.005071,44.274071],[-69.028368,44.249007],[-69.043105,44.25955],[-69.121622,44.255644],[-69.268882,44.364653],[-69.346616,44.308337],[-69.394361,44.342934],[-69.402269,44.343059],[-69.409083,44.3364],[-69.404569,44.332941],[-69.409635,44.327998],[-69.506382,44.34287],[-69.477043,44.401352]]]]}},{"type":"Feature","properties":{"GEOID":"23017","NAME":"Oxford","state":"ME","wildfire_risk_score":27.226,"wildfire_eal_total":10785.84,"risk_band":"High","source":"FEMA National Risk Index v1.20 (December 2025)"},"geometry":{"type":"Polygon","coordinates":[[[-71.080003,45.306987],[-71.059265,45.313753],[-71.032455,45.310074],[-71.00905,45.319022],[-71.0024,45.328482],[-71.01129,45.334424],[-71.01081,45.34725],[-70.985595,45.332188],[-70.967188,45.332401],[-70.952377,45.339097],[-70.939188,45.320177],[-70.917904,45.311924],[-70.919869,45.305389],[-70.912111,45.296197],[-70.9217,45.279445],[-70.907978,45.269316],[-70.906618,45.261487],[-70.898565,45.258502],[-70.896898,45.242031],[-70.885029,45.234873],[-70.857042,45.22916],[-70.837529,45.23497],[-70.848319,45.244707],[-70.849261,45.256398],[-70.848554,45.263325],[-70.8350669265968,45.276743165189],[-70.779842,45.018379],[-70.823634,45.01379],[-70.804537,44.924934],[-70.796412,44.925877],[-70.773901,44.839741],[-70.769228,44.732228],[-70.61503,44.795634],[-70.510598,44.627216],[-70.549985,44.610727],[-70.280748,44.569619],[-70.307659,44.537876],[-70.289888,44.540248],[-70.280908,44.505095],[-70.270618,44.506218],[-70.269388,44.501181],[-70.250895,44.503402],[-70.238904,44.458942],[-70.274412,44.440632],[-70.268287,44.416406],[-70.278692,44.415173],[-70.265223,44.362913],[-70.325218,44.208399],[-70.334094,44.210753],[-70.485288,44.060398],[-70.47922,44.055664],[-70.480078,44.032078],[-70.502371,44.042568],[-70.508997,44.041454],[-70.544094,44.005647],[-70.563851,44.024992],[-70.573957,44.015648],[-70.582591,44.018693],[-70.581645,44.022312],[-70.595631,44.032057],[-70.592631,44.035057],[-70.603633,44.041453],[-70.603675,44.050239],[-70.613882,44.061845],[-70.603009,44.088593],[-70.606173,44.101293],[-70.587233,44.124097],[-70.598661,44.149768],[-70.624329,44.171036],[-70.69592,44.134217],[-70.699501,44.139197],[-70.821803,44.077089],[-70.858546,44.095269],[-70.857804,44.088042],[-70.866583,44.079706],[-70.861319,44.077226],[-70.858452,44.05964],[-70.848077,44.049522],[-70.792531,44.04014],[-70.791679,44.02874],[-70.78176,44.031394],[-70.715418,43.961815],[-70.747507,43.945901],[-70.72978,43.92833],[-70.757934,43.906864],[-70.754509,43.888464],[-70.743878,43.885849],[-70.765288,43.871538],[-70.766288,43.877239],[-70.780492,43.868231],[-70.781503,43.873879],[-70.798193,43.863304],[-70.792945,43.85924],[-70.801612,43.856083],[-70.792734,43.847854],[-70.794289,43.834257],[-70.787126,43.832604],[-70.781553,43.822873],[-70.782984,43.814147],[-70.791669,43.812874],[-70.796924,43.806295],[-70.813992,43.811432],[-70.861282,43.804693],[-70.880657,43.810858],[-70.912682,43.800909],[-70.927071,43.790299],[-70.942606,43.792283],[-70.957548,43.785123],[-70.964215,43.7881],[-70.971749,43.785053],[-70.98278,43.79367],[-70.9890367618669,43.7921536087332],[-71.008736,44.258825],[-71.031039,44.655455],[-71.083924,45.305451],[-71.080003,45.306987]]]}},{"type":"Feature","properties":{"GEOID":"23013","NAME":"Knox","state":"ME","wildfire_risk_score":16.794,"wildfire_eal_total":7364.87,"risk_band":"Low","source":"FEMA National Risk Index v1.20 (December 2025)"},"geometry":{"type":"MultiPolygon","coordinates":[[[[-68.559259,44.04502],[-68.555043,44.049235],[-68.555957,44.03947],[-68.55919,44.040617],[-68.559259,44.04502]]],[[[-68.579116,44.097579],[-68.575736,44.101517],[-68.571273,44.099969],[-68.576502,44.09519],[-68.579116,44.097579]]],[[[-68.592189,44.06753],[-68.588148,44.072312],[-68.584101,44.071589],[-68.590554,44.058659],[-68.592189,44.06753]]],[[[-68.658794,44.110212],[-68.641231,44.10858],[-68.637174,44.099408],[-68.651267,44.101422],[-68.658794,44.110212]]],[[[-68.671099,44.075898],[-68.635209,44.081191],[-68.617858,44.097238],[-68.608589,44.094336],[-68.610728,44.089044],[-68.601325,44.08632],[-68.598844,44.06753],[-68.601101,44.045263],[-68.612154,44.019864],[-68.601696,44.012514],[-68.615896,44.009761],[-68.619997,44.019693],[-68.627841,44.021573],[-68.628554,44.016275],[-68.642312,44.016206],[-68.657031,44.003823],[-68.661044,44.017051],[-68.653647,44.037921],[-68.640913,44.050621],[-68.644716,44.053866],[-68.654936,44.044983],[-68.660825,44.047892],[-68.650658,44.065139],[-68.671099,44.075898]]],[[[-68.751159,43.88539],[-68.743691,43.885634],[-68.731733,43.893489],[-68.741836,43.88301],[-68.751159,43.88539]]],[[[-68.789938,44.139981],[-68.786374,44.144117],[-68.781144,44.144927],[-68.792221,44.136835],[-68.789938,44.139981]]],[[[-68.803486,44.141516],[-68.800872,44.144074],[-68.791364,44.146974],[-68.802535,44.137422],[-68.803486,44.141516]]],[[[-68.826541,44.136399],[-68.823927,44.13964],[-68.805625,44.14288],[-68.808002,44.137252],[-68.826541,44.136399]]],[[[-68.826541,43.847674],[-68.815845,43.861557],[-68.811157,43.860213],[-68.809666,43.856929],[-68.826541,43.847674]]],[[[-68.893134,44.036591],[-68.889051,44.03943],[-68.884309,44.030778],[-68.891428,44.029862],[-68.893134,44.036591]]],[[[-68.899108,43.821925],[-68.891091,43.835522],[-68.876224,43.836597],[-68.883616,43.832245],[-68.886725,43.822195],[-68.899108,43.821925]]],[[[-68.905926,43.853844],[-68.901589,43.857877],[-68.902377,43.869169],[-68.896181,43.873037],[-68.890073,43.875496],[-68.881683,43.868582],[-68.878831,43.8583],[-68.896181,43.848531],[-68.907704,43.849347],[-68.905926,43.853844]]],[[[-68.908303,44.061296],[-68.899271,44.066932],[-68.89428,44.064883],[-68.895231,44.049339],[-68.908303,44.061296]]],[[[-68.911847,44.096399],[-68.909016,44.112172],[-68.899033,44.123433],[-68.887387,44.125481],[-68.863619,44.119338],[-68.861242,44.111489],[-68.869086,44.101761],[-68.865996,44.100737],[-68.847219,44.114219],[-68.846982,44.120533],[-68.853874,44.124286],[-68.839613,44.131964],[-68.837237,44.116608],[-68.822976,44.122922],[-68.814222,44.116116],[-68.806101,44.116779],[-68.806814,44.106369],[-68.79493,44.10159],[-68.772112,44.078886],[-68.779718,44.068469],[-68.774489,44.064371],[-68.798232,44.043042],[-68.807289,44.043531],[-68.806576,44.03533],[-68.828417,44.031566],[-68.844129,44.040456],[-68.84998,44.035636],[-68.849897,44.028286],[-68.862431,44.029349],[-68.858628,44.024564],[-68.862845,44.025037],[-68.87379,44.03945],[-68.870512,44.050877],[-68.88097,44.059418],[-68.879781,44.075129],[-68.895468,44.08691],[-68.895706,44.068299],[-68.906906,44.078523],[-68.905451,44.089812],[-68.911847,44.096399]]],[[[-68.916146,44.04746],[-68.910442,44.053098],[-68.906334,44.044866],[-68.912106,44.041481],[-68.916146,44.04746]]],[[[-68.944269,44.112697],[-68.931833,44.124116],[-68.932784,44.133328],[-68.924337,44.136923],[-68.915909,44.14902],[-68.846121,44.184431],[-68.824712,44.186133],[-68.818998,44.180574],[-68.826303,44.176471],[-68.819173,44.171187],[-68.819096,44.163022],[-68.807065,44.157816],[-68.815132,44.154818],[-68.812756,44.150044],[-68.804704,44.153876],[-68.80206,44.150555],[-68.826779,44.143563],[-68.82464,44.148509],[-68.829631,44.150726],[-68.845555,44.146633],[-68.842941,44.142539],[-68.850547,44.137763],[-68.862193,44.139981],[-68.858152,44.126163],[-68.903549,44.127357],[-68.875265,44.142369],[-68.8881,44.144927],[-68.90759,44.13094],[-68.926604,44.12531],[-68.935874,44.109271],[-68.944269,44.112697]]],[[[-69.014546,43.908665],[-69.007802,43.907278],[-69.004801,43.901301],[-69.012882,43.900959],[-69.014546,43.908665]]],[[[-69.037601,43.916199],[-69.031659,43.916884],[-69.029757,43.915343],[-69.035462,43.911405],[-69.037601,43.916199]]],[[[-69.046157,44.076239],[-69.038094,44.085838],[-69.032036,44.07934],[-69.036175,44.074361],[-69.046157,44.076239]]],[[[-69.051148,44.067018],[-69.04996,44.068896],[-69.04283,44.068213],[-69.048059,44.060357],[-69.051148,44.067018]]],[[[-69.059943,44.001573],[-69.059467,44.007215],[-69.049044,44.011127],[-69.042592,44.007044],[-69.054714,43.992853],[-69.059943,44.001573]]],[[[-69.07254,44.012172],[-69.062649,44.014931],[-69.05614,44.012172],[-69.071589,44.004821],[-69.07254,44.012172]]],[[[-69.073253,44.040883],[-69.071351,44.042933],[-69.066835,44.040541],[-69.072285,44.036616],[-69.073253,44.040883]]],[[[-69.083126,43.981522],[-69.077531,43.984132],[-69.07254,43.978659],[-69.078482,43.973015],[-69.083126,43.981522]]],[[[-69.09607,43.983961],[-69.066598,43.996957],[-69.065409,43.994392],[-69.069635,43.985912],[-69.078006,43.986184],[-69.093118,43.97915],[-69.09607,43.983961]]],[[[-69.13247,43.871263],[-69.127919,43.894965],[-69.118938,43.898262],[-69.125304,43.877835],[-69.120551,43.871667],[-69.122215,43.868582],[-69.13247,43.871263]]],[[[-69.225843,43.918767],[-69.222516,43.925444],[-69.212939,43.921404],[-69.220195,43.914937],[-69.227507,43.916199],[-69.225843,43.918767]]],[[[-69.296553,43.871324],[-69.295602,43.87595],[-69.291418,43.871578],[-69.28348,43.873723],[-69.282501,43.864579],[-69.295364,43.862585],[-69.296553,43.871324]]],[[[-69.300333,43.937055],[-69.292988,43.942389],[-69.285857,43.931435],[-69.299336,43.932915],[-69.300333,43.937055]]],[[[-69.314666,43.917285],[-69.307401,43.91811],[-69.309863,43.906268],[-69.31552,43.913613],[-69.314666,43.917285]]],[[[-69.322935,43.901644],[-69.314101,43.902272],[-69.307961,43.891025],[-69.313666,43.891196],[-69.322935,43.901644]]],[[[-69.323508,43.860573],[-69.318565,43.879711],[-69.315245,43.882835],[-69.305882,43.877418],[-69.310829,43.859486],[-69.321031,43.856708],[-69.323508,43.860573]]],[[[-69.351694,43.927155],[-69.343138,43.934858],[-69.340576,43.933846],[-69.346465,43.922533],[-69.351875,43.922543],[-69.351694,43.927155]]],[[[-69.384717,43.909183],[-69.379561,43.913873],[-69.370905,43.912745],[-69.383544,43.89565],[-69.384717,43.909183]]],[[[-69.451251,44.31395],[-69.436988,44.324485],[-69.416429,44.321302],[-69.404569,44.332941],[-69.409083,44.3364],[-69.402269,44.343059],[-69.394361,44.342934],[-69.346616,44.308337],[-69.268882,44.364653],[-69.121622,44.255644],[-69.043105,44.25955],[-69.028368,44.249007],[-69.040193,44.233673],[-69.045577,44.209251],[-69.054714,44.211491],[-69.05923,44.207913],[-69.05181,44.19592],[-69.057081,44.182945],[-69.054546,44.171542],[-69.06124,44.165498],[-69.066835,44.178432],[-69.074203,44.183545],[-69.080978,44.156768],[-69.079608,44.143962],[-69.09298,44.13529],[-69.089177,44.132049],[-69.075867,44.134608],[-69.076342,44.124884],[-69.085865,44.114137],[-69.100823,44.116864],[-69.104389,44.11055],[-69.100863,44.104529],[-69.105577,44.101676],[-69.101107,44.093601],[-69.107241,44.090581],[-69.103438,44.077947],[-69.076452,44.090634],[-69.062795,44.089215],[-69.056303,44.095162],[-69.043403,44.092164],[-69.052099,44.085288],[-69.059705,44.069238],[-69.070566,44.064814],[-69.069687,44.058478],[-69.079805,44.055256],[-69.073767,44.046135],[-69.077056,44.04225],[-69.094177,44.038981],[-69.128052,44.017309],[-69.121026,44.003454],[-69.109855,43.998325],[-69.113183,43.994563],[-69.125878,43.995992],[-69.127444,44.002428],[-69.132197,44.003283],[-69.141942,43.986526],[-69.123502,43.979015],[-69.131536,43.976089],[-69.144081,43.979514],[-69.149072,43.991656],[-69.160693,43.989168],[-69.162559,43.999003],[-69.17725,43.985575],[-69.17498,43.976949],[-69.182823,43.974896],[-69.184724,43.959671],[-69.191842,43.957877],[-69.211474,43.936979],[-69.212058,43.931093],[-69.244276,43.930399],[-69.24271,43.925465],[-69.273949,43.914215],[-69.279321,43.915685],[-69.279796,43.922362],[-69.267515,43.943667],[-69.283998,43.958569],[-69.317469,43.940506],[-69.319751,43.94487],[-69.304301,43.962068],[-69.313666,43.961382],[-69.325334,43.970941],[-69.333868,43.965659],[-69.323411,43.955052],[-69.327689,43.945811],[-69.340286,43.949747],[-69.354547,43.930237],[-69.375225,43.924588],[-69.361439,43.938281],[-69.364633,43.943472],[-69.355973,43.954538],[-69.351219,43.952998],[-69.346465,43.963093],[-69.330066,43.971817],[-69.335762,43.974404],[-69.345752,43.96908],[-69.3429,43.979685],[-69.350506,43.983448],[-69.35621,43.977291],[-69.354071,43.97233],[-69.368807,43.966343],[-69.371184,43.977462],[-69.36239,43.993879],[-69.3682870397625,43.9951357157085],[-69.363996,44.012873],[-69.357233,44.010949],[-69.345797,44.018755],[-69.334661,44.004679],[-69.327832,44.006185],[-69.318612,44.03721],[-69.298216,44.047349],[-69.29803,44.058991],[-69.282268,44.052584],[-69.282027,44.064523],[-69.303835,44.096492],[-69.311502,44.09549],[-69.303661,44.132677],[-69.337672,44.20937],[-69.372175,44.205405],[-69.40602,44.210674],[-69.403633,44.219145],[-69.432837,44.22674],[-69.449481,44.26227],[-69.440665,44.284434],[-69.451251,44.31395]]]]}},{"type":"Feature","properties":{"GEOID":"23023","NAME":"Sagadahoc","state":"ME","wildfire_risk_score":14.345,"wildfire_eal_total":5782.88,"risk_band":"Low","source":"FEMA National Risk Index v1.20 (December 2025)"},"geometry":{"type":"MultiPolygon","coordinates":[[[[-69.760309,43.710438],[-69.754324,43.710044],[-69.757176,43.703343],[-69.760028,43.705577],[-69.760309,43.710438]]],[[[-70.051108,43.992335],[-70.043477,44.002268],[-70.037562,43.999617],[-70.032338,44.003243],[-70.036423,44.027141],[-70.025127,44.036364],[-70.027246,44.043358],[-70.005471,44.124519],[-69.897783,44.107662],[-69.879603,44.15169],[-69.854983,44.167862],[-69.763566,44.153217],[-69.758254,44.142363],[-69.761321,44.125484],[-69.774175,44.099351],[-69.785851,44.08718],[-69.787269,44.074741],[-69.782872,44.070468],[-69.790306,44.042466],[-69.813549,44.026011],[-69.700152,44.006585],[-69.719628,43.971287],[-69.724963,43.934852],[-69.707421,43.927251],[-69.743533,43.893537],[-69.729463,43.876629],[-69.730482,43.868713],[-69.722903,43.853067],[-69.714381,43.850604],[-69.7028415007163,43.8546571039805],[-69.701797,43.850759],[-69.705837,43.820413],[-69.714873,43.810264],[-69.721559,43.782],[-69.741014,43.769288],[-69.754091,43.743866],[-69.76597,43.745769],[-69.770724,43.737183],[-69.778633,43.73689],[-69.77833,43.742506],[-69.782845,43.742335],[-69.793541,43.735638],[-69.791402,43.730142],[-69.826579,43.722584],[-69.833471,43.717775],[-69.828955,43.70678],[-69.836799,43.699735],[-69.839704,43.705061],[-69.855081,43.704746],[-69.850347,43.717775],[-69.857927,43.723915],[-69.848683,43.742163],[-69.862706,43.743022],[-69.871116,43.731644],[-69.868913,43.753178],[-69.861517,43.759332],[-69.873058,43.766429],[-69.869361,43.777354],[-69.887390287866,43.777052327585],[-69.887345,43.787937],[-69.870093,43.816666],[-69.876119,43.837157],[-69.874879,43.851402],[-69.895953,43.866238],[-69.892506,43.880311],[-69.868655,43.910916],[-69.857032,43.944742],[-69.874657,43.95359],[-69.9047,43.925589],[-69.931291,43.911924],[-69.956732,43.923441],[-69.976226,43.915276],[-70.008035,43.942015],[-70.020236,43.946062],[-70.032646,43.973691],[-70.051108,43.992335]]]]}},{"type":"Feature","properties":{"GEOID":"23025","NAME":"Somerset","state":"ME","wildfire_risk_score":22.074,"wildfire_eal_total":8671.75,"risk_band":"Moderate","source":"FEMA National Risk Index v1.20 (December 2025)"},"geometry":{"type":"Polygon","coordinates":[[[-70.552793,45.667836],[-70.534333,45.670751],[-70.526751,45.666464],[-70.465982,45.706256],[-70.438878,45.704387],[-70.400404,45.719834],[-70.397385,45.729081],[-70.390379,45.728539],[-70.383552,45.734869],[-70.394002,45.740083],[-70.388501,45.749717],[-70.406548,45.761813],[-70.405677,45.776528],[-70.415359,45.784662],[-70.417674,45.79457],[-70.395907,45.798885],[-70.39662,45.808486],[-70.388224,45.813946],[-70.387916,45.819043],[-70.369368,45.831158],[-70.371823,45.834212],[-70.356439,45.83759],[-70.34244,45.852192],[-70.306162,45.85974],[-70.259117,45.890755],[-70.265754,45.893467],[-70.253897,45.906524],[-70.258992,45.909352],[-70.25788,45.918138],[-70.263313,45.923832],[-70.24092,45.939095],[-70.240177,45.943729],[-70.252963,45.955234],[-70.261195,45.952284],[-70.258587,45.959327],[-70.274869,45.962252],[-70.276249,45.966873],[-70.316936,45.963456],[-70.311746,45.966276],[-70.307463,45.982541],[-70.284571,45.995384],[-70.303034,45.998976],[-70.306427,46.010272],[-70.317596,46.019492],[-70.298708,46.030359],[-70.302071,46.032751],[-70.299151,46.038486],[-70.278334,46.057019],[-70.284176,46.062758],[-70.308967,46.062464],[-70.301076,46.083254],[-70.293288,46.085764],[-70.285471,46.100054],[-70.252413,46.100625],[-70.255069,46.1102],[-70.236714,46.144937],[-70.278034,46.175001],[-70.292736,46.191599],[-70.272054,46.209833],[-70.274116,46.215177],[-70.251445,46.248656],[-70.252906,46.259075],[-70.231268,46.291193],[-70.205719,46.299865],[-70.203119,46.31438],[-70.208733,46.328961],[-70.191498,46.349961],[-70.171969,46.359294],[-70.148529,46.358923],[-70.136441,46.36988],[-70.129734,46.369384],[-70.125459,46.381352],[-70.11044,46.38611],[-70.096286,46.40943],[-70.05695,46.415155],[-70.0233609283763,46.5735207117177],[-69.721109,46.574053],[-69.719246,46.394109],[-69.73232,46.394008],[-69.728577,45.976882],[-69.683564,45.983632],[-69.646566,45.863988],[-69.656561,45.860312],[-69.673449,45.862406],[-69.674654,45.852129],[-69.683369,45.851002],[-69.68979,45.854032],[-69.691893,45.864771],[-69.696801,45.86421],[-69.70131,45.872607],[-69.697674,45.885378],[-69.732092,45.878368],[-69.737822,45.883209],[-69.733698,45.877034],[-69.72494,45.874043],[-69.725489,45.866871],[-69.711644,45.860842],[-69.704317,45.846185],[-69.712062,45.832258],[-69.719943,45.834846],[-69.725711,45.83444],[-69.718691,45.832667],[-69.708673,45.811812],[-69.722812,45.783326],[-69.73791,45.782541],[-69.726021,45.771614],[-69.726362,45.762309],[-69.736678,45.754651],[-69.751441,45.765914],[-69.751868,45.762072],[-69.768523,45.761322],[-69.781681,45.778371],[-69.784942,45.776958],[-69.78171,45.781854],[-69.784633,45.78497],[-69.801671,45.786139],[-69.784138,45.782251],[-69.789429,45.778079],[-69.782763,45.774997],[-69.7821,45.769632],[-69.790091,45.76798],[-69.794489,45.757576],[-69.788138,45.746864],[-69.817033,45.746693],[-69.833105,45.738593],[-69.824015,45.742196],[-69.791468,45.728214],[-69.80306,45.720968],[-69.808299,45.723164],[-69.814673,45.721525],[-69.808984,45.722601],[-69.790244,45.710342],[-69.782376,45.690352],[-69.757047,45.679942],[-69.738487,45.679033],[-69.739388,45.667452],[-69.744516,45.663746],[-69.739543,45.657073],[-69.743752,45.652005],[-69.735397,45.651123],[-69.731735,45.655822],[-69.734701,45.657608],[-69.721563,45.657237],[-69.691808,45.644941],[-69.697019,45.64099],[-69.713374,45.650421],[-69.716961,45.645614],[-69.718135,45.639747],[-69.708234,45.637541],[-69.701654,45.627726],[-69.709911,45.613161],[-69.719287,45.614632],[-69.721187,45.60399],[-69.713481,45.595622],[-69.714458,45.585571],[-69.723245,45.581924],[-69.731351,45.567021],[-69.759074,45.554608],[-69.774369,45.553853],[-69.773375,45.545362],[-69.779928,45.542766],[-69.700428,45.292461],[-69.708324,45.291354],[-69.704063,45.273085],[-69.683646,45.212399],[-69.687031,45.208225],[-69.65476,45.099989],[-69.64576,45.101323],[-69.620967,45.010956],[-69.515649,45.025043],[-69.518602,45.034268],[-69.495192,45.037352],[-69.499861,45.053778],[-69.355667,45.073469],[-69.281275,44.808657],[-69.286336,44.807988],[-69.266785,44.721928],[-69.327407,44.714442],[-69.343545,44.749819],[-69.382372,44.754215],[-69.388668,44.751619],[-69.388154,44.747547],[-69.397639,44.746785],[-69.394952,44.732193],[-69.41455,44.718701],[-69.416844,44.700981],[-69.471712,44.692899],[-69.467531,44.707986],[-69.473199,44.708742],[-69.470382,44.718161],[-69.483395,44.720271],[-69.633118,44.700373],[-69.62869,44.672427],[-69.616971,44.656287],[-69.579094,44.626971],[-69.593036,44.601902],[-69.589967,44.587125],[-69.605746,44.577264],[-69.742091,44.598246],[-69.744282,44.602607],[-69.776294,44.608236],[-69.787324,44.594113],[-69.792813,44.57733],[-69.818468,44.581312],[-69.817152,44.59777],[-69.822438,44.607585],[-69.853273,44.621506],[-69.930451,44.610852],[-69.947081,44.648022],[-69.968768,44.661339],[-69.95937,44.661076],[-69.958853,44.670254],[-69.964839,44.674246],[-69.960149,44.681226],[-69.996191,44.677497],[-70.013529,44.757699],[-70.00066,44.759043],[-70.003154,44.78829],[-70.015597,44.786947],[-70.020723,44.809767],[-70.027107,44.809062],[-70.032256,44.829837],[-70.025532,44.830681],[-70.03327,44.86454],[-70.12993,44.850765],[-70.141589,44.895772],[-70.149085,44.896102],[-70.152585,44.910299],[-70.144768,44.911485],[-70.15211,44.941847],[-70.110365,44.947311],[-70.159375,45.128396],[-70.293826,45.109903],[-70.308491,45.163183],[-70.312485,45.164681],[-70.364908,45.157599],[-70.363572,45.152475],[-70.418519,45.144005],[-70.518696,45.512127],[-70.505775,45.513774],[-70.552793,45.667836]]]}},{"type":"Feature","properties":{"GEOID":"23007","NAME":"Franklin","state":"ME","wildfire_risk_score":15.999,"wildfire_eal_total":5404.2,"risk_band":"Low","source":"FEMA National Risk Index v1.20 (December 2025)"},"geometry":{"type":"Polygon","coordinates":[[[-70.835536,45.293804],[-70.816224,45.29812],[-70.80642,45.320598],[-70.819828,45.340109],[-70.810114,45.348498],[-70.81445,45.356544],[-70.802745,45.366556],[-70.813383,45.387031],[-70.824053,45.391094],[-70.825612,45.400305],[-70.795009,45.428145],[-70.788126,45.426603],[-70.781471,45.431159],[-70.753977,45.427789],[-70.744077,45.421091],[-70.743775,45.411925],[-70.730844,45.404599],[-70.729972,45.399359],[-70.712286,45.390611],[-70.677995,45.394362],[-70.66116,45.386039],[-70.660029,45.377901],[-70.634661,45.383608],[-70.638933,45.388916],[-70.636002,45.395601],[-70.621464,45.402668],[-70.635271,45.412147],[-70.627459,45.421633],[-70.650684,45.444915],[-70.681156,45.452176],[-70.681954,45.461849],[-70.692726,45.46678],[-70.692095,45.474657],[-70.717047,45.487732],[-70.711845,45.502113],[-70.723167,45.507606],[-70.722845,45.512772],[-70.699077,45.530212],[-70.687605,45.549099],[-70.677166,45.552166],[-70.688712,45.561636],[-70.68772,45.569355],[-70.678462,45.570677],[-70.659286,45.58688],[-70.644687,45.607083],[-70.619816,45.611978],[-70.606193,45.626386],[-70.591275,45.630551],[-70.583403,45.64243],[-70.564789,45.65515],[-70.563779,45.662693],[-70.5528308290872,45.6678281400238],[-70.505775,45.513774],[-70.518696,45.512127],[-70.418519,45.144005],[-70.363572,45.152475],[-70.364908,45.157599],[-70.312485,45.164681],[-70.308491,45.163183],[-70.293826,45.109903],[-70.159375,45.128396],[-70.110365,44.947311],[-70.15211,44.941847],[-70.144768,44.911485],[-70.152585,44.910299],[-70.149085,44.896102],[-70.141589,44.895772],[-70.12993,44.850765],[-70.03327,44.86454],[-70.025532,44.830681],[-70.032256,44.829837],[-70.027107,44.809062],[-70.020723,44.809767],[-70.015597,44.786947],[-70.003154,44.78829],[-70.00066,44.759043],[-70.013529,44.757699],[-69.996191,44.677497],[-69.960149,44.681226],[-69.964839,44.674246],[-69.958853,44.670254],[-69.95937,44.661076],[-69.968768,44.661339],[-69.947081,44.648022],[-69.927661,44.604123],[-69.953495,44.574688],[-70.040215,44.588722],[-70.041163,44.571253],[-70.072226,44.529324],[-70.04066,44.515135],[-70.035546,44.508083],[-70.04529,44.494814],[-70.04235,44.485235],[-70.12939,44.487217],[-70.187103,44.480023],[-70.201276,44.477976],[-70.238904,44.458942],[-70.250895,44.503402],[-70.269388,44.501181],[-70.270618,44.506218],[-70.280908,44.505095],[-70.289888,44.540248],[-70.307659,44.537876],[-70.280748,44.569619],[-70.549985,44.610727],[-70.510598,44.627216],[-70.61503,44.795634],[-70.769228,44.732228],[-70.773901,44.839741],[-70.796412,44.925877],[-70.804537,44.924934],[-70.823634,45.01379],[-70.779842,45.018379],[-70.8350669265968,45.276743165189],[-70.829661,45.290369],[-70.835536,45.293804]]]}},{"type":"Feature","properties":{"GEOID":"23021","NAME":"Piscataquis","state":"ME","wildfire_risk_score":9.16,"wildfire_eal_total":2822.85,"risk_band":"Low","source":"FEMA National Risk Index v1.20 (December 2025)"},"geometry":{"type":"Polygon","coordinates":[[[-69.831183,45.738602],[-69.817033,45.746693],[-69.788138,45.746864],[-69.794489,45.757576],[-69.790091,45.76798],[-69.7821,45.769632],[-69.782763,45.774997],[-69.789429,45.778079],[-69.784138,45.782251],[-69.797055,45.783282],[-69.799991,45.783995],[-69.798621,45.784644],[-69.801881,45.785458],[-69.801671,45.786139],[-69.784633,45.78497],[-69.78171,45.781854],[-69.784942,45.776958],[-69.781681,45.778371],[-69.768523,45.761322],[-69.751868,45.762072],[-69.751441,45.765914],[-69.736678,45.754651],[-69.726362,45.762309],[-69.726021,45.771614],[-69.73791,45.782541],[-69.722812,45.783326],[-69.708673,45.811812],[-69.718691,45.832667],[-69.719746,45.833956],[-69.724321,45.833293],[-69.725711,45.83444],[-69.719943,45.834846],[-69.712062,45.832258],[-69.704317,45.846185],[-69.711644,45.860842],[-69.725489,45.866871],[-69.72494,45.874043],[-69.733698,45.877034],[-69.737677,45.880271],[-69.737822,45.883209],[-69.732092,45.878368],[-69.697674,45.885378],[-69.70131,45.872607],[-69.696801,45.86421],[-69.691893,45.864771],[-69.68979,45.854032],[-69.683369,45.851002],[-69.674654,45.852129],[-69.673449,45.862406],[-69.656561,45.860312],[-69.646566,45.863988],[-69.683564,45.983632],[-69.728577,45.976882],[-69.73232,46.394008],[-69.719246,46.394109],[-69.721109,46.574053],[-68.821414,46.57251],[-68.81949,46.37988],[-68.827039,45.684826],[-68.95891,45.662195],[-68.950699,45.638434],[-68.951719,45.581782],[-68.964653,45.512367],[-68.857297,45.527301],[-68.831206,45.44243],[-68.776061,45.240317],[-68.880923,45.224947],[-68.856587,45.142783],[-69.499861,45.053778],[-69.495192,45.037352],[-69.518602,45.034268],[-69.515649,45.025043],[-69.620967,45.010956],[-69.64576,45.101323],[-69.65476,45.099989],[-69.687031,45.208225],[-69.683646,45.212399],[-69.704063,45.273085],[-69.708324,45.291354],[-69.700428,45.292461],[-69.779928,45.542766],[-69.773375,45.545362],[-69.774369,45.553853],[-69.759074,45.554608],[-69.731351,45.567021],[-69.723245,45.581924],[-69.714458,45.585571],[-69.713481,45.595622],[-69.721187,45.60399],[-69.719287,45.614632],[-69.709911,45.613161],[-69.701654,45.627726],[-69.708234,45.637541],[-69.718135,45.639747],[-69.716961,45.645614],[-69.713374,45.650421],[-69.697019,45.64099],[-69.691808,45.644941],[-69.721563,45.657237],[-69.734701,45.657608],[-69.731735,45.655822],[-69.735397,45.651123],[-69.743752,45.652005],[-69.739543,45.657073],[-69.744516,45.663746],[-69.739388,45.667452],[-69.738487,45.679033],[-69.757047,45.679942],[-69.782376,45.690352],[-69.790244,45.710342],[-69.808984,45.722601],[-69.814673,45.721525],[-69.808299,45.723164],[-69.80306,45.720968],[-69.791468,45.728214],[-69.824015,45.742196],[-69.831183,45.738602]]]}},{"type":"Feature","properties":{"GEOID":"23001","NAME":"Androscoggin","state":"ME","wildfire_risk_score":24.777,"wildfire_eal_total":11505.09,"risk_band":"Moderate","source":"FEMA National Risk Index v1.20 (December 2025)"},"geometry":{"type":"Polygon","coordinates":[[[-70.485288,44.060398],[-70.334094,44.210753],[-70.325218,44.208399],[-70.265223,44.362913],[-70.278692,44.415173],[-70.268287,44.416406],[-70.274412,44.440632],[-70.201276,44.477976],[-70.12939,44.487217],[-70.100491,44.383854],[-70.122172,44.381131],[-70.120052,44.372712],[-70.132595,44.371382],[-70.100183,44.334521],[-70.09905,44.319547],[-70.074464,44.298471],[-70.075747,44.206168],[-70.055663,44.199144],[-70.060498,44.191775],[-69.993792,44.180594],[-69.998796,44.166834],[-70.010329,44.168651],[-70.013954,44.157581],[-70.018501,44.157851],[-70.027386,44.130577],[-70.005471,44.124519],[-70.027246,44.043358],[-70.025127,44.036364],[-70.036423,44.027141],[-70.032338,44.003243],[-70.037562,43.999617],[-70.043477,44.002268],[-70.051824,43.990982],[-70.034238,43.975661],[-70.080839,43.926458],[-70.092329,43.931953],[-70.11586,43.90671],[-70.203647,43.947928],[-70.200284,43.951993],[-70.315374,44.037807],[-70.363874,43.986445],[-70.395324,44.003091],[-70.401954,43.990108],[-70.479645,44.02629],[-70.47922,44.055664],[-70.485288,44.060398]]]}},{"type":"Feature","properties":{"GEOID":"23005","NAME":"Cumberland","state":"ME","wildfire_risk_score":38.931,"wildfire_eal_total":45429.11,"risk_band":"High","source":"FEMA National Risk Index v1.20 (December 2025)"},"geometry":{"type":"MultiPolygon","coordinates":[[[[-69.941532,43.730068],[-69.937337,43.730829],[-69.931158,43.72413],[-69.939009,43.723825],[-69.941532,43.730068]]],[[[-69.994143,43.837388],[-69.99034,43.842531],[-69.986537,43.84356],[-69.99034,43.831902],[-69.99747,43.832931],[-69.994143,43.837388]]],[[[-70.017911,43.816983],[-70.014346,43.823157],[-69.999847,43.829502],[-69.996757,43.8247],[-70.009354,43.811324],[-70.014821,43.811152],[-70.017911,43.816983]]],[[[-70.037638,43.714854],[-70.028844,43.726363],[-70.021001,43.724646],[-70.031221,43.714683],[-70.037638,43.714854]]],[[[-70.048809,43.792969],[-70.036925,43.801375],[-70.033835,43.809265],[-70.027016,43.809128],[-70.041203,43.790567],[-70.042392,43.782502],[-70.046562,43.781998],[-70.048809,43.792969]]],[[[-70.049047,43.722756],[-70.042867,43.728253],[-70.040015,43.728768],[-70.04667,43.72018],[-70.049047,43.722756]]],[[[-70.061236,43.746285],[-70.049997,43.761049],[-70.044769,43.764825],[-70.046165,43.757259],[-70.061325,43.7421],[-70.061236,43.746285]]],[[[-70.060931,43.762422],[-70.060218,43.767228],[-70.054989,43.770661],[-70.053325,43.765168],[-70.062594,43.759675],[-70.060931,43.762422]]],[[[-70.074003,43.785076],[-70.071626,43.787478],[-70.06307,43.78765],[-70.074478,43.779928],[-70.074003,43.785076]]],[[[-70.078757,43.796743],[-70.070913,43.803262],[-70.066635,43.804291],[-70.069963,43.796743],[-70.078757,43.796743]]],[[[-70.081609,43.712621],[-70.078757,43.715198],[-70.072098,43.718956],[-70.071304,43.713772],[-70.079285,43.706989],[-70.081609,43.712621]]],[[[-70.08969,43.715026],[-70.083748,43.720523],[-70.079707,43.720867],[-70.084223,43.714167],[-70.08969,43.715026]]],[[[-70.096107,43.72413],[-70.090403,43.731344],[-70.086362,43.732375],[-70.089452,43.726363],[-70.096107,43.72413]]],[[[-70.101227,43.675468],[-70.09285,43.687836],[-70.087257,43.691029],[-70.096039,43.672276],[-70.101227,43.675468]]],[[[-70.114646,43.780615],[-70.096039,43.78838],[-70.089653,43.785187],[-70.10202,43.77681],[-70.105615,43.782159],[-70.114646,43.780615]]],[[[-70.118174,43.686375],[-70.100683,43.705962],[-70.093113,43.710524],[-70.097184,43.700929],[-70.087621,43.699913],[-70.093704,43.6918],[-70.104426,43.694579],[-70.115908,43.682978],[-70.118174,43.686375]]],[[[-70.12249,43.704374],[-70.115835,43.7097],[-70.111794,43.710044],[-70.122252,43.700078],[-70.12249,43.704374]]],[[[-70.131442,43.79164],[-70.123434,43.793907],[-70.122214,43.793777],[-70.124917,43.790768],[-70.131442,43.79164]]],[[[-70.138137,43.727555],[-70.125818,43.745451],[-70.107922,43.74791],[-70.10341,43.756111],[-70.096126,43.757238],[-70.097494,43.748344],[-70.111096,43.730678],[-70.107334,43.725414],[-70.116784,43.722944],[-70.115357,43.717235],[-70.120682,43.712569],[-70.128147,43.708562],[-70.123756,43.718827],[-70.137204,43.720913],[-70.138137,43.727555]]],[[[-70.153183,43.712642],[-70.148976,43.714554],[-70.144459,43.713522],[-70.1467,43.708891],[-70.153183,43.712642]]],[[[-70.160281,43.749718],[-70.145545,43.76122],[-70.145545,43.775809],[-70.131786,43.774935],[-70.12653,43.779585],[-70.127243,43.773235],[-70.120351,43.77272],[-70.130809,43.770832],[-70.133898,43.763967],[-70.115359,43.764653],[-70.141504,43.749546],[-70.151833,43.746542],[-70.160281,43.749718]]],[[[-70.173571,43.683734],[-70.140553,43.707639],[-70.133661,43.702312],[-70.153864,43.686158],[-70.151724,43.681689],[-70.168227,43.675136],[-70.173571,43.683734]]],[[[-70.187614,43.739416],[-70.184287,43.742506],[-70.176681,43.745426],[-70.179771,43.739244],[-70.187614,43.739416]]],[[[-70.196646,43.715198],[-70.190466,43.722241],[-70.186663,43.723272],[-70.197121,43.711247],[-70.196646,43.715198]]],[[[-70.201162,43.651945],[-70.200686,43.662951],[-70.183098,43.675157],[-70.182147,43.665702],[-70.17718,43.663447],[-70.179592,43.655384],[-70.184049,43.651086],[-70.201162,43.651945]]],[[[-70.20973,43.641477],[-70.203426,43.647186],[-70.190704,43.645582],[-70.205934,43.633633],[-70.20973,43.641477]]],[[[-70.213948,43.666161],[-70.206153,43.671719],[-70.201893,43.685483],[-70.182147,43.694923],[-70.193081,43.673438],[-70.210825,43.661695],[-70.213948,43.666161]]],[[[-70.238002,43.547295],[-70.224401,43.547199],[-70.229319,43.54391],[-70.227842,43.538261],[-70.245499,43.539635],[-70.238002,43.547295]]],[[[-70.866583,44.079706],[-70.857804,44.088042],[-70.858546,44.095269],[-70.821803,44.077089],[-70.699501,44.139197],[-70.69592,44.134217],[-70.624329,44.171036],[-70.598661,44.149768],[-70.587233,44.124097],[-70.606173,44.101293],[-70.603009,44.088593],[-70.613882,44.061845],[-70.603675,44.050239],[-70.603633,44.041453],[-70.592631,44.035057],[-70.595631,44.032057],[-70.581645,44.022312],[-70.582591,44.018693],[-70.573957,44.015648],[-70.563851,44.024992],[-70.544094,44.005647],[-70.508997,44.041454],[-70.502371,44.042568],[-70.448587,44.009428],[-70.44503,44.012804],[-70.401954,43.990108],[-70.395324,44.003091],[-70.363874,43.986445],[-70.315374,44.037807],[-70.200284,43.951993],[-70.203647,43.947928],[-70.11586,43.90671],[-70.092329,43.931953],[-70.080839,43.926458],[-70.034238,43.975661],[-70.020236,43.946062],[-70.008035,43.942015],[-69.976226,43.915276],[-69.956732,43.923441],[-69.931291,43.911924],[-69.9047,43.925589],[-69.874657,43.95359],[-69.857032,43.944742],[-69.868655,43.910916],[-69.892506,43.880311],[-69.895953,43.866238],[-69.874879,43.851402],[-69.876119,43.837157],[-69.870093,43.816666],[-69.887345,43.787937],[-69.887390287866,43.777052327585],[-69.901804,43.771615],[-69.931871,43.783703],[-69.943459,43.765216],[-69.956255,43.772367],[-69.972304,43.753466],[-69.979882,43.753838],[-70.001273,43.710388],[-70.006264,43.710216],[-70.007206,43.717629],[-69.996249,43.729944],[-70.005257,43.724431],[-69.994618,43.743537],[-70.011493,43.743365],[-70.026467,43.72894],[-70.021001,43.746456],[-70.023377,43.74886],[-70.045006,43.736668],[-70.043342,43.748001],[-70.028852,43.763779],[-70.020337,43.765848],[-70.016627,43.778667],[-70.004247,43.786573],[-69.993667,43.809094],[-69.981308,43.812181],[-69.976079,43.819041],[-69.97703,43.827444],[-69.954123,43.847693],[-69.951809,43.856677],[-69.94504,43.859959],[-69.947206,43.864473],[-69.966575,43.853732],[-69.992717,43.84836],[-70.002699,43.83636],[-70.026193,43.822587],[-70.02314,43.83053],[-69.987725,43.862927],[-69.994618,43.86704],[-70.010067,43.8583],[-70.019197,43.858733],[-70.041916,43.841674],[-70.04153,43.831065],[-70.053563,43.830187],[-70.058384,43.824682],[-70.054088,43.821939],[-70.066598,43.810525],[-70.063633,43.825629],[-70.080548,43.827601],[-70.080683,43.819852],[-70.094332,43.815956],[-70.113381,43.800903],[-70.144867,43.796805],[-70.142191,43.789288],[-70.154159,43.780145],[-70.153275,43.775583],[-70.176023,43.76079],[-70.180484,43.761564],[-70.17544,43.777113],[-70.186901,43.773407],[-70.194269,43.768601],[-70.197593,43.753211],[-70.192605,43.748344],[-70.193794,43.741648],[-70.217998,43.71998],[-70.213759,43.712793],[-70.21471,43.697329],[-70.23199,43.704822],[-70.235625,43.698876],[-70.226118,43.688736],[-70.234621,43.685611],[-70.242548,43.693333],[-70.251408,43.685176],[-70.252961,43.67501],[-70.240379,43.670516],[-70.240987,43.659132],[-70.225167,43.650226],[-70.226704,43.643173],[-70.21875,43.628897],[-70.207491,43.623483],[-70.217486,43.597091],[-70.214849,43.590152],[-70.203068,43.586286],[-70.207781,43.578228],[-70.196911,43.565146],[-70.206123,43.557627],[-70.216782,43.556874],[-70.219784,43.562149],[-70.227914,43.563471],[-70.244331,43.551849],[-70.264167,43.553179],[-70.272497,43.562616],[-70.307764,43.544315],[-70.314154,43.535259],[-70.307405,43.529032],[-70.313109,43.526964],[-70.323329,43.529204],[-70.318135,43.534764],[-70.328796,43.540749],[-70.35339193799,43.535405312744],[-70.492009,43.606769],[-70.457743,43.642372],[-70.549965,43.715796],[-70.577401,43.687185],[-70.595342,43.697195],[-70.612074,43.687099],[-70.614493,43.698331],[-70.627965,43.704078],[-70.649737,43.699138],[-70.657371,43.701544],[-70.659622,43.710902],[-70.643007,43.752249],[-70.656348,43.764283],[-70.649843,43.768371],[-70.655698,43.780256],[-70.652986,43.787544],[-70.669925,43.794158],[-70.673753,43.788403],[-70.681783,43.796582],[-70.693541,43.797705],[-70.695153,43.805203],[-70.701482,43.797933],[-70.712638,43.799612],[-70.745324,43.788025],[-70.766073,43.792416],[-70.780335,43.803516],[-70.781647,43.82356],[-70.787126,43.832604],[-70.794289,43.834257],[-70.792734,43.847854],[-70.801612,43.856083],[-70.793106,43.857748],[-70.798193,43.863304],[-70.781503,43.873879],[-70.780492,43.868231],[-70.766288,43.877239],[-70.765288,43.871538],[-70.743878,43.885849],[-70.754509,43.888464],[-70.757934,43.906864],[-70.72978,43.92833],[-70.747507,43.945901],[-70.715418,43.961815],[-70.78176,44.031394],[-70.791679,44.02874],[-70.792531,44.04014],[-70.848077,44.049522],[-70.858452,44.05964],[-70.861319,44.077226],[-70.866583,44.079706]]]]}},{"type":"Feature","properties":{"GEOID":"23011","NAME":"Kennebec","state":"ME","wildfire_risk_score":33.492,"wildfire_eal_total":19493.69,"risk_band":"High","source":"FEMA National Risk Index v1.20 (December 2025)"},"geometry":{"type":"Polygon","coordinates":[[[-70.132595,44.371382],[-70.120052,44.372712],[-70.122172,44.381131],[-70.100491,44.383854],[-70.12939,44.487217],[-70.04235,44.485235],[-70.04529,44.494814],[-70.035546,44.508083],[-70.04066,44.515135],[-70.072226,44.529324],[-70.041163,44.571253],[-70.040215,44.588722],[-69.953495,44.574688],[-69.927661,44.604123],[-69.930451,44.610852],[-69.853273,44.621506],[-69.822438,44.607585],[-69.817152,44.59777],[-69.818468,44.581312],[-69.792813,44.57733],[-69.787324,44.594113],[-69.776294,44.608236],[-69.744282,44.602607],[-69.742091,44.598246],[-69.605746,44.577264],[-69.589967,44.587125],[-69.593036,44.601902],[-69.579094,44.626971],[-69.616971,44.656287],[-69.62869,44.672427],[-69.633118,44.700373],[-69.483395,44.720271],[-69.470382,44.718161],[-69.473199,44.708742],[-69.467531,44.707986],[-69.471712,44.692899],[-69.477318,44.692061],[-69.475599,44.676678],[-69.442936,44.672381],[-69.447949,44.662175],[-69.454631,44.662815],[-69.460558,44.655611],[-69.460606,44.647054],[-69.393123,44.640375],[-69.41684,44.55108],[-69.372419,44.544585],[-69.395987,44.457078],[-69.445498,44.463839],[-69.506382,44.34287],[-69.521424,44.28056],[-69.534405,44.272213],[-69.534837,44.267363],[-69.547398,44.260988],[-69.650171,44.279625],[-69.665441,44.227576],[-69.656742,44.122392],[-69.758208,44.139334],[-69.763566,44.153217],[-69.854983,44.167862],[-69.879603,44.15169],[-69.897783,44.107662],[-70.027386,44.130577],[-70.018501,44.157851],[-70.013954,44.157581],[-70.010329,44.168651],[-69.998796,44.166834],[-69.993792,44.180594],[-70.060498,44.191775],[-70.055663,44.199144],[-70.075747,44.206168],[-70.074464,44.298471],[-70.09905,44.319547],[-70.100183,44.334521],[-70.132595,44.371382]]]}},{"type":"Feature","properties":{"GEOID":"23019","NAME":"Penobscot","state":"ME","wildfire_risk_score":29.262,"wildfire_eal_total":14351.57,"risk_band":"High","source":"FEMA National Risk Index v1.20 (December 2025)"},"geometry":{"type":"Polygon","coordinates":[[[-69.355667,45.073469],[-68.856587,45.142783],[-68.880923,45.224947],[-68.776061,45.240317],[-68.857297,45.527301],[-68.964653,45.512367],[-68.951719,45.581782],[-68.950699,45.638434],[-68.95891,45.662195],[-68.827039,45.684826],[-68.819401,46.395782],[-68.69492,46.395505],[-68.694877,46.382612],[-68.436443,46.382121],[-68.436902,46.04289],[-68.432273,46.035568],[-68.426621,45.85338],[-68.433028,45.578482],[-68.414389,45.572848],[-68.300814,45.590531],[-68.257502,45.597949],[-68.260136,45.604483],[-68.048012,45.639897],[-67.957928,45.353247],[-67.966881,45.351879],[-67.93976,45.267845],[-68.303714,45.221531],[-68.270497,45.100121],[-68.396903,45.083296],[-68.375892,44.997373],[-68.501095,44.980718],[-68.445219,44.763014],[-68.616673,44.740992],[-68.647134,44.703636],[-68.69093,44.721668],[-68.726893,44.696126],[-68.743953,44.660579],[-68.771901,44.664448],[-68.766336,44.675706],[-68.785121,44.678439],[-68.785983,44.686651],[-68.797799,44.688828],[-68.815793,44.683754],[-68.835613,44.69132],[-68.837529,44.702125],[-68.865357,44.694217],[-69.183732,44.644023],[-69.2052,44.729586],[-69.266785,44.721928],[-69.286336,44.807988],[-69.281275,44.808657],[-69.355667,45.073469]]]}},{"type":"Feature","properties":{"GEOID":"23009","NAME":"Hancock","state":"ME","wildfire_risk_score":10.846,"wildfire_eal_total":3741.75,"risk_band":"Low","source":"FEMA National Risk Index v1.20 (December 2025)"},"geometry":{"type":"MultiPolygon","coordinates":[[[[-68.03522,44.33274],[-68.029126,44.335979],[-68.031502,44.325098],[-68.034355,44.327818],[-68.03522,44.33274]]],[[[-68.103757,44.364362],[-68.097102,44.361983],[-68.094725,44.351447],[-68.103282,44.358245],[-68.103757,44.364362]]],[[[-68.132279,44.418711],[-68.126099,44.418541],[-68.11778,44.409543],[-68.128,44.406657],[-68.138221,44.417353],[-68.132279,44.418711]]],[[[-68.142023,44.435854],[-68.134655,44.450109],[-68.124911,44.445358],[-68.133942,44.427368],[-68.140122,44.425501],[-68.142023,44.435854]]],[[[-68.149154,44.386957],[-68.147774,44.392437],[-68.129426,44.404789],[-68.125624,44.387127],[-68.133942,44.379313],[-68.140549,44.376804],[-68.149154,44.386957]]],[[[-68.160325,44.467073],[-68.154145,44.465038],[-68.145589,44.457404],[-68.151768,44.458252],[-68.160325,44.467073]]],[[[-68.166267,44.406657],[-68.159374,44.41209],[-68.15462,44.413448],[-68.165791,44.400374],[-68.169254,44.402998],[-68.166267,44.406657]]],[[[-68.181694,44.404234],[-68.178388,44.407336],[-68.175774,44.405638],[-68.176487,44.402582],[-68.181694,44.404234]]],[[[-68.184087,44.388045],[-68.17873,44.388388],[-68.177913,44.386448],[-68.181954,44.385259],[-68.184087,44.388045]]],[[[-68.190035,44.4686],[-68.173873,44.467243],[-68.166267,44.463002],[-68.191699,44.467412],[-68.190035,44.4686]]],[[[-68.19669,44.400204],[-68.194788,44.401563],[-68.190861,44.401229],[-68.191699,44.398846],[-68.19669,44.400204]]],[[[-68.203582,44.242753],[-68.197696,44.24635],[-68.193068,44.23901],[-68.198985,44.236698],[-68.203582,44.242753]]],[[[-68.204058,44.495054],[-68.200968,44.494037],[-68.19978,44.491663],[-68.206435,44.493019],[-68.204058,44.495054]]],[[[-68.212852,44.476571],[-68.204533,44.477419],[-68.20382,44.475045],[-68.209762,44.473858],[-68.212852,44.476571]]],[[[-68.21404,44.398846],[-68.202632,44.400374],[-68.202176,44.397436],[-68.210951,44.396808],[-68.21404,44.398846]]],[[[-68.240962,44.2528],[-68.239724,44.264755],[-68.235264,44.266298],[-68.215874,44.261974],[-68.211365,44.256854],[-68.240962,44.2528]]],[[[-68.248947,44.17576],[-68.24202,44.176656],[-68.239234,44.174596],[-68.245478,44.170228],[-68.248947,44.17576]]],[[[-68.253009,44.155089],[-68.242324,44.157376],[-68.246666,44.151659],[-68.243608,44.142788],[-68.249805,44.143951],[-68.253009,44.155089]]],[[[-68.270133,44.275768],[-68.248266,44.276959],[-68.245652,44.274236],[-68.248742,44.270151],[-68.26324,44.270322],[-68.270133,44.275768]]],[[[-68.26942,44.285637],[-68.265617,44.284956],[-68.266092,44.282744],[-68.270608,44.283255],[-68.26942,44.285637]]],[[[-68.274719,44.258675],[-68.250643,44.257556],[-68.243144,44.240987],[-68.248913,44.235443],[-68.274427,44.237099],[-68.274719,44.258675]]],[[[-68.304121,44.283765],[-68.293425,44.27866],[-68.291049,44.275938],[-68.302933,44.276959],[-68.304121,44.283765]]],[[[-68.342387,44.193686],[-68.334782,44.200161],[-68.333356,44.20868],[-68.314341,44.197605],[-68.321178,44.199032],[-68.336445,44.190277],[-68.343338,44.190618],[-68.342387,44.193686]]],[[[-68.34524,44.436364],[-68.337159,44.435685],[-68.334544,44.43263],[-68.341674,44.428556],[-68.34524,44.436364]]],[[[-68.354034,44.180221],[-68.348329,44.186357],[-68.338822,44.184653],[-68.334782,44.176812],[-68.348805,44.167436],[-68.354034,44.180221]]],[[[-68.365996,44.125519],[-68.363388,44.127483],[-68.361506,44.127416],[-68.364205,44.12421],[-68.365996,44.125519]]],[[[-68.372573,44.143222],[-68.369721,44.145439],[-68.368532,44.139128],[-68.37186,44.137934],[-68.372573,44.143222]]],[[[-68.375441,44.11628],[-68.350379,44.12843],[-68.338377,44.118257],[-68.342526,44.111387],[-68.33047,44.109232],[-68.337138,44.101472],[-68.345464,44.107844],[-68.360857,44.105834],[-68.366743,44.09739],[-68.375441,44.11628]]],[[[-68.375976,44.187399],[-68.360338,44.198816],[-68.349756,44.19539],[-68.370434,44.180221],[-68.37884,44.184473],[-68.375976,44.187399]]],[[[-68.38208,44.144074],[-68.377089,44.144757],[-68.380892,44.139128],[-68.383391,44.141759],[-68.38208,44.144074]]],[[[-68.394202,44.409713],[-68.38921,44.413278],[-68.384219,44.406317],[-68.390636,44.403261],[-68.394202,44.409713]]],[[[-68.407222,44.111122],[-68.404556,44.111418],[-68.401332,44.111318],[-68.403709,44.107735],[-68.407222,44.111122]]],[[[-68.435558,44.293463],[-68.430091,44.288189],[-68.432053,44.285902],[-68.436594,44.291948],[-68.435558,44.293463]]],[[[-68.45618,44.31183],[-68.448155,44.312004],[-68.448868,44.297546],[-68.455761,44.299757],[-68.45618,44.31183]]],[[[-68.456879,44.344288],[-68.450094,44.357323],[-68.420822,44.375236],[-68.422486,44.367761],[-68.414642,44.357225],[-68.420584,44.350087],[-68.427239,44.350597],[-68.431755,44.324248],[-68.440549,44.321187],[-68.445724,44.324921],[-68.442213,44.336659],[-68.452122,44.336171],[-68.456879,44.344288]]],[[[-68.461227,44.260109],[-68.455048,44.258918],[-68.453384,44.256194],[-68.458375,44.254151],[-68.461227,44.260109]]],[[[-68.469784,44.215154],[-68.467882,44.216176],[-68.46503,44.209873],[-68.469784,44.213109],[-68.469784,44.215154]]],[[[-68.470143,44.201647],[-68.464793,44.206976],[-68.453843,44.201683],[-68.459182,44.197681],[-68.470143,44.201647]]],[[[-68.477805,44.101971],[-68.472728,44.102956],[-68.469784,44.10142],[-68.473011,44.0982],[-68.477805,44.101971]]],[[[-68.482619,44.227758],[-68.475963,44.231165],[-68.467645,44.224693],[-68.479529,44.219753],[-68.482619,44.227758]]],[[[-68.4907,44.202717],[-68.48143,44.216857],[-68.47121,44.207317],[-68.47834,44.198116],[-68.4907,44.202717]]],[[[-68.493314,44.282574],[-68.469308,44.270492],[-68.468833,44.263514],[-68.486568,44.269097],[-68.493314,44.282574]]],[[[-68.503772,44.145609],[-68.49783,44.143051],[-68.50095,44.14156],[-68.503772,44.145609]]],[[[-68.501158,44.153966],[-68.501008,44.15982],[-68.487036,44.170734],[-68.483807,44.162151],[-68.477865,44.160787],[-68.475726,44.170334],[-68.480225,44.180795],[-68.470259,44.180903],[-68.461913,44.190843],[-68.451482,44.191641],[-68.445303,44.175619],[-68.448155,44.172891],[-68.437222,44.173062],[-68.435796,44.168118],[-68.421772,44.174937],[-68.424441,44.190753],[-68.413216,44.187721],[-68.408207,44.176298],[-68.394677,44.169652],[-68.383268,44.155842],[-68.392877,44.154181],[-68.393935,44.141032],[-68.418834,44.130611],[-68.423912,44.120362],[-68.438518,44.11618],[-68.448646,44.125581],[-68.447505,44.133493],[-68.4579,44.13964],[-68.453622,44.150044],[-68.458375,44.155159],[-68.455761,44.160275],[-68.464793,44.154477],[-68.475963,44.154648],[-68.484026,44.14263],[-68.49024,44.148955],[-68.50401,44.150726],[-68.501158,44.153966]]],[[[-68.518703,44.113222],[-68.506979,44.127237],[-68.49093,44.123439],[-68.490462,44.112001],[-68.501395,44.105857],[-68.503611,44.096567],[-68.517725,44.104678],[-68.518703,44.113222]]],[[[-68.530394,44.333583],[-68.520671,44.358357],[-68.518573,44.381022],[-68.50766,44.385219],[-68.501364,44.382281],[-68.485953,44.340568],[-68.488085,44.332409],[-68.478816,44.324928],[-68.478785,44.319563],[-68.491423,44.311783],[-68.500207,44.323227],[-68.525112,44.324],[-68.533481,44.329958],[-68.530394,44.333583]]],[[[-68.552972,44.227588],[-68.549882,44.22844],[-68.528284,44.225204],[-68.544891,44.220264],[-68.552972,44.227588]]],[[[-68.572461,44.216857],[-68.567946,44.217709],[-68.559627,44.213109],[-68.564618,44.211917],[-68.572461,44.216857]]],[[[-68.588582,44.146936],[-68.582452,44.149544],[-68.578663,44.148194],[-68.585058,44.142454],[-68.588582,44.146936]]],[[[-68.589337,44.231335],[-68.581493,44.232357],[-68.576027,44.229291],[-68.587198,44.226396],[-68.589337,44.231335]]],[[[-68.598553,44.14595],[-68.595279,44.146377],[-68.593377,44.145183],[-68.595041,44.142283],[-68.598553,44.14595]]],[[[-68.605499,44.178772],[-68.596705,44.177579],[-68.596824,44.175563],[-68.606925,44.176045],[-68.605499,44.178772]]],[[[-68.610253,44.143136],[-68.602409,44.142113],[-68.601458,44.138702],[-68.605499,44.135461],[-68.610253,44.143136]]],[[[-68.621186,44.15064],[-68.613342,44.157632],[-68.609562,44.148195],[-68.617621,44.145354],[-68.621186,44.15064]]],[[[-68.621661,44.142454],[-68.617621,44.142283],[-68.617145,44.136655],[-68.623563,44.140578],[-68.621661,44.142454]]],[[[-68.627365,44.125225],[-68.618809,44.130343],[-68.608113,44.128637],[-68.618979,44.11955],[-68.629742,44.123177],[-68.627365,44.125225]]],[[[-68.634496,44.137678],[-68.62689,44.13529],[-68.62689,44.133755],[-68.634496,44.136143],[-68.634496,44.137678]]],[[[-68.634971,44.151323],[-68.630931,44.152857],[-68.6238,44.147912],[-68.633783,44.145012],[-68.634971,44.151323]]],[[[-68.639962,44.128125],[-68.633783,44.130002],[-68.629742,44.128808],[-68.639826,44.123602],[-68.639962,44.128125]]],[[[-68.647568,44.133925],[-68.644716,44.135972],[-68.641151,44.135461],[-68.644478,44.131025],[-68.647568,44.133925]]],[[[-68.649707,44.148764],[-68.647806,44.152005],[-68.640676,44.152687],[-68.644003,44.148594],[-68.649707,44.148764]]],[[[-68.655412,44.145865],[-68.648519,44.145524],[-68.648994,44.142966],[-68.65256,44.14109],[-68.655412,44.145865]]],[[[-68.657888,44.128891],[-68.651371,44.129661],[-68.65042,44.128125],[-68.651609,44.126419],[-68.657888,44.128891]]],[[[-68.686253,44.288617],[-68.683408,44.287742],[-68.683408,44.285809],[-68.685997,44.285882],[-68.686253,44.288617]]],[[[-68.68697,44.275187],[-68.685669,44.277055],[-68.684502,44.272423],[-68.686326,44.272131],[-68.68697,44.275187]]],[[[-68.731618,44.22269],[-68.695104,44.235592],[-68.69731,44.247076],[-68.678704,44.264705],[-68.679655,44.27781],[-68.670623,44.279852],[-68.662542,44.269981],[-68.6566,44.269641],[-68.654699,44.263003],[-68.642815,44.265556],[-68.629267,44.256534],[-68.624751,44.258747],[-68.609216,44.244495],[-68.602647,44.222989],[-68.582444,44.219923],[-68.583632,44.214643],[-68.564856,44.205613],[-68.56343,44.194197],[-68.579445,44.185263],[-68.600983,44.191981],[-68.588624,44.197775],[-68.602409,44.210384],[-68.605261,44.205102],[-68.620473,44.200161],[-68.614531,44.180903],[-68.627919,44.169689],[-68.64329,44.173403],[-68.64638,44.165902],[-68.638536,44.165561],[-68.641389,44.157888],[-68.668009,44.152261],[-68.666236,44.134953],[-68.681899,44.138212],[-68.687257,44.152289],[-68.698152,44.158097],[-68.709055,44.157423],[-68.704611,44.164197],[-68.710316,44.168118],[-68.720646,44.166805],[-68.712874,44.196531],[-68.731666,44.202246],[-68.719348,44.206635],[-68.717191,44.212797],[-68.731618,44.22269]]],[[[-68.743174,44.301546],[-68.741979,44.306337],[-68.733822,44.308616],[-68.686435,44.283948],[-68.689901,44.276259],[-68.702036,44.271024],[-68.724269,44.281573],[-68.727533,44.291236],[-68.742639,44.29686],[-68.743174,44.301546]]],[[[-68.749743,44.301127],[-68.747543,44.300666],[-68.747707,44.29907],[-68.748484,44.298968],[-68.749743,44.301127]]],[[[-68.757456,44.270597],[-68.739313,44.26896],[-68.730518,44.262663],[-68.753963,44.262592],[-68.757456,44.270597]]],[[[-68.764744,44.245639],[-68.759991,44.247682],[-68.749771,44.242914],[-68.760704,44.239849],[-68.764744,44.245639]]],[[[-68.787324,44.211406],[-68.77442,44.2194],[-68.767616,44.217271],[-68.779956,44.201013],[-68.787324,44.211406]]],[[[-68.798094,44.285336],[-68.793741,44.286998],[-68.785185,44.284106],[-68.79523,44.280487],[-68.798094,44.285336]]],[[[-68.799446,44.235933],[-68.787959,44.234817],[-68.781189,44.226262],[-68.797059,44.223819],[-68.799446,44.235933]]],[[[-68.810854,44.295164],[-68.804396,44.293546],[-68.800396,44.288699],[-68.813469,44.294654],[-68.810854,44.295164]]],[[[-68.82559,44.292442],[-68.822831,44.293111],[-68.817509,44.293293],[-68.819173,44.290401],[-68.82559,44.292442]]],[[[-68.829411,44.260981],[-68.824384,44.262171],[-68.816321,44.258407],[-68.823903,44.257134],[-68.829411,44.260981]]],[[[-68.830365,44.216841],[-68.826022,44.220185],[-68.824877,44.226055],[-68.822263,44.21822],[-68.830365,44.216841]]],[[[-68.831439,44.233743],[-68.823419,44.242333],[-68.818222,44.243255],[-68.815608,44.237806],[-68.819957,44.235436],[-68.818698,44.226396],[-68.831439,44.233743]]],[[[-68.847533,44.6215],[-68.831627,44.651609],[-68.812114,44.669322],[-68.815793,44.683754],[-68.797799,44.688828],[-68.785983,44.686651],[-68.785121,44.678439],[-68.766336,44.675706],[-68.771901,44.664448],[-68.743953,44.660579],[-68.726893,44.696126],[-68.69093,44.721668],[-68.647134,44.703636],[-68.616673,44.740992],[-68.445219,44.763014],[-68.501095,44.980718],[-68.375892,44.997373],[-68.396903,45.083296],[-68.270497,45.100121],[-68.303714,45.221531],[-68.054985,45.252577],[-68.034161,45.180865],[-67.981851,44.955885],[-68.105017,44.939088],[-68.034637,44.674142],[-68.016062,44.676676],[-67.993551,44.592162],[-68.017219,44.589087],[-67.991395,44.50281],[-67.977197,44.497953],[-67.972968,44.488633],[-67.975829,44.476528],[-67.992761,44.460797],[-68.009398,44.465377],[-68.012488,44.475893],[-68.024134,44.482507],[-68.027462,44.482507],[-68.027462,44.468091],[-68.014627,44.454011],[-68.0041,44.455222],[-67.990621,44.444339],[-67.98159,44.44909],[-67.982065,44.441115],[-67.969943,44.419051],[-67.971607,44.410902],[-67.964001,44.409543],[-67.964714,44.402751],[-67.958772,44.398846],[-67.983729,44.384409],[-68.007497,44.413109],[-68.011537,44.403261],[-68.023184,44.408185],[-68.014152,44.385938],[-68.025606,44.375899],[-68.025457,44.356608],[-68.03483,44.363003],[-68.043386,44.359774],[-68.044812,44.334619],[-68.049334,44.33073],[-68.053607,44.337679],[-68.060356,44.331988],[-68.076066,44.347925],[-68.077612,44.388486],[-68.093299,44.390184],[-68.087832,44.376765],[-68.08807,44.371838],[-68.092983,44.370949],[-68.103818,44.385111],[-68.10138,44.39511],[-68.11229,44.401588],[-68.109699,44.416844],[-68.119845,44.445658],[-68.115228,44.467903],[-68.121345,44.478945],[-68.139387,44.47847],[-68.145113,44.481998],[-68.140597,44.483354],[-68.141548,44.492002],[-68.161751,44.501157],[-68.167218,44.483863],[-68.154383,44.478776],[-68.17105,44.470211],[-68.194554,44.47189],[-68.180528,44.475045],[-68.18742,44.487763],[-68.196927,44.493358],[-68.20182,44.50999],[-68.198829,44.51709],[-68.211426,44.52014],[-68.218556,44.493358],[-68.2264,44.493358],[-68.223934,44.487],[-68.229965,44.479115],[-68.223785,44.465546],[-68.22939,44.463496],[-68.25302,44.483863],[-68.264429,44.487254],[-68.262765,44.479793],[-68.268004,44.47147],[-68.294138,44.471653],[-68.283918,44.458931],[-68.281304,44.462154],[-68.272272,44.4591],[-68.27346,44.464359],[-68.267994,44.461306],[-68.280572,44.451573],[-68.298179,44.449769],[-68.323135,44.462323],[-68.329315,44.449769],[-68.354984,44.458082],[-68.354509,44.444],[-68.367344,44.431102],[-68.337872,44.421936],[-68.332405,44.426689],[-68.332167,44.435006],[-68.318857,44.444339],[-68.294266,44.433028],[-68.268469,44.439758],[-68.247438,44.433276],[-68.243037,44.420069],[-68.249956,44.414809],[-68.21554,44.390466],[-68.20354,44.392365],[-68.184532,44.369145],[-68.179577,44.349407],[-68.174496,44.345181],[-68.173608,44.328397],[-68.177304,44.325448],[-68.182667,44.328668],[-68.189559,44.317786],[-68.188931,44.307315],[-68.195501,44.310983],[-68.202394,44.301118],[-68.214745,44.296001],[-68.218081,44.298737],[-68.230916,44.287849],[-68.239234,44.295845],[-68.244939,44.291251],[-68.242324,44.288189],[-68.253495,44.292612],[-68.259437,44.288019],[-68.276703,44.291072],[-68.281303,44.302169],[-68.286259,44.296424],[-68.280237,44.28645],[-68.294614,44.286658],[-68.309112,44.297206],[-68.317193,44.294314],[-68.320046,44.288019],[-68.309588,44.27781],[-68.313628,44.270322],[-68.298643,44.26665],[-68.291049,44.246149],[-68.317588,44.225101],[-68.339498,44.222893],[-68.351657,44.237125],[-68.359976,44.2344],[-68.364558,44.226369],[-68.369483,44.232016],[-68.365364,44.237871],[-68.369759,44.243311],[-68.377982,44.247563],[-68.389595,44.245168],[-68.407274,44.256705],[-68.404445,44.26096],[-68.41965,44.274612],[-68.412978,44.274406],[-68.408225,44.281553],[-68.415831,44.285977],[-68.423674,44.283935],[-68.430946,44.298624],[-68.430853,44.312609],[-68.409027,44.32562],[-68.409651,44.340569],[-68.416865,44.333396],[-68.421471,44.337754],[-68.409867,44.356259],[-68.396552,44.363941],[-68.398035,44.376191],[-68.386235,44.384939],[-68.377326,44.382201],[-68.373048,44.393072],[-68.360318,44.389674],[-68.354271,44.400544],[-68.362115,44.405468],[-68.368532,44.420578],[-68.383031,44.432969],[-68.392776,44.435345],[-68.392559,44.41807],[-68.413216,44.399525],[-68.430804,44.396978],[-68.433901,44.401534],[-68.429462,44.409386],[-68.433894,44.413958],[-68.427001,44.441455],[-68.42941,44.464376],[-68.427952,44.470296],[-68.421772,44.470805],[-68.425338,44.498275],[-68.437222,44.490137],[-68.437222,44.482676],[-68.466932,44.490307],[-68.473111,44.486746],[-68.467169,44.464698],[-68.458375,44.453841],[-68.458375,44.447054],[-68.47121,44.440267],[-68.458375,44.420069],[-68.457662,44.407676],[-68.464106,44.398078],[-68.459349,44.385365],[-68.462152,44.379396],[-68.478708,44.37894],[-68.483317,44.388157],[-68.479529,44.399695],[-68.472824,44.404106],[-68.480479,44.430593],[-68.475963,44.431102],[-68.476677,44.445018],[-68.473349,44.445867],[-68.479766,44.45418],[-68.499686,44.414179],[-68.516607,44.412599],[-68.527778,44.398506],[-68.555088,44.403687],[-68.560964,44.402847],[-68.56642,44.394453],[-68.559285,44.374307],[-68.550051,44.371788],[-68.545434,44.355],[-68.563209,44.333039],[-68.566203,44.313007],[-68.55012,44.291932],[-68.536334,44.291251],[-68.538595,44.299902],[-68.530867,44.300438],[-68.528163,44.294054],[-68.532266,44.28634],[-68.518984,44.265216],[-68.519221,44.259088],[-68.539186,44.262322],[-68.555349,44.273896],[-68.553209,44.258918],[-68.533007,44.254321],[-68.522549,44.236955],[-68.522786,44.228099],[-68.534595,44.229331],[-68.552021,44.236444],[-68.550833,44.246149],[-68.577215,44.254151],[-68.603385,44.27471],[-68.624572,44.279183],[-68.625726,44.286542],[-68.619023,44.293594],[-68.62425,44.302107],[-68.631148,44.29577],[-68.632292,44.286417],[-68.666078,44.293288],[-68.679464,44.303104],[-68.6894,44.296695],[-68.697006,44.308772],[-68.725657,44.321591],[-68.739313,44.333174],[-68.762021,44.329597],[-68.773975,44.318832],[-68.787799,44.318211],[-68.795063,44.30786],[-68.827197,44.31216],[-68.82763,44.321094],[-68.819648,44.326713],[-68.825419,44.334547],[-68.82155,44.352042],[-68.809666,44.373962],[-68.810617,44.381097],[-68.820958,44.383815],[-68.821275,44.39367],[-68.811805,44.39927],[-68.821767,44.40894],[-68.815325,44.42808],[-68.801634,44.434803],[-68.797452,44.450995],[-68.791237,44.453178],[-68.783283,44.447139],[-68.786849,44.463426],[-68.777817,44.494799],[-68.78566,44.51209],[-68.803549,44.528913],[-68.806089,44.553634],[-68.798272,44.568096],[-68.811595,44.573719],[-68.823619,44.596019],[-68.844755,44.613493],[-68.847533,44.6215]]],[[[-68.851285,44.233097],[-68.849187,44.236131],[-68.84817,44.229291],[-68.852331,44.228661],[-68.851285,44.233097]]],[[[-68.863044,44.259004],[-68.860213,44.260926],[-68.858866,44.26062],[-68.860054,44.255854],[-68.863044,44.259004]]]]}}]}