{"type":"FeatureCollection","metadata":{"state":"MI","boundary_source":"U.S. Census Bureau 2024 Cartographic Boundary File (counties, 1:500,000)","risk_source":"FEMA National Risk Index v1.20 (December 2025)"},"features":[{"type":"Feature","properties":{"GEOID":"26103","NAME":"Marquette","state":"MI","wildfire_risk_score":68.702,"wildfire_eal_total":146864.68,"risk_band":"High","source":"FEMA National Risk Index v1.20 (December 2025)"},"geometry":{"type":"MultiPolygon","coordinates":[[[[-87.403831,46.593672],[-87.402633,46.595545],[-87.399295,46.594726],[-87.402109,46.593464],[-87.403831,46.593672]]],[[[-87.420134,46.602974],[-87.413362,46.605396],[-87.410079,46.602718],[-87.416508,46.597476],[-87.420134,46.602974]]],[[[-87.461237,46.636819],[-87.459151,46.639995],[-87.456894,46.638404],[-87.461258,46.636283],[-87.461237,46.636819]]],[[[-87.5425,46.704189],[-87.540456,46.705129],[-87.539046,46.704703],[-87.541822,46.703555],[-87.5425,46.704189]]],[[[-87.959092,46.950504],[-87.956543,46.951606],[-87.955457,46.949487],[-87.957552,46.949246],[-87.959092,46.950504]]],[[[-87.978258,46.954314],[-87.969035,46.95376],[-87.963634,46.951313],[-87.971887,46.9504],[-87.978258,46.954314]]],[[[-88.005423,46.965764],[-87.998266,46.963725],[-87.997313,46.959447],[-87.999445,46.958768],[-88.005423,46.965764]]],[[[-88.116897,46.333331],[-88.115843,46.678381],[-87.991546,46.679113],[-87.991389,46.765159],[-88.044709,46.765353],[-88.0445670007046,46.9115682657834],[-87.98971,46.904899],[-87.901448,46.909819],[-87.86112,46.887605],[-87.846195,46.883905],[-87.816794,46.891154],[-87.803726,46.881383],[-87.780032,46.878885],[-87.771612,46.863171],[-87.755868,46.860453],[-87.741014,46.865247],[-87.727329,46.825854],[-87.69387,46.826965],[-87.684709,46.834387],[-87.687164,46.841742],[-87.680668,46.842496],[-87.667873,46.817095],[-87.6333,46.812107],[-87.607988,46.788408],[-87.590389,46.782448],[-87.595479,46.774332],[-87.582745,46.730527],[-87.573493,46.720239],[-87.543629,46.703283],[-87.540605,46.696948],[-87.520667,46.691069],[-87.524873,46.676313],[-87.503025,46.647497],[-87.462545,46.635708],[-87.467563,46.626228],[-87.464108,46.614811],[-87.442612,46.602776],[-87.43442,46.591747],[-87.40887,46.594116],[-87.407919,46.587827],[-87.395322,46.584397],[-87.386409,46.585459],[-87.383961,46.59307],[-87.37701,46.590337],[-87.379539,46.581601],[-87.389736,46.580476],[-87.392974,46.572523],[-87.381307,46.550217],[-87.374923,46.546607],[-87.3903,46.542577],[-87.393985,46.533183],[-87.385523,46.520477],[-87.366767,46.507303],[-87.333712,46.496201],[-87.285565,46.489583],[-87.202404,46.490827],[-87.175065,46.497548],[-87.166068,46.506163],[-87.151989,46.49671],[-87.116634,46.494808],[-87.116138,46.15905],[-87.241506,46.159103],[-87.242885,45.985117],[-87.617091,45.986014],[-87.615914,46.246654],[-88.117407,46.246618],[-88.116897,46.333331]]]]}},{"type":"Feature","properties":{"GEOID":"26053","NAME":"Gogebic","state":"MI","wildfire_risk_score":14.44,"wildfire_eal_total":3222.22,"risk_band":"Low","source":"FEMA National Risk Index v1.20 (December 2025)"},"geometry":{"type":"Polygon","coordinates":[[[-90.418136,46.566094],[-90.33297,46.608729],[-90.306609,46.602741],[-90.265294,46.618516],[-90.164026,46.645515],[-90.100695,46.655132],[-90.027886,46.673733],[-89.985817,46.70319],[-89.91998,46.737177],[-89.8853874922337,46.7654749888557],[-89.863793,46.765405],[-89.86442,46.592643],[-89.740001,46.592494],[-89.740568,46.505642],[-89.365094,46.505949],[-89.365507,46.333078],[-88.991012,46.332308],[-88.9908849086907,46.0973298417764],[-89.09163,46.138505],[-90.120489,46.336852],[-90.117992,46.341373],[-90.123549,46.346506],[-90.116741,46.350652],[-90.118827,46.359241],[-90.133871,46.371828],[-90.13225,46.381249],[-90.157851,46.409291],[-90.158603,46.422656],[-90.16777,46.442122],[-90.17793,46.440229],[-90.178325,46.457408],[-90.190749,46.460173],[-90.193294,46.463143],[-90.188996,46.469015],[-90.204009,46.478175],[-90.216594,46.501759],[-90.230324,46.501732],[-90.231587,46.509842],[-90.260504,46.502822],[-90.266567,46.507855],[-90.272976,46.505139],[-90.270422,46.51169],[-90.277577,46.515022],[-90.271796,46.519265],[-90.277131,46.524487],[-90.283423,46.518868],[-90.29475,46.521646],[-90.298284,46.51782],[-90.316983,46.517319],[-90.310859,46.539365],[-90.326686,46.54615],[-90.331887,46.553278],[-90.344338,46.552087],[-90.339404,46.549288],[-90.346806,46.54935],[-90.350318,46.540493],[-90.367083,46.541163],[-90.39332,46.532615],[-90.418136,46.566094]]]}},{"type":"Feature","properties":{"GEOID":"26115","NAME":"Monroe","state":"MI","wildfire_risk_score":33.206,"wildfire_eal_total":19836.43,"risk_band":"Moderate","source":"FEMA National Risk Index v1.20 (December 2025)"},"geometry":{"type":"Polygon","coordinates":[[[-83.773922,42.08243],[-83.420622,42.087777],[-83.420761,42.093568],[-83.295268,42.094243],[-83.283141,42.08939],[-83.277228,42.082704],[-83.280443,42.081638],[-83.275253,42.080306],[-83.277073,42.076095],[-83.270437,42.076132],[-83.267598,42.069084],[-83.257615,42.073684],[-83.251541,42.067652],[-83.254548,42.063962],[-83.234393,42.059025],[-83.229302,42.054855],[-83.230433,42.048678],[-83.219674,42.04912],[-83.193493,42.026542],[-83.185681,42.026618],[-83.181659,42.019248],[-83.189703,42.006233],[-83.196674,42.016924],[-83.208651,42.014932],[-83.204361,42.009022],[-83.209723,41.99607],[-83.206238,41.992085],[-83.215909,41.988478],[-83.221281,41.996246],[-83.234125,41.994504],[-83.236323,41.990983],[-83.223256,41.989191],[-83.250314,41.97382],[-83.258704,41.953072],[-83.253539,41.945188],[-83.262839,41.93951],[-83.264535,41.930983],[-83.27,41.939862],[-83.291525,41.945071],[-83.319698,41.933463],[-83.331562,41.91408],[-83.335961,41.889721],[-83.34276,41.879384],[-83.358115,41.874312],[-83.371158,41.876911],[-83.383743,41.869638],[-83.410058,41.827825],[-83.439612,41.813162],[-83.444324,41.790367],[-83.427556,41.741965],[-83.438578,41.745757],[-83.440414,41.758984],[-83.463075,41.75828],[-83.469841,41.762818],[-83.479913,41.757419],[-83.479441,41.751392],[-83.468058,41.750375],[-83.473304,41.74834],[-83.469264,41.740864],[-83.45292,41.740587],[-83.455401,41.732843],[-83.7631498887765,41.7235473333038],[-83.773922,42.08243]]]}},{"type":"Feature","properties":{"GEOID":"26141","NAME":"Presque Isle","state":"MI","wildfire_risk_score":14.059,"wildfire_eal_total":3319.48,"risk_band":"Low","source":"FEMA National Risk Index v1.20 (December 2025)"},"geometry":{"type":"Polygon","coordinates":[[[-84.25202,45.625998],[-84.2044951460569,45.626247],[-84.196344,45.621296],[-84.128846,45.561891],[-84.120005,45.517676],[-84.109238,45.505171],[-84.089758,45.494433],[-84.060632,45.488857],[-84.035866,45.497754],[-84.000002,45.49122],[-83.971985,45.495124],[-83.93609,45.492353],[-83.909472,45.485784],[-83.853871,45.443084],[-83.824655,45.42693],[-83.806636,45.418938],[-83.779845,45.416636],[-83.786856,45.41015],[-83.772663,45.406918],[-83.757931,45.412014],[-83.740239,45.403808],[-83.736869,45.411268],[-83.716132,45.414455],[-83.700423,45.397739],[-83.631092,45.36502],[-83.6106,45.363072],[-83.598976,45.351979],[-83.591941,45.354163],[-83.583303,45.348079],[-83.583987,45.354987],[-83.569576,45.34731],[-83.565733,45.350938],[-83.552284,45.349874],[-83.546103,45.357749],[-83.538166,45.358055],[-83.494514,45.339366],[-83.4907,45.349723],[-83.497296,45.359535],[-83.489928,45.358467],[-83.477252,45.34512],[-83.488691,45.34087],[-83.485695,45.330028],[-83.479427,45.325769],[-83.474375,45.333103],[-83.463546,45.330538],[-83.462862,45.31949],[-83.451189,45.319462],[-83.445056,45.307465],[-83.433975,45.304101],[-83.421855,45.290068],[-83.40738,45.286744],[-83.400734,45.27854],[-83.387719,45.276288],[-83.381632,45.269772],[-83.389433,45.263825],[-83.386659,45.260034],[-83.39179,45.252587],[-83.41707,45.256865],[-83.418793,45.253246],[-83.409547,45.248608],[-83.412557,45.239215],[-83.388467,45.207108],[-84.246634,45.198727],[-84.25202,45.625998]]]}},{"type":"Feature","properties":{"GEOID":"26135","NAME":"Oscoda","state":"MI","wildfire_risk_score":75.986,"wildfire_eal_total":190022.75,"risk_band":"High","source":"FEMA National Risk Index v1.20 (December 2025)"},"geometry":{"type":"Polygon","coordinates":[[[-84.371923,44.75339],[-84.371737,44.855039],[-83.888482,44.856635],[-83.886634,44.508976],[-84.370643,44.507223],[-84.371923,44.75339]]]}},{"type":"Feature","properties":{"GEOID":"26041","NAME":"Delta","state":"MI","wildfire_risk_score":49.746,"wildfire_eal_total":39135.39,"risk_band":"High","source":"FEMA National Risk Index v1.20 (December 2025)"},"geometry":{"type":"MultiPolygon","coordinates":[[[[-86.659221,45.737899],[-86.658187,45.740782],[-86.657074,45.742643],[-86.657536,45.736576],[-86.660311,45.736005],[-86.659221,45.737899]]],[[[-86.660639,45.578604],[-86.654935,45.587171],[-86.637346,45.576774],[-86.636456,45.571659],[-86.62682,45.572934],[-86.622081,45.559472],[-86.627495,45.549456],[-86.641068,45.543015],[-86.648909,45.544344],[-86.660639,45.578604]]],[[[-86.670204,45.52956],[-86.661179,45.532962],[-86.659915,45.522491],[-86.667056,45.52168],[-86.670204,45.52956]]],[[[-86.701671,45.605726],[-86.701758,45.616604],[-86.698152,45.613621],[-86.69239,45.617126],[-86.677269,45.613689],[-86.667888,45.606047],[-86.690169,45.595721],[-86.701671,45.605726]]],[[[-86.711765,45.609183],[-86.708056,45.611534],[-86.705204,45.610619],[-86.706986,45.608873],[-86.711765,45.609183]]],[[[-86.716947,45.501153],[-86.713894,45.499798],[-86.713998,45.499195],[-86.716137,45.497779],[-86.716947,45.501153]]],[[[-86.721831,45.510579],[-86.720653,45.511521],[-86.716693,45.509483],[-86.722911,45.508523],[-86.721831,45.510579]]],[[[-86.727152,45.522525],[-86.725091,45.521734],[-86.723092,45.520525],[-86.726239,45.520598],[-86.727152,45.522525]]],[[[-86.762722,45.800917],[-86.761177,45.801497],[-86.753453,45.798763],[-86.758801,45.796692],[-86.762722,45.800917]]],[[[-86.765623,45.745882],[-86.765456,45.74878],[-86.759276,45.744302],[-86.763435,45.743556],[-86.765623,45.745882]]],[[[-86.783513,45.502261],[-86.781474,45.509685],[-86.773832,45.511124],[-86.757548,45.504123],[-86.758286,45.479263],[-86.765575,45.47895],[-86.774919,45.487614],[-86.782806,45.486782],[-86.783513,45.502261]]],[[[-87.367849,45.985321],[-87.242885,45.985117],[-87.241506,46.159103],[-86.490142,46.158178],[-86.49025,45.896337],[-86.459114,45.896363],[-86.4598664235975,45.7578991800022],[-86.478467,45.763938],[-86.486714,45.747883],[-86.508172,45.753199],[-86.51613,45.747702],[-86.532411,45.746624],[-86.533361,45.739492],[-86.521849,45.733307],[-86.533005,45.729289],[-86.533005,45.722652],[-86.524827,45.719473],[-86.532767,45.717674],[-86.537258,45.708361],[-86.570627,45.716412],[-86.580936,45.71192],[-86.585519,45.697889],[-86.582473,45.685389],[-86.591255,45.67959],[-86.587528,45.666456],[-86.611306,45.669733],[-86.62744,45.659876],[-86.61764,45.61878],[-86.60526,45.607756],[-86.614266,45.600121],[-86.616893,45.606796],[-86.633224,45.618249],[-86.650208,45.61607],[-86.677491,45.627575],[-86.688804,45.635553],[-86.697598,45.655659],[-86.705442,45.654911],[-86.708082,45.648049],[-86.718349,45.668261],[-86.717512,45.680291],[-86.705184,45.690901],[-86.689102,45.687862],[-86.676184,45.691862],[-86.664723,45.705815],[-86.671553,45.720847],[-86.662762,45.728964],[-86.647021,45.729731],[-86.643659,45.739971],[-86.633138,45.747654],[-86.636112,45.748823],[-86.632117,45.755746],[-86.623561,45.751019],[-86.620471,45.762213],[-86.636965,45.764738],[-86.633176,45.771166],[-86.623561,45.772244],[-86.631096,45.782116],[-86.617336,45.783538],[-86.604309,45.771746],[-86.586345,45.7788],[-86.566755,45.770254],[-86.559625,45.772244],[-86.581759,45.794797],[-86.575305,45.803236],[-86.557215,45.808172],[-86.557542,45.828316],[-86.539222,45.838679],[-86.54047,45.845904],[-86.528014,45.853254],[-86.532989,45.882665],[-86.559498,45.899249],[-86.582323,45.896113],[-86.598874,45.876576],[-86.613536,45.875982],[-86.624403,45.869782],[-86.633168,45.860068],[-86.632478,45.843309],[-86.644358,45.842989],[-86.647567,45.83355],[-86.699031,45.843369],[-86.719227,45.839429],[-86.721113,45.845431],[-86.731738,45.848591],[-86.742466,45.864719],[-86.758449,45.867274],[-86.78208,45.860195],[-86.782478,45.841131],[-86.788109,45.835608],[-86.774612,45.821696],[-86.773279,45.811385],[-86.779003,45.799177],[-86.769377,45.797437],[-86.805524,45.791275],[-86.799325,45.776554],[-86.789461,45.771829],[-86.804083,45.776626],[-86.821523,45.770356],[-86.820835,45.756078],[-86.832058,45.75108],[-86.84517,45.73681],[-86.838746,45.722307],[-86.8664,45.710231],[-86.903302,45.709066],[-86.918262,45.696101],[-86.925295,45.702571],[-86.941458,45.702156],[-86.967855,45.668261],[-86.969765,45.691895],[-86.980885,45.695057],[-86.984588,45.705812],[-86.975201,45.748909],[-86.983595,45.769374],[-86.981624,45.792221],[-86.98692,45.797092],[-86.988438,45.810621],[-87.000673,45.817695],[-87.005522,45.828798],[-86.987686,45.836531],[-86.983765,45.847376],[-86.948231,45.876756],[-86.949895,45.898925],[-86.977941,45.905623],[-86.986498,45.896774],[-86.97913,45.894045],[-86.990902,45.890194],[-87.002667,45.873317],[-87.022038,45.860077],[-86.998983,45.847744],[-87.039842,45.834245],[-87.057439,45.812483],[-87.056634,45.791536],[-87.061001,45.783758],[-87.056376,45.775854],[-87.0628,45.772612],[-87.064302,45.758828],[-87.055194,45.748817],[-87.037329,45.743586],[-87.057444,45.736822],[-87.06263,45.726778],[-87.084811,45.709162],[-87.064248,45.707749],[-87.095455,45.701039],[-87.100426,45.697592],[-87.100441,45.686817],[-87.131841,45.681038],[-87.172241,45.661788],[-87.176612,45.650015],[-87.197295,45.638703],[-87.200703,45.627224],[-87.2638603891879,45.550491644055],[-87.327502,45.55125],[-87.325391,45.898665],[-87.367673,45.898969],[-87.367849,45.985321]]]]}},{"type":"Feature","properties":{"GEOID":"26003","NAME":"Alger","state":"MI","wildfire_risk_score":28.912,"wildfire_eal_total":10284.85,"risk_band":"Moderate","source":"FEMA National Risk Index v1.20 (December 2025)"},"geometry":{"type":"MultiPolygon","coordinates":[[[[-86.70904,46.54521],[-86.684396,46.559693],[-86.66664,46.556695],[-86.653355,46.560698],[-86.626329,46.534903],[-86.632129,46.509324],[-86.646798,46.487497],[-86.628223,46.477781],[-86.609596,46.493456],[-86.609648,46.468701],[-86.623077,46.456504],[-86.635198,46.453475],[-86.647795,46.462562],[-86.64114,46.464363],[-86.636625,46.472384],[-86.659917,46.470256],[-86.671682,46.450609],[-86.687595,46.456228],[-86.683811,46.497726],[-86.696483,46.503523],[-86.701649,46.511217],[-86.70904,46.54521]]],[[[-86.722451,46.485805],[-86.718797,46.482226],[-86.716742,46.478599],[-86.719323,46.479033],[-86.722451,46.485805]]],[[[-86.748185,46.5156],[-86.737287,46.511148],[-86.736916,46.50397],[-86.744167,46.505292],[-86.748185,46.5156]]],[[[-86.899956,46.48783],[-86.890527,46.486226],[-86.891095,46.47946],[-86.899098,46.484149],[-86.899956,46.48783]]],[[[-87.116634,46.494808],[-87.104689,46.497891],[-87.080316,46.517999],[-87.046022,46.519956],[-87.037848,46.526403],[-87.019907,46.528092],[-87.019719,46.535451],[-87.005308,46.533953],[-86.994237,46.526948],[-86.976958,46.526581],[-86.964534,46.516549],[-86.943202,46.481557],[-86.949316,46.478277],[-86.947077,46.472064],[-86.927725,46.464566],[-86.903742,46.466138],[-86.889398,46.458907],[-86.883976,46.450976],[-86.886212,46.444222],[-86.875151,46.43728],[-86.837448,46.434186],[-86.816026,46.437892],[-86.808817,46.460611],[-86.789224,46.478442],[-86.754508,46.479593],[-86.731096,46.47176],[-86.732352,46.465598],[-86.70323,46.439378],[-86.683352,46.439145],[-86.66921,46.445614],[-86.655306,46.442502],[-86.652787,46.431528],[-86.662175,46.418667],[-86.651242,46.412112],[-86.638122,46.411686],[-86.607533,46.443321],[-86.608364,46.452656],[-86.595744,46.452901],[-86.551352,46.495564],[-86.531927,46.500122],[-86.516387,46.516441],[-86.495054,46.524874],[-86.481956,46.542709],[-86.467745,46.552456],[-86.443866,46.547303],[-86.34989,46.578035],[-86.161681,46.669475],[-86.138295,46.672935],[-86.119862,46.657256],[-86.087939,46.65532],[-85.971668,46.679934],[-85.982055,46.671232],[-85.90917,46.686885],[-85.864549264065,46.6901824613954],[-85.864932,46.504758],[-86.364953,46.505852],[-86.364989,46.331927],[-86.615397,46.333263],[-86.615601,46.158691],[-87.116138,46.15905],[-87.116634,46.494808]]]]}},{"type":"Feature","properties":{"GEOID":"26163","NAME":"Wayne","state":"MI","wildfire_risk_score":54.389,"wildfire_eal_total":46163.38,"risk_band":"High","source":"FEMA National Risk Index v1.20 (December 2025)"},"geometry":{"type":"MultiPolygon","coordinates":[[[[-83.191591,42.035369],[-83.189927,42.035987],[-83.189214,42.033339],[-83.190997,42.033428],[-83.191591,42.035369]]],[[[-83.551907,42.435166],[-83.190798,42.445147],[-82.8702390040923,42.4510090698755],[-82.88587,42.408317],[-82.882181,42.405191],[-82.886543,42.405576],[-82.898413,42.385437],[-82.919114,42.374437],[-82.928716,42.35837],[-82.964455,42.355166],[-82.96705,42.3524],[-82.954311,42.34891],[-82.959763,42.34003],[-83.019024,42.330616],[-83.063637,42.316857],[-83.099643,42.287136],[-83.126361,42.238412],[-83.134384,42.174621],[-83.119228,42.125263],[-83.13202,42.090166],[-83.158182,42.085705],[-83.168236,42.089015],[-83.172791,42.087161],[-83.170534,42.074824],[-83.182364,42.08338],[-83.19104,42.077441],[-83.186657,42.047704],[-83.199842,42.03895],[-83.214211,42.042577],[-83.219674,42.04912],[-83.230433,42.048678],[-83.229302,42.054855],[-83.254548,42.063962],[-83.251541,42.067652],[-83.257615,42.073684],[-83.267598,42.069084],[-83.270437,42.076132],[-83.277073,42.076095],[-83.275253,42.080306],[-83.280443,42.081638],[-83.277228,42.082704],[-83.283141,42.08939],[-83.295268,42.094243],[-83.420761,42.093568],[-83.420622,42.087777],[-83.539396,42.085598],[-83.551907,42.435166]]]]}},{"type":"Feature","properties":{"GEOID":"26109","NAME":"Menominee","state":"MI","wildfire_risk_score":33.333,"wildfire_eal_total":14136.49,"risk_band":"Moderate","source":"FEMA National Risk Index v1.20 (December 2025)"},"geometry":{"type":"Polygon","coordinates":[[[-87.887828,45.358122],[-87.871268,45.371467],[-87.875692,45.377052],[-87.873568,45.381357],[-87.859418,45.388227],[-87.859131,45.398967],[-87.849322,45.403872],[-87.861697,45.434473],[-87.831217,45.457185],[-87.812976,45.464159],[-87.792769,45.499967],[-87.802241,45.513059],[-87.80339,45.538272],[-87.832968,45.559461],[-87.831689,45.568035],[-87.792372,45.563055],[-87.786767,45.58283],[-87.777199,45.588499],[-87.774682,45.602024],[-87.780845,45.614599],[-87.79588,45.618846],[-87.810194,45.638732],[-87.824102,45.647138],[-87.824676,45.653211],[-87.823164,45.662732],[-87.781623,45.67328],[-87.782226,45.683053],[-87.809075,45.699717],[-87.805081,45.704974],[-87.810144,45.71023],[-87.8465664373957,45.7225260353855],[-87.697159,45.72296],[-87.696946,45.898842],[-87.617396,45.898846],[-87.617091,45.986014],[-87.367849,45.985321],[-87.367673,45.898969],[-87.325391,45.898665],[-87.327502,45.55125],[-87.2638603891879,45.550491644055],[-87.265745,45.540119],[-87.288239,45.500897],[-87.304919,45.482944],[-87.306967,45.473364],[-87.319703,45.464929],[-87.333147,45.447208],[-87.333775,45.436631],[-87.32641,45.429911],[-87.327749,45.425307],[-87.336152,45.41536],[-87.358704,45.404287],[-87.364368,45.388532],[-87.392143,45.369394],[-87.395725,45.349527],[-87.409952,45.34234],[-87.407989,45.332887],[-87.431684,45.316383],[-87.437257,45.3055],[-87.436508,45.294382],[-87.464633,45.274533],[-87.512502,45.219931],[-87.53292,45.206334],[-87.539748,45.19415],[-87.563417,45.18407],[-87.573468,45.1717],[-87.585651,45.166394],[-87.586068,45.158644],[-87.599814,45.150474],[-87.595912,45.139161],[-87.607183,45.135522],[-87.612019,45.123377],[-87.610073,45.114141],[-87.592192,45.094762],[-87.631535,45.106224],[-87.659952,45.107512],[-87.683902,45.144135],[-87.736509,45.173389],[-87.741732,45.198201],[-87.726198,45.209391],[-87.726952,45.218949],[-87.721354,45.226847],[-87.725205,45.231539],[-87.711339,45.239965],[-87.71045,45.259324],[-87.69878,45.26942],[-87.698248,45.281512],[-87.687498,45.298055],[-87.671935,45.308204],[-87.6615,45.321386],[-87.661603,45.327608],[-87.648126,45.339396],[-87.647729,45.350721],[-87.656632,45.358617],[-87.657349,45.368752],[-87.673513,45.376946],[-87.675017,45.382454],[-87.693956,45.389893],[-87.718891,45.377462],[-87.738457,45.357156],[-87.750928,45.355037],[-87.754104,45.349442],[-87.832612,45.352249],[-87.850133,45.340435],[-87.850418,45.347492],[-87.863489,45.35302],[-87.870238,45.366436],[-87.875797,45.365314],[-87.870367,45.356267],[-87.879835,45.35149],[-87.886949,45.35311],[-87.887828,45.358122]]]}},{"type":"Feature","properties":{"GEOID":"26051","NAME":"Gladwin","state":"MI","wildfire_risk_score":38.899,"wildfire_eal_total":17612.24,"risk_band":"High","source":"FEMA National Risk Index v1.20 (December 2025)"},"geometry":{"type":"Polygon","coordinates":[[[-84.608104,44.160482],[-84.166107,44.161788],[-84.167318,43.825902],[-84.366511,43.828434],[-84.366676,43.81356],[-84.606037,43.815365],[-84.608104,44.160482]]]}},{"type":"Feature","properties":{"GEOID":"26099","NAME":"Macomb","state":"MI","wildfire_risk_score":41.73,"wildfire_eal_total":32292.4,"risk_band":"High","source":"FEMA National Risk Index v1.20 (December 2025)"},"geometry":{"type":"Polygon","coordinates":[[[-83.102891,42.888647],[-82.73901,42.897541],[-82.729277,42.706059],[-82.719664,42.703042],[-82.723317,42.700441],[-82.7053749533025,42.6866870626306],[-82.726366,42.682768],[-82.735459,42.672897],[-82.753317,42.669732],[-82.760052,42.66383],[-82.760265,42.656572],[-82.797318,42.654032],[-82.813518,42.640833],[-82.820667,42.615265],[-82.792606,42.604761],[-82.79072,42.596026],[-82.771519,42.592744],[-82.786823,42.592249],[-82.788837,42.584603],[-82.782414,42.564834],[-82.796715,42.571034],[-82.834216,42.567849],[-82.845085,42.561444],[-82.849885,42.549789],[-82.870731,42.528879],[-82.882316,42.501035],[-82.879174,42.490164],[-82.882705,42.489819],[-82.884371,42.476573],[-82.877026,42.471982],[-82.8702390040923,42.4510090698755],[-83.083393,42.447153],[-83.102891,42.888647]]]}},{"type":"Feature","properties":{"GEOID":"26147","NAME":"St. Clair","state":"MI","wildfire_risk_score":33.524,"wildfire_eal_total":18926.73,"risk_band":"Moderate","source":"FEMA National Risk Index v1.20 (December 2025)"},"geometry":{"type":"Polygon","coordinates":[[[-82.996257,43.154099],[-82.5034284253741,43.1689337555037],[-82.486042,43.102486],[-82.471053,43.087581],[-82.42654,43.01724],[-82.419366,43.002722],[-82.424969,42.993383],[-82.413474,42.976887],[-82.428603,42.952001],[-82.45562,42.926713],[-82.469912,42.887459],[-82.46891,42.851557],[-82.482574,42.808644],[-82.470364,42.782827],[-82.467776,42.761397],[-82.510944,42.664547],[-82.509935,42.637294],[-82.518782,42.613888],[-82.579569,42.565306],[-82.583996,42.554041],[-82.605742,42.548167],[-82.62433,42.557134],[-82.641218,42.554919],[-82.680699,42.523182],[-82.679522,42.53552],[-82.670956,42.537989],[-82.647899,42.559345],[-82.661328,42.568623],[-82.683313,42.555493],[-82.685928,42.560132],[-82.694062,42.558562],[-82.675113,42.579299],[-82.670716,42.576937],[-82.661684,42.581574],[-82.656455,42.592424],[-82.677133,42.597411],[-82.701152,42.585991],[-82.711151,42.590884],[-82.713042,42.597904],[-82.700818,42.606687],[-82.687116,42.60642],[-82.676539,42.61298],[-82.689836,42.627148],[-82.665487,42.624174],[-82.669103,42.637225],[-82.666657,42.640017],[-82.661812,42.635595],[-82.65289,42.650577],[-82.638986,42.639999],[-82.630922,42.64211],[-82.623043,42.655951],[-82.623797,42.665395],[-82.635262,42.675552],[-82.653241,42.672232],[-82.679583,42.688724],[-82.696222,42.690278],[-82.705966,42.68631],[-82.723317,42.700441],[-82.719664,42.703042],[-82.729277,42.706059],[-82.73901,42.897541],[-82.983647,42.893741],[-82.996257,43.154099]]]}},{"type":"Feature","properties":{"GEOID":"26055","NAME":"Grand Traverse","state":"MI","wildfire_risk_score":31.043,"wildfire_eal_total":18613.97,"risk_band":"Moderate","source":"FEMA National Risk Index v1.20 (December 2025)"},"geometry":{"type":"MultiPolygon","coordinates":[[[[-85.583214,44.863728],[-85.581207,44.869938],[-85.569891,44.872323],[-85.570643,44.86452],[-85.581849,44.860243],[-85.583214,44.863728]]],[[[-85.817632,44.541668],[-85.815119,44.774534],[-85.6406682591039,44.7753692751023],[-85.619378,44.765513],[-85.595436,44.767111],[-85.579089,44.817725],[-85.564162,44.831259],[-85.548908,44.863209],[-85.532931,44.87319],[-85.530649,44.889763],[-85.524751,44.896124],[-85.546442,44.901551],[-85.557135,44.88756],[-85.564509,44.895246],[-85.533553,44.925762],[-85.529033,44.946918],[-85.520205,44.960347],[-85.520034,44.973996],[-85.50008,44.981049],[-85.4926,44.989834],[-85.474937,44.991721],[-85.464944,44.961062],[-85.487459,44.958939],[-85.484606,44.952548],[-85.49249,44.90822],[-85.488624,44.901707],[-85.499913,44.872317],[-85.499745,44.856088],[-85.539924,44.834166],[-85.555894,44.818256],[-85.560231,44.810072],[-85.559641,44.785937],[-85.576566,44.760208],[-85.554326,44.748744],[-85.527192,44.7475],[-85.504775,44.768082],[-85.507367,44.795363],[-85.49938,44.804344],[-85.471483,44.816596],[-85.462916,44.825067],[-85.451409,44.853951],[-85.44311,44.859818],[-85.381983,44.859568],[-85.374555,44.828816],[-85.344094,44.826939],[-85.332836,44.812372],[-85.334,44.512303],[-85.817802,44.512969],[-85.817632,44.541668]]]]}},{"type":"Feature","properties":{"GEOID":"26013","NAME":"Baraga","state":"MI","wildfire_risk_score":15.14,"wildfire_eal_total":3876.83,"risk_band":"Low","source":"FEMA National Risk Index v1.20 (December 2025)"},"geometry":{"type":"Polygon","coordinates":[[[-88.678836,46.592569],[-88.678982,46.851654],[-88.551943,46.851795],[-88.552185,46.938533],[-88.4508233502795,46.9390376774892],[-88.475859,46.886042],[-88.477935,46.85056],[-88.484299,46.832503],[-88.462926,46.786621],[-88.469842,46.780664],[-88.482099,46.782622],[-88.499575,46.759083],[-88.476395,46.749491],[-88.450607,46.76317],[-88.433835,46.793502],[-88.38141,46.838466],[-88.382052,46.845437],[-88.389475,46.851871],[-88.404044,46.847798],[-88.389727,46.8671],[-88.372681,46.872277],[-88.375761,46.861696],[-88.35194,46.857028],[-88.31029,46.889748],[-88.261593,46.915516],[-88.244437,46.929612],[-88.198728,46.943912],[-88.18982,46.952316],[-88.144771,46.967003],[-88.129143,46.962677],[-88.144744,46.956211],[-88.147028,46.947238],[-88.160452,46.936392],[-88.234104,46.894742],[-88.251217,46.871186],[-88.249791,46.865661],[-88.254663,46.865986],[-88.271465,46.837875],[-88.282829,46.832012],[-88.283423,46.822987],[-88.272965,46.824207],[-88.254545,46.839167],[-88.232352,46.872662],[-88.211287,46.884102],[-88.215327,46.891331],[-88.184786,46.904648],[-88.126927,46.90984],[-88.08187,46.920458],[-88.0445670007046,46.9115682657834],[-88.044709,46.765353],[-87.991389,46.765159],[-87.991546,46.679113],[-88.115843,46.678381],[-88.116571,46.419951],[-88.679392,46.420139],[-88.678836,46.592569]]]}},{"type":"Feature","properties":{"GEOID":"26071","NAME":"Iron","state":"MI","wildfire_risk_score":43.289,"wildfire_eal_total":22820.08,"risk_band":"High","source":"FEMA National Risk Index v1.20 (December 2025)"},"geometry":{"type":"Polygon","coordinates":[[[-88.991236,46.419704],[-88.116571,46.419951],[-88.1168457401249,45.9217028628049],[-88.126382,45.921499],[-88.126419,45.925608],[-88.148128,45.937546],[-88.170096,45.93947],[-88.191991,45.95274],[-88.203797,45.947941],[-88.239941,45.949362],[-88.245752,45.954147],[-88.246346,45.963389],[-88.292381,45.951115],[-88.319698,45.963626],[-88.326953,45.955071],[-88.330137,45.965951],[-88.380183,45.991654],[-88.387939,45.983167],[-88.416914,45.975323],[-88.434762,45.98834],[-88.450325,45.990181],[-88.458658,45.999391],[-88.470855,46.001004],[-88.476002,45.992826],[-88.492495,45.992157],[-88.506476,46.011114],[-88.506205,46.017134],[-88.514601,46.019926],[-88.534196,46.020886],[-88.541078,46.013763],[-88.550756,46.012896],[-88.565485,46.015708],[-88.589,46.005077],[-88.59386,46.015132],[-88.60144,46.017599],[-88.612712,46.004462],[-88.616405,45.9877],[-88.6375,45.98496],[-88.670827,45.988547],[-88.663609,45.992397],[-88.679132,46.013538],[-88.704687,46.018154],[-88.718397,46.013284],[-88.724801,46.024503],[-88.739994,46.027308],[-88.758618,46.019542],[-88.770046,46.025728],[-88.769712,46.018968],[-88.780156,46.015395],[-88.784007,46.022984],[-88.778628,46.031271],[-88.788351,46.028613],[-88.796182,46.033712],[-88.80067,46.030036],[-88.79646,46.023605],[-88.816026,46.020586],[-88.819084,46.026314],[-88.838601,46.030124],[-88.85027,46.040274],[-88.9908849086907,46.0973298417764],[-88.991236,46.419704]]]}},{"type":"Feature","properties":{"GEOID":"26079","NAME":"Kalkaska","state":"MI","wildfire_risk_score":54.962,"wildfire_eal_total":53783.69,"risk_band":"High","source":"FEMA National Risk Index v1.20 (December 2025)"},"geometry":{"type":"Polygon","coordinates":[[[-85.333968,44.519341],[-85.332836,44.812372],[-85.316548,44.823514],[-85.327595,44.85076],[-85.291716,44.859608],[-84.847309,44.858037],[-84.850929,44.511069],[-85.334,44.512303],[-85.333968,44.519341]]]}},{"type":"Feature","properties":{"GEOID":"26089","NAME":"Leelanau","state":"MI","wildfire_risk_score":14.949,"wildfire_eal_total":5092.85,"risk_band":"Low","source":"FEMA National Risk Index v1.20 (December 2025)"},"geometry":{"type":"MultiPolygon","coordinates":[[[[-85.568039,45.099781],[-85.567733,45.101413],[-85.56586,45.099502],[-85.567359,45.099201],[-85.568039,45.099781]]],[[[-85.789516,45.487821],[-85.782646,45.491596],[-85.770611,45.486489],[-85.766838,45.475788],[-85.770146,45.460737],[-85.783099,45.477072],[-85.792961,45.481976],[-85.789516,45.487821]]],[[[-85.884707,45.444814],[-85.852073,45.436947],[-85.831967,45.42048],[-85.826544,45.405876],[-85.833844,45.379575],[-85.838716,45.377155],[-85.842163,45.391094],[-85.875108,45.42541],[-85.884707,45.444814]]],[[[-86.064483,45.139601],[-86.059393,45.152291],[-86.04443,45.159582],[-85.989412,45.151069],[-85.976803,45.138363],[-85.974679,45.122592],[-85.980433,45.113046],[-85.982799,45.080787],[-85.960879,45.060508],[-85.976883,45.06266],[-85.99951,45.054063],[-86.007527,45.057172],[-86.041172,45.090404],[-86.058653,45.100776],[-86.064483,45.139601]]],[[[-86.078592,44.794393],[-86.066514,44.819869],[-86.072468,44.884788],[-86.063813,44.90813],[-86.043808,44.914729],[-86.009355,44.899454],[-85.985218,44.902933],[-85.9316,44.968788],[-85.897626,44.962014],[-85.879934,44.943305],[-85.869852,44.939031],[-85.83615,44.940256],[-85.807403,44.949814],[-85.780439,44.977932],[-85.776207,45.000574],[-85.780042,45.009625],[-85.762945,45.0226],[-85.744577,45.05339],[-85.703307,45.070992],[-85.681096,45.092693],[-85.67573,45.115355],[-85.656024,45.145788],[-85.618361,45.18702],[-85.606963,45.178477],[-85.593064,45.178527],[-85.564654,45.192546],[-85.551072,45.210742],[-85.537991,45.20736],[-85.526734,45.189316],[-85.531461,45.177247],[-85.56168,45.15894],[-85.554083,45.142568],[-85.561852,45.143393],[-85.558373,45.133209],[-85.564612,45.137498],[-85.565658,45.151828],[-85.573893,45.155488],[-85.576793,45.151583],[-85.586584,45.153972],[-85.599801,45.149286],[-85.60192,45.1405],[-85.614319,45.127562],[-85.605595,45.107989],[-85.596932,45.104698],[-85.598441,45.091461],[-85.583707,45.068486],[-85.572962,45.067336],[-85.566179,45.058866],[-85.566125,45.047518],[-85.57016,45.041278],[-85.579148,45.055454],[-85.588994,45.054714],[-85.590136,45.047504],[-85.597653,45.043838],[-85.599652,45.021749],[-85.633847,44.999689],[-85.649476,44.974589],[-85.645243,44.96933],[-85.629506,44.966719],[-85.606009,44.990825],[-85.599389,44.989175],[-85.604756,44.938386],[-85.600982,44.92501],[-85.624648,44.922139],[-85.648932,44.87401],[-85.651435,44.831624],[-85.633263,44.800437],[-85.6406682591039,44.7753692751023],[-86.0746093119234,44.7781089198298],[-86.078592,44.794393]]],[[[-86.155654,45.01439],[-86.141644,45.040251],[-86.117908,45.048478],[-86.085249,45.039543],[-86.07781,45.03241],[-86.097094,45.030128],[-86.101214,45.018101],[-86.093536,45.007838],[-86.115699,44.999093],[-86.134832,44.996963],[-86.154326,45.002731],[-86.155654,45.01439]]]]}},{"type":"Feature","properties":{"GEOID":"26007","NAME":"Alpena","state":"MI","wildfire_risk_score":15.617,"wildfire_eal_total":4022.26,"risk_band":"Low","source":"FEMA National Risk Index v1.20 (December 2025)"},"geometry":{"type":"MultiPolygon","coordinates":[[[[-83.212075,45.05231],[-83.202015,45.046114],[-83.193451,45.034175],[-83.204946,45.040747],[-83.212075,45.05231]]],[[[-83.228895,45.046623],[-83.222956,45.050704],[-83.216899,45.043798],[-83.226983,45.040481],[-83.228895,45.046623]]],[[[-83.234009,45.055993],[-83.232464,45.056833],[-83.22871,45.056365],[-83.233851,45.054977],[-83.234009,45.055993]]],[[[-83.298775,45.065746],[-83.291699,45.073274],[-83.289064,45.071608],[-83.290552,45.060605],[-83.298775,45.065746]]],[[[-83.336341,45.191599],[-83.329886,45.197735],[-83.31986,45.189457],[-83.324881,45.187083],[-83.336341,45.191599]]],[[[-83.422543,44.989158],[-83.417586,44.991927],[-83.411795,44.987267],[-83.415115,44.985942],[-83.422543,44.989158]]],[[[-83.890439,45.03047],[-83.880234,45.030611],[-83.881223,45.202071],[-83.388467,45.207108],[-83.373449,45.194226],[-83.367096,45.183229],[-83.368046,45.172478],[-83.359895,45.16302],[-83.348684,45.161516],[-83.334906,45.142338],[-83.329087,45.145728],[-83.316118,45.141958],[-83.322711,45.13708],[-83.315548,45.126023],[-83.319791,45.116088],[-83.311471,45.112211],[-83.313283,45.100796],[-83.300932,45.09285],[-83.31988,45.087043],[-83.313059,45.085139],[-83.319213,45.075611],[-83.311078,45.0714],[-83.314398,45.070343],[-83.310751,45.065672],[-83.315324,45.052571],[-83.278352,45.045785],[-83.262416,45.025405],[-83.265508,45.02206],[-83.287734,45.026681],[-83.34084,45.042323],[-83.36451,45.057682],[-83.364895,45.072031],[-83.372527,45.077096],[-83.38862,45.076555],[-83.392022,45.069087],[-83.418139,45.067117],[-83.41853,45.061541],[-83.437879,45.055014],[-83.454712,45.032985],[-83.449736,45.028588],[-83.457159,45.024743],[-83.456484,45.017219],[-83.431254,45.007998],[-83.435192,45.005376],[-83.45399,45.011203],[-83.4623,45.00608],[-83.464149,44.996164],[-83.447055,44.983581],[-83.443718,44.952247],[-83.433032,44.93289],[-83.404596,44.918761],[-83.394843,44.903168],[-83.376388,44.900546],[-83.366243,44.890496],[-83.315803,44.881005],[-83.319181,44.874478],[-83.316355,44.865425],[-83.321455,44.858487],[-83.888484,44.856458],[-83.890439,45.03047]]]]}},{"type":"Feature","properties":{"GEOID":"26119","NAME":"Montmorency","state":"MI","wildfire_risk_score":60.369,"wildfire_eal_total":56149.5,"risk_band":"High","source":"FEMA National Risk Index v1.20 (December 2025)"},"geometry":{"type":"Polygon","coordinates":[[[-84.371664,44.939654],[-84.366614,45.198737],[-83.881223,45.202071],[-83.880234,45.030611],[-83.890439,45.03047],[-83.888482,44.856635],[-84.371737,44.855039],[-84.371664,44.939654]]]}},{"type":"Feature","properties":{"GEOID":"26029","NAME":"Charlevoix","state":"MI","wildfire_risk_score":16.221,"wildfire_eal_total":5813.73,"risk_band":"Low","source":"FEMA National Risk Index v1.20 (December 2025)"},"geometry":{"type":"MultiPolygon","coordinates":[[[[-85.301735,45.816836],[-85.299049,45.817526],[-85.298928,45.816317],[-85.299763,45.815102],[-85.301735,45.816836]]],[[[-85.388545,45.218584],[-85.388593,45.23524],[-85.371593,45.270834],[-85.341872,45.286682],[-85.327424,45.302757],[-85.312821,45.306097],[-85.300693,45.321283],[-85.291818,45.314188],[-85.273789,45.315443],[-85.25505,45.325675],[-85.249787,45.339689],[-85.235629,45.339374],[-85.203616,45.361887],[-85.182471,45.360824],[-85.135854,45.373252],[-85.0960000607713,45.3665247082506],[-85.096533,45.335743],[-85.045967,45.334655],[-85.022839,45.310089],[-85.015318,45.297006],[-85.018894,45.28957],[-85.01416,45.281456],[-85.00097,45.272137],[-84.964347,45.271674],[-84.964787,45.291601],[-84.732687,45.289382],[-84.734799,45.114903],[-85.223681,45.117861],[-85.222707,45.20556],[-85.3886942098005,45.2077658295999],[-85.388545,45.218584]]],[[[-85.394765,45.777136],[-85.377062,45.787512],[-85.373687,45.796829],[-85.365904,45.798894],[-85.375823,45.802688],[-85.368315,45.808113],[-85.377958,45.814067],[-85.368797,45.818099],[-85.358087,45.814112],[-85.350268,45.795773],[-85.360187,45.789529],[-85.357638,45.778529],[-85.377129,45.769012],[-85.394765,45.777136]]],[[[-85.529878,45.800462],[-85.518025,45.803043],[-85.529131,45.818794],[-85.524469,45.819571],[-85.526216,45.827833],[-85.516819,45.827449],[-85.492486,45.819342],[-85.471346,45.806474],[-85.47122,45.799181],[-85.453722,45.794354],[-85.466391,45.786152],[-85.455474,45.777831],[-85.484855,45.78075],[-85.49562,45.773403],[-85.506872,45.779841],[-85.493359,45.788814],[-85.502754,45.798136],[-85.529878,45.800462]]],[[[-85.594489,45.83768],[-85.588172,45.8407],[-85.583757,45.839494],[-85.589179,45.83331],[-85.594489,45.83768]]],[[[-85.617538,45.810776],[-85.611967,45.814302],[-85.604309,45.811824],[-85.611124,45.807376],[-85.617538,45.810776]]],[[[-85.625977,45.601586],[-85.61985,45.624547],[-85.608199,45.631605],[-85.603851,45.640082],[-85.608302,45.663994],[-85.60347,45.68206],[-85.571781,45.711424],[-85.572395,45.727671],[-85.562163,45.735453],[-85.568879,45.749343],[-85.567991,45.758579],[-85.557069,45.759488],[-85.53562,45.750394],[-85.501267,45.754415],[-85.499455,45.744344],[-85.508818,45.742358],[-85.50904,45.748488],[-85.515145,45.749451],[-85.521911,45.739419],[-85.498777,45.726291],[-85.50195,45.720785],[-85.496311,45.715136],[-85.494016,45.698476],[-85.506104,45.681148],[-85.500451,45.664298],[-85.490252,45.652122],[-85.487333,45.63735],[-85.491727,45.607527],[-85.530273,45.589253],[-85.534064,45.578198],[-85.560658,45.571584],[-85.585805,45.579849],[-85.619877,45.582884],[-85.625977,45.601586]]],[[[-85.696259,45.774391],[-85.688192,45.775061],[-85.684075,45.770125],[-85.693102,45.770887],[-85.696259,45.774391]]],[[[-85.700802,45.738525],[-85.68885,45.747238],[-85.644893,45.742702],[-85.655118,45.738244],[-85.650784,45.722502],[-85.654823,45.715882],[-85.680454,45.696062],[-85.697581,45.697649],[-85.69356,45.709189],[-85.696435,45.712585],[-85.689242,45.714148],[-85.687103,45.71979],[-85.700802,45.738525]]],[[[-85.844023,45.694828],[-85.840707,45.707386],[-85.837198,45.710343],[-85.834286,45.697344],[-85.844023,45.694828]]]]}},{"type":"Feature","properties":{"GEOID":"26063","NAME":"Huron","state":"MI","wildfire_risk_score":9.733,"wildfire_eal_total":2696.31,"risk_band":"Low","source":"FEMA National Risk Index v1.20 (December 2025)"},"geometry":{"type":"MultiPolygon","coordinates":[[[[-83.431784,43.881781],[-83.423894,43.881685],[-83.414634,43.87648],[-83.425547,43.877092],[-83.431784,43.881781]]],[[[-83.433818,43.83553],[-83.425522,43.840626],[-83.415733,43.834181],[-83.421152,43.826979],[-83.422559,43.837568],[-83.433818,43.83553]]],[[[-83.449304,43.81636],[-83.445266,43.823907],[-83.433069,43.820435],[-83.448576,43.814784],[-83.449304,43.81636]]],[[[-83.449414,43.858836],[-83.436631,43.861909],[-83.431585,43.856621],[-83.43782,43.85544],[-83.438092,43.839494],[-83.445616,43.844974],[-83.449414,43.858836]]],[[[-83.460691,43.81636],[-83.453776,43.832433],[-83.444604,43.834367],[-83.458255,43.814683],[-83.451568,43.812382],[-83.458932,43.810051],[-83.460691,43.81636]]],[[[-83.4673986985307,43.7286494780206],[-83.455339,43.747974],[-83.444621,43.756052],[-83.43167,43.784364],[-83.423899,43.783911],[-83.423095,43.789528],[-83.427342,43.791238],[-83.431745,43.787017],[-83.428411,43.796891],[-83.423944,43.791432],[-83.400235,43.811483],[-83.388511,43.835468],[-83.390392,43.848386],[-83.384009,43.853321],[-83.372006,43.851967],[-83.35505,43.858186],[-83.325064,43.883999],[-83.329382,43.903239],[-83.376816,43.909816],[-83.396416,43.907714],[-83.404628,43.915292],[-83.366792,43.91302],[-83.318094,43.917388],[-83.278866,43.94125],[-83.280002,43.945498],[-83.26185,43.969021],[-83.262471,43.975315],[-83.151267,43.987764],[-83.112393,44.004698],[-83.066026,44.003366],[-83.046577,44.01571],[-83.027675,44.046204],[-82.990728,44.048846],[-82.963861,44.068266],[-82.947368,44.062187],[-82.921538,44.067896],[-82.875889,44.045046],[-82.831186,44.037699],[-82.793205,44.023247],[-82.783198,44.009366],[-82.766285,44.008569],[-82.736956,43.985889],[-82.720395,43.955389],[-82.702075,43.937104],[-82.700407,43.926375],[-82.682758,43.907241],[-82.685371,43.897432],[-82.67824,43.88059],[-82.655428,43.867761],[-82.651527,43.853487],[-82.645417,43.850663],[-82.649495,43.84961],[-82.644776,43.846443],[-82.647529,43.841266],[-82.634091,43.831502],[-82.621865,43.796688],[-82.624323,43.78694],[-82.614982,43.77925],[-82.619484,43.755778],[-82.6106,43.735632],[-82.6069133333559,43.6904666042226],[-83.466592,43.667621],[-83.4673986985307,43.7286494780206]]],[[[-83.481212,43.758229],[-83.477045,43.761541],[-83.465961,43.760005],[-83.471366,43.75619],[-83.481212,43.758229]]]]}},{"type":"Feature","properties":{"GEOID":"26137","NAME":"Otsego","state":"MI","wildfire_risk_score":44.975,"wildfire_eal_total":38265.82,"risk_band":"High","source":"FEMA National Risk Index v1.20 (December 2025)"},"geometry":{"type":"Polygon","coordinates":[[[-84.857452,45.116707],[-84.734799,45.114903],[-84.734303,45.201936],[-84.366614,45.198737],[-84.371737,44.855039],[-84.847309,44.858037],[-84.849524,45.029633],[-84.857319,45.029757],[-84.857452,45.116707]]]}},{"type":"Feature","properties":{"GEOID":"26017","NAME":"Bay","state":"MI","wildfire_risk_score":14.663,"wildfire_eal_total":4877.16,"risk_band":"Low","source":"FEMA National Risk Index v1.20 (December 2025)"},"geometry":{"type":"MultiPolygon","coordinates":[[[[-83.83209,43.666283],[-83.825108,43.675203],[-83.816746,43.672472],[-83.818592,43.665453],[-83.83209,43.666283]]],[[[-84.168,43.578781],[-84.166377,43.996901],[-84.045409,43.996974],[-84.044843,43.911146],[-83.9090930130423,43.9104796013383],[-83.916,43.89904],[-83.916809,43.861647],[-83.92114,43.863637],[-83.924043,43.85873],[-83.921235,43.817019],[-83.927422,43.800464],[-83.928707,43.777135],[-83.938098,43.773624],[-83.943613,43.763392],[-83.956463,43.760767],[-83.939297,43.715369],[-83.912939,43.677574],[-83.891499,43.662355],[-83.847873,43.641528],[-83.844118,43.652896],[-83.836484,43.653138],[-83.816423,43.643581],[-83.814701,43.635271],[-83.770201,43.628387],[-83.735031,43.61732],[-83.709849,43.601431],[-83.6995326563837,43.5886191515736],[-83.698816,43.478957],[-83.817678,43.479052],[-83.817228,43.522345],[-84.050987,43.524064],[-84.05,43.567324],[-84.168127,43.568899],[-84.168,43.578781]]]]}},{"type":"Feature","properties":{"GEOID":"26049","NAME":"Genesee","state":"MI","wildfire_risk_score":25.922,"wildfire_eal_total":10925.73,"risk_band":"Moderate","source":"FEMA National Risk Index v1.20 (December 2025)"},"geometry":{"type":"Polygon","coordinates":[[[-83.932071,43.220377],[-83.460733,43.223131],[-83.453297,42.876307],[-83.689384,42.871263],[-83.686493,42.783263],[-83.922516,42.780821],[-83.929911,42.956512],[-83.932071,43.220377]]]}},{"type":"Feature","properties":{"GEOID":"26021","NAME":"Berrien","state":"MI","wildfire_risk_score":23.473,"wildfire_eal_total":9529.79,"risk_band":"Moderate","source":"FEMA National Risk Index v1.20 (December 2025)"},"geometry":{"type":"Polygon","coordinates":[[[-86.824828,41.76024],[-86.68445,41.840179],[-86.621769,41.891934],[-86.582197,41.942241],[-86.556421,42.000042],[-86.501322,42.08454],[-86.489023,42.116224],[-86.423944,42.175961],[-86.3642653961658,42.243143689832],[-86.223563,42.243379],[-86.2260968887313,41.760016130263],[-86.824828,41.76024]]]}},{"type":"Feature","properties":{"GEOID":"26145","NAME":"Saginaw","state":"MI","wildfire_risk_score":16.031,"wildfire_eal_total":5316.53,"risk_band":"Low","source":"FEMA National Risk Index v1.20 (December 2025)"},"geometry":{"type":"Polygon","coordinates":[[[-84.369876,43.466044],[-84.369777,43.481573],[-84.170576,43.481969],[-84.168127,43.568899],[-84.05,43.567324],[-84.050987,43.524064],[-83.817228,43.522345],[-83.817678,43.479052],[-83.698816,43.478957],[-83.695621,43.221422],[-83.932071,43.220377],[-83.929079,43.132782],[-84.367891,43.128452],[-84.369876,43.466044]]]}},{"type":"Feature","properties":{"GEOID":"26117","NAME":"Montcalm","state":"MI","wildfire_risk_score":32.411,"wildfire_eal_total":16712.07,"risk_band":"Moderate","source":"FEMA National Risk Index v1.20 (December 2025)"},"geometry":{"type":"Polygon","coordinates":[[[-85.562712,43.349836],[-85.562348,43.46813],[-84.845962,43.466158],[-84.845573,43.292231],[-84.835305,43.2922],[-84.836889,43.118851],[-85.312513,43.118793],[-85.312376,43.294205],[-85.562538,43.294271],[-85.562712,43.349836]]]}},{"type":"Feature","properties":{"GEOID":"26121","NAME":"Muskegon","state":"MI","wildfire_risk_score":30.471,"wildfire_eal_total":14109.57,"risk_band":"Moderate","source":"FEMA National Risk Index v1.20 (December 2025)"},"geometry":{"type":"Polygon","coordinates":[[[-86.4615386091284,43.4723264306271],[-86.039491,43.467447],[-86.038953,43.293519],[-85.790448,43.293003],[-85.790662,43.205167],[-85.908388,43.20592],[-85.907435,43.118911],[-86.2719958131653,43.1183651191642],[-86.29759,43.166],[-86.39575,43.316225],[-86.427044,43.374941],[-86.4615386091284,43.4723264306271]]]}},{"type":"Feature","properties":{"GEOID":"26105","NAME":"Mason","state":"MI","wildfire_risk_score":41.539,"wildfire_eal_total":22216.34,"risk_band":"High","source":"FEMA National Risk Index v1.20 (December 2025)"},"geometry":{"type":"Polygon","coordinates":[[[-86.514702,44.058119],[-86.500453,44.075607],[-86.429871,44.119782],[-86.3887989365374,44.1786884726775],[-86.043507,44.167088],[-86.037884,43.815611],[-86.4307941816123,43.8194069777613],[-86.433915,43.855608],[-86.463136,43.970976],[-86.508827,44.032755],[-86.514702,44.058119]]]}},{"type":"Feature","properties":{"GEOID":"26043","NAME":"Dickinson","state":"MI","wildfire_risk_score":27.767,"wildfire_eal_total":12436.55,"risk_band":"Moderate","source":"FEMA National Risk Index v1.20 (December 2025)"},"geometry":{"type":"Polygon","coordinates":[[[-88.13611,45.819029],[-88.069885,45.872717],[-88.08182,45.880201],[-88.100218,45.881205],[-88.106993,45.899774],[-88.095034,45.915839],[-88.102908,45.921869],[-88.1168457401249,45.9217028628049],[-88.117407,46.246618],[-87.615914,46.246654],[-87.617396,45.898846],[-87.696946,45.898842],[-87.697159,45.72296],[-87.8465664373957,45.7225260353855],[-87.86432,45.737139],[-87.862211,45.745018],[-87.877583,45.754488],[-87.898363,45.752503],[-87.904657,45.759163],[-87.921999,45.756989],[-87.92913,45.760364],[-87.959277,45.757367],[-87.986429,45.769596],[-87.989829,45.772945],[-87.98087,45.776977],[-87.991447,45.795393],[-88.039729,45.789626],[-88.041744,45.783734],[-88.070555,45.779937],[-88.094047,45.785658],[-88.103247,45.791361],[-88.108331,45.803465],[-88.129461,45.809288],[-88.13611,45.819029]]]}},{"type":"Feature","properties":{"GEOID":"26157","NAME":"Tuscola","state":"MI","wildfire_risk_score":15.967,"wildfire_eal_total":4820.96,"risk_band":"Low","source":"FEMA National Risk Index v1.20 (December 2025)"},"geometry":{"type":"Polygon","coordinates":[[[-83.6995326563837,43.5886191515736],[-83.685207,43.584437],[-83.658436,43.595504],[-83.59551,43.649659],[-83.561227,43.686511],[-83.553619,43.685205],[-83.550646,43.698394],[-83.539965,43.708366],[-83.515718,43.718519],[-83.5132,43.714064],[-83.520791,43.714841],[-83.513266,43.704927],[-83.518181,43.704094],[-83.520123,43.697513],[-83.497124,43.697469],[-83.4673986985307,43.7286494780206],[-83.466592,43.667621],[-83.117844,43.675493],[-83.103826,43.327365],[-83.354418,43.322257],[-83.351709,43.235193],[-83.460708,43.232791],[-83.460733,43.223131],[-83.695621,43.221422],[-83.6995326563837,43.5886191515736]]]}},{"type":"Feature","properties":{"GEOID":"26011","NAME":"Arenac","state":"MI","wildfire_risk_score":35.115,"wildfire_eal_total":15515.89,"risk_band":"Moderate","source":"FEMA National Risk Index v1.20 (December 2025)"},"geometry":{"type":"MultiPolygon","coordinates":[[[[-83.441221,44.03805],[-83.428468,44.032701],[-83.427265,44.028701],[-83.437089,44.023163],[-83.441221,44.03805]]],[[[-83.471025,44.002552],[-83.466409,44.003698],[-83.463266,44.001372],[-83.470271,44.001515],[-83.471025,44.002552]]],[[[-84.166518,44.126664],[-84.166107,44.161788],[-83.5650737323924,44.1635187435465],[-83.568915,44.126734],[-83.564446,44.105537],[-83.591361,44.079237],[-83.579866,44.049439],[-83.621078,44.056186],[-83.647059,44.05322],[-83.671488,44.041842],[-83.682812,44.027647],[-83.689153,44.026766],[-83.677326,43.991639],[-83.680563,43.987646],[-83.697051,43.992416],[-83.70309,43.999396],[-83.717296,43.998639],[-83.73843,44.005199],[-83.749391,44.002487],[-83.754008,43.993914],[-83.750234,43.990997],[-83.762806,43.985767],[-83.790527,43.98961],[-83.801683,43.986252],[-83.801255,43.995178],[-83.814846,43.996688],[-83.826049,43.991028],[-83.830062,43.996819],[-83.836824,43.996473],[-83.848173,43.989535],[-83.84803,43.981942],[-83.861374,43.965867],[-83.875498,43.961945],[-83.885492,43.946399],[-83.89059,43.923812],[-83.899744,43.923512],[-83.898398,43.919247],[-83.90627,43.91819],[-83.9090930130423,43.9104796013383],[-84.044843,43.911146],[-84.045409,43.996974],[-84.166377,43.996901],[-84.166518,44.126664]]]]}},{"type":"Feature","properties":{"GEOID":"26127","NAME":"Oceana","state":"MI","wildfire_risk_score":34.574,"wildfire_eal_total":17373.21,"risk_band":"Moderate","source":"FEMA National Risk Index v1.20 (December 2025)"},"geometry":{"type":"Polygon","coordinates":[[[-86.540787,43.644593],[-86.529179,43.677889],[-86.454254,43.756619],[-86.437391,43.789334],[-86.4307941816123,43.8194069777613],[-86.037884,43.815611],[-86.039491,43.467447],[-86.4615386091284,43.4723264306271],[-86.479276,43.515335],[-86.529507,43.593462],[-86.538497,43.617501],[-86.540787,43.644593]]]}},{"type":"Feature","properties":{"GEOID":"26061","NAME":"Houghton","state":"MI","wildfire_risk_score":22.742,"wildfire_eal_total":11298.3,"risk_band":"Low","source":"FEMA National Risk Index v1.20 (December 2025)"},"geometry":{"type":"MultiPolygon","coordinates":[[[[-88.276076,47.072582],[-88.270372,47.076305],[-88.268055,47.074038],[-88.269303,47.069486],[-88.276076,47.072582]]],[[[-88.991234,46.478973],[-88.989529,46.680119],[-88.864473,46.679311],[-88.863906,46.765013],[-88.93248,46.764787],[-88.933301762633,47.0311855525701],[-88.914189,47.059246],[-88.903706,47.086161],[-88.88914,47.100575],[-88.840788,47.117613],[-88.814834,47.141399],[-88.761313,47.15675],[-88.729688,47.185834],[-88.672395,47.219137],[-88.625615,47.229457],[-88.613009,47.238341],[-88.577048,47.244003],[-88.5119978820947,47.2859613204572],[-88.298992,47.286097],[-88.298436,47.199782],[-88.226990173848,47.1999305272193],[-88.239012,47.186238],[-88.242006,47.174767],[-88.24266,47.158426],[-88.232164,47.145975],[-88.247628,47.135981],[-88.257689,47.144735],[-88.277545,47.140902],[-88.28904,47.129689],[-88.288347,47.114547],[-88.297625,47.098505],[-88.349952,47.076377],[-88.367624,47.019213],[-88.41009,46.97999],[-88.431339,46.975319],[-88.433478,46.981935],[-88.438755,46.981935],[-88.446455,46.970162],[-88.4508233502795,46.9390376774892],[-88.552185,46.938533],[-88.551943,46.851795],[-88.678982,46.851654],[-88.679392,46.420139],[-88.991236,46.419704],[-88.991234,46.478973]]]]}},{"type":"Feature","properties":{"GEOID":"26033","NAME":"Chippewa","state":"MI","wildfire_risk_score":75.413,"wildfire_eal_total":242413.52,"risk_band":"High","source":"FEMA National Risk Index v1.20 (December 2025)"},"geometry":{"type":"MultiPolygon","coordinates":[[[[-83.696407,46.058476],[-83.691892,46.061939],[-83.690109,46.056991],[-83.695694,46.05493],[-83.696407,46.058476]]],[[[-83.705083,46.065155],[-83.700686,46.068371],[-83.699735,46.066969],[-83.701993,46.06128],[-83.705083,46.065155]]],[[[-83.710074,46.05262],[-83.702825,46.053528],[-83.700923,46.049816],[-83.707935,46.048909],[-83.710074,46.05262]]],[[[-83.728019,46.046435],[-83.722671,46.050806],[-83.71863,46.046599],[-83.720413,46.044042],[-83.728019,46.046435]]],[[[-83.728851,46.040743],[-83.725523,46.040578],[-83.725167,46.037443],[-83.728375,46.038021],[-83.728851,46.040743]]],[[[-83.734436,46.036866],[-83.733485,46.038103],[-83.732654,46.038268],[-83.733485,46.035876],[-83.734436,46.036866]]],[[[-83.768662,45.935465],[-83.768068,45.937779],[-83.768552,45.931753],[-83.769375,45.934887],[-83.768662,45.935465]]],[[[-83.771395,46.090958],[-83.765097,46.092194],[-83.762465,46.086318],[-83.766523,46.08626],[-83.771395,46.090958]]],[[[-83.77401,46.051466],[-83.761651,46.065403],[-83.754758,46.066145],[-83.734317,46.050724],[-83.747226,46.034778],[-83.759987,46.038351],[-83.768068,46.050641],[-83.771277,46.044042],[-83.77401,46.051466]]],[[[-83.774248,46.066474],[-83.770801,46.069113],[-83.770088,46.068701],[-83.772346,46.064248],[-83.774248,46.066474]]],[[[-83.78423,46.081314],[-83.782447,46.084529],[-83.781259,46.085023],[-83.782566,46.080325],[-83.78423,46.081314]]],[[[-83.791955,46.008561],[-83.79041,46.009222],[-83.789697,46.007241],[-83.791955,46.007241],[-83.791955,46.008561]]],[[[-83.793618,46.036206],[-83.792787,46.037526],[-83.790766,46.038433],[-83.791598,46.034391],[-83.793618,46.036206]]],[[[-83.793856,46.061774],[-83.792787,46.063753],[-83.792311,46.063918],[-83.791836,46.062599],[-83.793856,46.061774]]],[[[-83.798847,46.058723],[-83.796708,46.060373],[-83.796233,46.056497],[-83.798253,46.056084],[-83.798847,46.058723]]],[[[-83.813227,46.074554],[-83.810494,46.078099],[-83.809424,46.078017],[-83.810613,46.07406],[-83.813227,46.074554]]],[[[-83.825111,46.029193],[-83.822853,46.030843],[-83.823923,46.0268],[-83.825111,46.029193]]],[[[-83.827844,46.056579],[-83.826537,46.058393],[-83.825824,46.058228],[-83.827369,46.055095],[-83.827844,46.056579]]],[[[-83.827607,46.101753],[-83.821427,46.105049],[-83.81703,46.102165],[-83.814891,46.108922],[-83.7935,46.107356],[-83.792549,46.101918],[-83.779833,46.09854],[-83.776506,46.092029],[-83.794807,46.095408],[-83.803126,46.092524],[-83.805384,46.100847],[-83.820357,46.092029],[-83.819288,46.097386],[-83.827607,46.101753]]],[[[-83.829033,46.037526],[-83.828557,46.03901],[-83.827725,46.03967],[-83.827607,46.035463],[-83.829033,46.037526]]],[[[-83.837352,46.045362],[-83.835807,46.04561],[-83.83652,46.04297],[-83.837233,46.04396],[-83.837352,46.045362]]],[[[-83.850662,46.066969],[-83.847572,46.07373],[-83.841392,46.067794],[-83.844601,46.063424],[-83.850662,46.066969]]],[[[-83.856247,46.084776],[-83.851018,46.081726],[-83.850186,46.078676],[-83.854227,46.079995],[-83.856247,46.084776]]],[[[-83.857329,46.057806],[-83.852563,46.058888],[-83.84674,46.053858],[-83.855059,46.053528],[-83.857329,46.057806]]],[[[-83.869082,46.078099],[-83.864804,46.081149],[-83.852563,46.075214],[-83.859337,46.06936],[-83.869082,46.078099]]],[[[-83.881322,46.055919],[-83.878708,46.057981],[-83.877876,46.055425],[-83.879183,46.054187],[-83.881322,46.055919]]],[[[-83.882867,45.975453],[-83.877876,45.978261],[-83.878114,45.989079],[-83.86719,45.996473],[-83.871102,46.00105],[-83.866348,46.009634],[-83.860525,46.007736],[-83.845076,46.026552],[-83.83034,46.023994],[-83.825111,46.016237],[-83.834618,46.008727],[-83.82416,46.00171],[-83.830102,45.996922],[-83.817149,46.003031],[-83.826418,45.99395],[-83.817268,45.993124],[-83.815604,45.987757],[-83.806097,45.983876],[-83.795876,45.988666],[-83.788389,46.001793],[-83.779001,45.999812],[-83.774248,46.008479],[-83.780665,46.013018],[-83.773535,46.010377],[-83.772227,46.016237],[-83.765274,46.018364],[-83.76581,46.026387],[-83.755709,46.028038],[-83.745251,46.022674],[-83.711777,46.040279],[-83.686068,46.037443],[-83.693555,46.046187],[-83.690465,46.05361],[-83.678938,46.051796],[-83.670738,46.058311],[-83.677512,46.063341],[-83.677393,46.072988],[-83.721483,46.080737],[-83.732178,46.086919],[-83.719788,46.101032],[-83.700111,46.103867],[-83.661163,46.100258],[-83.629619,46.103566],[-83.596225,46.089309],[-83.581314,46.089615],[-83.572571,46.069897],[-83.565353,46.061897],[-83.554062,46.058884],[-83.547203,46.047867],[-83.541936,46.018501],[-83.5336,46.013663],[-83.534429,46.007654],[-83.519344,46.008699],[-83.506382,45.995188],[-83.48835,45.999542],[-83.480637,45.996162],[-83.473221,45.984421],[-83.481766,45.971874],[-83.499782,45.959937],[-83.498271,45.949556],[-83.51332,45.936809],[-83.510111,45.931727],[-83.515824,45.923617],[-83.528312,45.917769],[-83.543223,45.928687],[-83.540965,45.92009],[-83.550267,45.91439],[-83.567585,45.92257],[-83.561836,45.912563],[-83.5701,45.913945],[-83.572101,45.920255],[-83.581252,45.920007],[-83.582273,45.915685],[-83.608463,45.926076],[-83.606446,45.940672],[-83.615834,45.939928],[-83.619399,45.930919],[-83.630967,45.929001],[-83.631996,45.937449],[-83.620588,45.944556],[-83.630214,45.957032],[-83.638295,45.954802],[-83.631877,45.943812],[-83.639364,45.939515],[-83.644474,45.947778],[-83.687691,45.93539],[-83.699141,45.942325],[-83.715668,45.930108],[-83.727068,45.946704],[-83.731703,45.938358],[-83.7361,45.941333],[-83.741208,45.937295],[-83.750955,45.941663],[-83.757016,45.954636],[-83.765572,45.954719],[-83.77603,45.949844],[-83.786168,45.932924],[-83.793363,45.937736],[-83.801979,45.936611],[-83.803329,45.943363],[-83.817862,45.954223],[-83.82321,45.952488],[-83.823804,45.942572],[-83.836524,45.938178],[-83.830578,45.949183],[-83.838421,45.954141],[-83.84613,45.95242],[-83.843769,45.957859],[-83.849117,45.962815],[-83.853987,45.959717],[-83.860882,45.963724],[-83.866652,45.959493],[-83.87229,45.964467],[-83.881899,45.964104],[-83.882867,45.975453]]],[[[-83.885244,46.069278],[-83.87954,46.072411],[-83.876806,46.064825],[-83.884056,46.064825],[-83.885244,46.069278]]],[[[-83.89998,46.017805],[-83.898554,46.018713],[-83.897128,46.017062],[-83.898673,46.015494],[-83.89998,46.017805]]],[[[-83.987565,46.092853],[-83.984832,46.092194],[-83.983643,46.08865],[-83.986139,46.089392],[-83.987565,46.092853]]],[[[-83.990655,46.102495],[-83.989704,46.103154],[-83.987684,46.098292],[-83.99113,46.100847],[-83.990655,46.102495]]],[[[-84.01169,46.091535],[-84.00576,46.097591],[-83.99529,46.094831],[-83.976513,46.075379],[-83.97345,46.065285],[-84.001232,46.079088],[-84.012634,46.08728],[-84.01169,46.091535]]],[[[-84.023217,46.109334],[-84.020721,46.109828],[-84.019652,46.109169],[-84.020365,46.107686],[-84.023217,46.109334]]],[[[-84.169844,46.219355],[-84.166125,46.215782],[-84.166048,46.215331],[-84.171518,46.218798],[-84.169844,46.219355]]],[[[-84.516937,46.442696],[-84.515384,46.44358],[-84.514063,46.441714],[-84.51672,46.441905],[-84.516937,46.442696]]],[[[-84.683766,46.491751],[-84.682222,46.493482],[-84.679057,46.493421],[-84.681902,46.491037],[-84.683766,46.491751]]],[[[-85.239667,46.533475],[-85.2378749807302,46.755678903295],[-85.157817,46.765147],[-85.063556,46.757856],[-84.972216,46.773315],[-84.950287,46.768021],[-84.964398,46.762072],[-85.007616,46.728339],[-85.027513,46.697451],[-85.037056,46.600995],[-85.025491,46.546397],[-85.045534,46.537694],[-85.056133,46.52652],[-85.049847,46.503963],[-85.033766,46.48767],[-85.015211,46.479712],[-84.964312,46.476787],[-84.951253,46.485902],[-84.935456,46.489067],[-84.934432,46.480315],[-84.921931,46.469962],[-84.893423,46.465406],[-84.861448,46.46993],[-84.843907,46.448661],[-84.817307,46.444319],[-84.769151,46.453523],[-84.678423,46.487694],[-84.65388,46.48225],[-84.63102,46.484868],[-84.621548,46.478193],[-84.607945,46.456747],[-84.573522,46.427895],[-84.579863,46.43292],[-84.586637,46.431282],[-84.591866,46.441601],[-84.602443,46.437916],[-84.599353,46.418175],[-84.583309,46.413505],[-84.551496,46.418522],[-84.523203,46.433544],[-84.510777,46.433165],[-84.500281,46.446722],[-84.482945,46.433585],[-84.471848,46.434289],[-84.455527,46.453897],[-84.455256,46.462785],[-84.463322,46.467435],[-84.445149,46.489016],[-84.420274,46.501077],[-84.394725,46.499242],[-84.373968,46.509098],[-84.341427,46.507689],[-84.325371,46.500021],[-84.275814,46.492821],[-84.254434,46.500821],[-84.226131,46.53392],[-84.19402,46.540149],[-84.177428,46.52692],[-84.128925,46.530119],[-84.111225,46.504119],[-84.146172,46.41852],[-84.138906,46.372221],[-84.106247,46.321963],[-84.119629,46.315013],[-84.115563,46.268225],[-84.097766,46.256512],[-84.108089,46.241238],[-84.119438,46.235334],[-84.126348,46.239157],[-84.137345,46.229714],[-84.146196,46.230816],[-84.148386,46.216827],[-84.153012,46.215888],[-84.156748,46.217779],[-84.151778,46.228093],[-84.175899,46.245952],[-84.183743,46.245071],[-84.18085,46.23873],[-84.186292,46.234288],[-84.188792,46.243714],[-84.212029,46.24663],[-84.213242,46.231629],[-84.223819,46.231629],[-84.236576,46.220249],[-84.242239,46.223408],[-84.257926,46.218146],[-84.273018,46.201451],[-84.252697,46.186973],[-84.24319,46.191498],[-84.244616,46.180473],[-84.251424,46.175888],[-84.221001,46.163062],[-84.196669,46.16615],[-84.18888,46.178909],[-84.181393,46.173807],[-84.179135,46.185656],[-84.169625,46.181665],[-84.16535,46.17356],[-84.152039,46.181871],[-84.132787,46.169199],[-84.133144,46.176934],[-84.122825,46.178881],[-84.114941,46.174114],[-84.114367,46.163437],[-84.095818,46.147733],[-84.060383,46.146138],[-84.029634,46.134539],[-84.026536,46.131648],[-84.031036,46.123186],[-84.038696,46.12562],[-84.0519,46.11981],[-84.05364,46.113618],[-84.069147,46.103978],[-84.071741,46.092441],[-84.037819,46.065853],[-84.032249,46.06598],[-84.032843,46.060785],[-84.01989,46.048002],[-84.001588,46.044702],[-83.988872,46.031915],[-83.981658,46.03074],[-83.984713,46.02779],[-83.977701,46.019373],[-83.966412,46.019043],[-83.958806,46.02977],[-83.93682,46.030183],[-83.93547,46.020385],[-83.908583,46.011471],[-83.895464,45.986436],[-83.907705,45.978591],[-83.90509,45.973801],[-83.911389,45.971075],[-83.905447,45.967111],[-83.911389,45.966863],[-83.909729,45.959677],[-83.913817,45.955694],[-83.921257,45.958075],[-83.913528,45.96075],[-83.913766,45.96645],[-83.944545,45.969011],[-83.945069,45.96298],[-83.957261,45.969754],[-83.969389,45.965298],[-83.978652,45.96868],[-83.996471,45.961461],[-84.000465,45.951517],[-83.995292,45.94581],[-84.027342,45.961541],[-84.080403,45.969803],[-84.091752,45.966873],[-84.098371,45.974098],[-84.103125,45.972645],[-84.100748,45.967623],[-84.114186,45.985152],[-84.239332,45.984914],[-84.238884,46.071457],[-84.36309,46.071574],[-84.363503,46.157984],[-85.112513,46.158263],[-85.113329,46.245722],[-85.237839,46.24543],[-85.239667,46.533475]]]]}},{"type":"Feature","properties":{"GEOID":"26027","NAME":"Cass","state":"MI","wildfire_risk_score":19.02,"wildfire_eal_total":6350.66,"risk_band":"Low","source":"FEMA National Risk Index v1.20 (December 2025)"},"geometry":{"type":"Polygon","coordinates":[[[-86.2260968887313,41.760016130263],[-86.22294,42.071484],[-85.762943,42.069327],[-85.760186,41.798814],[-85.769185,41.784892],[-85.785875,41.77729],[-85.790256,41.766386],[-85.784601,41.759737],[-86.2260968887313,41.760016130263]]]}},{"type":"Feature","properties":{"GEOID":"26067","NAME":"Ionia","state":"MI","wildfire_risk_score":21.597,"wildfire_eal_total":8899.15,"risk_band":"Low","source":"FEMA National Risk Index v1.20 (December 2025)"},"geometry":{"type":"Polygon","coordinates":[[[-85.312431,43.071786],[-85.312513,43.118793],[-84.836889,43.118851],[-84.837085,42.770479],[-85.309626,42.769878],[-85.312431,43.071786]]]}},{"type":"Feature","properties":{"GEOID":"26025","NAME":"Calhoun","state":"MI","wildfire_risk_score":28.467,"wildfire_eal_total":13354.94,"risk_band":"Moderate","source":"FEMA National Risk Index v1.20 (December 2025)"},"geometry":{"type":"Polygon","coordinates":[[[-85.298879,42.419849],[-84.718493,42.42152],[-84.709556,42.070366],[-85.293626,42.071553],[-85.298879,42.419849]]]}},{"type":"Feature","properties":{"GEOID":"26015","NAME":"Barry","state":"MI","wildfire_risk_score":24.841,"wildfire_eal_total":12360.35,"risk_band":"Moderate","source":"FEMA National Risk Index v1.20 (December 2025)"},"geometry":{"type":"Polygon","coordinates":[[[-85.545564,42.768139],[-85.074245,42.770784],[-85.071609,42.421428],[-85.543191,42.421433],[-85.545564,42.768139]]]}},{"type":"Feature","properties":{"GEOID":"26075","NAME":"Jackson","state":"MI","wildfire_risk_score":32.856,"wildfire_eal_total":18058.87,"risk_band":"Moderate","source":"FEMA National Risk Index v1.20 (December 2025)"},"geometry":{"type":"Polygon","coordinates":[[[-84.718602,42.334535],[-84.718493,42.42152],[-84.131136,42.424567],[-84.131963,42.071577],[-84.709556,42.070366],[-84.718602,42.334535]]]}},{"type":"Feature","properties":{"GEOID":"26073","NAME":"Isabella","state":"MI","wildfire_risk_score":18.352,"wildfire_eal_total":5836.85,"risk_band":"Low","source":"FEMA National Risk Index v1.20 (December 2025)"},"geometry":{"type":"Polygon","coordinates":[[[-85.088811,43.813676],[-84.606037,43.815365],[-84.60754,43.466006],[-85.084996,43.46619],[-85.088811,43.813676]]]}},{"type":"Feature","properties":{"GEOID":"26125","NAME":"Oakland","state":"MI","wildfire_risk_score":58.111,"wildfire_eal_total":92613.23,"risk_band":"High","source":"FEMA National Risk Index v1.20 (December 2025)"},"geometry":{"type":"Polygon","coordinates":[[[-83.689384,42.871263],[-83.102891,42.888647],[-83.083393,42.447153],[-83.664808,42.431179],[-83.68278,42.69558],[-83.689384,42.871263]]]}},{"type":"Feature","properties":{"GEOID":"26047","NAME":"Emmet","state":"MI","wildfire_risk_score":16.19,"wildfire_eal_total":5996.2,"risk_band":"Low","source":"FEMA National Risk Index v1.20 (December 2025)"},"geometry":{"type":"MultiPolygon","coordinates":[[[[-85.03905,45.764318],[-85.026999,45.766109],[-85.019512,45.762975],[-85.03403,45.760978],[-85.03905,45.764318]]],[[[-85.074442,45.76589],[-85.064654,45.76659],[-85.055172,45.7644],[-85.07309,45.762362],[-85.074442,45.76589]]],[[[-85.118637,45.575175],[-85.093525,45.600121],[-85.068914,45.635276],[-85.007026,45.65636],[-84.992958,45.679983],[-84.975768,45.683174],[-84.943756,45.71029],[-84.940442,45.725391],[-84.957946,45.743385],[-84.969792,45.744978],[-84.976878,45.75264],[-85.002708,45.754115],[-85.0141,45.759545],[-84.938312,45.759892],[-84.905596,45.746362],[-84.882756,45.756525],[-84.840981,45.744751],[-84.825425,45.752725],[-84.807907,45.744918],[-84.78852,45.752069],[-84.778933,45.766115],[-84.791643,45.782038],[-84.772765,45.789301],[-84.751571,45.782733],[-84.7323981506334,45.7882094899038],[-84.732687,45.289382],[-84.964787,45.291601],[-84.964347,45.271674],[-85.00097,45.272137],[-85.01416,45.281456],[-85.018894,45.28957],[-85.015318,45.297006],[-85.022839,45.310089],[-85.045967,45.334655],[-85.096533,45.335743],[-85.0960000607713,45.3665247082506],[-85.043101,45.361506],[-85.012966,45.371091],[-84.987287,45.368817],[-84.91585,45.393115],[-84.912956,45.409776],[-84.922006,45.421914],[-84.955816,45.427586],[-84.990865,45.42812],[-84.976717,45.419338],[-84.985131,45.419287],[-85.012982,45.431532],[-85.03695,45.434902],[-85.06247,45.451289],[-85.093725,45.481564],[-85.115479,45.539406],[-85.118637,45.575175]]]]}},{"type":"Feature","properties":{"GEOID":"26097","NAME":"Mackinac","state":"MI","wildfire_risk_score":47.615,"wildfire_eal_total":30073.69,"risk_band":"High","source":"FEMA National Risk Index v1.20 (December 2025)"},"geometry":{"type":"MultiPolygon","coordinates":[[[[-84.202475,45.969345],[-84.199837,45.970018],[-84.199942,45.96716],[-84.203134,45.968473],[-84.202475,45.969345]]],[[[-84.2155205820842,45.9849707952617],[-84.114186,45.985152],[-84.1141605209354,45.9815564083209],[-84.132312,45.980904],[-84.132164,45.975881],[-84.144576,45.97945],[-84.149562,45.9734],[-84.182537,45.981152],[-84.170323,45.965557],[-84.180159,45.975548],[-84.199174,45.979468],[-84.194021,45.972651],[-84.198412,45.972854],[-84.2155205820842,45.9849707952617]]],[[[-84.4335926141846,45.9260019731567],[-84.431196,45.926019],[-84.427927,45.91893],[-84.42976,45.918838],[-84.4335926141846,45.9260019731567]]],[[[-84.437612,45.981351],[-84.422041,45.974696],[-84.422224,45.973202],[-84.437244,45.980269],[-84.437612,45.981351]]],[[[-84.582692,45.96312],[-84.574955,45.970654],[-84.563933,45.966408],[-84.561829,45.959077],[-84.56795,45.952484],[-84.582692,45.96312]]],[[[-84.59024,45.812801],[-84.579385,45.81985],[-84.538048,45.807855],[-84.506138,45.810915],[-84.433724,45.78671],[-84.421321,45.792701],[-84.421405,45.805723],[-84.427444,45.811333],[-84.420326,45.811317],[-84.404335,45.78525],[-84.355945,45.770691],[-84.370583,45.755953],[-84.371741,45.745517],[-84.391161,45.739404],[-84.393586,45.728073],[-84.405717,45.722259],[-84.419627,45.720094],[-84.436212,45.728765],[-84.481421,45.730052],[-84.500785,45.737227],[-84.508682,45.75401],[-84.52524,45.761691],[-84.549951,45.790073],[-84.58183,45.802512],[-84.59024,45.812801]]],[[[-84.611245,45.834573],[-84.594291,45.830638],[-84.589501,45.826897],[-84.590947,45.822416],[-84.607343,45.825624],[-84.611245,45.834573]]],[[[-84.64162,45.972901],[-84.635822,45.980875],[-84.608783,45.967471],[-84.619417,45.958356],[-84.631575,45.95535],[-84.640179,45.958369],[-84.636145,45.965244],[-84.64162,45.972901]]],[[[-84.651512,45.86277],[-84.645561,45.874668],[-84.646221,45.885216],[-84.641806,45.885467],[-84.622522,45.877518],[-84.602142,45.852062],[-84.619789,45.845548],[-84.639695,45.852618],[-84.651512,45.86277]]],[[[-84.751396,45.836245],[-84.74539,45.839331],[-84.744091,45.836633],[-84.748057,45.834387],[-84.751396,45.836245]]],[[[-84.880387,45.86532],[-84.873844,45.866712],[-84.861903,45.856643],[-84.868987,45.854951],[-84.880387,45.86532]]],[[[-85.204774,46.044412],[-85.201954,46.044859],[-85.199544,46.044222],[-85.201427,46.043086],[-85.204774,46.044412]]],[[[-85.864594,46.101216],[-85.865025,46.244631],[-85.113329,46.245722],[-85.112513,46.158263],[-84.363503,46.157984],[-84.36309,46.071574],[-84.238884,46.071457],[-84.239332,45.984914],[-84.221917602596,45.9849462605372],[-84.220548,45.974693],[-84.214051,45.970911],[-84.230616,45.980359],[-84.232756,45.976725],[-84.258187,45.982671],[-84.267219,45.990763],[-84.273161,45.986222],[-84.258781,45.967144],[-84.258425,45.957231],[-84.276702,45.959354],[-84.294419,45.953815],[-84.30917,45.963179],[-84.322523,45.955657],[-84.355814,45.958594],[-84.345219,45.945346],[-84.355112,45.939753],[-84.376669,45.941542],[-84.385198,45.949556],[-84.391039,45.949259],[-84.39406,45.9461],[-84.381589,45.933604],[-84.434995,45.961087],[-84.420311,45.95778],[-84.412489,45.979175],[-84.428895,45.993143],[-84.4091,45.982115],[-84.392059,45.985444],[-84.422721,46.002032],[-84.441141,46.007233],[-84.448153,46.002197],[-84.465028,46.005499],[-84.468831,45.998482],[-84.461582,45.993777],[-84.465503,45.99163],[-84.460274,45.987584],[-84.465028,45.986428],[-84.459205,45.981886],[-84.464315,45.976601],[-84.463128,45.968925],[-84.481527,45.977579],[-84.484161,45.993777],[-84.50579,45.997987],[-84.507201,45.991169],[-84.516367,45.990722],[-84.509745,45.982723],[-84.516569,45.977096],[-84.514071,45.971292],[-84.527088,45.968331],[-84.534422,45.972762],[-84.530444,45.991385],[-84.533426,46.00572],[-84.541962,46.011337],[-84.544405,46.02286],[-84.563891,46.032459],[-84.581763,46.03049],[-84.582037,46.022013],[-84.588299,46.027117],[-84.604546,46.029597],[-84.609063,46.026418],[-84.615775,46.03575],[-84.632774,46.039866],[-84.647609,46.049704],[-84.66671,46.050486],[-84.675835,46.046009],[-84.690467,46.027947],[-84.6925,46.016968],[-84.683938,46.005417],[-84.687096,45.992434],[-84.694013,45.985606],[-84.684368,45.977499],[-84.685254,45.973454],[-84.707818,45.973132],[-84.711959,45.97154],[-84.710178,45.967078],[-84.723039,45.967279],[-84.740105,45.941839],[-84.733189,45.931624],[-84.717221,45.924931],[-84.713598,45.91672],[-84.725135,45.919596],[-84.736566,45.912833],[-84.734472,45.897246],[-84.72632,45.89207],[-84.720395,45.874841],[-84.72964,45.873729],[-84.729921,45.8698],[-84.706001,45.858972],[-84.702141,45.850725],[-84.745503,45.847456],[-84.752417,45.839738],[-84.792763,45.858691],[-84.803498,45.870436],[-84.82123,45.868217],[-84.831396,45.872038],[-84.838472,45.881512],[-84.839374,45.89759],[-84.874818,45.909111],[-84.888217,45.924463],[-84.913584,45.925868],[-84.9423,45.9613],[-85.01399,46.010774],[-85.054834,46.022805],[-85.093909,46.027726],[-85.140835,46.049601],[-85.165828,46.047754],[-85.168433,46.055561],[-85.180299,46.061708],[-85.189283,46.06062],[-85.193134,46.055573],[-85.188713,46.053495],[-85.19063,46.047622],[-85.195665,46.045619],[-85.197868,46.053704],[-85.223185,46.060939],[-85.260778,46.062858],[-85.335911,46.092595],[-85.36229,46.090058],[-85.365211,46.082714],[-85.37804,46.074921],[-85.390893,46.093607],[-85.418717,46.102246],[-85.441932,46.095793],[-85.439869,46.091591],[-85.446068,46.090727],[-85.44699,46.085164],[-85.480603,46.096379],[-85.50621,46.096393],[-85.52157,46.091257],[-85.565235,46.060667],[-85.574266,46.046875],[-85.597542,46.033164],[-85.617759,46.005586],[-85.651224,45.980472],[-85.654875,45.96691],[-85.679217,45.967026],[-85.696141,45.959202],[-85.72862,45.965986],[-85.740546,45.963049],[-85.810115,45.980222],[-85.825819,45.976292],[-85.840244,45.96516],[-85.8654007827799,45.9683956852428],[-85.864594,46.101216]]]]}},{"type":"Feature","properties":{"GEOID":"26035","NAME":"Clare","state":"MI","wildfire_risk_score":42.748,"wildfire_eal_total":19327.37,"risk_band":"High","source":"FEMA National Risk Index v1.20 (December 2025)"},"geometry":{"type":"Polygon","coordinates":[[[-85.088519,43.842157],[-85.087403,44.164242],[-84.608104,44.160482],[-84.606037,43.815365],[-85.088811,43.813676],[-85.088519,43.842157]]]}},{"type":"Feature","properties":{"GEOID":"26083","NAME":"Keweenaw","state":"MI","wildfire_risk_score":15.299,"wildfire_eal_total":3407.97,"risk_band":"Low","source":"FEMA National Risk Index v1.20 (December 2025)"},"geometry":{"type":"MultiPolygon","coordinates":[[[[-87.650661,47.417469],[-87.623673,47.426283],[-87.586224,47.418336],[-87.595257,47.416484],[-87.600342,47.407711],[-87.617531,47.407711],[-87.629898,47.415272],[-87.650661,47.417469]]],[[[-88.366154,48.226247],[-88.352504,48.235476],[-88.336342,48.237138],[-88.367788,48.222952],[-88.366154,48.226247]]],[[[-88.50078,47.293503],[-88.477733,47.31346],[-88.459262,47.339903],[-88.424472,47.368852],[-88.372745,47.391935],[-88.32229,47.40402],[-88.284987,47.422226],[-88.239161,47.429969],[-88.218424,47.441585],[-88.219383,47.449011],[-88.18182,47.457657],[-88.159305,47.46015],[-88.159283,47.455179],[-88.150723,47.455314],[-88.14083,47.458591],[-88.150571,47.460093],[-88.139651,47.462693],[-87.975847,47.480187],[-87.878459,47.475338],[-87.902256,47.472153],[-87.875568,47.467634],[-87.847522,47.469364],[-87.860832,47.474273],[-87.856297,47.476162],[-87.809228,47.473917],[-87.756739,47.460717],[-87.730804,47.449112],[-87.715942,47.439816],[-87.713027,47.426416],[-87.716831,47.421799],[-87.712421,47.4014],[-87.75138,47.405066],[-87.76738,47.393963],[-87.800294,47.392148],[-87.815371,47.38479],[-87.8567,47.395387],[-87.957058,47.38726],[-87.965598,47.368645],[-87.938787,47.346777],[-87.94336,47.335899],[-87.968604,47.332582],[-88.016478,47.306275],[-88.06009,47.295796],[-88.096851,47.261351],[-88.117456,47.255174],[-88.132813,47.237713],[-88.15725,47.225959],[-88.166355,47.215534],[-88.212361,47.209423],[-88.226990173848,47.1999305272193],[-88.298436,47.199782],[-88.298992,47.286097],[-88.5119978820947,47.2859613204572],[-88.50078,47.293503]]],[[[-88.73276,48.101354],[-88.723219,48.10415],[-88.705494,48.111175],[-88.721218,48.103944],[-88.73276,48.101354]]],[[[-88.818355,47.928058],[-88.798982,47.935706],[-88.78231,47.940723],[-88.797465,47.934969],[-88.818355,47.928058]]],[[[-88.851677,47.913],[-88.849772,47.914266],[-88.845059,47.915241],[-88.847231,47.912645],[-88.851677,47.913]]],[[[-89.2628,47.869864],[-89.255202,47.876102],[-89.219364,47.883916],[-89.22281,47.885988],[-89.215323,47.888379],[-89.216987,47.892204],[-89.243013,47.885271],[-89.247127,47.888503],[-89.226327,47.895438],[-89.220716,47.910989],[-89.179154,47.93503],[-88.994163,48.00229],[-88.905274,48.025377],[-88.895069,48.029059],[-88.893701,48.03477],[-88.835806,48.057101],[-88.849178,48.0441],[-88.823508,48.050456],[-88.815181,48.058218],[-88.810461,48.055247],[-88.787556,48.063035],[-88.777713,48.067928],[-88.764256,48.085189],[-88.684434,48.115785],[-88.675628,48.120444],[-88.666521,48.135626],[-88.632712,48.148584],[-88.547033,48.174891],[-88.524753,48.165291],[-88.501088,48.168181],[-88.482039,48.179915],[-88.447236,48.182916],[-88.422601,48.190975],[-88.418244,48.18037],[-88.419875,48.170731],[-88.446192,48.155212],[-88.566938,48.093719],[-88.576712,48.084999],[-88.574672,48.062862],[-88.585889,48.054268],[-88.670073,48.011446],[-88.757165,47.9833],[-88.791959,47.978938],[-88.834389,47.964234],[-88.852923,47.965322],[-88.884522,47.952345],[-88.899184,47.9533],[-88.924641,47.943257],[-88.924486,47.936707],[-89.003075,47.908537],[-89.002956,47.902323],[-88.997414,47.900673],[-89.005095,47.898658],[-89.000936,47.89061],[-88.977378,47.895221],[-88.950429,47.89053],[-88.899698,47.902445],[-88.911665,47.891344],[-89.080283,47.845337],[-89.116613,47.832261],[-89.119164,47.827729],[-89.162048,47.823564],[-89.19017,47.831603],[-89.192207,47.84106],[-89.201812,47.850243],[-89.234533,47.851718],[-89.222691,47.868293],[-89.20023,47.883358],[-89.203796,47.886307],[-89.238259,47.872996],[-89.2628,47.869864]]]]}},{"type":"Feature","properties":{"GEOID":"26159","NAME":"Van Buren","state":"MI","wildfire_risk_score":26.399,"wildfire_eal_total":11020.35,"risk_band":"Moderate","source":"FEMA National Risk Index v1.20 (December 2025)"},"geometry":{"type":"Polygon","coordinates":[[[-86.3642653961658,42.243143689832],[-86.308748,42.334111],[-86.284969,42.401814],[-86.2737626735126,42.4192820644461],[-85.764697,42.420715],[-85.762943,42.069327],[-86.22294,42.071484],[-86.223563,42.243379],[-86.3642653961658,42.243143689832]]]}},{"type":"Feature","properties":{"GEOID":"26149","NAME":"St. Joseph","state":"MI","wildfire_risk_score":16.985,"wildfire_eal_total":5590.18,"risk_band":"Low","source":"FEMA National Risk Index v1.20 (December 2025)"},"geometry":{"type":"Polygon","coordinates":[[[-85.791141,41.761042],[-85.784601,41.759737],[-85.790256,41.766386],[-85.785875,41.77729],[-85.769185,41.784892],[-85.760186,41.798814],[-85.762943,42.069327],[-85.293626,42.071553],[-85.2921778813506,41.7599628308601],[-85.7913348421892,41.7590511655936],[-85.791141,41.761042]]]}},{"type":"Feature","properties":{"GEOID":"26153","NAME":"Schoolcraft","state":"MI","wildfire_risk_score":34.351,"wildfire_eal_total":17116.56,"risk_band":"Moderate","source":"FEMA National Risk Index v1.20 (December 2025)"},"geometry":{"type":"Polygon","coordinates":[[[-86.61527,46.245785],[-86.615397,46.333263],[-86.364989,46.331927],[-86.364953,46.505852],[-85.864932,46.504758],[-85.8654007827799,45.9683956852428],[-85.894391,45.966949],[-85.91957,45.952104],[-85.926017,45.932104],[-85.910006,45.921864],[-85.913769,45.919439],[-85.998868,45.950968],[-86.072067,45.965313],[-86.123567,45.964748],[-86.150576,45.953736],[-86.208255,45.962978],[-86.220546,45.958883],[-86.233613,45.945802],[-86.252336,45.949504],[-86.275768,45.943551],[-86.281717,45.938608],[-86.277525,45.933302],[-86.2857,45.926049],[-86.306224,45.921501],[-86.324232,45.90608],[-86.325118,45.887011],[-86.335158,45.866213],[-86.327108,45.855065],[-86.338357,45.848951],[-86.349134,45.83416],[-86.345727,45.821311],[-86.355062,45.805355],[-86.346903,45.797298],[-86.372096,45.787577],[-86.390516,45.795946],[-86.39341,45.789526],[-86.401656,45.795412],[-86.415971,45.793793],[-86.428395,45.786373],[-86.425687,45.77627],[-86.436632,45.761697],[-86.446088,45.765454],[-86.453663,45.757792],[-86.4598664235975,45.7578991800022],[-86.459114,45.896363],[-86.49025,45.896337],[-86.490142,46.158178],[-86.615601,46.158691],[-86.61527,46.245785]]]}},{"type":"Feature","properties":{"GEOID":"26009","NAME":"Antrim","state":"MI","wildfire_risk_score":26.145,"wildfire_eal_total":12805.02,"risk_band":"Moderate","source":"FEMA National Risk Index v1.20 (December 2025)"},"geometry":{"type":"Polygon","coordinates":[[[-85.43806,44.865138],[-85.425804,44.881646],[-85.423685,44.894822],[-85.40597,44.910538],[-85.389256,44.948057],[-85.390392,44.956823],[-85.381982,44.977746],[-85.384519,44.988811],[-85.37588,45.00329],[-85.381654,45.018407],[-85.380317,45.045789],[-85.366019,45.071475],[-85.370154,45.076185],[-85.36349,45.111624],[-85.380965,45.145559],[-85.378752,45.169846],[-85.38814,45.191531],[-85.3886942098005,45.2077658295999],[-85.222707,45.20556],[-85.223681,45.117861],[-84.857452,45.116707],[-84.857319,45.029757],[-84.849524,45.029633],[-84.847309,44.858037],[-85.291716,44.859608],[-85.327595,44.85076],[-85.316631,44.821284],[-85.332836,44.812372],[-85.345283,44.827543],[-85.363639,44.825199],[-85.374555,44.828816],[-85.381983,44.859568],[-85.44311,44.859818],[-85.43806,44.865138]]]}},{"type":"Feature","properties":{"GEOID":"26081","NAME":"Kent","state":"MI","wildfire_risk_score":42.589,"wildfire_eal_total":37367.99,"risk_band":"High","source":"FEMA National Risk Index v1.20 (December 2025)"},"geometry":{"type":"Polygon","coordinates":[[[-85.790557,43.226941],[-85.790448,43.293003],[-85.312376,43.294205],[-85.309626,42.769878],[-85.782498,42.7682],[-85.790557,43.226941]]]}},{"type":"Feature","properties":{"GEOID":"26155","NAME":"Shiawassee","state":"MI","wildfire_risk_score":8.588,"wildfire_eal_total":2656.57,"risk_band":"Low","source":"FEMA National Risk Index v1.20 (December 2025)"},"geometry":{"type":"Polygon","coordinates":[[[-84.367891,43.128452],[-83.929079,43.132782],[-83.929911,42.956512],[-83.922516,42.780821],[-84.363659,42.775778],[-84.367891,43.128452]]]}},{"type":"Feature","properties":{"GEOID":"26023","NAME":"Branch","state":"MI","wildfire_risk_score":15.045,"wildfire_eal_total":4110.07,"risk_band":"Low","source":"FEMA National Risk Index v1.20 (December 2025)"},"geometry":{"type":"Polygon","coordinates":[[[-85.293626,42.071553],[-84.826491,42.072468],[-84.8251299096574,41.7599907212136],[-85.2921778813506,41.7599628308601],[-85.293626,42.071553]]]}},{"type":"Feature","properties":{"GEOID":"26001","NAME":"Alcona","state":"MI","wildfire_risk_score":41.253,"wildfire_eal_total":20100.35,"risk_band":"High","source":"FEMA National Risk Index v1.20 (December 2025)"},"geometry":{"type":"Polygon","coordinates":[[[-83.888519,44.769517],[-83.888484,44.856458],[-83.321455,44.858487],[-83.315001,44.842288],[-83.30069,44.828948],[-83.299689,44.81555],[-83.293739,44.808307],[-83.296718,44.787106],[-83.291003,44.765505],[-83.298287,44.754907],[-83.294271,44.736819],[-83.270288,44.70878],[-83.274327,44.705937],[-83.284937,44.661237],[-83.307504,44.629816],[-83.314517,44.608725],[-83.313649,44.564588],[-83.306985,44.542235],[-83.3186451705426,44.5116474161261],[-83.886634,44.508976],[-83.888519,44.769517]]]}},{"type":"Feature","properties":{"GEOID":"26091","NAME":"Lenawee","state":"MI","wildfire_risk_score":21.247,"wildfire_eal_total":8776.02,"risk_band":"Low","source":"FEMA National Risk Index v1.20 (December 2025)"},"geometry":{"type":"Polygon","coordinates":[[[-84.363297,42.073456],[-84.079197,42.072195],[-84.008152,42.073598],[-84.008337,42.078005],[-83.773922,42.08243],[-83.7631498887765,41.7235473333038],[-84.3604162952785,41.7066246193358],[-84.363297,42.073456]]]}},{"type":"Feature","properties":{"GEOID":"26151","NAME":"Sanilac","state":"MI","wildfire_risk_score":12.182,"wildfire_eal_total":3208.76,"risk_band":"Low","source":"FEMA National Risk Index v1.20 (December 2025)"},"geometry":{"type":"Polygon","coordinates":[[[-83.120396,43.327049],[-83.103826,43.327365],[-83.117844,43.675493],[-82.6069133333559,43.6904666042226],[-82.602828,43.634318],[-82.596991,43.615039],[-82.600823,43.611481],[-82.599039,43.593637],[-82.585543,43.543438],[-82.566379,43.502858],[-82.564992,43.490593],[-82.555077,43.478908],[-82.547519,43.447545],[-82.539439,43.436766],[-82.539197,43.39787],[-82.533831,43.38353],[-82.537507,43.353163],[-82.530128,43.333805],[-82.532396,43.30577],[-82.523086,43.225361],[-82.508881,43.196748],[-82.5034284253741,43.1689337555037],[-82.996257,43.154099],[-83.00043,43.284913],[-83.119027,43.28368],[-83.120396,43.327049]]]}},{"type":"Feature","properties":{"GEOID":"26031","NAME":"Cheboygan","state":"MI","wildfire_risk_score":25.318,"wildfire_eal_total":7910.08,"risk_band":"Moderate","source":"FEMA National Risk Index v1.20 (December 2025)"},"geometry":{"type":"Polygon","coordinates":[[[-84.734413,45.202311],[-84.729865,45.401098],[-84.7323981506334,45.7882094899038],[-84.723059,45.783785],[-84.725691,45.774536],[-84.721273,45.766401],[-84.681435,45.755909],[-84.680315,45.749456],[-84.649326,45.742793],[-84.575856,45.710528],[-84.557644,45.709023],[-84.551708,45.696937],[-84.499202,45.672669],[-84.479222,45.656791],[-84.473458,45.659187],[-84.459457,45.651893],[-84.442669,45.654759],[-84.428624,45.644676],[-84.415925,45.652985],[-84.432386,45.66331],[-84.428394,45.668857],[-84.413253,45.669177],[-84.376063,45.655432],[-84.329537,45.66438],[-84.270941,45.644609],[-84.215878,45.634817],[-84.205096,45.627],[-84.25202,45.625998],[-84.246634,45.198727],[-84.734413,45.202311]]]}},{"type":"Feature","properties":{"GEOID":"26069","NAME":"Iosco","state":"MI","wildfire_risk_score":60.719,"wildfire_eal_total":61926.91,"risk_band":"High","source":"FEMA National Risk Index v1.20 (December 2025)"},"geometry":{"type":"Polygon","coordinates":[[[-83.886634,44.508976],[-83.3186451705426,44.5116474161261],[-83.31674,44.493621],[-83.327171,44.429234],[-83.320532,44.406932],[-83.333757,44.372486],[-83.333708,44.336579],[-83.340506,44.331048],[-83.364312,44.33259],[-83.373607,44.327784],[-83.414301,44.294543],[-83.425762,44.272487],[-83.449184,44.251796],[-83.439233,44.264887],[-83.453128,44.27638],[-83.479531,44.28009],[-83.508839,44.273711],[-83.542264,44.241077],[-83.5650737323924,44.1635187435465],[-83.883977,44.161786],[-83.886634,44.508976]]]}},{"type":"Feature","properties":{"GEOID":"26139","NAME":"Ottawa","state":"MI","wildfire_risk_score":34.447,"wildfire_eal_total":25643.87,"risk_band":"Moderate","source":"FEMA National Risk Index v1.20 (December 2025)"},"geometry":{"type":"Polygon","coordinates":[[[-86.264321,43.118297],[-85.907435,43.118911],[-85.908388,43.20592],[-85.790662,43.205167],[-85.782498,42.7682],[-86.2088649386908,42.7675398909916],[-86.212245,42.772966],[-86.210228,42.855631],[-86.220582,42.955791],[-86.232707,43.015762],[-86.251301,43.060108],[-86.254646,43.083409],[-86.2719958131653,43.1183651191642],[-86.264321,43.118297]]]}},{"type":"Feature","properties":{"GEOID":"26093","NAME":"Livingston","state":"MI","wildfire_risk_score":37.595,"wildfire_eal_total":37663.92,"risk_band":"High","source":"FEMA National Risk Index v1.20 (December 2025)"},"geometry":{"type":"Polygon","coordinates":[[[-84.158189,42.776639],[-83.686493,42.783263],[-83.664808,42.431179],[-83.94465,42.424149],[-84.140713,42.424611],[-84.141718,42.546285],[-84.158189,42.776639]]]}},{"type":"Feature","properties":{"GEOID":"26101","NAME":"Manistee","state":"MI","wildfire_risk_score":28.212,"wildfire_eal_total":10197.77,"risk_band":"Moderate","source":"FEMA National Risk Index v1.20 (December 2025)"},"geometry":{"type":"Polygon","coordinates":[[[-86.387303,44.181146],[-86.362847,44.208113],[-86.343793,44.249608],[-86.327287,44.263057],[-86.300264,44.308197],[-86.26871,44.345324],[-86.248083,44.420946],[-86.251843,44.451632],[-86.248914,44.483004],[-86.234689745516,44.5183049869697],[-85.817802,44.512969],[-85.821186,44.164197],[-86.043507,44.167088],[-86.387303,44.181146]]]}},{"type":"Feature","properties":{"GEOID":"26161","NAME":"Washtenaw","state":"MI","wildfire_risk_score":43.798,"wildfire_eal_total":38200.1,"risk_band":"High","source":"FEMA National Risk Index v1.20 (December 2025)"},"geometry":{"type":"Polygon","coordinates":[[[-84.134065,42.169251],[-84.131136,42.424567],[-83.94465,42.424149],[-83.551907,42.435166],[-83.539396,42.085598],[-84.008337,42.078005],[-84.008152,42.073598],[-84.131963,42.071577],[-84.134065,42.169251]]]}},{"type":"Feature","properties":{"GEOID":"26095","NAME":"Luce","state":"MI","wildfire_risk_score":45.356,"wildfire_eal_total":25876.02,"risk_band":"High","source":"FEMA National Risk Index v1.20 (December 2025)"},"geometry":{"type":"Polygon","coordinates":[[[-85.864767,46.270779],[-85.864549264065,46.6901824613954],[-85.750606,46.677368],[-85.668753,46.680404],[-85.587345,46.674627],[-85.500509,46.676038],[-85.363187,46.71653],[-85.290043,46.744073],[-85.2378749807302,46.755678903295],[-85.237839,46.24543],[-85.865025,46.244631],[-85.864767,46.270779]]]}},{"type":"Feature","properties":{"GEOID":"26123","NAME":"Newaygo","state":"MI","wildfire_risk_score":44.816,"wildfire_eal_total":30213.04,"risk_band":"High","source":"FEMA National Risk Index v1.20 (December 2025)"},"geometry":{"type":"Polygon","coordinates":[[[-86.039706,43.561429],[-86.037884,43.815611],[-85.562433,43.815483],[-85.562538,43.294271],[-86.038953,43.293519],[-86.039706,43.561429]]]}},{"type":"Feature","properties":{"GEOID":"26107","NAME":"Mecosta","state":"MI","wildfire_risk_score":29.167,"wildfire_eal_total":11144.38,"risk_band":"Moderate","source":"FEMA National Risk Index v1.20 (December 2025)"},"geometry":{"type":"Polygon","coordinates":[[[-85.562745,43.728497],[-85.562433,43.815483],[-85.088811,43.813676],[-85.084996,43.46619],[-85.562348,43.46813],[-85.562745,43.728497]]]}},{"type":"Feature","properties":{"GEOID":"26057","NAME":"Gratiot","state":"MI","wildfire_risk_score":6.648,"wildfire_eal_total":1952.6,"risk_band":"Low","source":"FEMA National Risk Index v1.20 (December 2025)"},"geometry":{"type":"Polygon","coordinates":[[[-84.845962,43.466158],[-84.369876,43.466044],[-84.36776,43.117942],[-84.836889,43.118851],[-84.835305,43.2922],[-84.845573,43.292231],[-84.845962,43.466158]]]}},{"type":"Feature","properties":{"GEOID":"26037","NAME":"Clinton","state":"MI","wildfire_risk_score":13.2,"wildfire_eal_total":7272.85,"risk_band":"Low","source":"FEMA National Risk Index v1.20 (December 2025)"},"geometry":{"type":"Polygon","coordinates":[[[-84.837528,42.989021],[-84.836889,43.118851],[-84.36776,43.117942],[-84.36366,42.769971],[-84.837085,42.770479],[-84.837528,42.989021]]]}},{"type":"Feature","properties":{"GEOID":"26133","NAME":"Osceola","state":"MI","wildfire_risk_score":23.282,"wildfire_eal_total":7502.73,"risk_band":"Moderate","source":"FEMA National Risk Index v1.20 (December 2025)"},"geometry":{"type":"Polygon","coordinates":[[[-85.564554,44.164861],[-85.087403,44.164242],[-85.088811,43.813676],[-85.562433,43.815483],[-85.564554,44.164861]]]}},{"type":"Feature","properties":{"GEOID":"26039","NAME":"Crawford","state":"MI","wildfire_risk_score":75.223,"wildfire_eal_total":206837.66,"risk_band":"High","source":"FEMA National Risk Index v1.20 (December 2025)"},"geometry":{"type":"Polygon","coordinates":[[[-84.849751,44.596881],[-84.847309,44.858037],[-84.371737,44.855039],[-84.370643,44.507223],[-84.850929,44.511069],[-84.849751,44.596881]]]}},{"type":"Feature","properties":{"GEOID":"26111","NAME":"Midland","state":"MI","wildfire_risk_score":32.634,"wildfire_eal_total":17841.9,"risk_band":"Moderate","source":"FEMA National Risk Index v1.20 (December 2025)"},"geometry":{"type":"Polygon","coordinates":[[[-84.60796,43.640734],[-84.606037,43.815365],[-84.366676,43.81356],[-84.366511,43.828434],[-84.167318,43.825902],[-84.170576,43.481969],[-84.369777,43.481573],[-84.369876,43.466044],[-84.60754,43.466006],[-84.60796,43.640734]]]}},{"type":"Feature","properties":{"GEOID":"26085","NAME":"Lake","state":"MI","wildfire_risk_score":43.511,"wildfire_eal_total":20624.11,"risk_band":"High","source":"FEMA National Risk Index v1.20 (December 2025)"},"geometry":{"type":"Polygon","coordinates":[[[-86.043507,44.167088],[-85.564554,44.164861],[-85.562433,43.815483],[-86.037884,43.815611],[-86.043507,44.167088]]]}},{"type":"Feature","properties":{"GEOID":"26019","NAME":"Benzie","state":"MI","wildfire_risk_score":12.118,"wildfire_eal_total":3771.87,"risk_band":"Low","source":"FEMA National Risk Index v1.20 (December 2025)"},"geometry":{"type":"Polygon","coordinates":[[[-86.2577202299789,44.6772017917762],[-86.254996,44.691935],[-86.232482,44.70605],[-86.173702,44.72063],[-86.154759,44.732085],[-86.121125,44.727972],[-86.095691,44.736841],[-86.077933,44.758234],[-86.0746093119234,44.7781089198298],[-85.815119,44.774534],[-85.817802,44.512969],[-86.234689745516,44.5183049869697],[-86.222352,44.55458],[-86.221544,44.578643],[-86.231828,44.609107],[-86.253514,44.648132],[-86.259029,44.663654],[-86.2577202299789,44.6772017917762]]]}},{"type":"Feature","properties":{"GEOID":"26045","NAME":"Eaton","state":"MI","wildfire_risk_score":22.837,"wildfire_eal_total":10514.9,"risk_band":"Low","source":"FEMA National Risk Index v1.20 (December 2025)"},"geometry":{"type":"Polygon","coordinates":[[[-85.075582,42.683589],[-85.074245,42.770784],[-84.602761,42.76988],[-84.600403,42.421984],[-85.071609,42.421428],[-85.075582,42.683589]]]}},{"type":"Feature","properties":{"GEOID":"26059","NAME":"Hillsdale","state":"MI","wildfire_risk_score":18.003,"wildfire_eal_total":5368.95,"risk_band":"Low","source":"FEMA National Risk Index v1.20 (December 2025)"},"geometry":{"type":"Polygon","coordinates":[[[-84.826491,42.072468],[-84.363297,42.073456],[-84.3604162952785,41.7066246193358],[-84.805996,41.696118],[-84.805883,41.760216],[-84.8251299096574,41.7599907212136],[-84.826491,42.072468]]]}},{"type":"Feature","properties":{"GEOID":"26087","NAME":"Lapeer","state":"MI","wildfire_risk_score":16.921,"wildfire_eal_total":6520.51,"risk_band":"Low","source":"FEMA National Risk Index v1.20 (December 2025)"},"geometry":{"type":"Polygon","coordinates":[[[-83.460708,43.232791],[-83.351709,43.235193],[-83.354418,43.322257],[-83.120396,43.327049],[-83.119027,43.28368],[-83.00043,43.284913],[-82.983647,42.893741],[-83.453364,42.880432],[-83.460708,43.232791]]]}},{"type":"Feature","properties":{"GEOID":"26077","NAME":"Kalamazoo","state":"MI","wildfire_risk_score":36.578,"wildfire_eal_total":25448.74,"risk_band":"High","source":"FEMA National Risk Index v1.20 (December 2025)"},"geometry":{"type":"Polygon","coordinates":[[[-85.765964,42.275363],[-85.764697,42.420715],[-85.298879,42.419849],[-85.293626,42.071553],[-85.762943,42.069327],[-85.765964,42.275363]]]}},{"type":"Feature","properties":{"GEOID":"26165","NAME":"Wexford","state":"MI","wildfire_risk_score":40.84,"wildfire_eal_total":24032.49,"risk_band":"High","source":"FEMA National Risk Index v1.20 (December 2025)"},"geometry":{"type":"Polygon","coordinates":[[[-85.82145,44.223251],[-85.817802,44.512969],[-85.334,44.512303],[-85.338404,44.425376],[-85.334777,44.165118],[-85.821186,44.164197],[-85.82145,44.223251]]]}},{"type":"Feature","properties":{"GEOID":"26143","NAME":"Roscommon","state":"MI","wildfire_risk_score":69.72,"wildfire_eal_total":120171.55,"risk_band":"High","source":"FEMA National Risk Index v1.20 (December 2025)"},"geometry":{"type":"Polygon","coordinates":[[[-84.855795,44.421984],[-84.850929,44.511069],[-84.370643,44.507223],[-84.368039,44.160538],[-84.851705,44.161375],[-84.855795,44.421984]]]}},{"type":"Feature","properties":{"GEOID":"26113","NAME":"Missaukee","state":"MI","wildfire_risk_score":35.146,"wildfire_eal_total":19907.92,"risk_band":"Moderate","source":"FEMA National Risk Index v1.20 (December 2025)"},"geometry":{"type":"Polygon","coordinates":[[[-85.338404,44.425376],[-85.334,44.512303],[-84.850929,44.511069],[-84.855795,44.421984],[-84.851705,44.161375],[-85.334777,44.165118],[-85.338404,44.425376]]]}},{"type":"Feature","properties":{"GEOID":"26005","NAME":"Allegan","state":"MI","wildfire_risk_score":32.602,"wildfire_eal_total":19686.96,"risk_band":"Moderate","source":"FEMA National Risk Index v1.20 (December 2025)"},"geometry":{"type":"Polygon","coordinates":[[[-86.261852,42.442088],[-86.246597,42.490109],[-86.240642,42.54],[-86.225613,42.594765],[-86.228854,42.637655],[-86.208353,42.692177],[-86.2088649386908,42.7675398909916],[-85.545564,42.768139],[-85.543191,42.421433],[-86.2737626735126,42.4192820644461],[-86.261852,42.442088]]]}},{"type":"Feature","properties":{"GEOID":"26065","NAME":"Ingham","state":"MI","wildfire_risk_score":29.58,"wildfire_eal_total":14873.48,"risk_band":"Moderate","source":"FEMA National Risk Index v1.20 (December 2025)"},"geometry":{"type":"Polygon","coordinates":[[[-84.603137,42.694073],[-84.602761,42.76988],[-84.36366,42.769971],[-84.363659,42.775778],[-84.158189,42.776639],[-84.141718,42.546285],[-84.140713,42.424611],[-84.600403,42.421984],[-84.603137,42.694073]]]}},{"type":"Feature","properties":{"GEOID":"26129","NAME":"Ogemaw","state":"MI","wildfire_risk_score":61.387,"wildfire_eal_total":64476.28,"risk_band":"High","source":"FEMA National Risk Index v1.20 (December 2025)"},"geometry":{"type":"Polygon","coordinates":[[[-84.370643,44.507223],[-83.886634,44.508976],[-83.883977,44.161786],[-84.368039,44.160538],[-84.370643,44.507223]]]}},{"type":"Feature","properties":{"GEOID":"26131","NAME":"Ontonagon","state":"MI","wildfire_risk_score":31.584,"wildfire_eal_total":12987.37,"risk_band":"Moderate","source":"FEMA National Risk Index v1.20 (December 2025)"},"geometry":{"type":"Polygon","coordinates":[[[-89.8853874922337,46.7654749888557],[-89.849141,46.795126],[-89.829155,46.804534],[-89.750856,46.825596],[-89.673375,46.833229],[-89.642255,46.82534],[-89.634938,46.819488],[-89.619329,46.81889],[-89.513938,46.841835],[-89.47154,46.837359],[-89.415154,46.843983],[-89.35229,46.862973],[-89.328782,46.87671],[-89.311994,46.87927],[-89.227914,46.912954],[-89.201511,46.931149],[-89.17323,46.963885],[-89.157636,46.969298],[-89.128698,46.992599],[-89.118339,46.99422],[-89.106277,46.98648],[-89.086742,46.985298],[-89.063103,46.988522],[-89.02893,47.00114],[-89.016393,46.99404],[-88.987197,46.997239],[-88.959409,47.008496],[-88.933301762633,47.0311855525701],[-88.93248,46.764787],[-88.863906,46.765013],[-88.864473,46.679311],[-88.989529,46.680119],[-88.991012,46.332308],[-89.365507,46.333078],[-89.365094,46.505949],[-89.740568,46.505642],[-89.740001,46.592494],[-89.86442,46.592643],[-89.863793,46.765405],[-89.8853874922337,46.7654749888557]]]}}]}