{"type":"FeatureCollection","metadata":{"state":"MS","boundary_source":"U.S. Census Bureau 2024 Cartographic Boundary File (counties, 1:500,000)","risk_source":"FEMA National Risk Index v1.20 (December 2025)"},"features":[{"type":"Feature","properties":{"GEOID":"28001","NAME":"Adams","state":"MS","wildfire_risk_score":41.094,"wildfire_eal_total":18231.44,"risk_band":"Moderate","source":"FEMA National Risk Index v1.20 (December 2025)"},"geometry":{"type":"Polygon","coordinates":[[[-91.655009,31.251815],[-91.641253,31.266917],[-91.564192,31.261633],[-91.518578,31.275283],[-91.512085,31.284177],[-91.50866,31.315131],[-91.548967,31.347255],[-91.551002,31.363645],[-91.546207,31.38248],[-91.55568,31.386413],[-91.568953,31.377629],[-91.578334,31.399067],[-91.576265,31.410498],[-91.565179,31.423447],[-91.545013,31.433026],[-91.537137,31.424161],[-91.539458,31.414021],[-91.532336,31.390275],[-91.521836,31.37517],[-91.504163,31.36495],[-91.47887,31.364955],[-91.472465,31.371326],[-91.472065,31.395925],[-91.500046,31.42052],[-91.51513,31.449206],[-91.518148,31.483483],[-91.514917,31.510113],[-91.520579,31.513207],[-91.522536,31.522078],[-91.513963,31.532084],[-91.489618,31.534266],[-91.479718,31.530366],[-91.443916,31.542466],[-91.407915,31.569366],[-91.403915,31.589766],[-91.422716,31.597065],[-91.457517,31.587566],[-91.485218,31.586166],[-91.51301,31.606885],[-91.517233,31.61346],[-91.516659,31.627332],[-91.497665,31.645371],[-91.474318,31.625365],[-91.436716,31.612665],[-91.421116,31.611565],[-91.401015,31.620365],[-91.395715,31.644165],[-91.397915,31.709364],[-91.365034,31.748184],[-91.3178614291731,31.749791433823],[-91.306939,31.711026],[-91.299967,31.712306],[-91.30265,31.707512],[-91.297678,31.70871],[-91.299095,31.700089],[-91.291833,31.691609],[-91.300397,31.681087],[-91.297195,31.678409],[-91.300115,31.672235],[-91.267023,31.663897],[-91.269409,31.647375],[-91.248961,31.643758],[-91.23329,31.62941],[-91.153841,31.630488],[-91.15815,31.346695],[-91.162679,31.350741],[-91.172231,31.345689],[-91.178763,31.351092],[-91.184575,31.347996],[-91.189639,31.356896],[-91.208771,31.354814],[-91.218019,31.372293],[-91.231134,31.37317],[-91.239432,31.366719],[-91.254802,31.36553],[-91.257134,31.360127],[-91.263959,31.361731],[-91.262785,31.369391],[-91.274307,31.369987],[-91.28488,31.356704],[-91.299196,31.359883],[-91.298659,31.364699],[-91.310051,31.353925],[-91.314286,31.357232],[-91.330855,31.351776],[-91.341691,31.340034],[-91.350851,31.337506],[-91.355474,31.34589],[-91.364791,31.341958],[-91.365979,31.335752],[-91.38404,31.335406],[-91.391738,31.324801],[-91.393323,31.331362],[-91.398674,31.324606],[-91.413048,31.323868],[-91.423795,31.315346],[-91.468435,31.31957],[-91.47106,31.285607],[-91.496182,31.28256],[-91.497289,31.27581],[-91.489013,31.265181],[-91.477186,31.259547],[-91.478799,31.238999],[-91.488602,31.233747],[-91.487057,31.227471],[-91.50729,31.225977],[-91.514813,31.217473],[-91.529657,31.214543],[-91.531795,31.23239],[-91.540907,31.238346],[-91.552557,31.238617],[-91.57567,31.224475],[-91.584736,31.210842],[-91.583915,31.197491],[-91.5894512930811,31.1911399311563],[-91.601616,31.208573],[-91.644356,31.234414],[-91.655009,31.251815]]]}},{"type":"Feature","properties":{"GEOID":"28087","NAME":"Lowndes","state":"MS","wildfire_risk_score":36.864,"wildfire_eal_total":16344.09,"risk_band":"Low","source":"FEMA National Risk Index v1.20 (December 2025)"},"geometry":{"type":"Polygon","coordinates":[[[-88.67125,33.506168],[-88.609389,33.506751],[-88.580362,33.517419],[-88.579686,33.521631],[-88.571575,33.519067],[-88.563752,33.527014],[-88.55396,33.52155],[-88.551103,33.528267],[-88.54386,33.526806],[-88.541174,33.534591],[-88.531445,33.53738],[-88.524183,33.550949],[-88.516084,33.543347],[-88.507379,33.543682],[-88.493288,33.528485],[-88.47369,33.523843],[-88.471886,33.527114],[-88.49203,33.542419],[-88.497582,33.563516],[-88.486266,33.56603],[-88.494864,33.579522],[-88.47468,33.598092],[-88.475027,33.603367],[-88.493915,33.614961],[-88.506721,33.614929],[-88.49935,33.626083],[-88.498572,33.641712],[-88.512468,33.644264],[-88.513917,33.650209],[-88.508501,33.655611],[-88.496387,33.664113],[-88.491506,33.660806],[-88.487669,33.66555],[-88.473727,33.666838],[-88.467466,33.663187],[-88.466336,33.667563],[-88.461261,33.662745],[-88.445067,33.671576],[-88.433504,33.667907],[-88.425494,33.67542],[-88.421189,33.673149],[-88.423538,33.670252],[-88.417553,33.669577],[-88.413717,33.677306],[-88.40656,33.673342],[-88.405043,33.678949],[-88.398773,33.678874],[-88.402966,33.682648],[-88.396521,33.683015],[-88.398718,33.690426],[-88.392997,33.695599],[-88.384028,33.693395],[-88.386407,33.689002],[-88.370651,33.685813],[-88.343644,33.706053],[-88.338062,33.717135],[-88.33048,33.7186],[-88.325119,33.745591],[-88.2489373465952,33.7449736777213],[-88.3044169870825,33.2883179507206],[-88.669076,33.286922],[-88.67125,33.506168]]]}},{"type":"Feature","properties":{"GEOID":"28143","NAME":"Tunica","state":"MS","wildfire_risk_score":7.475,"wildfire_eal_total":1551.12,"risk_band":"Low","source":"FEMA National Risk Index v1.20 (December 2025)"},"geometry":{"type":"Polygon","coordinates":[[[-90.591784,34.623794],[-90.583173,34.651963],[-90.568407,34.668878],[-90.570102,34.693432],[-90.556234,34.693576],[-90.541511,34.68309],[-90.539968,34.676839],[-90.552642,34.659707],[-90.555104,34.646236],[-90.551761,34.636484],[-90.541609,34.628612],[-90.517168,34.630928],[-90.466041,34.674312],[-90.463685,34.692644],[-90.474166,34.705277],[-90.516666,34.695555],[-90.532444,34.696237],[-90.559444,34.710833],[-90.571944,34.712777],[-90.563611,34.737778],[-90.545556,34.738889],[-90.539444,34.755277],[-90.547778,34.783333],[-90.540833,34.795833],[-90.526396,34.801669],[-90.511111,34.798288],[-90.511388,34.789999],[-90.492777,34.772499],[-90.492453,34.764541],[-90.494393,34.757431],[-90.524166,34.731388],[-90.491666,34.721388],[-90.465005,34.72731],[-90.448423,34.739117],[-90.45267,34.755674],[-90.476455,34.793587],[-90.469374,34.812604],[-90.455379,34.820785],[-90.484373,34.863581],[-90.484348,34.874925],[-90.476044,34.885842],[-90.462272,34.891738],[-90.436561,34.882731],[-90.429366,34.866609],[-90.449691,34.83992],[-90.438729,34.825248],[-90.389393,34.830665],[-90.338449,34.858517],[-90.328557,34.849733],[-90.311312,34.844223],[-90.303944,34.850517],[-90.3047758209481,34.8604147967561],[-90.202126,34.860374],[-90.200199,34.724418],[-90.202103,34.7201],[-90.205345,34.724492],[-90.21329,34.722644],[-90.229211,34.705227],[-90.225071,34.70244],[-90.231412,34.701991],[-90.220218,34.688894],[-90.2258,34.674823],[-90.218452,34.664403],[-90.225189,34.661575],[-90.214558,34.657753],[-90.216325,34.646874],[-90.230273,34.630714],[-90.239971,34.626237],[-90.241069,34.614923],[-90.236591,34.607635],[-90.243924,34.60215],[-90.241366,34.599088],[-90.236291,34.605019],[-90.234494,34.598445],[-90.239913,34.593204],[-90.234246,34.595134],[-90.231739,34.588212],[-90.221489,34.582461],[-90.224431,34.57638],[-90.211076,34.573097],[-90.210821,34.563568],[-90.21829,34.559491],[-90.204018,34.559108],[-90.204886,34.554437],[-90.198631,34.554425],[-90.198536,34.511088],[-90.304317,34.509621],[-90.301851,34.424546],[-90.399498,34.423807],[-90.5678479810421,34.5239835874963],[-90.542528,34.54015],[-90.540493,34.557871],[-90.573762,34.592133],[-90.591784,34.623794]]]}},{"type":"Feature","properties":{"GEOID":"28139","NAME":"Tippah","state":"MS","wildfire_risk_score":51.05,"wildfire_eal_total":36836.15,"risk_band":"Moderate","source":"FEMA National Risk Index v1.20 (December 2025)"},"geometry":{"type":"Polygon","coordinates":[[[-89.088615,34.757138],[-89.088065,34.815307],[-89.03534,34.81526],[-89.035009,34.858762],[-89.017551,34.858723],[-89.0171270872889,34.9949454068841],[-88.8230487339323,34.9951575501037],[-88.823473,34.858629],[-88.752956,34.858775],[-88.753065,34.75696],[-88.718508,34.756781],[-88.717794,34.596472],[-89.088488,34.598247],[-89.088615,34.757138]]]}},{"type":"Feature","properties":{"GEOID":"28163","NAME":"Yazoo","state":"MS","wildfire_risk_score":44.529,"wildfire_eal_total":21472.94,"risk_band":"Moderate","source":"FEMA National Risk Index v1.20 (December 2025)"},"geometry":{"type":"Polygon","coordinates":[[[-90.759753,32.835667],[-90.656712,32.92251],[-90.449893,32.92329],[-90.449323,33.00901],[-90.364042,33.009866],[-90.353859,33.012072],[-90.346221,33.022385],[-90.337041,33.014086],[-90.338339,33.010131],[-89.965882,32.879573],[-89.97348,32.866942],[-89.983301,32.864531],[-89.982984,32.856336],[-89.987812,32.84743],[-89.992557,32.847528],[-89.989826,32.844502],[-89.995433,32.834003],[-90.010336,32.827941],[-90.013693,32.83143],[-90.017531,32.826983],[-90.020666,32.805244],[-90.017164,32.80324],[-90.023571,32.795594],[-90.020749,32.793431],[-90.02521,32.778145],[-90.031971,32.775018],[-90.032469,32.759933],[-90.039513,32.758688],[-90.039478,32.747644],[-90.049129,32.735674],[-90.057368,32.735588],[-90.05755,32.731217],[-90.076054,32.729529],[-90.079498,32.719628],[-90.089789,32.714885],[-90.087415,32.712865],[-90.099623,32.700274],[-90.105262,32.704049],[-90.107278,32.700646],[-90.115395,32.704512],[-90.121601,32.699701],[-90.131951,32.702199],[-90.137334,32.698797],[-90.135947,32.687705],[-90.14148,32.685114],[-90.145573,32.691726],[-90.153988,32.691624],[-90.168238,32.681522],[-90.180766,32.679926],[-90.197729,32.66385],[-90.206897,32.666279],[-90.222886,32.659896],[-90.227505,32.668043],[-90.241564,32.664512],[-90.244521,32.658664],[-90.25712,32.662861],[-90.265446,32.656203],[-90.277813,32.660428],[-90.288107,32.641842],[-90.297735,32.647114],[-90.311212,32.640692],[-90.30976,32.633812],[-90.324816,32.622323],[-90.322146,32.616183],[-90.332349,32.61325],[-90.335627,32.606631],[-90.34468,32.606103],[-90.345598,32.612785],[-90.350185,32.613096],[-90.356535,32.602105],[-90.358407,32.606523],[-90.368687,32.595523],[-90.371048,32.602567],[-90.388518,32.587265],[-90.386506,32.583507],[-90.39675,32.584872],[-90.40441,32.574741],[-90.411553,32.573817],[-90.409551,32.578092],[-90.418596,32.577322],[-90.427777,32.585707],[-90.444056,32.584806],[-90.451396,32.578631],[-90.453956,32.55833],[-90.462515,32.559044],[-90.465137,32.547656],[-90.484132,32.542993],[-90.499005,32.523947],[-90.515292,32.525288],[-90.523538,32.519333],[-90.519779,32.516134],[-90.525271,32.516576],[-90.522217,32.50311],[-90.530232,32.510908],[-90.540396,32.509159],[-90.539945,32.5058],[-90.54795,32.510543],[-90.553821,32.507574],[-90.553904,32.531907],[-90.587925,32.531756],[-90.588019,32.546067],[-90.654228,32.546041],[-90.655527,32.589771],[-90.690249,32.589388],[-90.689946,32.618658],[-90.720102,32.618858],[-90.719436,32.62442],[-90.697563,32.625135],[-90.691405,32.636284],[-90.69475,32.641125],[-90.716536,32.644267],[-90.723269,32.653779],[-90.712206,32.687444],[-90.704416,32.690779],[-90.697173,32.687875],[-90.694878,32.67109],[-90.684171,32.663747],[-90.667678,32.670983],[-90.663751,32.686006],[-90.671389,32.696463],[-90.688676,32.705369],[-90.717734,32.709001],[-90.742634,32.729225],[-90.735226,32.743805],[-90.736123,32.755996],[-90.729578,32.757217],[-90.717628,32.747993],[-90.709416,32.747435],[-90.6905,32.757565],[-90.689758,32.765881],[-90.70767,32.777785],[-90.715836,32.79341],[-90.710992,32.805522],[-90.694289,32.814926],[-90.70866,32.817968],[-90.720312,32.814953],[-90.726804,32.819608],[-90.732958,32.809981],[-90.739389,32.80895],[-90.750097,32.818299],[-90.759635,32.814006],[-90.759753,32.835667]]]}},{"type":"Feature","properties":{"GEOID":"28089","NAME":"Madison","state":"MS","wildfire_risk_score":53.944,"wildfire_eal_total":68007.02,"risk_band":"Moderate","source":"FEMA National Risk Index v1.20 (December 2025)"},"geometry":{"type":"Polygon","coordinates":[[[-90.451396,32.578631],[-90.444056,32.584806],[-90.427777,32.585707],[-90.418596,32.577322],[-90.409551,32.578092],[-90.411553,32.573817],[-90.40441,32.574741],[-90.39675,32.584872],[-90.386506,32.583507],[-90.388518,32.587265],[-90.371048,32.602567],[-90.368687,32.595523],[-90.358407,32.606523],[-90.356535,32.602105],[-90.350185,32.613096],[-90.345598,32.612785],[-90.34468,32.606103],[-90.337048,32.605877],[-90.329872,32.611521],[-90.332349,32.61325],[-90.322146,32.616183],[-90.324816,32.622323],[-90.30976,32.633812],[-90.311212,32.640692],[-90.297735,32.647114],[-90.288107,32.641842],[-90.277813,32.660428],[-90.265446,32.656203],[-90.25712,32.662861],[-90.244521,32.658664],[-90.241564,32.664512],[-90.227505,32.668043],[-90.222886,32.659896],[-90.206897,32.666279],[-90.197729,32.66385],[-90.180766,32.679926],[-90.168238,32.681522],[-90.153988,32.691624],[-90.145573,32.691726],[-90.14148,32.685114],[-90.135947,32.687705],[-90.137334,32.698797],[-90.131951,32.702199],[-90.121601,32.699701],[-90.115395,32.704512],[-90.107278,32.700646],[-90.105262,32.704049],[-90.099623,32.700274],[-90.087415,32.712865],[-90.089789,32.714885],[-90.079498,32.719628],[-90.076054,32.729529],[-90.05755,32.731217],[-90.057368,32.735588],[-90.049129,32.735674],[-90.039478,32.747644],[-90.039513,32.758688],[-90.032469,32.759933],[-90.031971,32.775018],[-90.02521,32.778145],[-90.020749,32.793431],[-90.023571,32.795594],[-90.017164,32.80324],[-90.020666,32.805244],[-90.017531,32.826983],[-90.013693,32.83143],[-90.010336,32.827941],[-89.995433,32.834003],[-89.989826,32.844502],[-89.992557,32.847528],[-89.987812,32.84743],[-89.982984,32.856336],[-89.983301,32.864531],[-89.97348,32.866942],[-89.965882,32.879573],[-89.730016,32.885072],[-89.730304,32.634228],[-89.755383,32.617082],[-89.761298,32.606703],[-89.770913,32.60615],[-89.768643,32.59996],[-89.782867,32.596579],[-89.781254,32.589791],[-89.785926,32.583734],[-89.787494,32.591997],[-89.793953,32.592993],[-89.795204,32.584547],[-89.798458,32.589953],[-89.808592,32.5908],[-89.807247,32.584839],[-89.812438,32.586046],[-89.813949,32.581899],[-89.817929,32.586694],[-89.832599,32.586367],[-89.832858,32.590157],[-89.83695,32.585416],[-89.839985,32.593295],[-89.846548,32.582727],[-89.858878,32.584836],[-89.86696,32.564532],[-89.87508,32.559244],[-89.886312,32.56323],[-89.895893,32.55436],[-89.893195,32.542437],[-89.911335,32.537291],[-89.911236,32.528695],[-89.923261,32.52892],[-89.929401,32.513314],[-89.941895,32.513226],[-89.945556,32.508996],[-89.94114,32.508282],[-89.954878,32.502355],[-89.960643,32.491383],[-89.981556,32.498194],[-89.984659,32.487628],[-89.992758,32.482829],[-90.002547,32.485901],[-90.019347,32.477293],[-90.026355,32.462813],[-90.040852,32.449486],[-90.03682,32.445742],[-90.04066,32.441678],[-90.055028,32.439822],[-90.057508,32.435118],[-90.068068,32.438606],[-90.070116,32.433822],[-90.0629,32.419982],[-90.06578,32.416271],[-90.075349,32.419086],[-90.064116,32.399887],[-90.243764,32.400098],[-90.243641,32.487533],[-90.449864,32.488394],[-90.451396,32.578631]]]}},{"type":"Feature","properties":{"GEOID":"28101","NAME":"Newton","state":"MS","wildfire_risk_score":38.74,"wildfire_eal_total":14890.63,"risk_band":"Moderate","source":"FEMA National Risk Index v1.20 (December 2025)"},"geometry":{"type":"Polygon","coordinates":[[[-89.322626,32.307952],[-89.322598,32.576433],[-88.914516,32.576955],[-88.913847,32.224186],[-89.322692,32.223472],[-89.322626,32.307952]]]}},{"type":"Feature","properties":{"GEOID":"28113","NAME":"Pike","state":"MS","wildfire_risk_score":71.533,"wildfire_eal_total":119311.33,"risk_band":"High","source":"FEMA National Risk Index v1.20 (December 2025)"},"geometry":{"type":"Polygon","coordinates":[[[-90.548351,31.26305],[-90.548199,31.349574],[-90.260391,31.350274],[-90.2595549256981,31.0006571633247],[-90.5476154821801,30.9997232645164],[-90.548351,31.26305]]]}},{"type":"Feature","properties":{"GEOID":"28151","NAME":"Washington","state":"MS","wildfire_risk_score":26.081,"wildfire_eal_total":6861.46,"risk_band":"Low","source":"FEMA National Risk Index v1.20 (December 2025)"},"geometry":{"type":"Polygon","coordinates":[[[-91.235928,33.440611],[-91.231661,33.4571],[-91.208535,33.468606],[-91.195634,33.488468],[-91.1826,33.499185],[-91.185417,33.507531],[-91.2187139058355,33.5293831305781],[-90.761283,33.529353],[-90.763773,33.270359],[-90.716277,33.270032],[-90.731431,33.264559],[-90.732306,33.229664],[-90.722281,33.228985],[-90.709234,33.215556],[-90.686461,33.207472],[-90.679003,33.199706],[-90.68687,33.186853],[-90.683755,33.173961],[-90.689686,33.158116],[-90.688136,33.148468],[-90.698502,33.138033],[-90.700572,33.125124],[-90.698568,33.1214],[-90.688955,33.123002],[-90.688226,33.115862],[-90.679551,33.114586],[-90.679607,33.102483],[-90.685755,33.097051],[-90.695703,33.100316],[-90.701845,33.096294],[-90.914465,33.097417],[-90.914337,33.007697],[-91.1662539416548,33.0113847869133],[-91.157515,33.022724],[-91.128326,33.034282],[-91.121195,33.059166],[-91.150217,33.082129],[-91.170555,33.087384],[-91.180836,33.098364],[-91.200167,33.10693],[-91.201995,33.123125],[-91.192563,33.137084],[-91.183662,33.141691],[-91.163111,33.142186],[-91.150362,33.130695],[-91.128078,33.128914],[-91.099872,33.131123],[-91.085707,33.137189],[-91.080787,33.182213],[-91.10026,33.219428],[-91.070697,33.227302],[-91.050407,33.251202],[-91.043624,33.274636],[-91.052369,33.285415],[-91.07853,33.283306],[-91.098706,33.238508],[-91.106142,33.241799],[-91.11725,33.26056],[-91.128078,33.268502],[-91.125539,33.280255],[-91.141615,33.299539],[-91.142219,33.348989],[-91.120409,33.363809],[-91.101456,33.38719],[-91.064444,33.418462],[-91.058152,33.428705],[-91.058077,33.446537],[-91.070742,33.455851],[-91.087034,33.45129],[-91.096723,33.437603],[-91.095265,33.417726],[-91.099535,33.407209],[-91.121239,33.38842],[-91.148816,33.378765],[-91.176942,33.382841],[-91.204758,33.398823],[-91.20922,33.40629],[-91.199354,33.418321],[-91.17628,33.416979],[-91.131885,33.430063],[-91.116937,33.452033],[-91.121198,33.467485],[-91.132152,33.481558],[-91.161614,33.497478],[-91.171674,33.496997],[-91.177439,33.48164],[-91.169809,33.452011],[-91.176507,33.444627],[-91.206807,33.433846],[-91.235928,33.440611]]]}},{"type":"Feature","properties":{"GEOID":"28055","NAME":"Issaquena","state":"MS","wildfire_risk_score":4.739,"wildfire_eal_total":1023.02,"risk_band":"Low","source":"FEMA National Risk Index v1.20 (December 2025)"},"geometry":{"type":"Polygon","coordinates":[[[-91.214027,32.93032],[-91.199415,32.952314],[-91.201842,32.961212],[-91.168973,32.992132],[-91.1662539416548,33.0113847869133],[-90.914337,33.007697],[-90.91404,32.944198],[-90.919759,32.937846],[-90.924951,32.911236],[-90.940318,32.885289],[-90.936002,32.876288],[-90.941968,32.869717],[-90.940177,32.862068],[-90.956024,32.852905],[-90.958574,32.848394],[-90.954911,32.845968],[-90.963347,32.838248],[-90.964864,32.662798],[-90.723159,32.662128],[-90.724601,32.657339],[-90.716536,32.644267],[-90.69475,32.641125],[-90.691405,32.636284],[-90.700279,32.623657],[-90.720703,32.624043],[-90.716399,32.611578],[-90.723197,32.59131],[-90.731699,32.587276],[-90.725864,32.577666],[-90.727044,32.567813],[-90.753654,32.571412],[-90.762783,32.577419],[-90.860566,32.575173],[-90.861379,32.442768],[-90.870873,32.451608],[-90.881466,32.440768],[-90.894745,32.448602],[-90.918789,32.444145],[-90.926476,32.450579],[-90.939828,32.452068],[-90.95124,32.444389],[-90.963381,32.411185],[-90.964043,32.575605],[-91.0434509306582,32.5762695534421],[-91.004599,32.60978],[-91.0035,32.624845],[-91.014286,32.640482],[-91.025769,32.646573],[-91.038415,32.636443],[-91.049796,32.607188],[-91.119854,32.584795],[-91.141148,32.597209],[-91.151318,32.615919],[-91.153744,32.635228],[-91.149753,32.644041],[-91.137638,32.650621],[-91.118258,32.674075],[-91.063946,32.702926],[-91.054749,32.719229],[-91.056999,32.72558],[-91.077176,32.732534],[-91.123152,32.742798],[-91.154461,32.742339],[-91.165328,32.751301],[-91.156918,32.780343],[-91.164397,32.785821],[-91.161669,32.812465],[-91.145002,32.84287],[-91.127886,32.855059],[-91.105631,32.858396],[-91.070602,32.888659],[-91.064449,32.901064],[-91.064804,32.926464],[-91.081913,32.944768],[-91.080355,32.962794],[-91.086802,32.976266],[-91.09693,32.986412],[-91.106581,32.988938],[-91.135517,32.979657],[-91.138585,32.971352],[-91.130721,32.962257],[-91.137863,32.952756],[-91.131304,32.926919],[-91.134041,32.917676],[-91.15169,32.901935],[-91.170235,32.899391],[-91.196785,32.906784],[-91.211597,32.919624],[-91.214027,32.93032]]]}},{"type":"Feature","properties":{"GEOID":"28033","NAME":"DeSoto","state":"MS","wildfire_risk_score":67.939,"wildfire_eal_total":164148.0,"risk_band":"High","source":"FEMA National Risk Index v1.20 (December 2025)"},"geometry":{"type":"Polygon","coordinates":[[[-90.317741,34.871058],[-90.257858,34.893385],[-90.243208,34.9091],[-90.241334,34.919033],[-90.245935,34.948721],[-90.270706,34.958757],[-90.296057,34.976471],[-90.308361,34.995694],[-89.7243244282036,34.9952117286505],[-89.723442,34.772311],[-89.912202,34.772506],[-89.915481,34.758172],[-89.918908,34.760103],[-89.925522,34.751583],[-89.955714,34.737446],[-89.954117,34.726916],[-89.981849,34.726237],[-89.982677,34.720311],[-89.995365,34.716823],[-90.0003,34.720213],[-90.00094,34.716023],[-90.021792,34.713718],[-90.030051,34.70795],[-90.045078,34.714644],[-90.054232,34.712588],[-90.060568,34.728177],[-90.06979,34.726512],[-90.072887,34.721039],[-90.090617,34.735849],[-90.09399,34.731367],[-90.106985,34.733274],[-90.110398,34.737918],[-90.107109,34.740602],[-90.117237,34.753959],[-90.138984,34.762025],[-90.14278,34.756591],[-90.15417,34.759284],[-90.157491,34.754723],[-90.160849,34.7602],[-90.169861,34.75551],[-90.171483,34.75901],[-90.174631,34.743458],[-90.187944,34.738806],[-90.183822,34.733514],[-90.192855,34.724772],[-90.198557,34.725316],[-90.196461,34.720677],[-90.19962,34.722408],[-90.202126,34.860374],[-90.3047758209481,34.8604147967561],[-90.314893,34.863955],[-90.317741,34.871058]]]}},{"type":"Feature","properties":{"GEOID":"28021","NAME":"Claiborne","state":"MS","wildfire_risk_score":29.198,"wildfire_eal_total":8707.09,"risk_band":"Low","source":"FEMA National Risk Index v1.20 (December 2025)"},"geometry":{"type":"Polygon","coordinates":[[[-91.234899,31.876863],[-91.20281,31.907959],[-91.18061,31.917959],[-91.18471,31.935058],[-91.19321,31.935658],[-91.18831,31.960958],[-91.17741,31.973257],[-91.16441,31.982557],[-91.104108,31.990357],[-91.075908,32.016828],[-91.088108,32.034455],[-91.14511,32.046555],[-91.15631,32.052655],[-91.16201,32.065354],[-91.15581,32.075554],[-91.14511,32.081354],[-91.134909,32.080354],[-91.103708,32.050255],[-91.082308,32.047555],[-91.079108,32.050255],[-91.081508,32.077754],[-91.034707,32.101053],[-91.0307064962793,32.1143368859173],[-90.990299,32.096986],[-90.978811,32.098875],[-90.97034,32.094612],[-90.96122,32.105164],[-90.957353,32.101599],[-90.966014,32.087913],[-90.957699,32.090339],[-90.956787,32.083597],[-90.950963,32.08157],[-90.952463,32.090157],[-90.949151,32.085997],[-90.943352,32.089131],[-90.943913,32.078343],[-90.938376,32.085263],[-90.917952,32.080684],[-90.912468,32.086544],[-90.920726,32.087394],[-90.914544,32.09769],[-90.925353,32.099692],[-90.916919,32.102108],[-90.922402,32.104155],[-90.917613,32.107359],[-90.921733,32.117844],[-90.912717,32.11851],[-90.90774,32.131888],[-90.879013,32.114429],[-90.882343,32.121471],[-90.877105,32.119947],[-90.875104,32.127612],[-90.871715,32.126629],[-90.875354,32.121759],[-90.870458,32.119977],[-90.846115,32.128174],[-90.843787,32.138616],[-90.85813,32.141967],[-90.849256,32.149186],[-90.850719,32.15276],[-90.845254,32.151087],[-90.844287,32.154413],[-90.851314,32.155571],[-90.843843,32.159039],[-90.826108,32.156273],[-90.829654,32.144857],[-90.820685,32.137102],[-90.813969,32.138947],[-90.80943,32.14759],[-90.811243,32.155477],[-90.800023,32.149708],[-90.798293,32.142817],[-90.792392,32.144223],[-90.796782,32.146419],[-90.792869,32.151566],[-90.776346,32.157032],[-90.772142,32.154031],[-90.766786,32.163031],[-90.775633,32.162787],[-90.790377,32.178183],[-90.777187,32.193587],[-90.776631,32.189488],[-90.766998,32.194574],[-90.764133,32.191625],[-90.76345,32.195991],[-90.750499,32.195783],[-90.75435,32.206197],[-90.73849,32.205577],[-90.731939,32.214973],[-90.739467,32.215476],[-90.728622,32.225119],[-90.714405,31.977629],[-90.716785,31.844583],[-90.733,31.829976],[-90.736282,31.786134],[-90.852657,31.785422],[-90.840394,31.804097],[-90.840579,31.815529],[-90.845751,31.822487],[-90.842672,31.82671],[-91.013676,31.861852],[-91.248144,31.869848],[-91.234899,31.876863]]]}},{"type":"Feature","properties":{"GEOID":"28083","NAME":"Leflore","state":"MS","wildfire_risk_score":22.519,"wildfire_eal_total":5685.01,"risk_band":"Low","source":"FEMA National Risk Index v1.20 (December 2025)"},"geometry":{"type":"Polygon","coordinates":[[[-90.453755,33.276255],[-90.451643,33.81139],[-90.182584,33.809322],[-90.181747,33.799423],[-90.171221,33.787313],[-90.185599,33.765514],[-90.204205,33.759446],[-90.22524,33.759257],[-90.235272,33.765943],[-90.239082,33.761209],[-90.250086,33.763147],[-90.296409,33.750573],[-90.305573,33.74267],[-90.313851,33.723705],[-90.300043,33.698047],[-90.283055,33.694173],[-90.262008,33.703273],[-90.251679,33.731686],[-90.24222,33.736994],[-90.229054,33.732243],[-90.220439,33.722122],[-90.136787,33.721648],[-90.137011,33.676944],[-90.122316,33.673709],[-90.117794,33.661873],[-90.103007,33.661182],[-90.108206,33.654974],[-90.101805,33.650913],[-90.108748,33.633516],[-90.104574,33.617404],[-90.107927,33.606311],[-90.114473,33.60987],[-90.116932,33.604109],[-90.124681,33.60775],[-90.130254,33.603875],[-90.101987,33.603792],[-90.101401,33.45894],[-90.13761,33.459114],[-90.137817,33.416455],[-90.174756,33.417003],[-90.174614,33.333378],[-90.321513,33.375121],[-90.318058,33.363034],[-90.295029,33.361784],[-90.282073,33.347962],[-90.280897,33.33542],[-90.291889,33.323715],[-90.286439,33.312677],[-90.294947,33.314877],[-90.304833,33.30957],[-90.30376,33.316879],[-90.310439,33.320396],[-90.317696,33.317349],[-90.315018,33.310232],[-90.325577,33.312109],[-90.331589,33.302825],[-90.343788,33.309061],[-90.356991,33.297083],[-90.36316,33.276404],[-90.376656,33.281374],[-90.367003,33.260862],[-90.375086,33.246402],[-90.368407,33.246124],[-90.367106,33.23926],[-90.386355,33.245286],[-90.409568,33.245295],[-90.413236,33.23532],[-90.453801,33.267302],[-90.453755,33.276255]]]}},{"type":"Feature","properties":{"GEOID":"28131","NAME":"Stone","state":"MS","wildfire_risk_score":84.288,"wildfire_eal_total":481869.84,"risk_band":"High","source":"FEMA National Risk Index v1.20 (December 2025)"},"geometry":{"type":"Polygon","coordinates":[[[-89.341264,30.785968],[-89.340806,30.909912],[-88.885038,30.910788],[-88.884533,30.677292],[-89.240073,30.67716],[-89.240136,30.647646],[-89.341446,30.64772],[-89.341264,30.785968]]]}},{"type":"Feature","properties":{"GEOID":"28051","NAME":"Holmes","state":"MS","wildfire_risk_score":57.475,"wildfire_eal_total":40706.31,"risk_band":"High","source":"FEMA National Risk Index v1.20 (December 2025)"},"geometry":{"type":"Polygon","coordinates":[[[-90.431684,33.096871],[-90.422242,33.099044],[-90.428747,33.10903],[-90.41963,33.115986],[-90.414357,33.101561],[-90.397136,33.104739],[-90.384934,33.087334],[-90.369253,33.085482],[-90.36546,33.095533],[-90.382898,33.107489],[-90.38629,33.112805],[-90.38381,33.120554],[-90.368855,33.125467],[-90.366171,33.103659],[-90.35928,33.094079],[-90.354072,33.094184],[-90.347004,33.101191],[-90.355459,33.113145],[-90.353588,33.122848],[-90.343711,33.134199],[-90.330686,33.135336],[-90.331589,33.302825],[-90.325577,33.312109],[-90.315018,33.310232],[-90.317696,33.317349],[-90.310439,33.320396],[-90.30376,33.316879],[-90.304833,33.30957],[-90.294947,33.314877],[-90.286439,33.312677],[-90.291889,33.323715],[-90.279627,33.339509],[-90.288576,33.35772],[-90.318058,33.363034],[-90.321513,33.375121],[-89.748572,33.211553],[-89.75857,33.195072],[-89.769884,33.196655],[-89.77873,33.191494],[-89.774155,33.176118],[-89.783622,33.162063],[-89.795774,33.156761],[-89.791538,33.140006],[-89.799346,33.13608],[-89.793834,33.130716],[-89.79604,33.124382],[-89.808402,33.116805],[-89.806037,33.11291],[-89.823311,33.112651],[-89.825657,33.107551],[-89.818959,33.099197],[-89.828664,33.081911],[-89.821342,33.075703],[-89.822696,33.066017],[-89.841579,33.058338],[-89.836363,33.039984],[-89.856724,33.021242],[-89.858271,33.014753],[-89.881528,32.998947],[-89.877705,32.992991],[-89.888272,32.980594],[-89.883681,32.973957],[-89.894211,32.964834],[-89.888219,32.958972],[-89.895851,32.948663],[-89.892971,32.945899],[-89.899061,32.943873],[-89.896363,32.932602],[-89.918204,32.922911],[-89.91784,32.911558],[-89.937962,32.904271],[-89.93397,32.896054],[-89.957474,32.891701],[-89.965882,32.879573],[-90.338339,33.010131],[-90.343351,33.021904],[-90.349465,33.020621],[-90.353859,33.012072],[-90.373084,33.013275],[-90.382876,33.023361],[-90.379505,33.038718],[-90.383793,33.047558],[-90.415436,33.048978],[-90.428288,33.05734],[-90.431684,33.096871]]]}},{"type":"Feature","properties":{"GEOID":"28157","NAME":"Wilkinson","state":"MS","wildfire_risk_score":37.5,"wildfire_eal_total":12571.22,"risk_band":"Moderate","source":"FEMA National Risk Index v1.20 (December 2025)"},"geometry":{"type":"Polygon","coordinates":[[[-91.625118,31.005374],[-91.578413,31.02403],[-91.564397,31.038965],[-91.559907,31.054119],[-91.567648,31.070186],[-91.621535,31.110257],[-91.626476,31.119125],[-91.624217,31.133729],[-91.591502,31.173118],[-91.582832,31.214184],[-91.560538,31.235604],[-91.547295,31.23925],[-91.534008,31.234598],[-91.529657,31.214543],[-91.514813,31.217473],[-91.50729,31.225977],[-91.487057,31.227471],[-91.488602,31.233747],[-91.478799,31.238999],[-91.477186,31.259547],[-91.489013,31.265181],[-91.497289,31.27581],[-91.496182,31.28256],[-91.47106,31.285607],[-91.468435,31.31957],[-91.423795,31.315346],[-91.413048,31.323868],[-91.398674,31.324606],[-91.393323,31.331362],[-91.391738,31.324801],[-91.38404,31.335406],[-91.365979,31.335752],[-91.364791,31.341958],[-91.355474,31.34589],[-91.350851,31.337506],[-91.341691,31.340034],[-91.330855,31.351776],[-91.314286,31.357232],[-91.310051,31.353925],[-91.298659,31.364699],[-91.299196,31.359883],[-91.287285,31.35607],[-91.274307,31.369987],[-91.262785,31.369391],[-91.263959,31.361731],[-91.257134,31.360127],[-91.254802,31.36553],[-91.239432,31.366719],[-91.231134,31.37317],[-91.218019,31.372293],[-91.208771,31.354814],[-91.189639,31.356896],[-91.184575,31.347996],[-91.178763,31.351092],[-91.172231,31.345689],[-91.162679,31.350741],[-91.154563,31.343057],[-91.152482,31.348632],[-91.151871,31.345399],[-91.145181,31.347535],[-91.147273,31.343701],[-91.140778,31.341969],[-91.143852,31.340038],[-91.117967,31.320314],[-91.10122,31.326495],[-91.087942,31.317516],[-91.079954,31.288828],[-91.059469,31.281921],[-91.0602129522528,30.9989529636044],[-91.636942,30.999416],[-91.625118,31.005374]]]}},{"type":"Feature","properties":{"GEOID":"28013","NAME":"Calhoun","state":"MS","wildfire_risk_score":26.368,"wildfire_eal_total":8308.49,"risk_band":"Low","source":"FEMA National Risk Index v1.20 (December 2025)"},"geometry":{"type":"Polygon","coordinates":[[[-89.509748,34.162082],[-89.245485,34.161186],[-89.244436,34.073942],[-89.139158,34.074116],[-89.137876,33.812144],[-89.19004,33.81171],[-89.191924,33.722158],[-89.507135,33.721819],[-89.509748,34.162082]]]}},{"type":"Feature","properties":{"GEOID":"28103","NAME":"Noxubee","state":"MS","wildfire_risk_score":19.307,"wildfire_eal_total":4112.52,"risk_band":"Low","source":"FEMA National Risk Index v1.20 (December 2025)"},"geometry":{"type":"Polygon","coordinates":[[[-88.813722,33.089209],[-88.813053,33.286424],[-88.3044169870825,33.2883179507206],[-88.3478500256084,32.929077584824],[-88.812782,32.925973],[-88.813722,33.089209]]]}},{"type":"Feature","properties":{"GEOID":"28109","NAME":"Pearl River","state":"MS","wildfire_risk_score":90.14,"wildfire_eal_total":1053141.41,"risk_band":"High","source":"FEMA National Risk Index v1.20 (December 2025)"},"geometry":{"type":"Polygon","coordinates":[[[-89.852263,30.662934],[-89.843355,30.663699],[-89.837894,30.672514],[-89.847201,30.670038],[-89.835478,30.691166],[-89.838065,30.704036],[-89.846576,30.706209],[-89.836257,30.716185],[-89.83006,30.71631],[-89.828061,30.725018],[-89.836331,30.727197],[-89.83687,30.734661],[-89.816075,30.739366],[-89.828697,30.739451],[-89.822459,30.754628],[-89.833167,30.753314],[-89.826121,30.759014],[-89.832408,30.76451],[-89.827819,30.771223],[-89.830418,30.779842],[-89.820087,30.782391],[-89.817559,30.796054],[-89.812096,30.788437],[-89.805107,30.790596],[-89.811479,30.797996],[-89.797156,30.811753],[-89.798654,30.820855],[-89.785894,30.815962],[-89.781168,30.820123],[-89.787454,30.822587],[-89.78235,30.832552],[-89.790432,30.830985],[-89.7875,30.844112],[-89.79247,30.850386],[-89.7806,30.845508],[-89.783384,30.856022],[-89.771722,30.854677],[-89.767789,30.865577],[-89.779194,30.875185],[-89.77711,30.881088],[-89.770027,30.882254],[-89.773099,30.898338],[-89.758719,30.897319],[-89.756671,30.901069],[-89.764202,30.911906],[-89.750073,30.91293],[-89.744448,30.920577],[-89.752812,30.925413],[-89.748897,30.933888],[-89.756333,30.943498],[-89.735686,30.966573],[-89.727072,30.967395],[-89.737149,30.976081],[-89.730501,30.979707],[-89.727698,30.993329],[-89.73554,30.999715],[-89.551851,31.001917],[-89.552026,31.015959],[-89.50134,31.016026],[-89.501396,31.001461],[-89.47594,31.001363],[-89.476022,30.982901],[-89.425337,30.982452],[-89.424808,31.010114],[-89.34895,31.01037],[-89.348966,31.001043],[-89.340701,31.001033],[-89.341446,30.64772],[-89.544232,30.648368],[-89.54451,30.516862],[-89.595873,30.517069],[-89.595733,30.502488],[-89.647072,30.502738],[-89.646961,30.458892],[-89.6897794685397,30.4592779821573],[-89.701799,30.465115],[-89.710164,30.478308],[-89.715886,30.477797],[-89.724614,30.491902],[-89.758133,30.505404],[-89.76057,30.515761],[-89.768133,30.51502],[-89.779565,30.544345],[-89.803919,30.549349],[-89.79196,30.548788],[-89.794532,30.556554],[-89.803887,30.560581],[-89.791254,30.561369],[-89.786865,30.569053],[-89.793308,30.565159],[-89.794495,30.569653],[-89.808027,30.567998],[-89.815077,30.585877],[-89.807041,30.587145],[-89.818527,30.592688],[-89.819696,30.596785],[-89.814041,30.598587],[-89.822334,30.604642],[-89.81392,30.607721],[-89.823208,30.608683],[-89.821424,30.619815],[-89.830825,30.617649],[-89.813977,30.63818],[-89.823448,30.639871],[-89.82138,30.646528],[-89.825744,30.645273],[-89.833261,30.657516],[-89.852263,30.662934]]]}},{"type":"Feature","properties":{"GEOID":"28049","NAME":"Hinds","state":"MS","wildfire_risk_score":54.644,"wildfire_eal_total":46072.06,"risk_band":"High","source":"FEMA National Risk Index v1.20 (December 2025)"},"geometry":{"type":"Polygon","coordinates":[[[-90.727881,32.226019],[-90.726902,32.241539],[-90.713632,32.252356],[-90.728237,32.259173],[-90.714164,32.263165],[-90.713512,32.266806],[-90.720681,32.269082],[-90.717021,32.270899],[-90.719522,32.277269],[-90.71461,32.275974],[-90.70714,32.286172],[-90.700124,32.287614],[-90.70671,32.29233],[-90.695888,32.29766],[-90.699119,32.311825],[-90.703503,32.310859],[-90.70777,32.316744],[-90.703066,32.3168],[-90.705352,32.324732],[-90.699319,32.331059],[-90.699178,32.337768],[-90.703288,32.334873],[-90.707416,32.339003],[-90.704743,32.347309],[-90.697419,32.347789],[-90.69289,32.354333],[-90.627978,32.339483],[-90.636162,32.374498],[-90.622711,32.38339],[-90.6258,32.388159],[-90.617742,32.393012],[-90.621159,32.395401],[-90.615717,32.398002],[-90.613172,32.413414],[-90.599985,32.424627],[-90.599419,32.436308],[-90.585761,32.445097],[-90.597829,32.450281],[-90.604071,32.481297],[-90.586769,32.487382],[-90.589082,32.495319],[-90.582313,32.494028],[-90.578701,32.503666],[-90.570093,32.49956],[-90.570746,32.506305],[-90.565605,32.502944],[-90.54795,32.510543],[-90.539945,32.5058],[-90.540396,32.509159],[-90.530232,32.510908],[-90.522217,32.50311],[-90.525271,32.516576],[-90.519779,32.516134],[-90.523538,32.519333],[-90.515292,32.525288],[-90.499005,32.523947],[-90.484132,32.542993],[-90.465137,32.547656],[-90.462515,32.559044],[-90.453956,32.55833],[-90.450037,32.573783],[-90.449864,32.488394],[-90.243641,32.487533],[-90.243764,32.400098],[-90.065697,32.399529],[-90.073921,32.388652],[-90.077881,32.387655],[-90.076088,32.393845],[-90.081482,32.395344],[-90.087379,32.38472],[-90.095184,32.389145],[-90.095688,32.381744],[-90.100685,32.382339],[-90.097282,32.374146],[-90.101799,32.375675],[-90.099819,32.366767],[-90.104584,32.366442],[-90.106185,32.355544],[-90.109473,32.354823],[-90.106882,32.361366],[-90.113987,32.360543],[-90.110081,32.344443],[-90.116031,32.346104],[-90.139696,32.32212],[-90.152187,32.323743],[-90.154182,32.31404],[-90.150586,32.311734],[-90.162677,32.30624],[-90.151387,32.291046],[-90.157088,32.293845],[-90.156881,32.287947],[-90.165643,32.283924],[-90.177724,32.290313],[-90.179286,32.276644],[-90.186774,32.27263],[-90.184258,32.261864],[-90.193985,32.262085],[-90.205292,32.251945],[-90.199287,32.240948],[-90.208464,32.235223],[-90.196424,32.2253],[-90.190498,32.2267],[-90.185448,32.218624],[-90.190544,32.203613],[-90.181686,32.201603],[-90.188988,32.194401],[-90.192665,32.198521],[-90.19664,32.195618],[-90.19628,32.185226],[-90.205727,32.19101],[-90.212639,32.179966],[-90.226318,32.178909],[-90.23439,32.173103],[-90.236313,32.178036],[-90.243477,32.176666],[-90.241936,32.155083],[-90.254799,32.151188],[-90.243584,32.151211],[-90.247516,32.135234],[-90.240997,32.121712],[-90.248336,32.118314],[-90.242989,32.113682],[-90.251213,32.112396],[-90.246864,32.104076],[-90.236694,32.100212],[-90.241432,32.096951],[-90.246598,32.100343],[-90.24659,32.093143],[-90.226837,32.09428],[-90.235779,32.09037],[-90.226723,32.079758],[-90.228851,32.068981],[-90.236259,32.064686],[-90.230652,32.059124],[-90.230331,32.049728],[-90.718297,32.048352],[-90.727881,32.226019]]]}},{"type":"Feature","properties":{"GEOID":"28053","NAME":"Humphreys","state":"MS","wildfire_risk_score":12.405,"wildfire_eal_total":2508.39,"risk_band":"Low","source":"FEMA National Risk Index v1.20 (December 2025)"},"geometry":{"type":"Polygon","coordinates":[[[-90.732943,33.235067],[-90.729104,33.250121],[-90.731431,33.264559],[-90.714358,33.270463],[-90.555211,33.270533],[-90.555549,33.329181],[-90.453233,33.329484],[-90.453801,33.267302],[-90.413236,33.23532],[-90.409568,33.245295],[-90.386355,33.245286],[-90.367106,33.23926],[-90.368407,33.246124],[-90.375086,33.246402],[-90.367003,33.260862],[-90.376656,33.281374],[-90.36316,33.276404],[-90.356991,33.297083],[-90.343788,33.309061],[-90.336248,33.307927],[-90.331589,33.302825],[-90.330686,33.135336],[-90.343711,33.134199],[-90.353588,33.122848],[-90.355459,33.113145],[-90.347004,33.101191],[-90.354072,33.094184],[-90.35928,33.094079],[-90.366171,33.103659],[-90.368855,33.125467],[-90.38381,33.120554],[-90.38629,33.112805],[-90.382898,33.107489],[-90.36546,33.095533],[-90.369253,33.085482],[-90.384934,33.087334],[-90.397136,33.104739],[-90.414357,33.101561],[-90.41963,33.115986],[-90.428747,33.10903],[-90.422242,33.099044],[-90.43195,33.095917],[-90.428288,33.05734],[-90.415436,33.048978],[-90.383793,33.047558],[-90.379505,33.038718],[-90.381943,33.021507],[-90.364042,33.009866],[-90.449323,33.00901],[-90.449893,32.92329],[-90.656632,32.92251],[-90.658049,33.096514],[-90.701915,33.096145],[-90.695703,33.100316],[-90.685755,33.097051],[-90.678924,33.103811],[-90.679551,33.114586],[-90.688226,33.115862],[-90.688955,33.123002],[-90.70058,33.123554],[-90.698502,33.138033],[-90.688136,33.148468],[-90.689686,33.158116],[-90.683755,33.173961],[-90.68687,33.186853],[-90.679003,33.199706],[-90.686461,33.207472],[-90.709234,33.215556],[-90.722281,33.228985],[-90.732306,33.229664],[-90.732943,33.235067]]]}},{"type":"Feature","properties":{"GEOID":"28007","NAME":"Attala","state":"MS","wildfire_risk_score":47.487,"wildfire_eal_total":29626.33,"risk_band":"Moderate","source":"FEMA National Risk Index v1.20 (December 2025)"},"geometry":{"type":"Polygon","coordinates":[[[-89.965575,32.881418],[-89.957474,32.891701],[-89.93397,32.896054],[-89.937962,32.904271],[-89.91784,32.911558],[-89.918204,32.922911],[-89.896363,32.932602],[-89.899061,32.943873],[-89.892971,32.945899],[-89.895851,32.948663],[-89.888219,32.958972],[-89.894211,32.964834],[-89.883681,32.973957],[-89.888272,32.980594],[-89.877705,32.992991],[-89.881528,32.998947],[-89.858271,33.014753],[-89.856724,33.021242],[-89.836363,33.039984],[-89.841579,33.058338],[-89.822696,33.066017],[-89.821342,33.075703],[-89.828664,33.081911],[-89.818959,33.099197],[-89.825657,33.107551],[-89.823311,33.112651],[-89.806037,33.11291],[-89.808402,33.116805],[-89.79604,33.124382],[-89.793834,33.130716],[-89.799346,33.13608],[-89.791538,33.140006],[-89.795774,33.156761],[-89.783622,33.162063],[-89.774155,33.176118],[-89.77873,33.191494],[-89.754991,33.198743],[-89.748362,33.216933],[-89.744074,33.218285],[-89.745275,33.228187],[-89.729552,33.24383],[-89.722532,33.259234],[-89.714123,33.258178],[-89.709412,33.26348],[-89.712765,33.267658],[-89.706177,33.270029],[-89.701474,33.285515],[-89.316408,33.285556],[-89.319163,32.931654],[-89.730154,32.929924],[-89.730016,32.885072],[-89.840423,32.885408],[-89.839539,32.879701],[-89.965575,32.881418]]]}},{"type":"Feature","properties":{"GEOID":"28029","NAME":"Copiah","state":"MS","wildfire_risk_score":49.555,"wildfire_eal_total":30106.56,"risk_band":"Moderate","source":"FEMA National Risk Index v1.20 (December 2025)"},"geometry":{"type":"Polygon","coordinates":[[[-90.736282,31.786134],[-90.733,31.829976],[-90.716785,31.844583],[-90.714405,31.977629],[-90.718297,32.048352],[-90.230331,32.049728],[-90.236739,32.03748],[-90.242749,32.037364],[-90.247752,32.030681],[-90.243586,32.022606],[-90.233563,32.024277],[-90.239602,32.020624],[-90.234294,32.017152],[-90.213272,32.024299],[-90.223842,32.010787],[-90.232814,32.008919],[-90.222428,31.988524],[-90.206096,31.987991],[-90.207025,31.976133],[-90.197292,31.965973],[-90.19811,31.957869],[-90.187526,31.952021],[-90.189951,31.949517],[-90.19097,31.953291],[-90.192049,31.953565],[-90.193043,31.953088],[-90.191867,31.944108],[-90.198297,31.941904],[-90.183027,31.93737],[-90.178698,31.942663],[-90.171642,31.934908],[-90.16647,31.926446],[-90.170276,31.904472],[-90.144083,31.891105],[-90.132013,31.858302],[-90.13891,31.848104],[-90.158942,31.84546],[-90.144646,31.829926],[-90.135085,31.832217],[-90.127292,31.825619],[-90.136942,31.826019],[-90.136024,31.818968],[-90.148706,31.807844],[-90.150702,31.799872],[-90.140757,31.789353],[-90.112508,31.79127],[-90.107491,31.777685],[-90.114114,31.768245],[-90.119748,31.768045],[-90.123233,31.774966],[-90.128115,31.769668],[-90.123103,31.751972],[-90.131274,31.756048],[-90.184139,31.731462],[-90.229922,31.72373],[-90.245765,31.71752],[-90.259003,31.703916],[-90.279953,31.699865],[-90.380079,31.700205],[-90.379409,31.685194],[-90.41364,31.68528],[-90.414198,31.700456],[-90.736824,31.698491],[-90.736282,31.786134]]]}},{"type":"Feature","properties":{"GEOID":"28137","NAME":"Tate","state":"MS","wildfire_risk_score":58.874,"wildfire_eal_total":68677.06,"risk_band":"High","source":"FEMA National Risk Index v1.20 (December 2025)"},"geometry":{"type":"Polygon","coordinates":[[[-90.243924,34.60215],[-90.236591,34.607635],[-90.241069,34.614923],[-90.239971,34.626237],[-90.230273,34.630714],[-90.216325,34.646874],[-90.214558,34.657753],[-90.225189,34.661575],[-90.218452,34.664403],[-90.2258,34.674823],[-90.220218,34.688894],[-90.231412,34.701991],[-90.225071,34.70244],[-90.229211,34.705227],[-90.21329,34.722644],[-90.205345,34.724492],[-90.202103,34.7201],[-90.200199,34.724418],[-90.196461,34.720677],[-90.198557,34.725316],[-90.192855,34.724772],[-90.183822,34.733514],[-90.188869,34.737907],[-90.174631,34.743458],[-90.171483,34.75901],[-90.169861,34.75551],[-90.160849,34.7602],[-90.157491,34.754723],[-90.15417,34.759284],[-90.14278,34.756591],[-90.139891,34.761929],[-90.128906,34.760537],[-90.121096,34.752644],[-90.117237,34.753959],[-90.107109,34.740602],[-90.110398,34.737918],[-90.106985,34.733274],[-90.09399,34.731367],[-90.090617,34.735849],[-90.072887,34.721039],[-90.06979,34.726512],[-90.060568,34.728177],[-90.054232,34.712588],[-90.045078,34.714644],[-90.030051,34.70795],[-90.021792,34.713718],[-90.00094,34.716023],[-90.0003,34.720213],[-89.995365,34.716823],[-89.982677,34.720311],[-89.981849,34.726237],[-89.954117,34.726916],[-89.955714,34.737446],[-89.925522,34.751583],[-89.918908,34.760103],[-89.915481,34.758172],[-89.912202,34.772506],[-89.723442,34.772311],[-89.722333,34.685504],[-89.669183,34.685597],[-89.668448,34.554367],[-90.204886,34.554437],[-90.204018,34.559108],[-90.218944,34.560925],[-90.210821,34.563568],[-90.211076,34.573097],[-90.224431,34.57638],[-90.221489,34.582461],[-90.231739,34.588212],[-90.234246,34.595134],[-90.239913,34.593204],[-90.234494,34.598445],[-90.236291,34.605019],[-90.241366,34.599088],[-90.243924,34.60215]]]}},{"type":"Feature","properties":{"GEOID":"28161","NAME":"Yalobusha","state":"MS","wildfire_risk_score":39.154,"wildfire_eal_total":18757.1,"risk_band":"Moderate","source":"FEMA National Risk Index v1.20 (December 2025)"},"geometry":{"type":"Polygon","coordinates":[[[-89.931485,34.164303],[-89.721431,34.163513],[-89.72105,34.192545],[-89.50944,34.19096],[-89.507353,33.867469],[-89.76905,33.867334],[-89.769296,33.897137],[-89.926099,33.897957],[-89.925497,34.140553],[-89.931747,34.144307],[-89.931485,34.164303]]]}},{"type":"Feature","properties":{"GEOID":"28119","NAME":"Quitman","state":"MS","wildfire_risk_score":28.117,"wildfire_eal_total":7454.17,"risk_band":"Low","source":"FEMA National Risk Index v1.20 (December 2025)"},"geometry":{"type":"Polygon","coordinates":[[[-90.450816,34.112717],[-90.450572,34.262402],[-90.399014,34.261524],[-90.399498,34.423807],[-90.301851,34.424546],[-90.304317,34.509621],[-90.198536,34.511088],[-90.194086,34.301407],[-90.134481,34.26561],[-90.135695,34.0729],[-90.450981,34.072932],[-90.450816,34.112717]]]}},{"type":"Feature","properties":{"GEOID":"28149","NAME":"Warren","state":"MS","wildfire_risk_score":39.408,"wildfire_eal_total":17535.19,"risk_band":"Moderate","source":"FEMA National Risk Index v1.20 (December 2025)"},"geometry":{"type":"Polygon","coordinates":[[[-91.173664,32.164231],[-91.164171,32.196888],[-91.158026,32.201956],[-91.133587,32.213432],[-91.113009,32.20655],[-91.083708,32.22645],[-91.071108,32.22605],[-91.061408,32.21865],[-91.050307,32.237949],[-91.039007,32.242349],[-91.002906,32.22305],[-91.002467,32.19586],[-90.995159,32.19212],[-90.983771,32.210646],[-90.98029,32.243601],[-90.969403,32.25252],[-90.982985,32.270294],[-90.979475,32.293702],[-90.964149,32.296872],[-90.947834,32.283486],[-90.922231,32.298639],[-90.902558,32.319587],[-90.90072,32.330379],[-90.875631,32.372434],[-90.89206,32.370579],[-90.897762,32.35436],[-90.912363,32.339454],[-90.986672,32.35176],[-91.000106,32.357695],[-91.004506,32.368144],[-90.99408,32.403862],[-90.967767,32.418279],[-90.966869,32.435499],[-90.978547,32.447032],[-90.993863,32.45085],[-91.029606,32.433542],[-91.052907,32.438442],[-91.095308,32.458741],[-91.112108,32.47614],[-91.117308,32.495039],[-91.093741,32.549128],[-91.074817,32.533467],[-91.045807,32.495539],[-91.024106,32.48524],[-90.999223,32.482615],[-90.987579,32.492387],[-90.994867,32.508611],[-91.061685,32.536448],[-91.080398,32.556442],[-91.0434509306582,32.5762695534421],[-90.964043,32.575605],[-90.963381,32.411185],[-90.95124,32.444389],[-90.939828,32.452068],[-90.926476,32.450579],[-90.918789,32.444145],[-90.894745,32.448602],[-90.881466,32.440768],[-90.870873,32.451608],[-90.861379,32.442768],[-90.860566,32.575173],[-90.762783,32.577419],[-90.729847,32.565686],[-90.725577,32.575792],[-90.731699,32.587276],[-90.722726,32.592118],[-90.716399,32.611578],[-90.720102,32.618858],[-90.689946,32.618658],[-90.690249,32.589388],[-90.655527,32.589771],[-90.654228,32.546041],[-90.588019,32.546067],[-90.587925,32.531756],[-90.553904,32.531907],[-90.555481,32.505021],[-90.570746,32.506305],[-90.573426,32.499085],[-90.578701,32.503666],[-90.582313,32.494028],[-90.589082,32.495319],[-90.586769,32.487382],[-90.604071,32.481297],[-90.597829,32.450281],[-90.585761,32.445097],[-90.599419,32.436308],[-90.599985,32.424627],[-90.613172,32.413414],[-90.615717,32.398002],[-90.621159,32.395401],[-90.617742,32.393012],[-90.6258,32.388159],[-90.622711,32.38339],[-90.636162,32.374498],[-90.627978,32.339483],[-90.69289,32.354333],[-90.697419,32.347789],[-90.704743,32.347309],[-90.707416,32.339003],[-90.703288,32.334873],[-90.699178,32.337768],[-90.699319,32.331059],[-90.705352,32.324732],[-90.703066,32.3168],[-90.70777,32.316744],[-90.703503,32.310859],[-90.699119,32.311825],[-90.695888,32.29766],[-90.70671,32.29233],[-90.700124,32.287614],[-90.70714,32.286172],[-90.71461,32.275974],[-90.719522,32.277269],[-90.717021,32.270899],[-90.720681,32.269082],[-90.713512,32.266806],[-90.714164,32.263165],[-90.728237,32.259173],[-90.713632,32.252356],[-90.726902,32.241539],[-90.725502,32.230059],[-90.739467,32.215476],[-90.731939,32.214973],[-90.73849,32.205577],[-90.745763,32.207319],[-90.747025,32.203352],[-90.753284,32.207461],[-90.750499,32.195783],[-90.76345,32.195991],[-90.764133,32.191625],[-90.766998,32.194574],[-90.776631,32.189488],[-90.777187,32.193587],[-90.791033,32.176866],[-90.780695,32.171882],[-90.775633,32.162787],[-90.766786,32.163031],[-90.769689,32.155318],[-90.792869,32.151566],[-90.796782,32.146419],[-90.792392,32.144223],[-90.798293,32.142817],[-90.800023,32.149708],[-90.811243,32.155477],[-90.80943,32.14759],[-90.813969,32.138947],[-90.820685,32.137102],[-90.829654,32.144857],[-90.826108,32.156273],[-90.843843,32.159039],[-90.851314,32.155571],[-90.844287,32.154413],[-90.845254,32.151087],[-90.850719,32.15276],[-90.849256,32.149186],[-90.85813,32.141967],[-90.843787,32.138616],[-90.846115,32.128174],[-90.870458,32.119977],[-90.875354,32.121759],[-90.871715,32.126629],[-90.875104,32.127612],[-90.877105,32.119947],[-90.882343,32.121471],[-90.879013,32.114429],[-90.90691,32.132281],[-90.912717,32.11851],[-90.921733,32.117844],[-90.917613,32.107359],[-90.922402,32.104155],[-90.916919,32.102108],[-90.925353,32.099692],[-90.914544,32.09769],[-90.920726,32.087394],[-90.913138,32.087438],[-90.9139,32.083776],[-90.93404,32.081572],[-90.938376,32.085263],[-90.943913,32.078343],[-90.943352,32.089131],[-90.949151,32.085997],[-90.952463,32.090157],[-90.950963,32.08157],[-90.956787,32.083597],[-90.957699,32.090339],[-90.966014,32.087913],[-90.957353,32.101599],[-90.96122,32.105164],[-90.97034,32.094612],[-90.978811,32.098875],[-90.990299,32.096986],[-91.0307064962793,32.1143368859173],[-91.030907,32.120552],[-91.017606,32.125153],[-91.006406,32.139952],[-91.002906,32.162052],[-91.025007,32.162552],[-91.058307,32.180951],[-91.058907,32.171251],[-91.048507,32.150152],[-91.053175,32.124237],[-91.08163,32.133992],[-91.111294,32.125036],[-91.162822,32.132694],[-91.173495,32.149009],[-91.173664,32.164231]]]}},{"type":"Feature","properties":{"GEOID":"28121","NAME":"Rankin","state":"MS","wildfire_risk_score":55.184,"wildfire_eal_total":69049.12,"risk_band":"High","source":"FEMA National Risk Index v1.20 (December 2025)"},"geometry":{"type":"Polygon","coordinates":[[[-90.253456,32.152451],[-90.241936,32.155083],[-90.24538,32.171396],[-90.242043,32.177982],[-90.236313,32.178036],[-90.23439,32.173103],[-90.226318,32.178909],[-90.212639,32.179966],[-90.205727,32.19101],[-90.19628,32.185226],[-90.19664,32.195618],[-90.192665,32.198521],[-90.188988,32.194401],[-90.181686,32.201603],[-90.190544,32.203613],[-90.185448,32.218624],[-90.190498,32.2267],[-90.196424,32.2253],[-90.208464,32.235223],[-90.199287,32.240948],[-90.205292,32.251945],[-90.193985,32.262085],[-90.184258,32.261864],[-90.186774,32.27263],[-90.179286,32.276644],[-90.177724,32.290313],[-90.165643,32.283924],[-90.156881,32.287947],[-90.157088,32.293845],[-90.151387,32.291046],[-90.162677,32.30624],[-90.150586,32.311734],[-90.154182,32.31404],[-90.152187,32.323743],[-90.139696,32.32212],[-90.116031,32.346104],[-90.110081,32.344443],[-90.113987,32.360543],[-90.106882,32.361366],[-90.109473,32.354823],[-90.106185,32.355544],[-90.104584,32.366442],[-90.099819,32.366767],[-90.101799,32.375675],[-90.097282,32.374146],[-90.100685,32.382339],[-90.095688,32.381744],[-90.095184,32.389145],[-90.087379,32.38472],[-90.081482,32.395344],[-90.076088,32.393845],[-90.077881,32.387655],[-90.067886,32.391842],[-90.063732,32.404191],[-90.075349,32.419086],[-90.06578,32.416271],[-90.0629,32.419982],[-90.070116,32.433822],[-90.068068,32.438606],[-90.057508,32.435118],[-90.055028,32.439822],[-90.04066,32.441678],[-90.03682,32.445742],[-90.040852,32.449486],[-90.026355,32.462813],[-90.019347,32.477293],[-90.002547,32.485901],[-89.992758,32.482829],[-89.984659,32.487628],[-89.981556,32.498194],[-89.960643,32.491383],[-89.954878,32.502355],[-89.94114,32.508282],[-89.945556,32.508996],[-89.941895,32.513226],[-89.929401,32.513314],[-89.923261,32.52892],[-89.911236,32.528695],[-89.911335,32.537291],[-89.893195,32.542437],[-89.895893,32.55436],[-89.886312,32.56323],[-89.87508,32.559244],[-89.86696,32.564532],[-89.858878,32.584836],[-89.846548,32.582727],[-89.839985,32.593295],[-89.83695,32.585416],[-89.832858,32.590157],[-89.832599,32.586367],[-89.817929,32.586694],[-89.813949,32.581899],[-89.812438,32.586046],[-89.807247,32.584839],[-89.808592,32.5908],[-89.798458,32.589953],[-89.795204,32.584547],[-89.794555,32.592773],[-89.787494,32.591997],[-89.789152,32.585881],[-89.784123,32.586891],[-89.730063,32.352733],[-89.730066,32.047072],[-90.230331,32.049728],[-90.230652,32.059124],[-90.236259,32.064686],[-90.228851,32.068981],[-90.226723,32.079758],[-90.235779,32.09037],[-90.226837,32.09428],[-90.24659,32.093143],[-90.246598,32.100343],[-90.241432,32.096951],[-90.236694,32.100212],[-90.246864,32.104076],[-90.251213,32.112396],[-90.242989,32.113682],[-90.248336,32.118314],[-90.241066,32.125153],[-90.247516,32.135234],[-90.243584,32.151211],[-90.249481,32.148682],[-90.253456,32.152451]]]}},{"type":"Feature","properties":{"GEOID":"28059","NAME":"Jackson","state":"MS","wildfire_risk_score":94.148,"wildfire_eal_total":2601979.9,"risk_band":"High","source":"FEMA National Risk Index v1.20 (December 2025)"},"geometry":{"type":"MultiPolygon","coordinates":[[[[-88.505022,30.215741],[-88.453444,30.201236],[-88.430332,30.208548],[-88.413087,30.206344],[-88.453654,30.196584],[-88.493523,30.205945],[-88.505022,30.215741]]],[[[-88.584342,30.337209],[-88.570992,30.341033],[-88.568226,30.332199],[-88.579509,30.329866],[-88.584342,30.337209]]],[[[-88.764524,30.243752],[-88.730218,30.246076],[-88.715302,30.252263],[-88.656804,30.233956],[-88.595502,30.224173],[-88.665643,30.229638],[-88.714941,30.243721],[-88.752782,30.238803],[-88.764524,30.243752]]],[[[-88.884534,30.735591],[-88.4124506012791,30.7355976173844],[-88.395023,30.369425],[-88.399062,30.360744],[-88.394551,30.350091],[-88.402485,30.345509],[-88.412374,30.358022],[-88.447671,30.358045],[-88.447366,30.338994],[-88.45381,30.329626],[-88.480117,30.318345],[-88.504119,30.320073],[-88.506334,30.327398],[-88.526936,30.342434],[-88.579814,30.345846],[-88.584998,30.368681],[-88.592814,30.36124],[-88.611513,30.356017],[-88.612263,30.373403],[-88.637697,30.359848],[-88.66382,30.362099],[-88.700587,30.343689],[-88.728893,30.342671],[-88.746945,30.347622],[-88.811688,30.385245],[-88.78981,30.386321],[-88.794088,30.391857],[-88.810227,30.394698],[-88.841328,30.409598],[-88.845665,30.420555],[-88.857786,30.430188],[-88.870146,30.424244],[-88.8708595958882,30.4194711702382],[-88.88313,30.418798],[-88.884534,30.735591]]]]}},{"type":"Feature","properties":{"GEOID":"28057","NAME":"Itawamba","state":"MS","wildfire_risk_score":28.308,"wildfire_eal_total":9523.06,"risk_band":"Low","source":"FEMA National Risk Index v1.20 (December 2025)"},"geometry":{"type":"Polygon","coordinates":[[[-88.544831,34.249805],[-88.542079,34.465276],[-88.156292,34.463214],[-88.2037840638383,34.0865542422802],[-88.543352,34.089044],[-88.544831,34.249805]]]}},{"type":"Feature","properties":{"GEOID":"28093","NAME":"Marshall","state":"MS","wildfire_risk_score":79.198,"wildfire_eal_total":244604.84,"risk_band":"High","source":"FEMA National Risk Index v1.20 (December 2025)"},"geometry":{"type":"Polygon","coordinates":[[[-89.724216,34.962723],[-89.7243244282036,34.9952117286505],[-89.3526801644102,34.9941227781396],[-89.352705,34.844432],[-89.299227,34.844415],[-89.298334,34.582926],[-89.245645,34.583234],[-89.246133,34.495633],[-89.248917,34.499606],[-89.258023,34.49686],[-89.269435,34.506898],[-89.289103,34.506399],[-89.291524,34.516807],[-89.294665,34.514743],[-89.297596,34.519325],[-89.300497,34.513503],[-89.302777,34.518163],[-89.31375,34.518084],[-89.315088,34.524364],[-89.318699,34.52024],[-89.32582,34.525974],[-89.330772,34.523149],[-89.33128,34.527226],[-89.343211,34.521152],[-89.344939,34.52594],[-89.349892,34.521788],[-89.353567,34.527217],[-89.362775,34.522405],[-89.365848,34.526296],[-89.364197,34.519191],[-89.379453,34.516872],[-89.401977,34.528069],[-89.407442,34.522287],[-89.411881,34.526011],[-89.424459,34.519129],[-89.434287,34.520062],[-89.441968,34.530527],[-89.455658,34.532507],[-89.476659,34.548987],[-89.476653,34.554015],[-89.668448,34.554367],[-89.669183,34.685597],[-89.722333,34.685504],[-89.724216,34.962723]]]}},{"type":"Feature","properties":{"GEOID":"28081","NAME":"Lee","state":"MS","wildfire_risk_score":36.641,"wildfire_eal_total":17927.17,"risk_band":"Low","source":"FEMA National Risk Index v1.20 (December 2025)"},"geometry":{"type":"Polygon","coordinates":[[[-88.825498,34.33639],[-88.825126,34.393893],[-88.789774,34.393692],[-88.789442,34.49493],[-88.736671,34.494656],[-88.736465,34.50891],[-88.541749,34.509192],[-88.543352,34.089044],[-88.718693,34.08934],[-88.718964,34.074521],[-88.824523,34.074948],[-88.825498,34.33639]]]}},{"type":"Feature","properties":{"GEOID":"28133","NAME":"Sunflower","state":"MS","wildfire_risk_score":19.338,"wildfire_eal_total":4533.84,"risk_band":"Low","source":"FEMA National Risk Index v1.20 (December 2025)"},"geometry":{"type":"Polygon","coordinates":[[[-90.764484,33.445692],[-90.760455,33.445753],[-90.763469,33.616164],[-90.658719,33.616264],[-90.657002,33.987586],[-90.451012,33.985689],[-90.453233,33.329484],[-90.555549,33.329181],[-90.555211,33.270533],[-90.763773,33.270359],[-90.764484,33.445692]]]}},{"type":"Feature","properties":{"GEOID":"28015","NAME":"Carroll","state":"MS","wildfire_risk_score":47.137,"wildfire_eal_total":26804.94,"risk_band":"Moderate","source":"FEMA National Risk Index v1.20 (December 2025)"},"geometry":{"type":"Polygon","coordinates":[[[-90.174756,33.417003],[-90.137817,33.416455],[-90.13761,33.459114],[-90.101401,33.45894],[-90.101987,33.603792],[-90.130254,33.603875],[-90.124681,33.60775],[-90.116932,33.604109],[-90.114473,33.60987],[-90.107927,33.606311],[-90.104574,33.617404],[-90.108748,33.633516],[-90.101805,33.650913],[-90.108206,33.654974],[-90.103007,33.661182],[-90.117794,33.661873],[-90.127775,33.676956],[-89.78689,33.676727],[-89.785227,33.416275],[-89.715847,33.416766],[-89.715631,33.402066],[-89.646314,33.402544],[-89.64528,33.285515],[-89.701474,33.285515],[-89.706177,33.270029],[-89.712765,33.267658],[-89.709412,33.26348],[-89.714123,33.258178],[-89.722532,33.259234],[-89.729552,33.24383],[-89.745275,33.228187],[-89.744074,33.218285],[-89.749441,33.214478],[-90.174614,33.333378],[-90.174756,33.417003]]]}},{"type":"Feature","properties":{"GEOID":"28125","NAME":"Sharkey","state":"MS","wildfire_risk_score":2.036,"wildfire_eal_total":492.36,"risk_band":"Low","source":"FEMA National Risk Index v1.20 (December 2025)"},"geometry":{"type":"Polygon","coordinates":[[[-90.965281,32.693475],[-90.963347,32.838248],[-90.954911,32.845968],[-90.958574,32.848394],[-90.956024,32.852905],[-90.940177,32.862068],[-90.941968,32.869717],[-90.936002,32.876288],[-90.940318,32.885289],[-90.924951,32.911236],[-90.919759,32.937846],[-90.91404,32.944198],[-90.914465,33.097417],[-90.658049,33.096514],[-90.656632,32.92251],[-90.759753,32.835667],[-90.759635,32.814006],[-90.750097,32.818299],[-90.739389,32.80895],[-90.732958,32.809981],[-90.726804,32.819608],[-90.720312,32.814953],[-90.70866,32.817968],[-90.694289,32.814926],[-90.710992,32.805522],[-90.715836,32.79341],[-90.70767,32.777785],[-90.689758,32.765881],[-90.6905,32.757565],[-90.709416,32.747435],[-90.717628,32.747993],[-90.729578,32.757217],[-90.736123,32.755996],[-90.735226,32.743805],[-90.742634,32.729225],[-90.717734,32.709001],[-90.688676,32.705369],[-90.671389,32.696463],[-90.663751,32.686006],[-90.667678,32.670983],[-90.678617,32.664202],[-90.690819,32.666148],[-90.695601,32.685119],[-90.704416,32.690779],[-90.712206,32.687444],[-90.712131,32.678382],[-90.723159,32.662128],[-90.964864,32.662798],[-90.965281,32.693475]]]}},{"type":"Feature","properties":{"GEOID":"28069","NAME":"Kemper","state":"MS","wildfire_risk_score":25.604,"wildfire_eal_total":7537.91,"risk_band":"Low","source":"FEMA National Risk Index v1.20 (December 2025)"},"geometry":{"type":"Polygon","coordinates":[[[-88.915235,32.726407],[-88.914413,32.9266],[-88.3478500256084,32.929077584824],[-88.3888572465182,32.5781229194103],[-88.914516,32.576955],[-88.915235,32.726407]]]}},{"type":"Feature","properties":{"GEOID":"28077","NAME":"Lawrence","state":"MS","wildfire_risk_score":54.135,"wildfire_eal_total":46230.47,"risk_band":"High","source":"FEMA National Risk Index v1.20 (December 2025)"},"geometry":{"type":"Polygon","coordinates":[[[-90.245191,31.717524],[-90.184139,31.731462],[-90.131274,31.756048],[-90.123103,31.751972],[-89.974586,31.761655],[-89.976052,31.522477],[-89.959097,31.522421],[-89.95894,31.390489],[-89.966305,31.390493],[-89.96453,31.395692],[-89.97328,31.392468],[-90.040485,31.394673],[-90.040466,31.336014],[-90.048692,31.335819],[-90.052985,31.328874],[-90.08243,31.328778],[-90.082487,31.335986],[-90.091032,31.335959],[-90.091363,31.343287],[-90.108639,31.343468],[-90.108651,31.350869],[-90.24389,31.350274],[-90.245191,31.717524]]]}},{"type":"Feature","properties":{"GEOID":"28129","NAME":"Smith","state":"MS","wildfire_risk_score":47.328,"wildfire_eal_total":26462.4,"risk_band":"Moderate","source":"FEMA National Risk Index v1.20 (December 2025)"},"geometry":{"type":"Polygon","coordinates":[[[-89.731225,32.164879],[-89.730424,32.222039],[-89.322692,32.223472],[-89.321127,31.885149],[-89.320748,31.874338],[-89.317086,31.874305],[-89.31656,31.80209],[-89.653025,31.780653],[-89.654426,32.013678],[-89.662086,32.047239],[-89.730066,32.047072],[-89.731225,32.164879]]]}},{"type":"Feature","properties":{"GEOID":"28047","NAME":"Harrison","state":"MS","wildfire_risk_score":94.529,"wildfire_eal_total":2531060.17,"risk_band":"High","source":"FEMA National Risk Index v1.20 (December 2025)"},"geometry":{"type":"MultiPolygon","coordinates":[[[[-88.866767,30.382974],[-88.829913,30.371642],[-88.818817,30.360924],[-88.866391,30.381493],[-88.866767,30.382974]]],[[[-88.903897,30.229522],[-88.881433,30.243869],[-88.872771,30.247767],[-88.897986,30.229879],[-88.903897,30.229522]]],[[[-88.980407,30.210516],[-88.971535,30.212968],[-88.951881,30.212781],[-88.959507,30.208452],[-88.980407,30.210516]]],[[[-89.131124,30.23104],[-89.077995,30.22945],[-89.065713,30.24569],[-89.085071,30.213222],[-89.110433,30.215011],[-89.110537,30.222615],[-89.132578,30.227587],[-89.131124,30.23104]]],[[[-89.341715,30.501337],[-89.341446,30.64772],[-89.240136,30.647646],[-89.240073,30.67716],[-88.884533,30.677292],[-88.88313,30.418798],[-88.8708595958882,30.4194711702382],[-88.869908,30.409077],[-88.859152,30.406265],[-88.861294,30.398627],[-88.85726,30.390866],[-88.922031,30.393798],[-89.016378,30.384616],[-89.089843,30.364733],[-89.094569,30.358034],[-89.08883,30.350072],[-89.093331,30.347742],[-89.099194,30.354624],[-89.098803,30.362554],[-89.24,30.316025],[-89.245314,30.310957],[-89.291444,30.303296],[-89.291844,30.328096],[-89.287844,30.333196],[-89.272775,30.334024],[-89.268734,30.340588],[-89.292499,30.365635],[-89.30605,30.365816],[-89.311048,30.360951],[-89.307986,30.373379],[-89.340947,30.3728964068863],[-89.341715,30.501337]]]]}},{"type":"Feature","properties":{"GEOID":"28045","NAME":"Hancock","state":"MS","wildfire_risk_score":90.426,"wildfire_eal_total":1142139.84,"risk_band":"High","source":"FEMA National Risk Index v1.20 (December 2025)"},"geometry":{"type":"Polygon","coordinates":[[[-89.684157,30.459152],[-89.646961,30.458892],[-89.647072,30.502738],[-89.595733,30.502488],[-89.595873,30.517069],[-89.54451,30.516862],[-89.544232,30.648368],[-89.341446,30.64772],[-89.340947,30.3728964068863],[-89.353248,30.368795],[-89.378257,30.34333],[-89.372354,30.333398],[-89.338847,30.342995],[-89.322545,30.314896],[-89.329946,30.302896],[-89.367693,30.283791],[-89.387024,30.266718],[-89.419348,30.25432],[-89.424624,30.245391],[-89.420749,30.229429],[-89.449419,30.203955],[-89.447993,30.186509],[-89.458107,30.177814],[-89.466047,30.175715],[-89.459829,30.182924],[-89.46078,30.18991],[-89.468148,30.193813],[-89.480214,30.193751],[-89.497708,30.182256],[-89.522707,30.183215],[-89.538652,30.195797],[-89.570154,30.180297],[-89.585754,30.192096],[-89.596655,30.211796],[-89.615856,30.223195],[-89.614156,30.244595],[-89.631789,30.256924],[-89.625305,30.263532],[-89.632316,30.268604],[-89.631411,30.279662],[-89.638504,30.288122],[-89.647178,30.289367],[-89.640434,30.295503],[-89.640401,30.306755],[-89.626221,30.314255],[-89.629727,30.339287],[-89.657191,30.356515],[-89.683686,30.405873],[-89.684118,30.412646],[-89.678514,30.414012],[-89.68341,30.451793],[-89.6897794685397,30.4592779821573],[-89.684157,30.459152]]]}},{"type":"Feature","properties":{"GEOID":"28153","NAME":"Wayne","state":"MS","wildfire_risk_score":56.902,"wildfire_eal_total":48436.65,"risk_band":"High","source":"FEMA National Risk Index v1.20 (December 2025)"},"geometry":{"type":"Polygon","coordinates":[[[-88.942939,31.506475],[-88.943355,31.824565],[-88.763411,31.835934],[-88.640723,31.853912],[-88.473227,31.893856],[-88.4495695963996,31.4358347375977],[-88.943468,31.433458],[-88.942939,31.506475]]]}},{"type":"Feature","properties":{"GEOID":"28039","NAME":"George","state":"MS","wildfire_risk_score":75.573,"wildfire_eal_total":304633.45,"risk_band":"High","source":"FEMA National Risk Index v1.20 (December 2025)"},"geometry":{"type":"Polygon","coordinates":[[[-88.885038,30.910788],[-88.834475,30.910323],[-88.834339,30.997983],[-88.4256361537673,30.9983011286609],[-88.4124506012791,30.7355976173844],[-88.884534,30.735591],[-88.885038,30.910788]]]}},{"type":"Feature","properties":{"GEOID":"28075","NAME":"Lauderdale","state":"MS","wildfire_risk_score":57.665,"wildfire_eal_total":51081.85,"risk_band":"High","source":"FEMA National Risk Index v1.20 (December 2025)"},"geometry":{"type":"Polygon","coordinates":[[[-88.915455,32.529066],[-88.914516,32.576955],[-88.3888572465182,32.5781229194103],[-88.4312940163839,32.2276546024792],[-88.913847,32.224186],[-88.915455,32.529066]]]}},{"type":"Feature","properties":{"GEOID":"28003","NAME":"Alcorn","state":"MS","wildfire_risk_score":44.275,"wildfire_eal_total":25512.25,"risk_band":"Moderate","source":"FEMA National Risk Index v1.20 (December 2025)"},"geometry":{"type":"Polygon","coordinates":[[[-88.823354,34.93425],[-88.8230487339323,34.9951575501037],[-88.3635308623519,34.9955896102908],[-88.365472,34.755604],[-88.753065,34.75696],[-88.752956,34.858775],[-88.823473,34.858629],[-88.823354,34.93425]]]}},{"type":"Feature","properties":{"GEOID":"28011","NAME":"Bolivar","state":"MS","wildfire_risk_score":17.939,"wildfire_eal_total":3878.15,"risk_band":"Low","source":"FEMA National Risk Index v1.20 (December 2025)"},"geometry":{"type":"Polygon","coordinates":[[[-91.2338268514749,33.5613433881257],[-91.215449,33.569271],[-91.164855,33.570175],[-91.13686,33.590193],[-91.12868,33.608475],[-91.137441,33.626874],[-91.159986,33.642897],[-91.182485,33.653505],[-91.212226,33.656956],[-91.224474,33.665191],[-91.229912,33.684346],[-91.217875,33.697997],[-91.160367,33.706602],[-91.133416,33.67679],[-91.091351,33.657764],[-91.03684,33.671316],[-91.030987,33.679412],[-91.030402,33.687766],[-91.060529,33.71513],[-91.117353,33.70526],[-91.139859,33.721479],[-91.148807,33.73136],[-91.140814,33.760131],[-91.144963,33.768075],[-91.134059,33.782893],[-91.125091,33.782585],[-91.108427,33.771712],[-91.053386,33.778283],[-91.01837,33.764131],[-91.001322,33.768571],[-90.989444,33.780576],[-90.989299,33.788016],[-90.996809,33.79694],[-91.049083,33.816026],[-91.070194,33.84534],[-91.073145,33.860155],[-91.069777,33.872721],[-91.034606,33.898264],[-91.010194,33.93159],[-91.023122,33.943216],[-91.087753,33.959313],[-91.090484,33.991418],[-91.086202,34.006418],[-91.074691,34.009018],[-91.048712,33.99268],[-91.018948,34.003225],[-91.000108,33.966428],[-90.976864,33.960503],[-90.96372,33.967688],[-90.961548,33.979945],[-90.978678,33.99717],[-90.988184,34.019211],[-90.964625,34.026798],[-90.919508,34.021348],[-90.891243,34.027942],[-90.886252,34.039208],[-90.887837,34.055403],[-90.872369,34.076022],[-90.871923,34.086652],[-90.888085,34.09781],[-90.921294,34.093514],[-90.947689,34.109574],[-90.9566115719362,34.1200947055262],[-90.659457,34.118867],[-90.658719,33.616264],[-90.763469,33.616164],[-90.763509,33.529389],[-91.2187139058355,33.5293831305781],[-91.2338268514749,33.5613433881257]]]}},{"type":"Feature","properties":{"GEOID":"28095","NAME":"Monroe","state":"MS","wildfire_risk_score":35.751,"wildfire_eal_total":14203.14,"risk_band":"Low","source":"FEMA National Risk Index v1.20 (December 2025)"},"geometry":{"type":"Polygon","coordinates":[[[-88.72042,33.893596],[-88.718693,34.08934],[-88.2037840638383,34.0865542422802],[-88.2489373465952,33.7449736777213],[-88.325119,33.745591],[-88.33048,33.7186],[-88.338062,33.717135],[-88.343644,33.706053],[-88.370651,33.685813],[-88.386407,33.689002],[-88.384028,33.693395],[-88.392997,33.695599],[-88.398718,33.690426],[-88.396521,33.683015],[-88.402966,33.682648],[-88.398773,33.678874],[-88.405043,33.678949],[-88.40656,33.673342],[-88.413717,33.677306],[-88.417553,33.669577],[-88.423538,33.670252],[-88.421189,33.673149],[-88.425494,33.67542],[-88.433504,33.667907],[-88.445067,33.671576],[-88.461261,33.662745],[-88.466336,33.667563],[-88.467466,33.663187],[-88.473727,33.666838],[-88.487669,33.66555],[-88.491506,33.660806],[-88.496387,33.664113],[-88.510301,33.65025],[-88.513917,33.650209],[-88.513104,33.660697],[-88.501928,33.666188],[-88.49922,33.675234],[-88.492906,33.671248],[-88.492692,33.678204],[-88.719626,33.680253],[-88.72042,33.893596]]]}},{"type":"Feature","properties":{"GEOID":"28005","NAME":"Amite","state":"MS","wildfire_risk_score":61.164,"wildfire_eal_total":52610.34,"risk_band":"High","source":"FEMA National Risk Index v1.20 (December 2025)"},"geometry":{"type":"Polygon","coordinates":[[[-91.093987,31.321146],[-91.086598,31.32667],[-91.069234,31.328334],[-91.065741,31.338898],[-91.055408,31.330312],[-91.045362,31.335375],[-91.028335,31.335683],[-91.018012,31.347502],[-91.007629,31.346696],[-91.001997,31.337043],[-90.989834,31.336261],[-90.983002,31.348671],[-90.548199,31.349574],[-90.5476154821801,30.9997232645164],[-91.0602129522528,30.9989529636044],[-91.059469,31.281921],[-91.079954,31.288828],[-91.083204,31.308067],[-91.093987,31.321146]]]}},{"type":"Feature","properties":{"GEOID":"28027","NAME":"Coahoma","state":"MS","wildfire_risk_score":10.528,"wildfire_eal_total":2165.46,"risk_band":"Low","source":"FEMA National Risk Index v1.20 (December 2025)"},"geometry":{"type":"Polygon","coordinates":[[[-90.958644,34.135484],[-90.91001,34.165508],[-90.853471,34.137511],[-90.836099,34.137876],[-90.815878,34.149879],[-90.807564,34.161821],[-90.812374,34.180767],[-90.854406,34.186833],[-90.887561,34.182414],[-90.914425,34.195726],[-90.925542,34.206989],[-90.934544,34.217854],[-90.935548,34.237847],[-90.923152,34.24653],[-90.906334,34.244382],[-90.89658,34.2258],[-90.876796,34.214389],[-90.847149,34.20613],[-90.83813,34.219997],[-90.840537,34.23803],[-90.829623,34.278573],[-90.816736,34.280649],[-90.765623,34.269513],[-90.752929,34.274605],[-90.738025,34.289279],[-90.735153,34.30256],[-90.742773,34.321295],[-90.768691,34.347782],[-90.769231,34.358433],[-90.757304,34.367392],[-90.715803,34.360335],[-90.676245,34.371111],[-90.681498,34.352603],[-90.691551,34.338618],[-90.693129,34.32257],[-90.678097,34.313031],[-90.661395,34.315398],[-90.657488,34.322231],[-90.666788,34.35582],[-90.655346,34.371846],[-90.658542,34.375705],[-90.640909,34.388863],[-90.606039,34.393257],[-90.586232,34.409172],[-90.580916,34.419862],[-90.578263,34.433872],[-90.59392,34.484176],[-90.581294,34.51561],[-90.574703,34.521759],[-90.5678479810421,34.5239835874963],[-90.397526,34.422609],[-90.399014,34.261524],[-90.450572,34.262402],[-90.451012,33.985689],[-90.660357,33.987585],[-90.659457,34.118867],[-90.9566115719362,34.1200947055262],[-90.961044,34.130514],[-90.958644,34.135484]]]}},{"type":"Feature","properties":{"GEOID":"28147","NAME":"Walthall","state":"MS","wildfire_risk_score":66.667,"wildfire_eal_total":109509.27,"risk_band":"High","source":"FEMA National Risk Index v1.20 (December 2025)"},"geometry":{"type":"Polygon","coordinates":[[[-90.26099,31.32854],[-90.260391,31.350274],[-90.108651,31.350869],[-90.108639,31.343468],[-90.091363,31.343287],[-90.091032,31.335959],[-90.082487,31.335986],[-90.08243,31.328778],[-90.052985,31.328874],[-90.048692,31.335819],[-90.040466,31.336014],[-90.040375,31.23391],[-90.031875,31.233937],[-90.031896,31.175727],[-90.006138,31.175605],[-90.005936,31.1323],[-89.938178,31.132949],[-89.938242,31.111158],[-89.92952,31.111167],[-89.929501,31.089229],[-89.920973,31.089306],[-89.920944,31.074677],[-89.835873,31.074926],[-89.8359079603788,31.0020592746419],[-90.2595549256981,31.0006571633247],[-90.26099,31.32854]]]}},{"type":"Feature","properties":{"GEOID":"28099","NAME":"Neshoba","state":"MS","wildfire_risk_score":41.985,"wildfire_eal_total":22038.85,"risk_band":"Moderate","source":"FEMA National Risk Index v1.20 (December 2025)"},"geometry":{"type":"Polygon","coordinates":[[[-89.319163,32.931654],[-89.017723,32.931326],[-89.017691,32.926386],[-88.96531,32.926574],[-88.965225,32.919107],[-88.930505,32.91924],[-88.930549,32.926675],[-88.914413,32.9266],[-88.914516,32.576955],[-89.317588,32.576458],[-89.319163,32.931654]]]}},{"type":"Feature","properties":{"GEOID":"28009","NAME":"Benton","state":"MS","wildfire_risk_score":50.382,"wildfire_eal_total":29999.14,"risk_band":"Moderate","source":"FEMA National Risk Index v1.20 (December 2025)"},"geometry":{"type":"Polygon","coordinates":[[[-89.352858,34.917253],[-89.3526801644102,34.9941227781396],[-89.0171270872889,34.9949454068841],[-89.017551,34.858723],[-89.035009,34.858762],[-89.03534,34.81526],[-89.088065,34.815307],[-89.088488,34.598247],[-89.245611,34.597601],[-89.245645,34.583234],[-89.298334,34.582926],[-89.299227,34.844415],[-89.352705,34.844432],[-89.352858,34.917253]]]}},{"type":"Feature","properties":{"GEOID":"28085","NAME":"Lincoln","state":"MS","wildfire_risk_score":62.214,"wildfire_eal_total":69361.42,"risk_band":"High","source":"FEMA National Risk Index v1.20 (December 2025)"},"geometry":{"type":"Polygon","coordinates":[[[-90.736824,31.698491],[-90.414198,31.700456],[-90.41364,31.68528],[-90.379409,31.685194],[-90.380079,31.700205],[-90.279953,31.699865],[-90.259003,31.703916],[-90.245191,31.717524],[-90.24389,31.350274],[-90.633302,31.349306],[-90.633231,31.611409],[-90.73733,31.611124],[-90.736824,31.698491]]]}},{"type":"Feature","properties":{"GEOID":"28079","NAME":"Leake","state":"MS","wildfire_risk_score":51.908,"wildfire_eal_total":30701.16,"risk_band":"Moderate","source":"FEMA National Risk Index v1.20 (December 2025)"},"geometry":{"type":"Polygon","coordinates":[[[-89.730304,32.634228],[-89.730154,32.929924],[-89.319163,32.931654],[-89.317588,32.576458],[-89.730152,32.577248],[-89.730304,32.634228]]]}},{"type":"Feature","properties":{"GEOID":"28105","NAME":"Oktibbeha","state":"MS","wildfire_risk_score":37.691,"wildfire_eal_total":18435.81,"risk_band":"Moderate","source":"FEMA National Risk Index v1.20 (December 2025)"},"geometry":{"type":"Polygon","coordinates":[[[-89.088652,33.445821],[-89.088263,33.562039],[-88.732756,33.565189],[-88.710111,33.559016],[-88.694726,33.565163],[-88.671526,33.565135],[-88.669076,33.286922],[-89.088255,33.286003],[-89.088652,33.445821]]]}},{"type":"Feature","properties":{"GEOID":"28067","NAME":"Jones","state":"MS","wildfire_risk_score":73.887,"wildfire_eal_total":173283.63,"risk_band":"High","source":"FEMA National Risk Index v1.20 (December 2025)"},"geometry":{"type":"Polygon","coordinates":[[[-89.401227,31.796863],[-88.943355,31.824565],[-88.943468,31.433458],[-89.399178,31.434029],[-89.401227,31.796863]]]}},{"type":"Feature","properties":{"GEOID":"28135","NAME":"Tallahatchie","state":"MS","wildfire_risk_score":42.048,"wildfire_eal_total":18686.16,"risk_band":"Moderate","source":"FEMA National Risk Index v1.20 (December 2025)"},"geometry":{"type":"Polygon","coordinates":[[[-90.451314,33.825703],[-90.450981,34.072932],[-90.135695,34.0729],[-90.135456,34.160074],[-89.958579,34.159554],[-89.96615,34.164355],[-89.931485,34.164303],[-89.931747,34.144307],[-89.925497,34.140553],[-89.926294,33.823854],[-89.978268,33.82396],[-89.979284,33.809662],[-90.136491,33.809319],[-90.136787,33.721648],[-90.220439,33.722122],[-90.229054,33.732243],[-90.24222,33.736994],[-90.251679,33.731686],[-90.262008,33.703273],[-90.283055,33.694173],[-90.300043,33.698047],[-90.311741,33.716307],[-90.313859,33.725746],[-90.305573,33.74267],[-90.296409,33.750573],[-90.250086,33.763147],[-90.239082,33.761209],[-90.235272,33.765943],[-90.227715,33.75928],[-90.204205,33.759446],[-90.185599,33.765514],[-90.171221,33.787313],[-90.181747,33.799423],[-90.182584,33.809322],[-90.451643,33.81139],[-90.451314,33.825703]]]}},{"type":"Feature","properties":{"GEOID":"28115","NAME":"Pontotoc","state":"MS","wildfire_risk_score":45.42,"wildfire_eal_total":27853.35,"risk_band":"Moderate","source":"FEMA National Risk Index v1.20 (December 2025)"},"geometry":{"type":"Polygon","coordinates":[[[-89.246303,34.344821],[-89.246339,34.379344],[-88.928901,34.379361],[-88.928546,34.365001],[-88.824966,34.364759],[-88.824523,34.074948],[-89.244436,34.073942],[-89.246303,34.344821]]]}},{"type":"Feature","properties":{"GEOID":"28123","NAME":"Scott","state":"MS","wildfire_risk_score":43.003,"wildfire_eal_total":19395.53,"risk_band":"Moderate","source":"FEMA National Risk Index v1.20 (December 2025)"},"geometry":{"type":"Polygon","coordinates":[[[-89.781254,32.589791],[-89.782867,32.596579],[-89.768643,32.59996],[-89.770913,32.60615],[-89.761298,32.606703],[-89.755383,32.617082],[-89.730304,32.634228],[-89.730152,32.577248],[-89.322598,32.576433],[-89.322692,32.223472],[-89.730424,32.222039],[-89.730063,32.352733],[-89.784123,32.586891],[-89.781254,32.589791]]]}},{"type":"Feature","properties":{"GEOID":"28159","NAME":"Winston","state":"MS","wildfire_risk_score":35.528,"wildfire_eal_total":12158.2,"risk_band":"Low","source":"FEMA National Risk Index v1.20 (December 2025)"},"geometry":{"type":"Polygon","coordinates":[[[-89.318702,33.013847],[-89.317855,33.108871],[-89.213921,33.109402],[-89.213422,33.197543],[-89.1089,33.198059],[-89.108886,33.285937],[-88.813053,33.286424],[-88.812782,32.925973],[-88.930549,32.926675],[-88.930505,32.91924],[-88.965225,32.919107],[-88.96531,32.926574],[-89.017691,32.926386],[-89.017723,32.931326],[-89.319163,32.931654],[-89.318702,33.013847]]]}},{"type":"Feature","properties":{"GEOID":"28043","NAME":"Grenada","state":"MS","wildfire_risk_score":49.141,"wildfire_eal_total":29044.29,"risk_band":"Moderate","source":"FEMA National Risk Index v1.20 (December 2025)"},"geometry":{"type":"Polygon","coordinates":[[[-90.136787,33.721648],[-90.136491,33.809319],[-89.979284,33.809662],[-89.978268,33.82396],[-89.926294,33.823854],[-89.926099,33.897957],[-89.769296,33.897137],[-89.76905,33.867334],[-89.507353,33.867469],[-89.506872,33.677605],[-90.137011,33.676944],[-90.136787,33.721648]]]}},{"type":"Feature","properties":{"GEOID":"28019","NAME":"Choctaw","state":"MS","wildfire_risk_score":22.964,"wildfire_eal_total":6971.37,"risk_band":"Low","source":"FEMA National Risk Index v1.20 (December 2025)"},"geometry":{"type":"Polygon","coordinates":[[[-89.45405,33.4332],[-89.446326,33.439837],[-89.446075,33.435055],[-89.442289,33.438987],[-89.418851,33.430861],[-89.421549,33.433537],[-89.412698,33.433787],[-89.406344,33.451463],[-89.383141,33.455537],[-89.382207,33.46184],[-89.367991,33.464107],[-89.362438,33.473397],[-89.340542,33.469414],[-89.31982,33.496482],[-89.293012,33.507812],[-89.271715,33.511165],[-89.261481,33.518628],[-89.24211,33.516444],[-89.228853,33.519747],[-89.221921,33.527982],[-89.20838,33.525199],[-89.180963,33.532845],[-89.088446,33.533202],[-89.088255,33.286003],[-89.108886,33.285937],[-89.1089,33.198059],[-89.213422,33.197543],[-89.213921,33.109402],[-89.317855,33.108871],[-89.316408,33.285556],[-89.453808,33.285942],[-89.45405,33.4332]]]}},{"type":"Feature","properties":{"GEOID":"28073","NAME":"Lamar","state":"MS","wildfire_risk_score":81.584,"wildfire_eal_total":421640.47,"risk_band":"High","source":"FEMA National Risk Index v1.20 (December 2025)"},"geometry":{"type":"Polygon","coordinates":[[[-89.654212,31.433805],[-89.451616,31.434029],[-89.451073,31.346383],[-89.347863,31.3467],[-89.34895,31.01037],[-89.424808,31.010114],[-89.425337,30.982452],[-89.476022,30.982901],[-89.47594,31.001363],[-89.501396,31.001461],[-89.50134,31.016026],[-89.552026,31.015959],[-89.551851,31.001917],[-89.654038,31.002502],[-89.654212,31.433805]]]}},{"type":"Feature","properties":{"GEOID":"28017","NAME":"Chickasaw","state":"MS","wildfire_risk_score":30.852,"wildfire_eal_total":10294.71,"risk_band":"Low","source":"FEMA National Risk Index v1.20 (December 2025)"},"geometry":{"type":"Polygon","coordinates":[[[-89.190641,33.783918],[-89.19004,33.81171],[-89.137876,33.812144],[-89.139158,34.074116],[-88.718964,34.074521],[-88.719979,33.81133],[-88.931176,33.812374],[-88.931604,33.754312],[-89.034775,33.754156],[-89.034498,33.73943],[-89.191781,33.738602],[-89.190641,33.783918]]]}},{"type":"Feature","properties":{"GEOID":"28023","NAME":"Clarke","state":"MS","wildfire_risk_score":31.234,"wildfire_eal_total":11945.69,"risk_band":"Low","source":"FEMA National Risk Index v1.20 (December 2025)"},"geometry":{"type":"Polygon","coordinates":[[[-88.914277,32.195929],[-88.913847,32.224186],[-88.4312940163839,32.2276546024792],[-88.473227,31.893856],[-88.640723,31.853912],[-88.763411,31.835934],[-88.910459,31.826649],[-88.914277,32.195929]]]}},{"type":"Feature","properties":{"GEOID":"28097","NAME":"Montgomery","state":"MS","wildfire_risk_score":27.831,"wildfire_eal_total":10008.63,"risk_band":"Low","source":"FEMA National Risk Index v1.20 (December 2025)"},"geometry":{"type":"Polygon","coordinates":[[[-89.78689,33.676727],[-89.506872,33.677605],[-89.506496,33.459806],[-89.380808,33.459048],[-89.406344,33.451463],[-89.412698,33.433787],[-89.421549,33.433537],[-89.418851,33.430861],[-89.422202,33.429501],[-89.434982,33.4373],[-89.442289,33.438987],[-89.446075,33.435055],[-89.446326,33.439837],[-89.45405,33.4332],[-89.453808,33.285942],[-89.64528,33.285515],[-89.646314,33.402544],[-89.715631,33.402066],[-89.715847,33.416766],[-89.785227,33.416275],[-89.78689,33.676727]]]}},{"type":"Feature","properties":{"GEOID":"28127","NAME":"Simpson","state":"MS","wildfire_risk_score":48.123,"wildfire_eal_total":31682.12,"risk_band":"Moderate","source":"FEMA National Risk Index v1.20 (December 2025)"},"geometry":{"type":"Polygon","coordinates":[[[-90.247919,32.031521],[-90.236739,32.03748],[-90.230331,32.049728],[-89.662086,32.047239],[-89.654426,32.013678],[-89.653025,31.780653],[-90.122565,31.75268],[-90.128982,31.768214],[-90.123233,31.774966],[-90.119748,31.768045],[-90.112501,31.769705],[-90.107491,31.777685],[-90.110981,31.789266],[-90.140757,31.789353],[-90.150702,31.799872],[-90.148706,31.807844],[-90.136024,31.818968],[-90.136942,31.826019],[-90.127292,31.825619],[-90.135085,31.832217],[-90.144646,31.829926],[-90.159168,31.844743],[-90.13891,31.848104],[-90.132552,31.856923],[-90.141753,31.887391],[-90.170276,31.904472],[-90.16647,31.926446],[-90.178698,31.942663],[-90.183027,31.93737],[-90.198297,31.941904],[-90.191867,31.944108],[-90.193043,31.953088],[-90.187526,31.952021],[-90.19811,31.957869],[-90.197292,31.965973],[-90.207025,31.976133],[-90.206096,31.987991],[-90.222428,31.988524],[-90.232814,32.008919],[-90.223842,32.010787],[-90.213272,32.024299],[-90.234294,32.017152],[-90.239602,32.020624],[-90.233563,32.024277],[-90.243586,32.022606],[-90.247919,32.031521]]]}},{"type":"Feature","properties":{"GEOID":"28117","NAME":"Prentiss","state":"MS","wildfire_risk_score":44.593,"wildfire_eal_total":24028.57,"risk_band":"Moderate","source":"FEMA National Risk Index v1.20 (December 2025)"},"geometry":{"type":"Polygon","coordinates":[[[-88.73544,34.596483],[-88.717794,34.596472],[-88.718508,34.756781],[-88.348366,34.755355],[-88.348311,34.740873],[-88.330699,34.740721],[-88.329193,34.463571],[-88.542079,34.465276],[-88.541749,34.509192],[-88.736465,34.50891],[-88.73544,34.596483]]]}},{"type":"Feature","properties":{"GEOID":"28107","NAME":"Panola","state":"MS","wildfire_risk_score":63.422,"wildfire_eal_total":66287.9,"risk_band":"High","source":"FEMA National Risk Index v1.20 (December 2025)"},"geometry":{"type":"Polygon","coordinates":[[[-90.198631,34.554425],[-89.721341,34.554274],[-89.721431,34.163513],[-90.135456,34.160074],[-90.134481,34.26561],[-90.194086,34.301407],[-90.198631,34.554425]]]}},{"type":"Feature","properties":{"GEOID":"28037","NAME":"Franklin","state":"MS","wildfire_risk_score":40.712,"wildfire_eal_total":17789.68,"risk_band":"Moderate","source":"FEMA National Risk Index v1.20 (December 2025)"},"geometry":{"type":"Polygon","coordinates":[[[-91.156795,31.368666],[-91.153864,31.610068],[-90.633231,31.611409],[-90.633302,31.349306],[-90.983002,31.348671],[-90.989834,31.336261],[-91.001997,31.337043],[-91.007629,31.346696],[-91.018012,31.347502],[-91.028335,31.335683],[-91.045362,31.335375],[-91.055408,31.330312],[-91.065741,31.338898],[-91.069234,31.328334],[-91.086598,31.32667],[-91.095398,31.320975],[-91.102695,31.327145],[-91.111504,31.319951],[-91.134862,31.331427],[-91.143852,31.340038],[-91.141979,31.344011],[-91.147273,31.343701],[-91.145181,31.347535],[-91.151871,31.345399],[-91.152482,31.348632],[-91.154563,31.343057],[-91.15815,31.346695],[-91.156795,31.368666]]]}},{"type":"Feature","properties":{"GEOID":"28063","NAME":"Jefferson","state":"MS","wildfire_risk_score":27.576,"wildfire_eal_total":7763.98,"risk_band":"Low","source":"FEMA National Risk Index v1.20 (December 2025)"},"geometry":{"type":"Polygon","coordinates":[[[-91.363714,31.780363],[-91.345714,31.842861],[-91.327914,31.854761],[-91.293413,31.86016],[-91.289412,31.828661],[-91.282212,31.814762],[-91.269212,31.809162],[-91.255611,31.812662],[-91.245047,31.831447],[-91.266612,31.851161],[-91.269012,31.858661],[-91.264412,31.86546],[-91.248144,31.869848],[-91.013676,31.861852],[-90.842672,31.82671],[-90.845751,31.822487],[-90.840579,31.815529],[-90.840394,31.804097],[-90.852657,31.785422],[-90.736282,31.786134],[-90.73733,31.611124],[-91.153864,31.610068],[-91.153841,31.630488],[-91.23329,31.62941],[-91.248961,31.643758],[-91.269409,31.647375],[-91.265586,31.657766],[-91.269824,31.665993],[-91.300115,31.672235],[-91.297195,31.678409],[-91.300397,31.681087],[-91.291833,31.691609],[-91.299095,31.700089],[-91.297678,31.70871],[-91.30265,31.707512],[-91.299967,31.712306],[-91.306939,31.711026],[-91.3178614291731,31.749791433823],[-91.275545,31.745515],[-91.263406,31.754468],[-91.259611,31.76129],[-91.263043,31.766995],[-91.286045,31.772062],[-91.355214,31.758063],[-91.365529,31.761628],[-91.363714,31.780363]]]}},{"type":"Feature","properties":{"GEOID":"28145","NAME":"Union","state":"MS","wildfire_risk_score":47.265,"wildfire_eal_total":30641.31,"risk_band":"Moderate","source":"FEMA National Risk Index v1.20 (December 2025)"},"geometry":{"type":"Polygon","coordinates":[[[-89.246262,34.469791],[-89.245611,34.597601],[-88.73544,34.596483],[-88.736671,34.494656],[-88.789442,34.49493],[-88.789774,34.393692],[-88.825126,34.393893],[-88.824966,34.364759],[-88.928546,34.365001],[-88.928901,34.379361],[-89.246339,34.379344],[-89.246262,34.469791]]]}},{"type":"Feature","properties":{"GEOID":"28035","NAME":"Forrest","state":"MS","wildfire_risk_score":81.711,"wildfire_eal_total":414166.09,"risk_band":"High","source":"FEMA National Risk Index v1.20 (December 2025)"},"geometry":{"type":"Polygon","coordinates":[[[-89.451616,31.434029],[-89.146092,31.434052],[-89.146176,31.000447],[-89.138403,31.000437],[-89.137967,30.909877],[-89.340806,30.909912],[-89.340701,31.001033],[-89.348966,31.001043],[-89.347863,31.3467],[-89.451073,31.346383],[-89.451616,31.434029]]]}},{"type":"Feature","properties":{"GEOID":"28031","NAME":"Covington","state":"MS","wildfire_risk_score":55.566,"wildfire_eal_total":40045.25,"risk_band":"High","source":"FEMA National Risk Index v1.20 (December 2025)"},"geometry":{"type":"Polygon","coordinates":[[[-89.755799,31.613502],[-89.755103,31.774654],[-89.401227,31.796863],[-89.399178,31.434029],[-89.586819,31.433688],[-89.586919,31.513444],[-89.590528,31.516718],[-89.596168,31.512915],[-89.602889,31.538836],[-89.614601,31.540755],[-89.620034,31.549707],[-89.636948,31.558896],[-89.672997,31.564676],[-89.687894,31.575473],[-89.698914,31.577177],[-89.717027,31.58892],[-89.735106,31.61034],[-89.755614,31.609751],[-89.755799,31.613502]]]}},{"type":"Feature","properties":{"GEOID":"28061","NAME":"Jasper","state":"MS","wildfire_risk_score":46.501,"wildfire_eal_total":23516.55,"risk_band":"Moderate","source":"FEMA National Risk Index v1.20 (December 2025)"},"geometry":{"type":"Polygon","coordinates":[[[-89.322692,32.223472],[-88.913847,32.224186],[-88.910459,31.826649],[-89.31656,31.80209],[-89.317086,31.874305],[-89.320748,31.874338],[-89.321127,31.885149],[-89.322692,32.223472]]]}},{"type":"Feature","properties":{"GEOID":"28111","NAME":"Perry","state":"MS","wildfire_risk_score":70.611,"wildfire_eal_total":146633.6,"risk_band":"High","source":"FEMA National Risk Index v1.20 (December 2025)"},"geometry":{"type":"Polygon","coordinates":[[[-89.146009,31.027166],[-89.146092,31.434052],[-88.841707,31.433703],[-88.840929,30.99841],[-88.834339,30.997983],[-88.834475,30.910323],[-89.137967,30.909877],[-89.138403,31.000437],[-89.146176,31.000447],[-89.146009,31.027166]]]}},{"type":"Feature","properties":{"GEOID":"28091","NAME":"Marion","state":"MS","wildfire_risk_score":75.763,"wildfire_eal_total":207766.04,"risk_band":"High","source":"FEMA National Risk Index v1.20 (December 2025)"},"geometry":{"type":"Polygon","coordinates":[[[-90.040485,31.394673],[-89.823332,31.390021],[-89.824236,31.434093],[-89.654212,31.433805],[-89.654038,31.002502],[-89.8359079603788,31.0020592746419],[-89.835873,31.074926],[-89.920944,31.074677],[-89.920973,31.089306],[-89.929501,31.089229],[-89.92952,31.111167],[-89.938242,31.111158],[-89.938178,31.132949],[-90.005936,31.1323],[-90.006138,31.175605],[-90.031896,31.175727],[-90.031875,31.233937],[-90.040375,31.23391],[-90.040485,31.394673]]]}},{"type":"Feature","properties":{"GEOID":"28025","NAME":"Clay","state":"MS","wildfire_risk_score":26.272,"wildfire_eal_total":7624.84,"risk_band":"Low","source":"FEMA National Risk Index v1.20 (December 2025)"},"geometry":{"type":"Polygon","coordinates":[[[-89.036067,33.635386],[-89.034775,33.754156],[-88.931604,33.754312],[-88.931176,33.812374],[-88.719979,33.81133],[-88.719626,33.680253],[-88.492692,33.678204],[-88.492906,33.671248],[-88.49922,33.675234],[-88.501928,33.666188],[-88.513104,33.660697],[-88.514042,33.648891],[-88.512468,33.644264],[-88.498572,33.641712],[-88.49935,33.626083],[-88.506721,33.614929],[-88.493915,33.614961],[-88.475027,33.603367],[-88.47468,33.598092],[-88.494864,33.579522],[-88.486266,33.56603],[-88.497582,33.563516],[-88.49203,33.542419],[-88.471886,33.527114],[-88.480299,33.522741],[-88.493288,33.528485],[-88.507379,33.543682],[-88.516084,33.543347],[-88.524183,33.550949],[-88.531445,33.53738],[-88.541174,33.534591],[-88.54386,33.526806],[-88.551103,33.528267],[-88.55396,33.52155],[-88.563752,33.527014],[-88.571575,33.519067],[-88.579686,33.521631],[-88.580362,33.517419],[-88.609389,33.506751],[-88.67125,33.506168],[-88.671526,33.565135],[-88.694726,33.565163],[-88.710111,33.559016],[-88.732756,33.565189],[-89.018613,33.562114],[-89.01854,33.635373],[-89.036067,33.635386]]]}},{"type":"Feature","properties":{"GEOID":"28071","NAME":"Lafayette","state":"MS","wildfire_risk_score":48.06,"wildfire_eal_total":45138.35,"risk_band":"Moderate","source":"FEMA National Risk Index v1.20 (December 2025)"},"geometry":{"type":"Polygon","coordinates":[[[-89.722091,34.421737],[-89.721341,34.554274],[-89.476653,34.554015],[-89.476659,34.548987],[-89.455658,34.532507],[-89.441968,34.530527],[-89.434287,34.520062],[-89.424459,34.519129],[-89.411881,34.526011],[-89.407442,34.522287],[-89.401977,34.528069],[-89.379453,34.516872],[-89.364197,34.519191],[-89.365848,34.526296],[-89.362775,34.522405],[-89.353567,34.527217],[-89.349892,34.521788],[-89.344939,34.52594],[-89.343211,34.521152],[-89.33128,34.527226],[-89.330772,34.523149],[-89.32582,34.525974],[-89.318699,34.52024],[-89.315088,34.524364],[-89.31375,34.518084],[-89.302777,34.518163],[-89.300497,34.513503],[-89.297596,34.519325],[-89.294665,34.514743],[-89.291524,34.516807],[-89.289103,34.506399],[-89.264308,34.505426],[-89.258023,34.49686],[-89.248917,34.499606],[-89.245485,34.161186],[-89.509748,34.162082],[-89.50944,34.19096],[-89.72105,34.192545],[-89.722091,34.421737]]]}},{"type":"Feature","properties":{"GEOID":"28141","NAME":"Tishomingo","state":"MS","wildfire_risk_score":37.246,"wildfire_eal_total":15795.08,"risk_band":"Low","source":"FEMA National Risk Index v1.20 (December 2025)"},"geometry":{"type":"Polygon","coordinates":[[[-88.365544,34.854345],[-88.3635308623519,34.9955896102908],[-88.200064,34.995634],[-88.154617,34.922392],[-88.136692,34.907592],[-88.097888,34.892202],[-88.156292,34.463214],[-88.329193,34.463571],[-88.330699,34.740721],[-88.348311,34.740873],[-88.348366,34.755355],[-88.365472,34.755604],[-88.365544,34.854345]]]}},{"type":"Feature","properties":{"GEOID":"28065","NAME":"Jefferson Davis","state":"MS","wildfire_risk_score":56.743,"wildfire_eal_total":40507.07,"risk_band":"High","source":"FEMA National Risk Index v1.20 (December 2025)"},"geometry":{"type":"Polygon","coordinates":[[[-89.976017,31.551185],[-89.974586,31.761655],[-89.755103,31.774654],[-89.755614,31.609751],[-89.735106,31.61034],[-89.717027,31.58892],[-89.698914,31.577177],[-89.687894,31.575473],[-89.672997,31.564676],[-89.636948,31.558896],[-89.620034,31.549707],[-89.614601,31.540755],[-89.602889,31.538836],[-89.596168,31.512915],[-89.590528,31.516718],[-89.586919,31.513444],[-89.586819,31.433688],[-89.824236,31.434093],[-89.823332,31.390021],[-89.95894,31.390489],[-89.959097,31.522421],[-89.976052,31.522477],[-89.976017,31.551185]]]}},{"type":"Feature","properties":{"GEOID":"28041","NAME":"Greene","state":"MS","wildfire_risk_score":73.282,"wildfire_eal_total":158877.32,"risk_band":"High","source":"FEMA National Risk Index v1.20 (December 2025)"},"geometry":{"type":"Polygon","coordinates":[[[-88.841707,31.433703],[-88.4495695963996,31.4358347375977],[-88.4256361537673,30.9983011286609],[-88.840929,30.99841],[-88.841707,31.433703]]]}},{"type":"Feature","properties":{"GEOID":"28155","NAME":"Webster","state":"MS","wildfire_risk_score":23.728,"wildfire_eal_total":7003.87,"risk_band":"Low","source":"FEMA National Risk Index v1.20 (December 2025)"},"geometry":{"type":"Polygon","coordinates":[[[-89.507135,33.721819],[-89.191924,33.722158],[-89.191781,33.738602],[-89.034498,33.73943],[-89.036021,33.633569],[-89.01854,33.635373],[-89.018613,33.562114],[-89.088263,33.562039],[-89.088446,33.533202],[-89.180963,33.532845],[-89.20838,33.525199],[-89.221921,33.527982],[-89.228853,33.519747],[-89.24211,33.516444],[-89.261481,33.518628],[-89.271715,33.511165],[-89.293012,33.507812],[-89.31982,33.496482],[-89.340542,33.469414],[-89.362438,33.473397],[-89.367991,33.464107],[-89.377415,33.460538],[-89.506496,33.459806],[-89.507135,33.721819]]]}}]}