{"type":"FeatureCollection","metadata":{"state":"ND","boundary_source":"U.S. Census Bureau 2024 Cartographic Boundary File (counties, 1:500,000)","risk_source":"FEMA National Risk Index v1.20 (December 2025)"},"features":[{"type":"Feature","properties":{"GEOID":"38017","NAME":"Cass","state":"ND","wildfire_risk_score":50.541,"wildfire_eal_total":83255.4,"risk_band":"Low","source":"FEMA National Risk Index v1.20 (December 2025)"},"geometry":{"type":"Polygon","coordinates":[[[-97.70538,47.049809],[-97.705935,47.239977],[-96.8332785051915,47.2382080185729],[-96.828948,47.232155],[-96.837417,47.234963],[-96.842762,47.231328],[-96.832078,47.225936],[-96.845634,47.221107],[-96.842393,47.217749],[-96.838926,47.222728],[-96.833114,47.220833],[-96.837252,47.216162],[-96.830777,47.209483],[-96.837178,47.207468],[-96.82723,47.201672],[-96.835729,47.201933],[-96.844711,47.192902],[-96.839909,47.191238],[-96.838233,47.196366],[-96.825926,47.190847],[-96.836029,47.185128],[-96.821555,47.184314],[-96.827597,47.181762],[-96.824768,47.178045],[-96.833383,47.176328],[-96.823408,47.173974],[-96.824549,47.166548],[-96.81895,47.164901],[-96.831983,47.159503],[-96.822706,47.156229],[-96.836471,47.156536],[-96.841101,47.151401],[-96.828648,47.146419],[-96.834563,47.144095],[-96.82633,47.134941],[-96.83075,47.12968],[-96.819972,47.130934],[-96.82544,47.123354],[-96.837564,47.12198],[-96.823301,47.117499],[-96.822694,47.109622],[-96.816823,47.10912],[-96.821073,47.099962],[-96.817251,47.092088],[-96.826292,47.088663],[-96.815973,47.088466],[-96.820386,47.083041],[-96.815712,47.079877],[-96.829276,47.07462],[-96.820971,47.074214],[-96.824097,47.070666],[-96.819876,47.062347],[-96.830386,47.060823],[-96.822238,47.05954],[-96.824727,47.055314],[-96.817571,47.0516],[-96.827459,47.045561],[-96.818596,47.047554],[-96.821488,47.035802],[-96.812726,47.038271],[-96.827327,47.031272],[-96.81529,47.023871],[-96.829499,47.021537],[-96.834742,47.017012],[-96.833504,47.01011],[-96.839548,47.006728],[-96.821344,47.003645],[-96.819366,46.997725],[-96.82447,46.996173],[-96.822536,46.990142],[-96.826156,46.987485],[-96.819894,46.977357],[-96.821852,46.969372],[-96.809814,46.9639],[-96.806524,46.967636],[-96.801981,46.964128],[-96.800683,46.968323],[-96.794993,46.965433],[-96.803494,46.958428],[-96.798593,46.951214],[-96.804662,46.947468],[-96.792656,46.946764],[-96.791758,46.928465],[-96.785956,46.930163],[-96.783757,46.924663],[-96.763257,46.935063],[-96.756857,46.928463],[-96.765257,46.927563],[-96.753257,46.924563],[-96.763257,46.923363],[-96.75343,46.914665],[-96.762494,46.918053],[-96.765657,46.905063],[-96.770458,46.906763],[-96.776558,46.895663],[-96.770158,46.893663],[-96.774693,46.888888],[-96.768058,46.884763],[-96.768458,46.879563],[-96.781358,46.879363],[-96.776208,46.87386],[-96.782022,46.87078],[-96.783959,46.861663],[-96.776058,46.854463],[-96.785459,46.854863],[-96.773534,46.851688],[-96.781659,46.845663],[-96.775359,46.838863],[-96.787159,46.841063],[-96.782759,46.837063],[-96.78515,46.833058],[-96.793925,46.833051],[-96.780271,46.825763],[-96.791559,46.827864],[-96.802544,46.811521],[-96.795756,46.807795],[-96.803144,46.805099],[-96.796098,46.803303],[-96.801914,46.796965],[-96.794928,46.795776],[-96.796195,46.789881],[-96.787568,46.786177],[-96.796722,46.777464],[-96.783793,46.778247],[-96.784294,46.774312],[-96.790077,46.774448],[-96.788419,46.770342],[-96.775686,46.766043],[-96.789519,46.766024],[-96.77785,46.761588],[-96.789389,46.757501],[-96.784329,46.754985],[-96.786551,46.748438],[-96.781896,46.744417],[-96.78608,46.744208],[-96.780987,46.742013],[-96.780768,46.733807],[-96.784075,46.730061],[-96.779252,46.727429],[-96.791066,46.717798],[-96.782121,46.716499],[-96.789188,46.709946],[-96.783827,46.705977],[-96.791204,46.703747],[-96.784415,46.700853],[-96.787578,46.700927],[-96.786095,46.691463],[-96.790325,46.690324],[-96.784339,46.685054],[-96.794401,46.683502],[-96.787497,46.677811],[-96.79925,46.678248],[-96.792268,46.671771],[-96.801344,46.668514],[-96.796029,46.665661],[-96.79895,46.654112],[-96.785878,46.640249],[-96.79949,46.630179],[-97.682006,46.629928],[-97.681508,46.978481],[-97.706174,46.978558],[-97.70538,47.049809]]]}},{"type":"Feature","properties":{"GEOID":"38097","NAME":"Traill","state":"ND","wildfire_risk_score":23.314,"wildfire_eal_total":15519.53,"risk_band":"Low","source":"FEMA National Risk Index v1.20 (December 2025)"},"geometry":{"type":"Polygon","coordinates":[[[-97.474007,47.41144],[-97.472745,47.672051],[-96.8868409518261,47.6720526683322],[-96.88697,47.653049],[-96.882376,47.649025],[-96.882857,47.641714],[-96.888573,47.63845],[-96.874373,47.627824],[-96.880582,47.625625],[-96.875916,47.622622],[-96.879421,47.619039],[-96.870871,47.618042],[-96.873671,47.613654],[-96.855421,47.60875],[-96.856903,47.602329],[-96.851051,47.59794],[-96.858887,47.595103],[-96.849896,47.590898],[-96.859856,47.574144],[-96.851698,47.568498],[-96.868604,47.568192],[-96.862458,47.562514],[-96.847499,47.566226],[-96.861746,47.559496],[-96.849886,47.552516],[-96.860455,47.546515],[-96.845383,47.539563],[-96.863205,47.540589],[-96.853755,47.535967],[-96.871026,47.527867],[-96.861422,47.515873],[-96.843305,47.516582],[-96.843304,47.512918],[-96.853606,47.511362],[-96.84228,47.508636],[-96.851749,47.507891],[-96.85297,47.500869],[-96.849035,47.497815],[-96.865068,47.491544],[-96.852185,47.485846],[-96.868415,47.47901],[-96.851896,47.478696],[-96.861002,47.472588],[-96.853908,47.460403],[-96.863552,47.457294],[-96.854232,47.454406],[-96.859239,47.451557],[-96.855849,47.439866],[-96.862598,47.435671],[-96.852818,47.432282],[-96.864731,47.428022],[-96.855851,47.42401],[-96.871663,47.419392],[-96.861231,47.41781],[-96.855709,47.409603],[-96.842307,47.411883],[-96.852739,47.405909],[-96.839212,47.399513],[-96.848896,47.393531],[-96.83951,47.392496],[-96.841767,47.385654],[-96.838154,47.382209],[-96.8482,47.382724],[-96.843921,47.375556],[-96.854622,47.37378],[-96.836706,47.372028],[-96.858211,47.367602],[-96.848506,47.364812],[-96.849831,47.356857],[-96.838111,47.356032],[-96.844798,47.354065],[-96.846639,47.347028],[-96.830613,47.338643],[-96.846009,47.328403],[-96.835004,47.330944],[-96.829132,47.326878],[-96.837033,47.324509],[-96.835657,47.318948],[-96.846976,47.315834],[-96.84288,47.308738],[-96.837045,47.311391],[-96.830697,47.30542],[-96.843922,47.29302],[-96.840353,47.275496],[-96.847517,47.271776],[-96.834591,47.267012],[-96.847315,47.262757],[-96.835419,47.261034],[-96.84527,47.257834],[-96.838553,47.25608],[-96.844049,47.25033],[-96.836529,47.252181],[-96.832494,47.24797],[-96.843721,47.239788],[-96.836716,47.24246],[-96.8332785051915,47.2382080185729],[-97.451512,47.239061],[-97.451648,47.324467],[-97.474228,47.324621],[-97.474007,47.41144]]]}},{"type":"Feature","properties":{"GEOID":"38053","NAME":"McKenzie","state":"ND","wildfire_risk_score":77.354,"wildfire_eal_total":437885.66,"risk_band":"High","source":"FEMA National Risk Index v1.20 (December 2025)"},"geometry":{"type":"Polygon","coordinates":[[[-104.045333,47.343452],[-104.044120308422,47.9960829798085],[-104.0216,47.989189],[-104.005556,47.967087],[-103.989923,47.971871],[-103.985476,47.984035],[-103.967386,47.98552],[-103.942685,47.97572],[-103.919789,47.95595],[-103.885131,47.962674],[-103.871013,47.970845],[-103.864277,47.987982],[-103.855365,47.996442],[-103.864373,48.00866],[-103.858379,48.015756],[-103.826495,47.997088],[-103.82883,47.980121],[-103.824047,47.978992],[-103.796917,48.000022],[-103.791286,48.018458],[-103.797764,48.038961],[-103.787674,48.058049],[-103.770512,48.056477],[-103.754829,48.043243],[-103.743449,48.040525],[-103.711036,48.058031],[-103.710822,48.067867],[-103.740322,48.083404],[-103.742216,48.093403],[-103.714798,48.110304],[-103.682976,48.121723],[-103.633775,48.111124],[-103.597614,48.134392],[-103.588074,48.132492],[-103.585712,48.124553],[-103.606474,48.115424],[-103.607674,48.109424],[-103.584673,48.092524],[-103.547172,48.085824],[-103.554073,48.075524],[-103.582374,48.057824],[-103.583174,48.042424],[-103.565374,48.034924],[-103.527972,48.035125],[-103.508472,48.010425],[-103.487372,48.006025],[-103.463071,48.023225],[-103.43117,48.035524],[-103.377869,48.025024],[-103.316267,48.041523],[-103.288066,48.040323],[-103.273766,48.060623],[-103.239065,48.060223],[-103.227665,48.068123],[-103.225965,48.075123],[-103.230565,48.080922],[-103.253937,48.090186],[-103.207265,48.133223],[-103.15711,48.136193],[-103.101603,48.146495],[-103.092056,48.143137],[-103.09313,48.127746],[-103.088818,48.124648],[-103.069081,48.132418],[-103.034701,48.135596],[-103.006791,48.131865],[-102.967588,48.138122],[-102.94743,48.135965],[-102.919889,48.121767],[-102.8997,48.123278],[-102.866762,48.13702],[-102.806472,48.118937],[-102.790534,48.120113],[-102.766283,48.130354],[-102.75779,48.128866],[-102.742302,48.122293],[-102.737445,48.113661],[-102.741635,48.10076],[-102.757721,48.093347],[-102.667707,48.079895],[-102.662304,48.068548],[-102.668041,48.050859],[-102.661653,48.042862],[-102.639766,48.03712],[-102.60836,48.046351],[-102.599405,48.037246],[-102.597693,48.014603],[-102.551583,47.996054],[-102.573584,47.961134],[-102.612562,47.937716],[-102.647864,47.901615],[-102.656165,47.861818],[-102.648366,47.829914],[-102.642266,47.823713],[-102.642669,47.674012],[-103.09967,47.674518],[-103.099197,47.328714],[-104.045306661749,47.3301398174616],[-104.045333,47.343452]]]}},{"type":"Feature","properties":{"GEOID":"38069","NAME":"Pierce","state":"ND","wildfire_risk_score":56.489,"wildfire_eal_total":91740.68,"risk_band":"Moderate","source":"FEMA National Risk Index v1.20 (December 2025)"},"geometry":{"type":"Polygon","coordinates":[[[-100.276516,48.50133],[-100.276619,48.544813],[-99.493189,48.544834],[-99.492919,48.370946],[-99.847046,48.3712],[-99.848222,48.021424],[-99.812133,48.021451],[-99.812167,47.847257],[-100.197996,47.847652],[-100.197558,48.021857],[-100.237022,48.021866],[-100.237099,48.371244],[-100.276618,48.371334],[-100.276516,48.50133]]]}},{"type":"Feature","properties":{"GEOID":"38077","NAME":"Richland","state":"ND","wildfire_risk_score":53.976,"wildfire_eal_total":65621.54,"risk_band":"Low","source":"FEMA National Risk Index v1.20 (December 2025)"},"geometry":{"type":"Polygon","coordinates":[[[-97.280692,46.369938],[-97.279948,46.629348],[-96.795794,46.631435],[-96.78523,46.631127],[-96.790285,46.624401],[-96.778416,46.627047],[-96.787022,46.619205],[-96.775532,46.621201],[-96.780129,46.614488],[-96.771123,46.614305],[-96.77857,46.606702],[-96.768724,46.606682],[-96.772476,46.603716],[-96.770507,46.595485],[-96.767416,46.598871],[-96.755398,46.594803],[-96.762702,46.589543],[-96.75189,46.58759],[-96.75651,46.575055],[-96.746863,46.575731],[-96.752633,46.571186],[-96.745197,46.570664],[-96.747451,46.567667],[-96.741887,46.56423],[-96.752386,46.562297],[-96.746734,46.559097],[-96.75437,46.556712],[-96.745887,46.555898],[-96.749231,46.549656],[-96.744888,46.550489],[-96.740518,46.546052],[-96.750229,46.543952],[-96.741456,46.543213],[-96.738052,46.53458],[-96.746102,46.534635],[-96.74202,46.529036],[-96.745435,46.525186],[-96.736741,46.52413],[-96.744593,46.52067],[-96.737408,46.517636],[-96.734486,46.511189],[-96.739605,46.51011],[-96.733297,46.503878],[-96.742343,46.500186],[-96.733612,46.497224],[-96.73415,46.488591],[-96.739676,46.486855],[-96.732685,46.482537],[-96.738092,46.477812],[-96.714218,46.470991],[-96.723055,46.468265],[-96.713019,46.466348],[-96.718729,46.462075],[-96.711718,46.459985],[-96.717587,46.454401],[-96.712962,46.450545],[-96.721661,46.448252],[-96.713722,46.446619],[-96.716438,46.444567],[-96.712255,46.4415],[-96.721897,46.440077],[-96.709095,46.435294],[-96.704603,46.438178],[-96.707522,46.429553],[-96.698855,46.426383],[-96.704679,46.4182],[-96.693465,46.422105],[-96.691957,46.416568],[-96.700834,46.414448],[-96.685134,46.413928],[-96.689907,46.409494],[-96.678507,46.404823],[-96.673801,46.390536],[-96.667588,46.391046],[-96.670923,46.389839],[-96.666028,46.374566],[-96.657973,46.374502],[-96.660347,46.371775],[-96.655206,46.365964],[-96.643756,46.362347],[-96.648223,46.356873],[-96.645372,46.350847],[-96.629287,46.354247],[-96.628522,46.349569],[-96.61712,46.347631],[-96.619991,46.340135],[-96.599761,46.330386],[-96.605997,46.326904],[-96.600623,46.327003],[-96.60104,46.319554],[-96.596999,46.31759],[-96.603453,46.302873],[-96.597802,46.297005],[-96.605486,46.293249],[-96.596077,46.290536],[-96.601765,46.286019],[-96.594849,46.286275],[-96.600371,46.280737],[-96.595014,46.275135],[-96.600415,46.261852],[-96.59317,46.25763],[-96.591056,46.24966],[-96.583857,46.250152],[-96.598645,46.241626],[-96.59567,46.21985],[-96.588517,46.2129],[-96.591025,46.208602],[-96.583842,46.208375],[-96.589027,46.204766],[-96.584372,46.204155],[-96.587342,46.201696],[-96.584272,46.198053],[-96.591217,46.195675],[-96.585055,46.194517],[-96.591572,46.184682],[-96.586299,46.181649],[-96.592682,46.175211],[-96.579926,46.177229],[-96.583476,46.171149],[-96.576265,46.159582],[-96.579453,46.147601],[-96.568632,46.132303],[-96.571999,46.124567],[-96.560268,46.116614],[-96.56692,46.11475],[-96.557952,46.102442],[-96.554507,46.083978],[-96.559271,46.058272],[-96.57794,46.026874],[-96.57035,45.963595],[-96.561334,45.945655],[-96.562525,45.937087],[-97.2282906022523,45.9351410532602],[-97.228545,45.992323],[-97.259553,45.996775],[-97.259414,46.282353],[-97.280566,46.282393],[-97.280692,46.369938]]]}},{"type":"Feature","properties":{"GEOID":"38105","NAME":"Williams","state":"ND","wildfire_risk_score":77.417,"wildfire_eal_total":447094.49,"risk_band":"High","source":"FEMA National Risk Index v1.20 (December 2025)"},"geometry":{"type":"Polygon","coordinates":[[[-104.048212,48.599055],[-104.047582398048,48.633911],[-102.885775,48.633298],[-102.885862,48.372702],[-102.828163,48.372641],[-102.828477,48.123664],[-102.866762,48.13702],[-102.8997,48.123278],[-102.919889,48.121767],[-102.94743,48.135965],[-102.967588,48.138122],[-103.006791,48.131865],[-103.034701,48.135596],[-103.069081,48.132418],[-103.088818,48.124648],[-103.09313,48.127746],[-103.092056,48.143137],[-103.101603,48.146495],[-103.15711,48.136193],[-103.20189,48.135208],[-103.25316,48.092096],[-103.250465,48.086831],[-103.227165,48.077922],[-103.227665,48.068123],[-103.236865,48.060823],[-103.273766,48.060623],[-103.288066,48.040323],[-103.316267,48.041523],[-103.372969,48.025524],[-103.43117,48.035524],[-103.463071,48.023225],[-103.485072,48.006725],[-103.496472,48.005225],[-103.509972,48.011625],[-103.527972,48.035125],[-103.565374,48.034924],[-103.584674,48.044224],[-103.582374,48.057824],[-103.554073,48.075524],[-103.547172,48.085824],[-103.584673,48.092524],[-103.607674,48.109424],[-103.606474,48.115424],[-103.585712,48.124553],[-103.588074,48.132492],[-103.597614,48.134392],[-103.633775,48.111124],[-103.682976,48.121723],[-103.714798,48.110304],[-103.742216,48.093403],[-103.740322,48.083404],[-103.710822,48.067867],[-103.711036,48.058031],[-103.743449,48.040525],[-103.754829,48.043243],[-103.770512,48.056477],[-103.787674,48.058049],[-103.797764,48.038961],[-103.791286,48.018458],[-103.796917,48.000022],[-103.821323,47.979853],[-103.82883,47.980121],[-103.826495,47.997088],[-103.858379,48.015756],[-103.864373,48.00866],[-103.855943,47.995139],[-103.864277,47.987982],[-103.871013,47.970845],[-103.885131,47.962674],[-103.919789,47.95595],[-103.942685,47.97572],[-103.967386,47.98552],[-103.985476,47.984035],[-103.989923,47.971871],[-104.005556,47.967087],[-104.0216,47.989189],[-104.044120308422,47.9960829798085],[-104.048212,48.599055]]]}},{"type":"Feature","properties":{"GEOID":"38099","NAME":"Walsh","state":"ND","wildfire_risk_score":79.167,"wildfire_eal_total":476527.59,"risk_band":"High","source":"FEMA National Risk Index v1.20 (December 2025)"},"geometry":{"type":"Polygon","coordinates":[[[-98.318189,48.413229],[-98.318036,48.543773],[-97.1612768424102,48.5425053390564],[-97.14097,48.534225],[-97.153597,48.529508],[-97.150628,48.519453],[-97.126864,48.519758],[-97.139009,48.511663],[-97.149949,48.511986],[-97.149774,48.501986],[-97.132239,48.492378],[-97.13224,48.488436],[-97.143017,48.492334],[-97.140291,48.484722],[-97.162668,48.477783],[-97.12892,48.475742],[-97.129485,48.47149],[-97.142015,48.47465],[-97.148244,48.47074],[-97.14208,48.463347],[-97.128544,48.460301],[-97.131533,48.451601],[-97.150542,48.441203],[-97.146414,48.438068],[-97.126572,48.443131],[-97.123448,48.437018],[-97.126777,48.431804],[-97.141242,48.433771],[-97.145751,48.43027],[-97.122453,48.418276],[-97.140377,48.421574],[-97.154845,48.417463],[-97.15053,48.412742],[-97.139351,48.418031],[-97.131479,48.406586],[-97.16329,48.391987],[-97.150587,48.382383],[-97.133377,48.382026],[-97.141351,48.378458],[-97.139286,48.3704],[-97.152456,48.370974],[-97.156276,48.366198],[-97.136373,48.352393],[-97.1396,48.344246],[-97.12592,48.340579],[-97.129571,48.332591],[-97.141715,48.325729],[-97.129206,48.328131],[-97.115581,48.323928],[-97.133777,48.318312],[-97.137984,48.310117],[-97.123826,48.31093],[-97.126176,48.303701],[-97.112231,48.296472],[-97.11919,48.294242],[-97.128296,48.298822],[-97.13809,48.290846],[-97.135546,48.287059],[-97.125348,48.291855],[-97.11657,48.279661],[-97.125469,48.276155],[-97.125348,48.270452],[-97.145112,48.267743],[-97.122954,48.261666],[-97.130614,48.25889],[-97.125108,48.249983],[-97.135653,48.249449],[-97.146803,48.242062],[-97.133735,48.239075],[-97.14434,48.235049],[-97.14267,48.23118],[-97.124447,48.228387],[-97.121684,48.223568],[-97.137191,48.226951],[-97.151746,48.218932],[-97.135056,48.220648],[-97.117838,48.209764],[-97.122925,48.207381],[-97.131363,48.217182],[-97.138953,48.217075],[-97.129216,48.209605],[-97.14091,48.20452],[-97.135672,48.197126],[-97.1411758913517,48.1936781874035],[-98.292184,48.195177],[-98.291852,48.369694],[-98.31838,48.369722],[-98.318189,48.413229]]]}},{"type":"Feature","properties":{"GEOID":"38067","NAME":"Pembina","state":"ND","wildfire_risk_score":63.868,"wildfire_eal_total":96018.81,"risk_band":"Moderate","source":"FEMA National Risk Index v1.20 (December 2025)"},"geometry":{"type":"Polygon","coordinates":[[[-97.950642,48.948991],[-97.9500120193004,49.000515184076],[-97.228722,49.000562],[-97.234201,48.996286],[-97.226687,48.992923],[-97.238387,48.982631],[-97.238882,48.966573],[-97.228001,48.96295],[-97.234054,48.947611],[-97.226498,48.945625],[-97.225285,48.934539],[-97.214374,48.931572],[-97.219776,48.922039],[-97.211161,48.916649],[-97.210541,48.90439],[-97.189751,48.894482],[-97.201718,48.891723],[-97.197388,48.886697],[-97.199545,48.881346],[-97.17779,48.875312],[-97.190445,48.865292],[-97.17942,48.863079],[-97.173278,48.850282],[-97.182923,48.846912],[-97.173811,48.838309],[-97.184457,48.833395],[-97.177747,48.824815],[-97.17959,48.820131],[-97.190313,48.815714],[-97.15876,48.810931],[-97.158735,48.806486],[-97.18123,48.79789],[-97.162577,48.800116],[-97.173556,48.793315],[-97.158102,48.791145],[-97.159382,48.783833],[-97.147281,48.78114],[-97.158971,48.775746],[-97.145918,48.765603],[-97.1548,48.757414],[-97.152997,48.752844],[-97.138248,48.750235],[-97.141244,48.735271],[-97.12834,48.732136],[-97.136868,48.726035],[-97.109992,48.707776],[-97.12007,48.701434],[-97.109701,48.691686],[-97.090328,48.684512],[-97.100408,48.683078],[-97.100562,48.668406],[-97.109255,48.664142],[-97.098731,48.661284],[-97.107814,48.647728],[-97.115714,48.64449],[-97.109349,48.632637],[-97.130781,48.632108],[-97.120408,48.618017],[-97.132857,48.622896],[-97.130183,48.613399],[-97.149798,48.612724],[-97.148267,48.608354],[-97.134481,48.60785],[-97.153979,48.595081],[-97.142237,48.592595],[-97.143654,48.582358],[-97.160631,48.580936],[-97.149616,48.576921],[-97.14917,48.570014],[-97.175329,48.562461],[-97.165677,48.557165],[-97.141004,48.556323],[-97.138615,48.552341],[-97.165577,48.553202],[-97.161523,48.542177],[-97.927069,48.543124],[-97.927264,48.717088],[-97.94945,48.717693],[-97.950642,48.948991]]]}},{"type":"Feature","properties":{"GEOID":"38085","NAME":"Sioux","state":"ND","wildfire_risk_score":80.534,"wildfire_eal_total":236172.66,"risk_band":"High","source":"FEMA National Risk Index v1.20 (December 2025)"},"geometry":{"type":"Polygon","coordinates":[[[-101.998734331893,45.9445574366814],[-101.996136,46.056426],[-101.991598,46.047381],[-101.973849,46.04812],[-101.970245,46.056689],[-101.96509,46.053515],[-101.966203,46.048603],[-101.946715,46.058362],[-101.948523,46.06373],[-101.93779,46.066404],[-101.922333,46.054409],[-101.923185,46.060509],[-101.912325,46.053791],[-101.907894,46.057696],[-101.910057,46.062312],[-101.903234,46.055753],[-101.902214,46.059706],[-101.894144,46.056825],[-101.888592,46.063951],[-101.895386,46.063291],[-101.894857,46.069254],[-101.880945,46.063217],[-101.882383,46.069934],[-101.87114,46.063007],[-101.849355,46.073275],[-101.846231,46.06608],[-101.843278,46.067474],[-101.849675,46.062789],[-101.841634,46.063385],[-101.840287,46.059774],[-101.84524,46.057329],[-101.843004,46.049973],[-101.860328,46.048321],[-101.845854,46.04426],[-101.847756,46.041473],[-101.840573,46.038003],[-101.842108,46.029136],[-101.828163,46.037935],[-101.813985,46.027726],[-101.814848,46.031564],[-101.805106,46.03049],[-101.799236,46.024183],[-101.799726,46.032774],[-101.795691,46.035538],[-101.778236,46.039007],[-101.766169,46.030664],[-101.762429,46.03185],[-101.766755,46.03601],[-101.749591,46.041667],[-101.748958,46.033236],[-101.757836,46.031848],[-101.75679,46.028786],[-101.746328,46.028348],[-101.737643,46.037606],[-101.728917,46.036125],[-101.722638,46.028485],[-101.715652,46.02806],[-101.719288,46.023163],[-101.712965,46.021506],[-101.710246,46.025848],[-101.705062,46.022261],[-101.698897,46.026992],[-101.698502,46.021371],[-101.687876,46.022423],[-101.685646,46.013466],[-101.681055,46.013557],[-101.684564,46.016665],[-101.675381,46.016253],[-101.678399,46.011729],[-101.663573,46.015819],[-101.664528,46.011636],[-101.656591,46.012388],[-101.660723,46.014514],[-101.655114,46.01698],[-101.645538,46.015149],[-101.643304,46.020655],[-101.650026,46.023993],[-101.643138,46.024631],[-101.645528,46.029636],[-101.635162,46.030088],[-101.638109,46.036899],[-101.631415,46.037947],[-101.622717,46.037028],[-101.610041,46.023232],[-101.611513,46.01889],[-101.60003,46.013434],[-101.594392,46.017594],[-101.591927,46.009551],[-101.574749,46.025527],[-101.567761,46.023699],[-101.563069,46.016472],[-101.567068,46.014387],[-101.554185,46.006836],[-101.546248,46.01289],[-101.550805,46.016958],[-101.547853,46.018283],[-101.533556,46.013276],[-101.527323,46.016428],[-101.535712,46.030414],[-101.516194,46.030637],[-101.517412,46.025359],[-101.509764,46.030177],[-101.509113,46.025287],[-101.502063,46.023044],[-101.485865,46.027983],[-101.495517,46.033691],[-101.483742,46.037604],[-101.487914,46.042744],[-101.49365,46.036982],[-101.49828,46.04059],[-101.484212,46.04928],[-101.489334,46.051201],[-101.47181,46.054152],[-101.474801,46.059498],[-101.467874,46.057832],[-101.466262,46.05036],[-101.444505,46.056282],[-101.430455,46.053061],[-101.42802,46.060559],[-101.412207,46.059159],[-101.415225,46.064164],[-101.397787,46.077116],[-101.386292,46.07942],[-101.368363,46.075211],[-101.364155,46.069911],[-101.35845,46.077706],[-101.347022,46.076111],[-101.334943,46.082673],[-101.344203,46.085941],[-101.343514,46.089257],[-101.325263,46.091322],[-101.322733,46.097086],[-101.312351,46.09193],[-101.319183,46.099951],[-101.299917,46.104844],[-101.301842,46.109753],[-101.294707,46.11574],[-101.311447,46.125003],[-101.303342,46.127442],[-101.302684,46.132881],[-101.296342,46.127259],[-101.285854,46.135346],[-101.281683,46.129449],[-101.275537,46.129813],[-101.27458,46.13612],[-101.26538,46.130906],[-101.259258,46.140022],[-101.252032,46.134785],[-101.247705,46.142484],[-101.241159,46.138328],[-101.237021,46.143129],[-101.228141,46.137968],[-101.219567,46.145969],[-101.223251,46.150127],[-101.216675,46.149626],[-101.21197,46.156207],[-101.190372,46.147847],[-101.196654,46.158931],[-101.188433,46.162998],[-101.195868,46.176434],[-101.191986,46.181736],[-101.198073,46.18377],[-101.187448,46.192706],[-101.176029,46.195105],[-101.170963,46.191814],[-101.165729,46.196635],[-101.167899,46.202028],[-101.15658,46.198941],[-101.143479,46.203347],[-101.143244,46.209426],[-101.131949,46.214357],[-101.124999,46.211084],[-101.115843,46.214585],[-101.101105,46.227228],[-101.105399,46.242812],[-101.116828,46.243036],[-101.106491,46.249233],[-101.103956,46.257115],[-101.091339,46.258055],[-101.088511,46.26738],[-101.097408,46.268543],[-101.096521,46.27252],[-101.08222,46.275105],[-101.058492,46.270171],[-101.054834,46.277529],[-101.044715,46.282144],[-101.033148,46.275423],[-101.023951,46.278688],[-101.026089,46.287784],[-101.016882,46.29955],[-101.004653,46.296482],[-100.99723,46.304661],[-101.013282,46.306496],[-101.011957,46.313237],[-101.017361,46.319615],[-101.004692,46.323381],[-100.99124,46.316068],[-100.983393,46.319658],[-100.982511,46.329029],[-100.97403,46.325512],[-100.968261,46.330176],[-100.971069,46.336323],[-100.95807,46.338794],[-100.960813,46.347684],[-100.941508,46.350018],[-100.944877,46.361353],[-100.937021,46.371133],[-100.938998,46.376542],[-100.929059,46.377821],[-100.931007,46.382187],[-100.924105,46.383694],[-100.91895,46.394983],[-100.895431,46.39596],[-100.897904,46.402588],[-100.884552,46.409096],[-100.877883,46.404384],[-100.882721,46.390241],[-100.868721,46.389438],[-100.856975,46.403269],[-100.852674,46.394404],[-100.832623,46.392718],[-100.831862,46.38865],[-100.814873,46.384701],[-100.808032,46.384701],[-100.804087,46.390137],[-100.775352,46.391158],[-100.769534,46.397898],[-100.748744,46.392838],[-100.737819,46.401619],[-100.733982,46.396136],[-100.737248,46.391198],[-100.722088,46.392049],[-100.720504,46.379745],[-100.706859,46.386362],[-100.709867,46.392829],[-100.706714,46.399092],[-100.698143,46.394045],[-100.681858,46.412235],[-100.663718,46.406425],[-100.62818,46.418088],[-100.625301,46.425794],[-100.6094,46.417094],[-100.6065,46.419394],[-100.6136,46.426594],[-100.6027,46.424194],[-100.6002,46.429294],[-100.590199,46.427894],[-100.580799,46.415994],[-100.551199,46.363494],[-100.549199,46.329293],[-100.559099,46.307994],[-100.5816,46.278594],[-100.5582,46.249293],[-100.5588,46.236694],[-100.574401,46.210594],[-100.618303,46.165895],[-100.628976,46.146001],[-100.629015,46.134051],[-100.614604,46.112295],[-100.616904,46.081796],[-100.608004,46.059296],[-100.560205,46.008396],[-100.53131,45.999996],[-100.521885,45.98942],[-100.507026,45.966548],[-100.511948993993,45.9436539838471],[-101.998734331893,45.9445574366814]]]}},{"type":"Feature","properties":{"GEOID":"38103","NAME":"Wells","state":"ND","wildfire_risk_score":51.431,"wildfire_eal_total":50311.79,"risk_band":"Low","source":"FEMA National Risk Index v1.20 (December 2025)"},"geometry":{"type":"Polygon","coordinates":[[[-100.069408,47.760382],[-100.069311,47.847431],[-99.297202,47.846834],[-99.297318,47.673004],[-99.26571,47.672969],[-99.266215,47.326999],[-100.033292,47.327165],[-100.03281,47.673621],[-100.069608,47.673599],[-100.069408,47.760382]]]}},{"type":"Feature","properties":{"GEOID":"38071","NAME":"Ramsey","state":"ND","wildfire_risk_score":79.866,"wildfire_eal_total":514093.97,"risk_band":"High","source":"FEMA National Risk Index v1.20 (December 2025)"},"geometry":{"type":"Polygon","coordinates":[[[-99.200306,48.370658],[-98.970842,48.370414],[-98.970392,48.544232],[-98.318036,48.543773],[-98.31838,48.369722],[-98.291852,48.369694],[-98.292184,48.195177],[-98.422057,48.194782],[-98.422474,48.021112],[-98.525609,48.021121],[-98.525555,47.915056],[-98.625384,47.916399],[-98.635284,47.930599],[-98.625984,47.938499],[-98.660785,47.961],[-98.670759,47.980407],[-98.663818,47.992074],[-98.672086,48.0004],[-98.706387,48.0034],[-98.722787,47.9981],[-98.735687,47.9803],[-98.754163,47.971081],[-98.758276,47.970671],[-98.760736,47.970912],[-98.763029,47.971689],[-98.789911,47.951008],[-98.79456,47.951614],[-98.797122,47.956352],[-98.780114,47.972883],[-98.765139,47.975114],[-98.760802,47.971099],[-98.75061,47.982456],[-98.753567,47.99333],[-98.762853,47.998705],[-98.759289,48.0048],[-98.764889,48.0093],[-98.76729,48.0306],[-98.767489,48.0],[-98.78319,48.0016],[-98.78689,48.0069],[-98.785191,48.0296],[-98.801492,48.0474],[-98.801992,48.054],[-98.794792,48.055601],[-98.803893,48.059901],[-98.826394,48.0619],[-98.835394,48.049],[-98.882898,48.025248],[-98.887195,48.008199],[-98.893596,48.007799],[-98.897996,48.016799],[-98.893096,48.026399],[-98.917897,48.020799],[-98.915997,48.005799],[-98.929313,47.996988],[-98.955599,48.004599],[-98.991253,47.99026],[-98.993534,47.996524],[-98.984301,48.017598],[-98.994001,48.017998],[-98.997202,48.023298],[-99.004288,48.041931],[-99.000845,48.05284],[-99.036844,48.047403],[-99.049758,48.03817],[-99.050461,48.030626],[-99.060211,48.021977],[-99.070351,48.021955],[-99.070443,48.107857],[-99.109312,48.107663],[-99.118386,48.112236],[-99.116525,48.120686],[-99.134302,48.143787],[-99.149357,48.138428],[-99.192608,48.148731],[-99.199911,48.155309],[-99.200306,48.370658]]]}},{"type":"Feature","properties":{"GEOID":"38059","NAME":"Morton","state":"ND","wildfire_risk_score":73.919,"wildfire_eal_total":374531.17,"risk_band":"High","source":"FEMA National Risk Index v1.20 (December 2025)"},"geometry":{"type":"Polygon","coordinates":[[[-102.097197,46.980542],[-100.935983,46.98284],[-100.938028,46.969239],[-100.907675,46.948667],[-100.905795,46.899838],[-100.858566,46.84023],[-100.826458,46.818127],[-100.817411,46.805195],[-100.81944,46.791447],[-100.839216,46.766546],[-100.834782,46.749131],[-100.817587,46.737363],[-100.784105,46.737339],[-100.774334,46.730613],[-100.778478,46.720029],[-100.797939,46.715594],[-100.788768,46.691701],[-100.778156,46.686486],[-100.748293,46.692546],[-100.737977,46.678014],[-100.745215,46.663845],[-100.727996,46.655699],[-100.701869,46.66048],[-100.656017,46.679029],[-100.641665,46.678391],[-100.641817,46.665728],[-100.659545,46.650124],[-100.662736,46.635462],[-100.6254,46.612184],[-100.568141,46.594025],[-100.561035,46.587847],[-100.565369,46.578449],[-100.580887,46.580649],[-100.587027,46.573435],[-100.544136,46.530431],[-100.550675,46.519637],[-100.583298,46.499294],[-100.598499,46.449294],[-100.589999,46.428293],[-100.6002,46.429294],[-100.6027,46.424194],[-100.6136,46.426594],[-100.6065,46.419394],[-100.6094,46.417094],[-100.625301,46.425794],[-100.62818,46.418088],[-100.663718,46.406425],[-100.681858,46.412235],[-100.698143,46.394045],[-100.706714,46.399092],[-100.709867,46.392829],[-100.706859,46.386362],[-100.720504,46.379745],[-100.722088,46.392049],[-100.737248,46.391198],[-100.733982,46.396136],[-100.737819,46.401619],[-100.748744,46.392838],[-100.769534,46.397898],[-100.775352,46.391158],[-100.804087,46.390137],[-100.808032,46.384701],[-100.814873,46.384701],[-100.831862,46.38865],[-100.832623,46.392718],[-100.852674,46.394404],[-100.856975,46.403269],[-100.868721,46.389438],[-100.882721,46.390241],[-100.877883,46.404384],[-100.884552,46.409096],[-100.897904,46.402588],[-100.895431,46.39596],[-100.91895,46.394983],[-100.924105,46.383694],[-100.931007,46.382187],[-100.929059,46.377821],[-100.938998,46.376542],[-100.937021,46.371133],[-100.944877,46.361353],[-100.941508,46.350018],[-100.960813,46.347684],[-100.95807,46.338794],[-100.971069,46.336323],[-100.968261,46.330176],[-100.97403,46.325512],[-100.982511,46.329029],[-100.983393,46.319658],[-100.99124,46.316068],[-101.004692,46.323381],[-101.017361,46.319615],[-101.011957,46.313237],[-101.013282,46.306496],[-100.99723,46.304661],[-101.003565,46.296939],[-101.016882,46.29955],[-101.025691,46.284414],[-101.048511,46.284681],[-101.048527,46.37145],[-101.298989,46.371404],[-101.298823,46.630431],[-101.718105,46.630999],[-101.718228,46.717834],[-102.09624,46.717772],[-102.097197,46.980542]]]}},{"type":"Feature","properties":{"GEOID":"38055","NAME":"McLean","state":"ND","wildfire_risk_score":76.972,"wildfire_eal_total":376200.36,"risk_band":"High","source":"FEMA National Risk Index v1.20 (December 2025)"},"geometry":{"type":"Polygon","coordinates":[[[-102.385704,47.806181],[-102.385647,47.847772],[-100.585179,47.847761],[-100.585109,47.674088],[-100.67245,47.673928],[-100.67321,47.327646],[-100.749334,47.327685],[-100.74937,47.157245],[-100.96544,47.157134],[-100.983219,47.173692],[-100.99292,47.195292],[-100.99042,47.209792],[-100.97622,47.234292],[-100.977629,47.249992],[-101.000922,47.270492],[-101.037224,47.287325],[-101.087945,47.296523],[-101.180605,47.28057],[-101.186207,47.275952],[-101.195263,47.248805],[-101.202726,47.247045],[-101.222423,47.250587],[-101.283833,47.278296],[-101.345735,47.291897],[-101.348435,47.312498],[-101.356635,47.324798],[-101.360336,47.365098],[-101.394537,47.390299],[-101.402537,47.402299],[-101.412338,47.435499],[-101.437638,47.458881],[-101.442739,47.469499],[-101.440139,47.477299],[-101.424192,47.491536],[-101.378652,47.511836],[-101.369599,47.524505],[-101.396552,47.53779],[-101.428037,47.561986],[-101.446536,47.564375],[-101.479654,47.555414],[-101.498705,47.556353],[-101.561017,47.537946],[-101.611423,47.52879],[-101.63793,47.527589],[-101.6747,47.536499],[-101.707537,47.538278],[-101.741827,47.529229],[-101.823848,47.494402],[-101.892017,47.505133],[-101.934405,47.528919],[-101.962847,47.53789],[-102.026249,47.537904],[-102.031949,47.543804],[-102.021648,47.559604],[-102.036648,47.572705],[-102.062249,47.569405],[-102.085649,47.574505],[-102.159851,47.565305],[-102.183951,47.568105],[-102.20535,47.574506],[-102.265352,47.623507],[-102.261551,47.724308],[-102.282052,47.735608],[-102.291253,47.753808],[-102.262651,47.760608],[-102.257951,47.769808],[-102.260951,47.781409],[-102.342555,47.80071],[-102.353955,47.79491],[-102.371657,47.767309],[-102.385758,47.758008],[-102.385704,47.806181]]]}},{"type":"Feature","properties":{"GEOID":"38007","NAME":"Billings","state":"ND","wildfire_risk_score":65.331,"wildfire_eal_total":178612.32,"risk_band":"Moderate","source":"FEMA National Risk Index v1.20 (December 2025)"},"geometry":{"type":"Polygon","coordinates":[[[-103.667476,47.268875],[-103.666675,47.329256],[-103.032366,47.328686],[-103.032681,46.98058],[-103.231056,46.980296],[-103.231657,46.629651],[-103.609273,46.629822],[-103.609592,46.979854],[-103.667072,46.979789],[-103.667476,47.268875]]]}},{"type":"Feature","properties":{"GEOID":"38035","NAME":"Grand Forks","state":"ND","wildfire_risk_score":55.312,"wildfire_eal_total":80859.78,"risk_band":"Moderate","source":"FEMA National Risk Index v1.20 (December 2025)"},"geometry":{"type":"Polygon","coordinates":[[[-97.90338,48.086586],[-97.903313,48.194845],[-97.1411758913517,48.1936781874035],[-97.149766,48.185374],[-97.135994,48.178897],[-97.147511,48.172407],[-97.144242,48.16249],[-97.12102,48.159086],[-97.140295,48.150894],[-97.146122,48.141649],[-97.123675,48.140319],[-97.124898,48.136193],[-97.133468,48.137101],[-97.120702,48.114987],[-97.123205,48.106648],[-97.11147,48.105913],[-97.102249,48.096694],[-97.109857,48.091395],[-97.099798,48.085884],[-97.104483,48.072428],[-97.072257,48.048068],[-97.068711,48.027694],[-97.072239,48.019107],[-97.063289,48.014989],[-97.066762,48.009558],[-97.064289,47.998508],[-97.053089,47.990252],[-97.061854,47.96448],[-97.052454,47.957179],[-97.054554,47.946279],[-97.036054,47.939379],[-97.035754,47.930179],[-97.017754,47.919778],[-97.023754,47.915878],[-97.015054,47.907178],[-97.024955,47.908178],[-97.020155,47.900478],[-97.024955,47.894978],[-97.018955,47.891078],[-97.025355,47.884278],[-97.017955,47.878478],[-97.023156,47.873978],[-97.002456,47.868677],[-97.005557,47.863977],[-96.998144,47.858882],[-96.993974,47.845974],[-96.998295,47.841724],[-96.986685,47.837639],[-96.981725,47.830421],[-96.987105,47.82555],[-96.974184,47.822978],[-96.98015,47.822379],[-96.978894,47.809882],[-96.991007,47.807672],[-96.972109,47.802556],[-96.976611,47.797982],[-96.96712,47.799852],[-96.957216,47.79097],[-96.965316,47.783474],[-96.95833,47.785708],[-96.95879,47.780335],[-96.952673,47.779777],[-96.955671,47.774748],[-96.946773,47.775091],[-96.935174,47.767466],[-96.937859,47.760195],[-96.928804,47.755724],[-96.939753,47.755292],[-96.929051,47.750331],[-96.932809,47.737139],[-96.918556,47.723863],[-96.930853,47.715387],[-96.919868,47.716982],[-96.920119,47.710383],[-96.911881,47.706745],[-96.920546,47.699649],[-96.912846,47.701746],[-96.907266,47.693976],[-96.909909,47.689522],[-96.899352,47.689473],[-96.896724,47.674758],[-96.885116,47.673808],[-97.882271,47.672179],[-97.882065,48.020844],[-97.903599,48.020897],[-97.90338,48.086586]]]}},{"type":"Feature","properties":{"GEOID":"38031","NAME":"Foster","state":"ND","wildfire_risk_score":48.378,"wildfire_eal_total":44104.44,"risk_band":"Low","source":"FEMA National Risk Index v1.20 (December 2025)"},"geometry":{"type":"Polygon","coordinates":[[[-99.266306,47.41439],[-99.265798,47.5876],[-98.500085,47.587228],[-98.499246,47.326538],[-99.266215,47.326999],[-99.266306,47.41439]]]}},{"type":"Feature","properties":{"GEOID":"38087","NAME":"Slope","state":"ND","wildfire_risk_score":38.041,"wildfire_eal_total":27912.79,"risk_band":"Low","source":"FEMA National Risk Index v1.20 (December 2025)"},"geometry":{"type":"Polygon","coordinates":[[[-104.046103,46.383916],[-104.045098337697,46.5408609844411],[-103.80088,46.540671],[-103.800915,46.629692],[-102.927451,46.63002],[-102.924547,46.281518],[-104.045417303568,46.2800809431805],[-104.046103,46.383916]]]}},{"type":"Feature","properties":{"GEOID":"38037","NAME":"Grant","state":"ND","wildfire_risk_score":65.363,"wildfire_eal_total":93882.21,"risk_band":"Moderate","source":"FEMA National Risk Index v1.20 (December 2025)"},"geometry":{"type":"Polygon","coordinates":[[[-102.096142,46.687713],[-102.09624,46.717772],[-101.718228,46.717834],[-101.718105,46.630999],[-101.298823,46.630431],[-101.298989,46.371404],[-101.048527,46.37145],[-101.048511,46.284681],[-101.025691,46.284414],[-101.023951,46.278688],[-101.033148,46.275423],[-101.044715,46.282144],[-101.054834,46.277529],[-101.058492,46.270171],[-101.08222,46.275105],[-101.096521,46.27252],[-101.097408,46.268543],[-101.088511,46.26738],[-101.091339,46.258055],[-101.103956,46.257115],[-101.106491,46.249233],[-101.116828,46.243036],[-101.105399,46.242812],[-101.101105,46.227228],[-101.115843,46.214585],[-101.124999,46.211084],[-101.131949,46.214357],[-101.143244,46.209426],[-101.143479,46.203347],[-101.15658,46.198941],[-101.167899,46.202028],[-101.165729,46.196635],[-101.170963,46.191814],[-101.176029,46.195105],[-101.187448,46.192706],[-101.198073,46.18377],[-101.191986,46.181736],[-101.195868,46.176434],[-101.188433,46.162998],[-101.196654,46.158931],[-101.190372,46.147847],[-101.21197,46.156207],[-101.216675,46.149626],[-101.223251,46.150127],[-101.219567,46.145969],[-101.228141,46.137968],[-101.237021,46.143129],[-101.241159,46.138328],[-101.247705,46.142484],[-101.252032,46.134785],[-101.259258,46.140022],[-101.26538,46.130906],[-101.27458,46.13612],[-101.275537,46.129813],[-101.281683,46.129449],[-101.285854,46.135346],[-101.296342,46.127259],[-101.302684,46.132881],[-101.303342,46.127442],[-101.311447,46.125003],[-101.294707,46.11574],[-101.301842,46.109753],[-101.299917,46.104844],[-101.319183,46.099951],[-101.312351,46.09193],[-101.322733,46.097086],[-101.325263,46.091322],[-101.343514,46.089257],[-101.344203,46.085941],[-101.334943,46.082673],[-101.351224,46.074464],[-101.35845,46.077706],[-101.364155,46.069911],[-101.368363,46.075211],[-101.386292,46.07942],[-101.397787,46.077116],[-101.415225,46.064164],[-101.412207,46.059159],[-101.42802,46.060559],[-101.430455,46.053061],[-101.444505,46.056282],[-101.466262,46.05036],[-101.467874,46.057832],[-101.474801,46.059498],[-101.47181,46.054152],[-101.489334,46.051201],[-101.484212,46.04928],[-101.49828,46.04059],[-101.49365,46.036982],[-101.487914,46.042744],[-101.483742,46.037604],[-101.495517,46.033691],[-101.485865,46.027983],[-101.502063,46.023044],[-101.509113,46.025287],[-101.509764,46.030177],[-101.517412,46.025359],[-101.516194,46.030637],[-101.535712,46.030414],[-101.527323,46.016428],[-101.533556,46.013276],[-101.547853,46.018283],[-101.550805,46.016958],[-101.546248,46.01289],[-101.554185,46.006836],[-101.567068,46.014387],[-101.563069,46.016472],[-101.567761,46.023699],[-101.574749,46.025527],[-101.591927,46.009551],[-101.594392,46.017594],[-101.60003,46.013434],[-101.611513,46.01889],[-101.610041,46.023232],[-101.622717,46.037028],[-101.631415,46.037947],[-101.638109,46.036899],[-101.635162,46.030088],[-101.645528,46.029636],[-101.643138,46.024631],[-101.650026,46.023993],[-101.643304,46.020655],[-101.645538,46.015149],[-101.655114,46.01698],[-101.660723,46.014514],[-101.656591,46.012388],[-101.664528,46.011636],[-101.663573,46.015819],[-101.678399,46.011729],[-101.675381,46.016253],[-101.684564,46.016665],[-101.681055,46.013557],[-101.685646,46.013466],[-101.687876,46.022423],[-101.698502,46.021371],[-101.698897,46.026992],[-101.705062,46.022261],[-101.710246,46.025848],[-101.712965,46.021506],[-101.719288,46.023163],[-101.715652,46.02806],[-101.722638,46.028485],[-101.728917,46.036125],[-101.737643,46.037606],[-101.746328,46.028348],[-101.75679,46.028786],[-101.757836,46.031848],[-101.748958,46.033236],[-101.749591,46.041667],[-101.766755,46.03601],[-101.762429,46.03185],[-101.766169,46.030664],[-101.778236,46.039007],[-101.795691,46.035538],[-101.799726,46.032774],[-101.799236,46.024183],[-101.805106,46.03049],[-101.814848,46.031564],[-101.813985,46.027726],[-101.828163,46.037935],[-101.842108,46.029136],[-101.840573,46.038003],[-101.847756,46.041473],[-101.845854,46.04426],[-101.860328,46.048321],[-101.843004,46.049973],[-101.84524,46.057329],[-101.840287,46.059774],[-101.841634,46.063385],[-101.849675,46.062789],[-101.8503,46.064982],[-101.84436,46.064846],[-101.843278,46.067474],[-101.846231,46.06608],[-101.849355,46.073275],[-101.87114,46.063007],[-101.882383,46.069934],[-101.880945,46.063217],[-101.894857,46.069254],[-101.895386,46.063291],[-101.888592,46.063951],[-101.894144,46.056825],[-101.902214,46.059706],[-101.903234,46.055753],[-101.910057,46.062312],[-101.907894,46.057696],[-101.912325,46.053791],[-101.923185,46.060509],[-101.922333,46.054409],[-101.93779,46.066404],[-101.949868,46.062885],[-101.945009,46.060761],[-101.958067,46.050387],[-101.966203,46.048603],[-101.96509,46.053515],[-101.970245,46.056689],[-101.973849,46.04812],[-101.991598,46.047381],[-101.995184,46.056586],[-101.998327,46.053274],[-101.998069,46.283671],[-102.046929,46.283606],[-102.05124,46.630917],[-102.096744,46.631026],[-102.096142,46.687713]]]}},{"type":"Feature","properties":{"GEOID":"38005","NAME":"Benson","state":"ND","wildfire_risk_score":80.089,"wildfire_eal_total":251333.57,"risk_band":"High","source":"FEMA National Risk Index v1.20 (December 2025)"},"geometry":{"type":"Polygon","coordinates":[[[-99.847986,48.106245],[-99.847046,48.3712],[-99.200306,48.370658],[-99.199911,48.155309],[-99.192608,48.148731],[-99.149357,48.138428],[-99.134302,48.143787],[-99.116525,48.120686],[-99.118386,48.112236],[-99.109312,48.107663],[-99.070443,48.107857],[-99.070351,48.021955],[-99.060211,48.021977],[-99.050461,48.030626],[-99.049758,48.03817],[-99.036844,48.047403],[-99.000845,48.05284],[-99.004288,48.041931],[-98.997202,48.023298],[-98.994001,48.017998],[-98.984301,48.017598],[-98.993534,47.996524],[-98.991253,47.99026],[-98.955599,48.004599],[-98.929313,47.996988],[-98.915997,48.005799],[-98.917897,48.020799],[-98.893096,48.026399],[-98.897996,48.016799],[-98.893596,48.007799],[-98.887195,48.008199],[-98.882898,48.025248],[-98.835394,48.049],[-98.826394,48.0619],[-98.803893,48.059901],[-98.794792,48.055601],[-98.801992,48.054],[-98.801492,48.0474],[-98.785191,48.0296],[-98.78689,48.0069],[-98.78319,48.0016],[-98.767489,48.0],[-98.76729,48.0306],[-98.764889,48.0093],[-98.759289,48.0048],[-98.762853,47.998705],[-98.753567,47.99333],[-98.75061,47.982456],[-98.760802,47.971099],[-98.765139,47.975114],[-98.780114,47.972883],[-98.797122,47.956352],[-98.79456,47.951614],[-98.789911,47.951008],[-98.763029,47.971689],[-98.760736,47.970912],[-98.758276,47.970671],[-98.754163,47.971081],[-98.735687,47.9803],[-98.722787,47.9981],[-98.706387,48.0034],[-98.672086,48.0004],[-98.663818,47.992074],[-98.670759,47.980407],[-98.660785,47.961],[-98.625984,47.938499],[-98.635284,47.930599],[-98.626884,47.917199],[-98.525555,47.915056],[-98.525516,47.846276],[-99.812167,47.847257],[-99.812133,48.021451],[-99.848222,48.021424],[-99.847986,48.106245]]]}},{"type":"Feature","properties":{"GEOID":"38003","NAME":"Barnes","state":"ND","wildfire_risk_score":65.426,"wildfire_eal_total":106470.1,"risk_band":"Moderate","source":"FEMA National Risk Index v1.20 (December 2025)"},"geometry":{"type":"Polygon","coordinates":[[[-98.467324,47.066549],[-98.467066,47.240404],[-97.705935,47.239977],[-97.706174,46.978558],[-97.681508,46.978481],[-97.682006,46.629928],[-98.439056,46.63112],[-98.439734,46.979631],[-98.46753,46.979594],[-98.467324,47.066549]]]}},{"type":"Feature","properties":{"GEOID":"38101","NAME":"Ward","state":"ND","wildfire_risk_score":79.421,"wildfire_eal_total":578417.47,"risk_band":"High","source":"FEMA National Risk Index v1.20 (December 2025)"},"geometry":{"type":"Polygon","coordinates":[[[-102.233949,48.633307],[-102.2336,48.72029],[-102.152545,48.720294],[-102.152164,48.8072],[-102.021643,48.807108],[-102.021428,48.720283],[-101.842244,48.720064],[-101.842845,48.459523],[-101.059833,48.458448],[-101.059915,48.371453],[-101.014232,48.371432],[-101.015024,48.022739],[-100.970456,48.022777],[-100.971158,47.848696],[-101.871862,47.847589],[-101.871537,48.023176],[-101.922123,48.023173],[-101.922237,48.37233],[-101.973542,48.372275],[-101.973282,48.546485],[-102.233892,48.546339],[-102.233949,48.633307]]]}},{"type":"Feature","properties":{"GEOID":"38061","NAME":"Mountrail","state":"ND","wildfire_risk_score":78.753,"wildfire_eal_total":349713.25,"risk_band":"High","source":"FEMA National Risk Index v1.20 (December 2025)"},"geometry":{"type":"Polygon","coordinates":[[[-102.885821,48.416014],[-102.885763,48.54639],[-101.973282,48.546485],[-101.973542,48.372275],[-101.922237,48.37233],[-101.922123,48.023173],[-101.871537,48.023176],[-101.871862,47.847589],[-102.385647,47.847772],[-102.385758,47.758008],[-102.406359,47.751409],[-102.43306,47.759309],[-102.462962,47.76151],[-102.504063,47.78111],[-102.561965,47.780111],[-102.623166,47.805513],[-102.646366,47.826613],[-102.654665,47.851814],[-102.654965,47.875015],[-102.649664,47.882415],[-102.647864,47.901615],[-102.612562,47.937716],[-102.573584,47.961134],[-102.551583,47.996054],[-102.597693,48.014603],[-102.599405,48.037246],[-102.60836,48.046351],[-102.639766,48.03712],[-102.661653,48.042862],[-102.668041,48.050859],[-102.662304,48.068548],[-102.667707,48.079895],[-102.757721,48.093347],[-102.738807,48.105956],[-102.73756,48.116608],[-102.744816,48.123863],[-102.766283,48.130354],[-102.79479,48.11913],[-102.828477,48.123664],[-102.828163,48.372641],[-102.885862,48.372702],[-102.885821,48.416014]]]}},{"type":"Feature","properties":{"GEOID":"38049","NAME":"McHenry","state":"ND","wildfire_risk_score":87.436,"wildfire_eal_total":1307189.43,"risk_band":"High","source":"FEMA National Risk Index v1.20 (December 2025)"},"geometry":{"type":"Polygon","coordinates":[[[-101.05991,48.385977],[-101.059624,48.632361],[-100.40678,48.631878],[-100.406513,48.544627],[-100.276619,48.544813],[-100.276618,48.371334],[-100.237099,48.371244],[-100.237022,48.021866],[-100.197558,48.021857],[-100.197996,47.847652],[-100.971162,47.848215],[-100.970456,48.022777],[-101.015024,48.022739],[-101.014232,48.371432],[-101.059915,48.371453],[-101.05991,48.385977]]]}},{"type":"Feature","properties":{"GEOID":"38065","NAME":"Oliver","state":"ND","wildfire_risk_score":44.466,"wildfire_eal_total":50919.46,"risk_band":"Low","source":"FEMA National Risk Index v1.20 (December 2025)"},"geometry":{"type":"Polygon","coordinates":[[[-101.764492,47.234058],[-101.764639,47.241176],[-101.722428,47.241882],[-101.257633,47.241343],[-101.257031,47.264895],[-101.215442,47.24848],[-101.197332,47.247396],[-101.180605,47.28057],[-101.106426,47.295294],[-101.060424,47.293293],[-101.002822,47.271492],[-100.977629,47.249992],[-100.97622,47.234292],[-100.99282,47.203992],[-100.990319,47.187392],[-100.980818,47.170792],[-100.946616,47.142692],[-100.935915,47.089727],[-100.925455,47.076898],[-100.884241,47.047284],[-100.87861,47.038264],[-100.879741,47.022167],[-100.895729,47.002713],[-100.923339,46.993008],[-100.935983,46.98284],[-101.764392,46.981306],[-101.764492,47.234058]]]}},{"type":"Feature","properties":{"GEOID":"38081","NAME":"Sargent","state":"ND","wildfire_risk_score":41.285,"wildfire_eal_total":40085.18,"risk_band":"Low","source":"FEMA National Risk Index v1.20 (December 2025)"},"geometry":{"type":"Polygon","coordinates":[[[-98.008077,46.022634],[-98.006715,46.282626],[-97.259414,46.282353],[-97.259553,45.996775],[-97.228545,45.992323],[-97.2282906022523,45.9351410532602],[-98.0081016551785,45.9360953642803],[-98.008077,46.022634]]]}},{"type":"Feature","properties":{"GEOID":"38023","NAME":"Divide","state":"ND","wildfire_risk_score":59.097,"wildfire_eal_total":64038.1,"risk_band":"Moderate","source":"FEMA National Risk Index v1.20 (December 2025)"},"geometry":{"type":"Polygon","coordinates":[[[-104.048678397744,48.8637810991792],[-104.048736,48.999877],[-102.93895696128,48.9994578115542],[-102.939932,48.720469],[-102.885686,48.720488],[-102.885775,48.633298],[-104.047582398048,48.633911],[-104.048678397744,48.8637810991792]]]}},{"type":"Feature","properties":{"GEOID":"38009","NAME":"Bottineau","state":"ND","wildfire_risk_score":84.987,"wildfire_eal_total":733101.68,"risk_band":"High","source":"FEMA National Risk Index v1.20 (December 2025)"},"geometry":{"type":"Polygon","coordinates":[[[-101.496677,48.734525],[-101.496549479348,48.9996388642511],[-100.182606092555,48.9992301566536],[-100.183034,48.718909],[-100.145494,48.718875],[-100.145858,48.545211],[-100.406513,48.544627],[-100.40678,48.631878],[-100.578274,48.632665],[-101.059624,48.632361],[-101.059663,48.545419],[-101.451275,48.546079],[-101.451046,48.720016],[-101.496684,48.720078],[-101.496677,48.734525]]]}},{"type":"Feature","properties":{"GEOID":"38015","NAME":"Burleigh","state":"ND","wildfire_risk_score":84.128,"wildfire_eal_total":827123.3,"risk_band":"High","source":"FEMA National Risk Index v1.20 (December 2025)"},"geometry":{"type":"Polygon","coordinates":[[[-100.96544,47.157134],[-100.74937,47.157245],[-100.749334,47.327685],[-100.113261,47.327262],[-100.114637,46.981666],[-100.075229,46.981282],[-100.081198,46.633396],[-100.662015,46.6346],[-100.659545,46.650124],[-100.639969,46.672046],[-100.641665,46.678391],[-100.652041,46.679898],[-100.712054,46.657509],[-100.736897,46.658015],[-100.745215,46.663845],[-100.737977,46.678014],[-100.743859,46.689854],[-100.751404,46.69304],[-100.778156,46.686486],[-100.788768,46.691701],[-100.797939,46.715594],[-100.775081,46.722491],[-100.776243,46.733838],[-100.813419,46.736197],[-100.834782,46.749131],[-100.839216,46.766546],[-100.81944,46.791447],[-100.818204,46.806897],[-100.826458,46.818127],[-100.858566,46.84023],[-100.903516,46.896505],[-100.908196,46.905608],[-100.903895,46.927839],[-100.907675,46.948667],[-100.938028,46.969239],[-100.932653,46.987312],[-100.895729,47.002713],[-100.882172,47.015115],[-100.87861,47.038264],[-100.888067,47.050927],[-100.925455,47.076898],[-100.935915,47.089727],[-100.944716,47.139492],[-100.96544,47.157134]]]}},{"type":"Feature","properties":{"GEOID":"38057","NAME":"Mercer","state":"ND","wildfire_risk_score":61.578,"wildfire_eal_total":127922.51,"risk_band":"Moderate","source":"FEMA National Risk Index v1.20 (December 2025)"},"geometry":{"type":"Polygon","coordinates":[[[-102.205808,47.529286],[-102.20535,47.574506],[-102.159851,47.565305],[-102.085649,47.574505],[-102.062249,47.569405],[-102.036648,47.572705],[-102.021648,47.559604],[-102.031949,47.543804],[-102.026249,47.537904],[-101.962847,47.53789],[-101.934405,47.528919],[-101.892017,47.505133],[-101.823848,47.494402],[-101.741827,47.529229],[-101.707537,47.538278],[-101.6747,47.536499],[-101.63793,47.527589],[-101.611423,47.52879],[-101.561017,47.537946],[-101.498705,47.556353],[-101.479654,47.555414],[-101.446536,47.564375],[-101.428037,47.561986],[-101.369347,47.522414],[-101.378652,47.511836],[-101.424192,47.491536],[-101.440139,47.477299],[-101.441539,47.463499],[-101.412338,47.435499],[-101.402537,47.402299],[-101.394537,47.390299],[-101.360336,47.365098],[-101.356635,47.324798],[-101.348435,47.312498],[-101.345735,47.291897],[-101.260832,47.269095],[-101.257031,47.264895],[-101.257633,47.241343],[-101.764639,47.241176],[-101.764392,46.981306],[-102.144878,46.981425],[-102.144453,47.328079],[-102.205556,47.328071],[-102.205808,47.529286]]]}},{"type":"Feature","properties":{"GEOID":"38091","NAME":"Steele","state":"ND","wildfire_risk_score":17.017,"wildfire_eal_total":7223.85,"risk_band":"Low","source":"FEMA National Risk Index v1.20 (December 2025)"},"geometry":{"type":"Polygon","coordinates":[[[-97.986175,47.340709],[-97.984248,47.672303],[-97.472745,47.672051],[-97.474228,47.324621],[-97.451648,47.324467],[-97.451512,47.239061],[-97.961211,47.240325],[-97.960188,47.326047],[-97.986428,47.326201],[-97.986175,47.340709]]]}},{"type":"Feature","properties":{"GEOID":"38083","NAME":"Sheridan","state":"ND","wildfire_risk_score":63.295,"wildfire_eal_total":145003.92,"risk_band":"Moderate","source":"FEMA National Risk Index v1.20 (December 2025)"},"geometry":{"type":"Polygon","coordinates":[[[-100.673286,47.524034],[-100.67245,47.673928],[-100.585109,47.674088],[-100.585179,47.847761],[-100.069311,47.847431],[-100.069608,47.673599],[-100.03281,47.673621],[-100.033292,47.327165],[-100.67321,47.327646],[-100.673286,47.524034]]]}},{"type":"Feature","properties":{"GEOID":"38011","NAME":"Bowman","state":"ND","wildfire_risk_score":56.711,"wildfire_eal_total":90176.25,"risk_band":"Moderate","source":"FEMA National Risk Index v1.20 (December 2025)"},"geometry":{"type":"Polygon","coordinates":[[[-104.045800515139,46.1191130989163],[-104.045417303568,46.2800809431805],[-102.995245,46.280651],[-102.995247998363,45.945166801961],[-104.045443,45.94531],[-104.045800515139,46.1191130989163]]]}},{"type":"Feature","properties":{"GEOID":"38051","NAME":"McIntosh","state":"ND","wildfire_risk_score":70.77,"wildfire_eal_total":125610.45,"risk_band":"High","source":"FEMA National Risk Index v1.20 (December 2025)"},"geometry":{"type":"Polygon","coordinates":[[[-99.879399,46.057581],[-99.878354,46.282829],[-99.003118,46.282898],[-99.0057543501525,45.9399443091284],[-99.8800619621576,45.9416699048269],[-99.879399,46.057581]]]}},{"type":"Feature","properties":{"GEOID":"38063","NAME":"Nelson","state":"ND","wildfire_risk_score":67.812,"wildfire_eal_total":106475.06,"risk_band":"High","source":"FEMA National Risk Index v1.20 (December 2025)"},"geometry":{"type":"Polygon","coordinates":[[[-98.525602,47.730342],[-98.52569,47.773497],[-98.522295,47.773237],[-98.525609,48.021121],[-98.422474,48.021112],[-98.422057,48.194782],[-97.903313,48.194845],[-97.903599,48.020897],[-97.882065,48.020844],[-97.882271,47.672179],[-98.525391,47.672318],[-98.525602,47.730342]]]}},{"type":"Feature","properties":{"GEOID":"38047","NAME":"Logan","state":"ND","wildfire_risk_score":55.28,"wildfire_eal_total":50569.36,"risk_band":"Moderate","source":"FEMA National Risk Index v1.20 (December 2025)"},"geometry":{"type":"Polygon","coordinates":[[[-99.917285,46.297649],[-99.915586,46.632926],[-99.036625,46.630211],[-99.037289,46.282871],[-99.875388,46.282751],[-99.91718,46.283735],[-99.917285,46.297649]]]}},{"type":"Feature","properties":{"GEOID":"38039","NAME":"Griggs","state":"ND","wildfire_risk_score":49.109,"wildfire_eal_total":44745.94,"risk_band":"Low","source":"FEMA National Risk Index v1.20 (December 2025)"},"geometry":{"type":"Polygon","coordinates":[[[-98.500023,47.530661],[-98.500181,47.672413],[-97.984248,47.672303],[-97.986428,47.326201],[-97.960188,47.326047],[-97.961211,47.240325],[-98.467066,47.240404],[-98.467217,47.326531],[-98.499246,47.326538],[-98.500023,47.530661]]]}},{"type":"Feature","properties":{"GEOID":"38033","NAME":"Golden Valley","state":"ND","wildfire_risk_score":49.205,"wildfire_eal_total":38928.58,"risk_band":"Low","source":"FEMA National Risk Index v1.20 (December 2025)"},"geometry":{"type":"Polygon","coordinates":[[[-104.045901,46.83079],[-104.045306661749,47.3301398174616],[-103.666675,47.329256],[-103.667072,46.979789],[-103.609592,46.979854],[-103.609273,46.629822],[-103.800915,46.629692],[-103.80088,46.540671],[-104.045098337697,46.5408609844411],[-104.045901,46.83079]]]}},{"type":"Feature","properties":{"GEOID":"38013","NAME":"Burke","state":"ND","wildfire_risk_score":46.851,"wildfire_eal_total":55313.67,"risk_band":"Low","source":"FEMA National Risk Index v1.20 (December 2025)"},"geometry":{"type":"Polygon","coordinates":[[[-102.939891,48.748317],[-102.93895696128,48.9994578115542],[-102.021216200276,48.9990148869318],[-102.021643,48.807108],[-102.152164,48.8072],[-102.152545,48.720294],[-102.2336,48.72029],[-102.233892,48.546339],[-102.885763,48.54639],[-102.885686,48.720488],[-102.939932,48.720469],[-102.939891,48.748317]]]}},{"type":"Feature","properties":{"GEOID":"38095","NAME":"Towner","state":"ND","wildfire_risk_score":56.775,"wildfire_eal_total":94150.87,"risk_band":"Moderate","source":"FEMA National Risk Index v1.20 (December 2025)"},"geometry":{"type":"Polygon","coordinates":[[[-99.525803,48.776231],[-99.5257739172443,48.9993091938886],[-98.9998170456132,48.9999862727848],[-98.99989,48.718129],[-98.970368,48.718089],[-98.970842,48.370414],[-99.492919,48.370946],[-99.493002,48.718359],[-99.525895,48.718384],[-99.525803,48.776231]]]}},{"type":"Feature","properties":{"GEOID":"38089","NAME":"Stark","state":"ND","wildfire_risk_score":54.803,"wildfire_eal_total":76393.15,"risk_band":"Moderate","source":"FEMA National Risk Index v1.20 (December 2025)"},"geometry":{"type":"Polygon","coordinates":[[[-103.231234,46.818233],[-103.231056,46.980296],[-102.525364,46.981288],[-102.525463,47.01024],[-102.144771,47.010307],[-102.144878,46.981425],[-102.095904,46.981329],[-102.096744,46.631026],[-103.231656,46.629764],[-103.231234,46.818233]]]}},{"type":"Feature","properties":{"GEOID":"38093","NAME":"Stutsman","state":"ND","wildfire_risk_score":66.858,"wildfire_eal_total":150574.88,"risk_band":"Moderate","source":"FEMA National Risk Index v1.20 (December 2025)"},"geometry":{"type":"Polygon","coordinates":[[[-99.481184,47.154042],[-99.481095,47.327027],[-98.467217,47.326531],[-98.46753,46.979594],[-98.439734,46.979631],[-98.439056,46.63112],[-99.44972,46.63163],[-99.445891,46.980189],[-99.481018,46.980705],[-99.481184,47.154042]]]}},{"type":"Feature","properties":{"GEOID":"38043","NAME":"Kidder","state":"ND","wildfire_risk_score":45.833,"wildfire_eal_total":49086.59,"risk_band":"Low","source":"FEMA National Risk Index v1.20 (December 2025)"},"geometry":{"type":"Polygon","coordinates":[[[-100.114585,47.025141],[-100.113261,47.327262],[-99.481095,47.327027],[-99.481018,46.980705],[-99.445891,46.980189],[-99.44972,46.63163],[-100.081198,46.633396],[-100.075229,46.981282],[-100.114637,46.981666],[-100.114585,47.025141]]]}},{"type":"Feature","properties":{"GEOID":"38045","NAME":"LaMoure","state":"ND","wildfire_risk_score":38.073,"wildfire_eal_total":25361.02,"risk_band":"Low","source":"FEMA National Risk Index v1.20 (December 2025)"},"geometry":{"type":"Polygon","coordinates":[[[-99.037418,46.370113],[-99.036625,46.630211],[-98.033862,46.630727],[-98.034556,46.282657],[-99.037289,46.282871],[-99.037418,46.370113]]]}},{"type":"Feature","properties":{"GEOID":"38001","NAME":"Adams","state":"ND","wildfire_risk_score":48.028,"wildfire_eal_total":31880.43,"risk_band":"Low","source":"FEMA National Risk Index v1.20 (December 2025)"},"geometry":{"type":"Polygon","coordinates":[[[-102.995368,46.032125],[-102.995245,46.280651],[-102.497642,46.283195],[-102.497137,46.205904],[-101.99793,46.205324],[-101.998734331893,45.9445574366814],[-102.995247998363,45.945166801961],[-102.995368,46.032125]]]}},{"type":"Feature","properties":{"GEOID":"38075","NAME":"Renville","state":"ND","wildfire_risk_score":37.277,"wildfire_eal_total":31338.6,"risk_band":"Low","source":"FEMA National Risk Index v1.20 (December 2025)"},"geometry":{"type":"Polygon","coordinates":[[[-102.021643,48.807108],[-102.021216200276,48.9990148869318],[-101.496549479348,48.9996388642511],[-101.496684,48.720078],[-101.451046,48.720016],[-101.451275,48.546079],[-101.059663,48.545419],[-101.059833,48.458448],[-101.842845,48.459523],[-101.842244,48.720064],[-102.021428,48.720283],[-102.021643,48.807108]]]}},{"type":"Feature","properties":{"GEOID":"38021","NAME":"Dickey","state":"ND","wildfire_risk_score":55.98,"wildfire_eal_total":65794.3,"risk_band":"Moderate","source":"FEMA National Risk Index v1.20 (December 2025)"},"geometry":{"type":"Polygon","coordinates":[[[-99.0057543501525,45.9399443091284],[-99.003118,46.282898],[-98.006715,46.282626],[-98.0081016551785,45.9360953642803],[-99.0057543501525,45.9399443091284]]]}},{"type":"Feature","properties":{"GEOID":"38073","NAME":"Ransom","state":"ND","wildfire_risk_score":59.765,"wildfire_eal_total":95925.93,"risk_band":"Moderate","source":"FEMA National Risk Index v1.20 (December 2025)"},"geometry":{"type":"Polygon","coordinates":[[[-98.034913,46.369867],[-98.033862,46.630727],[-97.279948,46.629348],[-97.280566,46.282393],[-98.034556,46.282657],[-98.034913,46.369867]]]}},{"type":"Feature","properties":{"GEOID":"38027","NAME":"Eddy","state":"ND","wildfire_risk_score":63.009,"wildfire_eal_total":145654.55,"risk_band":"Moderate","source":"FEMA National Risk Index v1.20 (December 2025)"},"geometry":{"type":"Polygon","coordinates":[[[-99.29738,47.76757],[-99.297202,47.846834],[-98.525516,47.846276],[-98.522295,47.773237],[-98.52569,47.773497],[-98.525391,47.672318],[-98.500181,47.672413],[-98.500085,47.587228],[-99.265798,47.5876],[-99.26571,47.672969],[-99.297318,47.673004],[-99.29738,47.76757]]]}},{"type":"Feature","properties":{"GEOID":"38029","NAME":"Emmons","state":"ND","wildfire_risk_score":93.162,"wildfire_eal_total":1941562.21,"risk_band":"High","source":"FEMA National Risk Index v1.20 (December 2025)"},"geometry":{"type":"Polygon","coordinates":[[[-100.662015,46.6346],[-99.915586,46.632926],[-99.91718,46.283735],[-99.878351,46.283102],[-99.8800619621576,45.9416699048269],[-100.511948993993,45.9436539838471],[-100.507026,45.966548],[-100.521885,45.98942],[-100.53131,45.999996],[-100.560205,46.008396],[-100.608004,46.059296],[-100.616904,46.081796],[-100.614604,46.112295],[-100.629015,46.134051],[-100.628976,46.146001],[-100.619703,46.163795],[-100.574401,46.210594],[-100.5576,46.241594],[-100.5582,46.249293],[-100.5816,46.278594],[-100.559099,46.307994],[-100.549199,46.329293],[-100.551199,46.363494],[-100.595299,46.435494],[-100.598499,46.449294],[-100.583298,46.499294],[-100.550675,46.519637],[-100.544555,46.533766],[-100.587027,46.573435],[-100.580887,46.580649],[-100.565369,46.578449],[-100.561035,46.587847],[-100.568141,46.594025],[-100.6254,46.612184],[-100.662015,46.6346]]]}},{"type":"Feature","properties":{"GEOID":"38025","NAME":"Dunn","state":"ND","wildfire_risk_score":83.874,"wildfire_eal_total":607617.17,"risk_band":"High","source":"FEMA National Risk Index v1.20 (December 2025)"},"geometry":{"type":"Polygon","coordinates":[[[-103.09967,47.674518],[-102.642669,47.674012],[-102.642266,47.823713],[-102.623166,47.805513],[-102.561965,47.780111],[-102.504063,47.78111],[-102.471062,47.76411],[-102.43306,47.759309],[-102.415359,47.752009],[-102.397158,47.753209],[-102.375457,47.763509],[-102.358256,47.79061],[-102.342555,47.80071],[-102.260951,47.781409],[-102.257951,47.769808],[-102.262651,47.760608],[-102.291253,47.753808],[-102.282052,47.735608],[-102.261551,47.724308],[-102.265352,47.623507],[-102.20535,47.574506],[-102.205556,47.328071],[-102.144453,47.328079],[-102.144771,47.010307],[-102.525463,47.01024],[-102.525364,46.981288],[-103.032681,46.98058],[-103.032366,47.328686],[-103.099197,47.328714],[-103.09967,47.674518]]]}},{"type":"Feature","properties":{"GEOID":"38079","NAME":"Rolette","state":"ND","wildfire_risk_score":96.374,"wildfire_eal_total":3302131.07,"risk_band":"High","source":"FEMA National Risk Index v1.20 (December 2025)"},"geometry":{"type":"Polygon","coordinates":[[[-100.182975,48.762397],[-100.182606092555,48.9992301566536],[-99.5257739172443,48.9993091938886],[-99.525895,48.718384],[-99.493002,48.718359],[-99.493189,48.544834],[-100.145858,48.545211],[-100.145494,48.718875],[-100.183034,48.718909],[-100.182975,48.762397]]]}},{"type":"Feature","properties":{"GEOID":"38019","NAME":"Cavalier","state":"ND","wildfire_risk_score":52.799,"wildfire_eal_total":47309.18,"risk_band":"Low","source":"FEMA National Risk Index v1.20 (December 2025)"},"geometry":{"type":"Polygon","coordinates":[[[-99.000839,48.81946],[-98.9998170456132,48.9999862727848],[-97.9500120193004,49.000515184076],[-97.94945,48.717693],[-97.927264,48.717088],[-97.927069,48.543124],[-98.970392,48.544232],[-98.970368,48.718089],[-98.99989,48.718129],[-99.000839,48.81946]]]}},{"type":"Feature","properties":{"GEOID":"38041","NAME":"Hettinger","state":"ND","wildfire_risk_score":55.407,"wildfire_eal_total":54953.71,"risk_band":"Moderate","source":"FEMA National Risk Index v1.20 (December 2025)"},"geometry":{"type":"Polygon","coordinates":[[[-102.927451,46.63002],[-102.05124,46.630917],[-102.046929,46.283606],[-101.998069,46.283671],[-101.99793,46.205324],[-102.497137,46.205904],[-102.497642,46.283195],[-102.924547,46.281518],[-102.927451,46.63002]]]}}]}