{"type":"FeatureCollection","metadata":{"state":"NE","boundary_source":"U.S. Census Bureau 2024 Cartographic Boundary File (counties, 1:500,000)","risk_source":"FEMA National Risk Index v1.20 (December 2025)"},"features":[{"type":"Feature","properties":{"GEOID":"31115","NAME":"Loup","state":"NE","wildfire_risk_score":30.089,"wildfire_eal_total":20210.64,"risk_band":"Low","source":"FEMA National Risk Index v1.20 (December 2025)"},"geometry":{"type":"Polygon","coordinates":[[[-99.686959,42.086075],[-99.222733,42.087916],[-99.22183,41.740792],[-99.686834,41.740326],[-99.686959,42.086075]]]}},{"type":"Feature","properties":{"GEOID":"31005","NAME":"Arthur","state":"NE","wildfire_risk_score":57.92,"wildfire_eal_total":96055.4,"risk_band":"Moderate","source":"FEMA National Risk Index v1.20 (December 2025)"},"geometry":{"type":"Polygon","coordinates":[[[-101.985589,41.578205],[-101.985523,41.74229],[-101.406466,41.7432],[-101.40726,41.395416],[-101.984567,41.395012],[-101.985589,41.578205]]]}},{"type":"Feature","properties":{"GEOID":"31075","NAME":"Grant","state":"NE","wildfire_risk_score":61.959,"wildfire_eal_total":128800.12,"risk_band":"Moderate","source":"FEMA National Risk Index v1.20 (December 2025)"},"geometry":{"type":"Polygon","coordinates":[[[-102.06665,42.009195],[-102.008562,42.008901],[-102.006428,42.096227],[-101.426557,42.092194],[-101.42592,41.743059],[-102.067764,41.742075],[-102.06665,42.009195]]]}},{"type":"Feature","properties":{"GEOID":"31091","NAME":"Hooker","state":"NE","wildfire_risk_score":40.49,"wildfire_eal_total":20475.1,"risk_band":"Low","source":"FEMA National Risk Index v1.20 (December 2025)"},"geometry":{"type":"Polygon","coordinates":[[[-101.426557,42.092194],[-100.846129,42.088166],[-100.842459,41.740404],[-101.42592,41.743059],[-101.426557,42.092194]]]}},{"type":"Feature","properties":{"GEOID":"31185","NAME":"York","state":"NE","wildfire_risk_score":37.373,"wildfire_eal_total":32166.44,"risk_band":"Low","source":"FEMA National Risk Index v1.20 (December 2025)"},"geometry":{"type":"Polygon","coordinates":[[[-97.826287,41.046581],[-97.368118,41.046947],[-97.368401,40.698625],[-97.825723,40.698555],[-97.826287,41.046581]]]}},{"type":"Feature","properties":{"GEOID":"31093","NAME":"Howard","state":"NE","wildfire_risk_score":52.767,"wildfire_eal_total":75713.51,"risk_band":"Moderate","source":"FEMA National Risk Index v1.20 (December 2025)"},"geometry":{"type":"Polygon","coordinates":[[[-98.749167,41.105223],[-98.74433,41.394178],[-98.286584,41.393898],[-98.287168,41.046363],[-98.748526,41.04664],[-98.749167,41.105223]]]}},{"type":"Feature","properties":{"GEOID":"31113","NAME":"Logan","state":"NE","wildfire_risk_score":49.268,"wildfire_eal_total":59618.74,"risk_band":"Moderate","source":"FEMA National Risk Index v1.20 (December 2025)"},"geometry":{"type":"Polygon","coordinates":[[[-100.713877,41.509787],[-100.711407,41.739821],[-100.251224,41.739817],[-100.251098,41.393298],[-100.713243,41.393511],[-100.713877,41.509787]]]}},{"type":"Feature","properties":{"GEOID":"31103","NAME":"Keya Paha","state":"NE","wildfire_risk_score":62.691,"wildfire_eal_total":64930.97,"risk_band":"Moderate","source":"FEMA National Risk Index v1.20 (December 2025)"},"geometry":{"type":"Polygon","coordinates":[[[-100.198388,42.912225],[-100.198411901919,42.9985420522041],[-99.2544542492264,42.998139794357],[-99.257039,42.804296],[-99.274937,42.794827],[-99.30016,42.796171],[-99.339618,42.779665],[-99.377971,42.782214],[-99.395903,42.772318],[-99.415222,42.772098],[-99.437057,42.753615],[-99.4625,42.751626],[-99.476246,42.735396],[-99.537491,42.717626],[-99.570746,42.724251],[-99.620487,42.723057],[-99.659861,42.735106],[-99.708585,42.727055],[-99.752491,42.737633],[-99.778334,42.735173],[-99.819254,42.743293],[-99.837262,42.754108],[-99.851527,42.75121],[-99.862162,42.769002],[-99.898039,42.765462],[-99.968856,42.772474],[-100.007809,42.788566],[-100.055921,42.785438],[-100.11334,42.799683],[-100.117424,42.805361],[-100.135313,42.808575],[-100.139005,42.814454],[-100.134029,42.82065],[-100.144031,42.824131],[-100.145363,42.830215],[-100.150365,42.83255],[-100.161336,42.827567],[-100.163322,42.833445],[-100.187778,42.83761],[-100.198478,42.846102],[-100.198388,42.912225]]]}},{"type":"Feature","properties":{"GEOID":"31077","NAME":"Greeley","state":"NE","wildfire_risk_score":47.774,"wildfire_eal_total":57511.09,"risk_band":"Moderate","source":"FEMA National Risk Index v1.20 (December 2025)"},"geometry":{"type":"Polygon","coordinates":[[[-98.752225,41.740372],[-98.290943,41.74121],[-98.291419,41.393894],[-98.751558,41.394084],[-98.752225,41.740372]]]}},{"type":"Feature","properties":{"GEOID":"31171","NAME":"Thomas","state":"NE","wildfire_risk_score":42.207,"wildfire_eal_total":44879.44,"risk_band":"Low","source":"FEMA National Risk Index v1.20 (December 2025)"},"geometry":{"type":"Polygon","coordinates":[[[-100.846129,42.088166],[-100.267622,42.086147],[-100.265474,41.739856],[-100.842459,41.740404],[-100.846129,42.088166]]]}},{"type":"Feature","properties":{"GEOID":"31037","NAME":"Colfax","state":"NE","wildfire_risk_score":57.061,"wildfire_eal_total":94750.84,"risk_band":"Moderate","source":"FEMA National Risk Index v1.20 (December 2025)"},"geometry":{"type":"Polygon","coordinates":[[[-97.253336,41.395103],[-97.252425,41.743085],[-96.905922,41.742763],[-96.90591,41.456436],[-96.926494,41.455053],[-96.964703,41.441801],[-97.01573,41.413852],[-97.056831,41.412531],[-97.106434,41.387889],[-97.178464,41.376816],[-97.199268,41.38584],[-97.253519,41.384212],[-97.253336,41.395103]]]}},{"type":"Feature","properties":{"GEOID":"31155","NAME":"Saunders","state":"NE","wildfire_risk_score":72.233,"wildfire_eal_total":344278.51,"risk_band":"High","source":"FEMA National Risk Index v1.20 (December 2025)"},"geometry":{"type":"Polygon","coordinates":[[[-96.908993,41.267935],[-96.905862,41.453389],[-96.833757,41.445697],[-96.815203,41.439585],[-96.774305,41.450075],[-96.746472,41.449576],[-96.693743,41.425738],[-96.655733,41.429405],[-96.640327,41.436183],[-96.559144,41.429881],[-96.509509,41.404218],[-96.504238,41.396621],[-96.47072,41.393239],[-96.459511,41.380315],[-96.421852,41.364478],[-96.407437,41.336623],[-96.407608,41.314614],[-96.375593,41.296605],[-96.350598,41.265192],[-96.350807,41.256248],[-96.365558,41.234136],[-96.354308,41.207467],[-96.332547,41.195555],[-96.32165,41.176743],[-96.315929,41.143955],[-96.319896,41.132099],[-96.310983,41.115338],[-96.336742,41.09531],[-96.339805,41.082502],[-96.319191,41.044998],[-96.349027,41.04495],[-96.34947,41.01532],[-96.369507,41.014991],[-96.463861,41.016069],[-96.463869,41.045083],[-96.908507,41.046091],[-96.908993,41.267935]]]}},{"type":"Feature","properties":{"GEOID":"31047","NAME":"Dawson","state":"NE","wildfire_risk_score":65.712,"wildfire_eal_total":118675.89,"risk_band":"Moderate","source":"FEMA National Risk Index v1.20 (December 2025)"},"geometry":{"type":"Polygon","coordinates":[[[-100.224355,40.92931],[-100.224235,41.046597],[-99.425986,41.046471],[-99.426551,40.69977],[-99.416414,40.699738],[-99.417316,40.670825],[-99.447647,40.678075],[-99.530138,40.675319],[-99.555917,40.680834],[-99.583465,40.677194],[-99.622304,40.686105],[-99.664945,40.687718],[-99.699269,40.699969],[-100.223311,40.700254],[-100.224355,40.92931]]]}},{"type":"Feature","properties":{"GEOID":"31059","NAME":"Fillmore","state":"NE","wildfire_risk_score":30.248,"wildfire_eal_total":21176.02,"risk_band":"Low","source":"FEMA National Risk Index v1.20 (December 2025)"},"geometry":{"type":"Polygon","coordinates":[[[-97.82478,40.698537],[-97.368401,40.698625],[-97.368688,40.350392],[-97.824114,40.350541],[-97.82478,40.698537]]]}},{"type":"Feature","properties":{"GEOID":"31123","NAME":"Morrill","state":"NE","wildfire_risk_score":63.931,"wildfire_eal_total":97994.76,"risk_band":"Moderate","source":"FEMA National Risk Index v1.20 (December 2025)"},"geometry":{"type":"Polygon","coordinates":[[[-103.370401,41.743281],[-103.362647,41.743988],[-103.363337,42.00293],[-102.862321,42.000665],[-102.677582,42.005282],[-102.676986,41.786964],[-102.664311,41.74319],[-102.635803,41.742834],[-102.636525,41.438809],[-103.369005,41.437766],[-103.370401,41.743281]]]}},{"type":"Feature","properties":{"GEOID":"31181","NAME":"Webster","state":"NE","wildfire_risk_score":42.684,"wildfire_eal_total":22802.82,"risk_band":"Low","source":"FEMA National Risk Index v1.20 (December 2025)"},"geometry":{"type":"Polygon","coordinates":[[[-98.726827,40.350398],[-98.273571,40.350359],[-98.274015,40.002516],[-98.7263734167054,40.0022221837665],[-98.726827,40.350398]]]}},{"type":"Feature","properties":{"GEOID":"31179","NAME":"Wayne","state":"NE","wildfire_risk_score":58.206,"wildfire_eal_total":120987.87,"risk_band":"Moderate","source":"FEMA National Risk Index v1.20 (December 2025)"},"geometry":{"type":"Polygon","coordinates":[[[-97.368228,42.105273],[-97.367724,42.351861],[-97.017789,42.351347],[-97.01773,42.264453],[-96.822497,42.264292],[-96.82367,42.090411],[-97.368404,42.090922],[-97.368228,42.105273]]]}},{"type":"Feature","properties":{"GEOID":"31073","NAME":"Gosper","state":"NE","wildfire_risk_score":22.01,"wildfire_eal_total":11306.58,"risk_band":"Low","source":"FEMA National Risk Index v1.20 (December 2025)"},"geometry":{"type":"Polygon","coordinates":[[[-100.095095,40.438656],[-99.981193,40.438291],[-99.981743,40.700003],[-99.699269,40.699969],[-99.643462,40.684911],[-99.642209,40.3512],[-100.094798,40.351245],[-100.095095,40.438656]]]}},{"type":"Feature","properties":{"GEOID":"31069","NAME":"Garden","state":"NE","wildfire_risk_score":62.436,"wildfire_eal_total":126844.46,"risk_band":"Moderate","source":"FEMA National Risk Index v1.20 (December 2025)"},"geometry":{"type":"Polygon","coordinates":[[[-102.678706,41.814539],[-102.677582,42.005282],[-102.06665,42.009195],[-102.067764,41.742075],[-101.985523,41.74229],[-101.984567,41.395012],[-102.055256,41.395162],[-102.055599,41.221547],[-102.610413,41.221614],[-102.609386,41.395115],[-102.636741,41.395221],[-102.635803,41.742834],[-102.664311,41.74319],[-102.676986,41.786964],[-102.678706,41.814539]]]}},{"type":"Feature","properties":{"GEOID":"31135","NAME":"Perkins","state":"NE","wildfire_risk_score":17.207,"wildfire_eal_total":8512.86,"risk_band":"Low","source":"FEMA National Risk Index v1.20 (December 2025)"},"geometry":{"type":"Polygon","coordinates":[[[-102.051761,41.003874],[-101.249975,41.00395],[-101.247963,40.697802],[-102.051398432507,40.6975418168734],[-102.051761,41.003874]]]}},{"type":"Feature","properties":{"GEOID":"31083","NAME":"Harlan","state":"NE","wildfire_risk_score":35.019,"wildfire_eal_total":19211.24,"risk_band":"Low","source":"FEMA National Risk Index v1.20 (December 2025)"},"geometry":{"type":"Polygon","coordinates":[[[-99.630683,40.246727],[-99.630459,40.35112],[-99.179403,40.350681],[-99.179134,40.001977],[-99.6282545420969,40.0018659613449],[-99.630683,40.246727]]]}},{"type":"Feature","properties":{"GEOID":"31055","NAME":"Douglas","state":"NE","wildfire_risk_score":88.804,"wildfire_eal_total":1319874.01,"risk_band":"High","source":"FEMA National Risk Index v1.20 (December 2025)"},"geometry":{"type":"Polygon","coordinates":[[[-96.47072,41.393239],[-95.93749,41.393095],[-95.92879,41.370096],[-95.93549,41.360596],[-95.954891,41.351796],[-95.953091,41.339896],[-95.92569,41.322197],[-95.883089,41.316697],[-95.871489,41.295797],[-95.87689,41.285097],[-95.90249,41.273398],[-95.912491,41.279498],[-95.90429,41.299597],[-95.927491,41.298397],[-95.928691,41.281398],[-95.913991,41.271398],[-95.921891,41.264598],[-95.910891,41.233998],[-95.924891,41.211198],[-95.927491,41.202198],[-95.9233116732375,41.1912022372202],[-96.327399,41.189999],[-96.350676,41.204191],[-96.361378,41.219219],[-96.365474,41.235543],[-96.349662,41.262164],[-96.360566,41.280411],[-96.375593,41.296605],[-96.407608,41.314614],[-96.407437,41.336623],[-96.420345,41.363024],[-96.459511,41.380315],[-96.47072,41.393239]]]}},{"type":"Feature","properties":{"GEOID":"31065","NAME":"Furnas","state":"NE","wildfire_risk_score":19.879,"wildfire_eal_total":5963.49,"risk_band":"Low","source":"FEMA National Risk Index v1.20 (December 2025)"},"geometry":{"type":"Polygon","coordinates":[[[-100.197807,40.350027],[-99.630459,40.35112],[-99.6282545420969,40.0018659613449],[-100.19359,40.001573],[-100.197807,40.350027]]]}},{"type":"Feature","properties":{"GEOID":"31051","NAME":"Dixon","state":"NE","wildfire_risk_score":67.653,"wildfire_eal_total":198607.1,"risk_band":"High","source":"FEMA National Risk Index v1.20 (December 2025)"},"geometry":{"type":"Polygon","coordinates":[[[-97.017789,42.351347],[-97.0158249637164,42.7615990655011],[-96.97912,42.76009],[-96.96888,42.754278],[-96.960866,42.739089],[-96.965833,42.727096],[-96.963531,42.720643],[-96.937589,42.719597],[-96.918282,42.731852],[-96.906797,42.7338],[-96.806223,42.704154],[-96.800485,42.692466],[-96.802178,42.672237],[-96.793238,42.666024],[-96.76406,42.661985],[-96.728024,42.666882],[-96.687669,42.653126],[-96.689083,42.644081],[-96.709485,42.621932],[-96.7093,42.603753],[-96.681369,42.574486],[-96.658754,42.566426],[-96.638033,42.55196],[-96.631494,42.524319],[-96.722231,42.524652],[-96.726188,42.264104],[-97.01773,42.264453],[-97.017789,42.351347]]]}},{"type":"Feature","properties":{"GEOID":"31071","NAME":"Garfield","state":"NE","wildfire_risk_score":50.032,"wildfire_eal_total":45651.91,"risk_band":"Moderate","source":"FEMA National Risk Index v1.20 (December 2025)"},"geometry":{"type":"Polygon","coordinates":[[[-99.222733,42.087916],[-98.761155,42.088518],[-98.759133,41.740382],[-99.22183,41.740792],[-99.222733,42.087916]]]}},{"type":"Feature","properties":{"GEOID":"31009","NAME":"Blaine","state":"NE","wildfire_risk_score":50.763,"wildfire_eal_total":46229.46,"risk_band":"Moderate","source":"FEMA National Risk Index v1.20 (December 2025)"},"geometry":{"type":"Polygon","coordinates":[[[-100.267622,42.086147],[-99.686959,42.086075],[-99.686834,41.740326],[-100.265474,41.739856],[-100.267622,42.086147]]]}},{"type":"Feature","properties":{"GEOID":"31007","NAME":"Banner","state":"NE","wildfire_risk_score":42.144,"wildfire_eal_total":40438.18,"risk_band":"Low","source":"FEMA National Risk Index v1.20 (December 2025)"},"geometry":{"type":"Polygon","coordinates":[[[-104.052945,41.638167],[-104.052830062293,41.6978232238571],[-103.370391,41.69921],[-103.367149,41.499975],[-103.370452,41.394677],[-104.052287592918,41.3932140037803],[-104.052945,41.638167]]]}},{"type":"Feature","properties":{"GEOID":"31149","NAME":"Rock","state":"NE","wildfire_risk_score":62.373,"wildfire_eal_total":135197.98,"risk_band":"Moderate","source":"FEMA National Risk Index v1.20 (December 2025)"},"geometry":{"type":"Polygon","coordinates":[[[-99.677684,42.730903],[-99.659861,42.735106],[-99.620487,42.723057],[-99.570746,42.724251],[-99.537491,42.717626],[-99.476246,42.735396],[-99.4625,42.751626],[-99.437057,42.753615],[-99.415222,42.772098],[-99.395903,42.772318],[-99.377971,42.782214],[-99.339618,42.779665],[-99.30016,42.796171],[-99.274937,42.794827],[-99.257039,42.804296],[-99.256846,42.782655],[-99.245803,42.782499],[-99.244591,42.434639],[-99.234064,42.434524],[-99.234629,42.087995],[-99.662379,42.086009],[-99.663752,42.434609],[-99.675891,42.43445],[-99.677684,42.730903]]]}},{"type":"Feature","properties":{"GEOID":"31061","NAME":"Franklin","state":"NE","wildfire_risk_score":40.617,"wildfire_eal_total":23268.72,"risk_band":"Low","source":"FEMA National Risk Index v1.20 (December 2025)"},"geometry":{"type":"Polygon","coordinates":[[[-99.179403,40.350681],[-98.726827,40.350398],[-98.7263734167054,40.0022221837665],[-99.179134,40.001977],[-99.179403,40.350681]]]}},{"type":"Feature","properties":{"GEOID":"31105","NAME":"Kimball","state":"NE","wildfire_risk_score":55.216,"wildfire_eal_total":57879.38,"risk_band":"Moderate","source":"FEMA National Risk Index v1.20 (December 2025)"},"geometry":{"type":"Polygon","coordinates":[[[-104.053418545071,41.1705389679833],[-104.052287592918,41.3932140037803],[-103.37762,41.394633],[-103.375691,41.047623],[-103.382491,41.04767],[-103.382492446889,41.00223211782],[-104.053249,41.001406],[-104.053418545071,41.1705389679833]]]}},{"type":"Feature","properties":{"GEOID":"31029","NAME":"Chase","state":"NE","wildfire_risk_score":25.095,"wildfire_eal_total":14255.58,"risk_band":"Low","source":"FEMA National Risk Index v1.20 (December 2025)"},"geometry":{"type":"Polygon","coordinates":[[[-102.051838622543,40.3965561964169],[-102.051398432507,40.6975418168734],[-101.345365,40.698093],[-101.342788,40.350444],[-102.051553251676,40.3492139863953],[-102.051838622543,40.3965561964169]]]}},{"type":"Feature","properties":{"GEOID":"31169","NAME":"Thayer","state":"NE","wildfire_risk_score":44.72,"wildfire_eal_total":35893.86,"risk_band":"Low","source":"FEMA National Risk Index v1.20 (December 2025)"},"geometry":{"type":"Polygon","coordinates":[[[-97.821339,40.031111],[-97.820816,40.350545],[-97.368688,40.350392],[-97.3691985101944,40.0020598794115],[-97.8214959564515,40.0020018388567],[-97.821339,40.031111]]]}},{"type":"Feature","properties":{"GEOID":"31157","NAME":"Scotts Bluff","state":"NE","wildfire_risk_score":64.186,"wildfire_eal_total":120092.24,"risk_band":"Moderate","source":"FEMA National Risk Index v1.20 (December 2025)"},"geometry":{"type":"Polygon","coordinates":[[[-104.053026,41.885464],[-104.052704197335,42.0017298993528],[-103.363337,42.00293],[-103.362647,41.743988],[-103.370401,41.743281],[-103.370391,41.69921],[-104.052830062293,41.6978232238571],[-104.053026,41.885464]]]}},{"type":"Feature","properties":{"GEOID":"31027","NAME":"Cedar","state":"NE","wildfire_risk_score":71.183,"wildfire_eal_total":229172.57,"risk_band":"High","source":"FEMA National Risk Index v1.20 (December 2025)"},"geometry":{"type":"Polygon","coordinates":[[[-97.48601,42.785663],[-97.484921,42.850368],[-97.442279,42.846224],[-97.408315,42.868334],[-97.376695,42.865195],[-97.359569,42.854816],[-97.336156,42.856802],[-97.306677,42.867604],[-97.289859,42.855499],[-97.248556,42.855386],[-97.218825,42.845848],[-97.218269,42.829561],[-97.210126,42.809296],[-97.150763,42.795566],[-97.131331,42.771929],[-97.065592,42.772189],[-97.0158249637164,42.7615990655011],[-97.017789,42.351347],[-97.367724,42.351861],[-97.36759,42.438775],[-97.485298,42.438578],[-97.48601,42.785663]]]}},{"type":"Feature","properties":{"GEOID":"31015","NAME":"Boyd","state":"NE","wildfire_risk_score":52.354,"wildfire_eal_total":73477.1,"risk_band":"Moderate","source":"FEMA National Risk Index v1.20 (December 2025)"},"geometry":{"type":"Polygon","coordinates":[[[-99.257578,42.901981],[-99.253965,42.904854],[-99.2544542492264,42.998139794357],[-98.49855,42.99856],[-98.490483,42.977948],[-98.467356,42.947556],[-98.448309,42.936428],[-98.444145,42.929242],[-98.42074,42.931924],[-98.34623,42.902747],[-98.329663,42.888441],[-98.3097690850567,42.8825596624247],[-98.310239,42.784618],[-98.305051,42.784643],[-98.305149,42.761207],[-98.340605,42.770661],[-98.36722,42.767726],[-98.416025,42.775674],[-98.465672,42.766206],[-98.490926,42.7731],[-98.531191,42.774618],[-98.548473,42.781649],[-98.58376,42.779736],[-98.656835,42.809021],[-98.67462,42.8027],[-98.70838,42.803346],[-98.763223,42.827899],[-98.792587,42.82427],[-98.811282,42.827746],[-98.842965,42.846494],[-98.888441,42.84348],[-98.954634,42.894077],[-98.96698,42.896724],[-98.994163,42.894362],[-99.016792,42.886262],[-99.05676,42.862595],[-99.096293,42.856281],[-99.128038,42.84427],[-99.153803,42.841884],[-99.178812,42.829479],[-99.257039,42.804296],[-99.257578,42.901981]]]}},{"type":"Feature","properties":{"GEOID":"31025","NAME":"Cass","state":"NE","wildfire_risk_score":74.141,"wildfire_eal_total":367385.19,"risk_band":"High","source":"FEMA National Risk Index v1.20 (December 2025)"},"geometry":{"type":"Polygon","coordinates":[[[-96.463861,41.016069],[-96.34947,41.01532],[-96.349027,41.04495],[-96.319191,41.044998],[-96.297296,41.026804],[-96.247601,41.017776],[-96.232961,41.000855],[-96.214425,40.994473],[-96.144693,41.017598],[-96.10337,41.051945],[-96.056256,41.065356],[-96.003088,41.060515],[-95.987337,41.052717],[-95.961001,41.060771],[-95.889215,41.058443],[-95.860462,41.037887],[-95.859918,41.025403],[-95.869486,41.009399],[-95.867286,41.001599],[-95.830297,40.978332],[-95.829829,40.963857],[-95.840275,40.939942],[-95.837774,40.924712],[-95.809775,40.895447],[-95.815933,40.879846],[-95.842521,40.870266],[-95.84859,40.861061],[-95.837186,40.835347],[-95.845342,40.811324],[-95.8342151936933,40.7837840663969],[-96.463764,40.78396],[-96.463861,41.016069]]]}},{"type":"Feature","properties":{"GEOID":"31165","NAME":"Sioux","state":"NE","wildfire_risk_score":69.784,"wildfire_eal_total":215967.0,"risk_band":"High","source":"FEMA National Risk Index v1.20 (December 2025)"},"geometry":{"type":"Polygon","coordinates":[[[-104.052793,42.249962],[-104.053028,43.000587],[-103.505099999707,43.0007699609796],[-103.503086,42.784913],[-103.480335,42.784908],[-103.48001,42.437267],[-103.444278,42.437275],[-103.444108,42.090708],[-103.401591,42.090411],[-103.401522,42.003537],[-104.052704197335,42.0017298993528],[-104.052793,42.249962]]]}},{"type":"Feature","properties":{"GEOID":"31131","NAME":"Otoe","state":"NE","wildfire_risk_score":67.494,"wildfire_eal_total":234708.24,"risk_band":"High","source":"FEMA National Risk Index v1.20 (December 2025)"},"geometry":{"type":"Polygon","coordinates":[[[-96.46384,40.68247],[-96.463764,40.78396],[-95.8342151936933,40.7837840663969],[-95.842824,40.771093],[-95.869982,40.759645],[-95.883643,40.747831],[-95.888697,40.736292],[-95.885349,40.721093],[-95.852615,40.702262],[-95.842801,40.677496],[-95.786568,40.657253],[-95.772832,40.642496],[-95.768926,40.621264],[-95.749685,40.606842],[-95.753148,40.59284],[-95.768527,40.583296],[-95.774704,40.573574],[-95.763833,40.553873],[-95.769281,40.536656],[-95.76692,40.531563],[-95.74868,40.524275],[-95.722444,40.528118],[-95.709974,40.523798],[-96.463632,40.523013],[-96.46384,40.68247]]]}},{"type":"Feature","properties":{"GEOID":"31129","NAME":"Nuckolls","state":"NE","wildfire_risk_score":42.08,"wildfire_eal_total":32820.38,"risk_band":"Low","source":"FEMA National Risk Index v1.20 (December 2025)"},"geometry":{"type":"Polygon","coordinates":[[[-98.274051,40.061928],[-98.273571,40.350359],[-97.820816,40.350545],[-97.8214959564515,40.0020018388567],[-98.274015,40.002516],[-98.274051,40.061928]]]}},{"type":"Feature","properties":{"GEOID":"31153","NAME":"Sarpy","state":"NE","wildfire_risk_score":81.457,"wildfire_eal_total":736921.52,"risk_band":"High","source":"FEMA National Risk Index v1.20 (December 2025)"},"geometry":{"type":"Polygon","coordinates":[[[-96.338861,41.091424],[-96.310983,41.115338],[-96.319896,41.132099],[-96.316297,41.148555],[-96.327399,41.189999],[-95.9233116732375,41.1912022372202],[-95.90969,41.184398],[-95.856788,41.187098],[-95.841288,41.174998],[-95.846188,41.166698],[-95.871912,41.168122],[-95.883489,41.154898],[-95.882088,41.143998],[-95.865888,41.117898],[-95.862587,41.088399],[-95.881375,41.065203],[-95.879487,41.053299],[-95.896656,41.059419],[-95.961001,41.060771],[-95.987337,41.052717],[-96.003088,41.060515],[-96.056256,41.065356],[-96.10337,41.051945],[-96.144693,41.017598],[-96.214425,40.994473],[-96.232961,41.000855],[-96.247601,41.017776],[-96.284387,41.021746],[-96.311283,41.03643],[-96.338149,41.077998],[-96.338861,41.091424]]]}},{"type":"Feature","properties":{"GEOID":"31049","NAME":"Deuel","state":"NE","wildfire_risk_score":38.422,"wildfire_eal_total":19420.69,"risk_band":"Low","source":"FEMA National Risk Index v1.20 (December 2025)"},"geometry":{"type":"Polygon","coordinates":[[[-102.620872,41.048],[-102.610213,41.048207],[-102.610413,41.221614],[-102.055599,41.221547],[-102.055528,41.047457],[-102.051808,41.047436],[-102.051717530058,41.002377250863],[-102.621033,41.002597],[-102.620872,41.048]]]}},{"type":"Feature","properties":{"GEOID":"31177","NAME":"Washington","state":"NE","wildfire_risk_score":82.093,"wildfire_eal_total":839237.9,"risk_band":"High","source":"FEMA National Risk Index v1.20 (December 2025)"},"geometry":{"type":"Polygon","coordinates":[[[-96.444785,41.683633],[-96.121711955686,41.6829898591487],[-96.095415,41.652736],[-96.097728,41.639633],[-96.116233,41.621574],[-96.118105,41.613495],[-96.109387,41.596871],[-96.081843,41.580407],[-96.082406,41.571229],[-96.095851,41.55088],[-96.092008,41.53391],[-96.05369,41.508859],[-96.040701,41.507076],[-96.034877,41.511704],[-96.02349,41.543438],[-96.013876,41.545315],[-95.999966,41.53948],[-95.992833,41.512002],[-96.019224,41.489296],[-96.011757,41.476212],[-95.962329,41.46281],[-95.936801,41.46519],[-95.920281,41.451566],[-95.921833,41.442062],[-95.933169,41.42943],[-95.929721,41.411331],[-95.93749,41.393095],[-96.329012,41.393136],[-96.328923,41.436621],[-96.367336,41.436698],[-96.3672,41.450953],[-96.386478,41.451253],[-96.38642,41.465749],[-96.405622,41.465821],[-96.405936,41.48046],[-96.425211,41.480342],[-96.42522,41.494865],[-96.434792,41.494928],[-96.43446,41.523931],[-96.443898,41.523933],[-96.444785,41.683633]]]}},{"type":"Feature","properties":{"GEOID":"31111","NAME":"Lincoln","state":"NE","wildfire_risk_score":74.618,"wildfire_eal_total":274803.49,"risk_band":"High","source":"FEMA National Risk Index v1.20 (December 2025)"},"geometry":{"type":"Polygon","coordinates":[[[-101.270324,41.179971],[-101.269695,41.394934],[-100.236106,41.393324],[-100.238155,41.046536],[-100.224235,41.046597],[-100.223311,40.700254],[-101.247963,40.697802],[-101.250162,41.047385],[-101.270381,41.047392],[-101.270324,41.179971]]]}},{"type":"Feature","properties":{"GEOID":"31081","NAME":"Hamilton","state":"NE","wildfire_risk_score":28.403,"wildfire_eal_total":19626.18,"risk_band":"Low","source":"FEMA National Risk Index v1.20 (December 2025)"},"geometry":{"type":"Polygon","coordinates":[[[-98.282789,40.763594],[-98.282578,40.868677],[-98.275126,40.879579],[-98.215471,40.930521],[-98.169777,40.954766],[-98.146268,40.984283],[-98.100648,41.008723],[-98.088957,41.009659],[-98.054169,41.037788],[-98.030035,41.049739],[-98.010548,41.072761],[-97.970382,41.090841],[-97.966797,41.085616],[-97.88575,41.114648],[-97.828256,41.173439],[-97.825723,40.698555],[-98.282851,40.698284],[-98.282789,40.763594]]]}},{"type":"Feature","properties":{"GEOID":"31089","NAME":"Holt","state":"NE","wildfire_risk_score":70.452,"wildfire_eal_total":190841.95,"risk_band":"High","source":"FEMA National Risk Index v1.20 (December 2025)"},"geometry":{"type":"Polygon","coordinates":[[[-99.257039,42.804296],[-99.178812,42.829479],[-99.153803,42.841884],[-99.128038,42.84427],[-99.096293,42.856281],[-99.05676,42.862595],[-99.016792,42.886262],[-98.994163,42.894362],[-98.96698,42.896724],[-98.954634,42.894077],[-98.888441,42.84348],[-98.842965,42.846494],[-98.811282,42.827746],[-98.792587,42.82427],[-98.763223,42.827899],[-98.70838,42.803346],[-98.67462,42.8027],[-98.656835,42.809021],[-98.58376,42.779736],[-98.548473,42.781649],[-98.531191,42.774618],[-98.490926,42.7731],[-98.465672,42.766206],[-98.416025,42.775674],[-98.36722,42.767726],[-98.340605,42.770661],[-98.305149,42.761207],[-98.300592,42.088853],[-99.234629,42.087995],[-99.234064,42.434524],[-99.244591,42.434639],[-99.245803,42.782499],[-99.256846,42.782655],[-99.257039,42.804296]]]}},{"type":"Feature","properties":{"GEOID":"31079","NAME":"Hall","state":"NE","wildfire_risk_score":50.636,"wildfire_eal_total":58031.66,"risk_band":"Moderate","source":"FEMA National Risk Index v1.20 (December 2025)"},"geometry":{"type":"Polygon","coordinates":[[[-98.721975,41.046674],[-98.282359,41.046355],[-98.282851,40.698284],[-98.72143,40.698903],[-98.721975,41.046674]]]}},{"type":"Feature","properties":{"GEOID":"31119","NAME":"Madison","state":"NE","wildfire_risk_score":79.739,"wildfire_eal_total":492692.82,"risk_band":"High","source":"FEMA National Risk Index v1.20 (December 2025)"},"geometry":{"type":"Polygon","coordinates":[[[-97.834536,42.08975],[-97.368404,42.090922],[-97.36807,41.743207],[-97.832242,41.742234],[-97.834536,42.08975]]]}},{"type":"Feature","properties":{"GEOID":"31019","NAME":"Buffalo","state":"NE","wildfire_risk_score":74.332,"wildfire_eal_total":364106.93,"risk_band":"High","source":"FEMA National Risk Index v1.20 (December 2025)"},"geometry":{"type":"Polygon","coordinates":[[[-99.426795,40.786601],[-99.425986,41.046471],[-98.721975,41.046674],[-98.72143,40.698903],[-98.725306,40.689264],[-98.82659,40.674785],[-98.86673,40.659304],[-98.908534,40.652608],[-98.973705,40.657045],[-98.996026,40.652162],[-99.115474,40.654795],[-99.204186,40.66199],[-99.242345,40.658889],[-99.258754,40.664542],[-99.292741,40.662652],[-99.331627,40.671439],[-99.369908,40.664516],[-99.411674,40.66757],[-99.417316,40.670825],[-99.416414,40.699738],[-99.426551,40.69977],[-99.426795,40.786601]]]}},{"type":"Feature","properties":{"GEOID":"31159","NAME":"Seward","state":"NE","wildfire_risk_score":72.074,"wildfire_eal_total":330796.07,"risk_band":"High","source":"FEMA National Risk Index v1.20 (December 2025)"},"geometry":{"type":"Polygon","coordinates":[[[-97.368419,40.76363],[-97.368118,41.046947],[-96.91094,41.046116],[-96.911116,40.697975],[-97.368401,40.698625],[-97.368419,40.76363]]]}},{"type":"Feature","properties":{"GEOID":"31001","NAME":"Adams","state":"NE","wildfire_risk_score":42.716,"wildfire_eal_total":38095.9,"risk_band":"Low","source":"FEMA National Risk Index v1.20 (December 2025)"},"geometry":{"type":"Polygon","coordinates":[[[-98.724412,40.698891],[-98.278103,40.698291],[-98.27809,40.350347],[-98.723948,40.350391],[-98.724412,40.698891]]]}},{"type":"Feature","properties":{"GEOID":"31101","NAME":"Keith","state":"NE","wildfire_risk_score":66.762,"wildfire_eal_total":153109.02,"risk_band":"Moderate","source":"FEMA National Risk Index v1.20 (December 2025)"},"geometry":{"type":"Polygon","coordinates":[[[-102.055837,41.090998],[-102.055256,41.395162],[-101.269695,41.394934],[-101.270381,41.047392],[-101.250162,41.047385],[-101.249975,41.00395],[-102.051761,41.003874],[-102.055837,41.090998]]]}},{"type":"Feature","properties":{"GEOID":"31003","NAME":"Antelope","state":"NE","wildfire_risk_score":58.079,"wildfire_eal_total":93912.2,"risk_band":"Moderate","source":"FEMA National Risk Index v1.20 (December 2025)"},"geometry":{"type":"Polygon","coordinates":[[[-98.3006,42.103414],[-98.300235,42.436913],[-97.834431,42.437684],[-97.833288,41.916286],[-98.295602,41.914954],[-98.295438,42.088873],[-98.300592,42.088853],[-98.3006,42.103414]]]}},{"type":"Feature","properties":{"GEOID":"31141","NAME":"Platte","state":"NE","wildfire_risk_score":61.927,"wildfire_eal_total":107372.4,"risk_band":"Moderate","source":"FEMA National Risk Index v1.20 (December 2025)"},"geometry":{"type":"Polygon","coordinates":[[[-97.831151,41.662976],[-97.830493,41.742238],[-97.252425,41.743085],[-97.253519,41.384212],[-97.287761,41.400638],[-97.310658,41.399973],[-97.340871,41.391089],[-97.368183,41.397628],[-97.450149,41.36878],[-97.522412,41.361934],[-97.570595,41.337282],[-97.598253,41.333119],[-97.598461,41.395068],[-97.703765,41.394876],[-97.703627,41.526796],[-97.829846,41.526174],[-97.831151,41.662976]]]}},{"type":"Feature","properties":{"GEOID":"31143","NAME":"Polk","state":"NE","wildfire_risk_score":38.391,"wildfire_eal_total":33675.34,"risk_band":"Low","source":"FEMA National Risk Index v1.20 (December 2025)"},"geometry":{"type":"Polygon","coordinates":[[[-97.828393,41.155196],[-97.82827,41.17549],[-97.801359,41.192602],[-97.804816,41.196901],[-97.790967,41.206009],[-97.765999,41.23489],[-97.715944,41.26425],[-97.679143,41.292563],[-97.668645,41.298125],[-97.664466,41.294748],[-97.656637,41.301462],[-97.658554,41.304862],[-97.605577,41.31337],[-97.598205,41.317247],[-97.598253,41.333119],[-97.570595,41.337282],[-97.522412,41.361934],[-97.450149,41.36878],[-97.368186,41.396416],[-97.368118,41.046947],[-97.827945,41.04657],[-97.828393,41.155196]]]}},{"type":"Feature","properties":{"GEOID":"31173","NAME":"Thurston","state":"NE","wildfire_risk_score":85.973,"wildfire_eal_total":601042.87,"risk_band":"High","source":"FEMA National Risk Index v1.20 (December 2025)"},"geometry":{"type":"Polygon","coordinates":[[[-96.82354,42.104889],[-96.822497,42.264292],[-96.726188,42.264104],[-96.726661,42.278005],[-96.550816,42.277731],[-96.3564060678816,42.2764931056257],[-96.34145,42.269115],[-96.328905,42.254734],[-96.330004,42.240224],[-96.322827,42.231461],[-96.336323,42.218922],[-96.356591,42.215182],[-96.35987,42.210545],[-96.348066,42.194747],[-96.347752,42.166806],[-96.319528,42.146647],[-96.305884,42.129826],[-96.275002,42.120779],[-96.266594,42.103262],[-96.279079,42.074026],[-96.2729013791207,42.047281245329],[-96.309389,42.046692],[-96.309645,42.015187],[-96.552484,42.015725],[-96.555511,42.089957],[-96.82367,42.090411],[-96.82354,42.104889]]]}},{"type":"Feature","properties":{"GEOID":"31085","NAME":"Hayes","state":"NE","wildfire_risk_score":26.431,"wildfire_eal_total":13421.56,"risk_band":"Low","source":"FEMA National Risk Index v1.20 (December 2025)"},"geometry":{"type":"Polygon","coordinates":[[[-101.345365,40.698093],[-100.777833,40.700135],[-100.783018,40.54166],[-100.777376,40.349466],[-101.342788,40.350444],[-101.345365,40.698093]]]}},{"type":"Feature","properties":{"GEOID":"31023","NAME":"Butler","state":"NE","wildfire_risk_score":66.221,"wildfire_eal_total":161444.15,"risk_band":"Moderate","source":"FEMA National Risk Index v1.20 (December 2025)"},"geometry":{"type":"Polygon","coordinates":[[[-97.368189,41.338745],[-97.368183,41.397628],[-97.340871,41.391089],[-97.310658,41.399973],[-97.287761,41.400638],[-97.254173,41.384294],[-97.199268,41.38584],[-97.175613,41.377083],[-97.106434,41.387889],[-97.056831,41.412531],[-97.01573,41.413852],[-96.964703,41.441801],[-96.926494,41.455053],[-96.90591,41.456436],[-96.908507,41.046091],[-97.368118,41.046947],[-97.368189,41.338745]]]}},{"type":"Feature","properties":{"GEOID":"31163","NAME":"Sherman","state":"NE","wildfire_risk_score":67.462,"wildfire_eal_total":149123.04,"risk_band":"Moderate","source":"FEMA National Risk Index v1.20 (December 2025)"},"geometry":{"type":"Polygon","coordinates":[[[-99.206455,41.123269],[-99.203261,41.39414],[-98.74433,41.394178],[-98.748526,41.04664],[-99.207564,41.047003],[-99.206455,41.123269]]]}},{"type":"Feature","properties":{"GEOID":"31125","NAME":"Nance","state":"NE","wildfire_risk_score":42.844,"wildfire_eal_total":34671.92,"risk_band":"Low","source":"FEMA National Risk Index v1.20 (December 2025)"},"geometry":{"type":"Polygon","coordinates":[[[-98.291344,41.480727],[-98.099523,41.480777],[-98.099797,41.495389],[-98.04146,41.495988],[-98.041328,41.510534],[-97.886415,41.511392],[-97.885492,41.525868],[-97.703627,41.526796],[-97.705497,41.309134],[-97.898268,41.308224],[-97.897943,41.29363],[-98.053137,41.293123],[-98.053133,41.278532],[-98.10166,41.278654],[-98.101546,41.264041],[-98.275408,41.264341],[-98.273892,41.393855],[-98.291419,41.393894],[-98.291344,41.480727]]]}},{"type":"Feature","properties":{"GEOID":"31031","NAME":"Cherry","state":"NE","wildfire_risk_score":88.359,"wildfire_eal_total":931809.32,"risk_band":"High","source":"FEMA National Risk Index v1.20 (December 2025)"},"geometry":{"type":"Polygon","coordinates":[[[-102.084145,42.87246],[-102.082546,42.999356],[-100.198411901919,42.9985420522041],[-100.198575,42.781021],[-100.18327,42.781005],[-100.183167,42.433497],[-100.167539,42.433281],[-100.167605,42.085848],[-102.04028,42.096744],[-102.038169,42.443307],[-102.066689,42.443463],[-102.066905,42.78549],[-102.084961,42.785509],[-102.084145,42.87246]]]}},{"type":"Feature","properties":{"GEOID":"31095","NAME":"Jefferson","state":"NE","wildfire_risk_score":72.964,"wildfire_eal_total":222886.95,"risk_band":"High","source":"FEMA National Risk Index v1.20 (December 2025)"},"geometry":{"type":"Polygon","coordinates":[[[-97.369118,40.089047],[-97.368688,40.350392],[-96.916055,40.349727],[-96.9164069976229,40.0015058549306],[-97.3691985101944,40.0020598794115],[-97.369118,40.089047]]]}},{"type":"Feature","properties":{"GEOID":"31151","NAME":"Saline","state":"NE","wildfire_risk_score":68.861,"wildfire_eal_total":150669.19,"risk_band":"High","source":"FEMA National Risk Index v1.20 (December 2025)"},"geometry":{"type":"Polygon","coordinates":[[[-97.368751,40.422951],[-97.368401,40.698625],[-96.913493,40.697948],[-96.913259,40.349718],[-97.368688,40.350392],[-97.368751,40.422951]]]}},{"type":"Feature","properties":{"GEOID":"31063","NAME":"Frontier","state":"NE","wildfire_risk_score":41.762,"wildfire_eal_total":21539.48,"risk_band":"Low","source":"FEMA National Risk Index v1.20 (December 2025)"},"geometry":{"type":"Polygon","coordinates":[[[-100.783018,40.54166],[-100.777833,40.700135],[-99.981743,40.700003],[-99.981193,40.438291],[-100.095095,40.438656],[-100.094798,40.351245],[-100.777376,40.349466],[-100.783018,40.54166]]]}},{"type":"Feature","properties":{"GEOID":"31145","NAME":"Red Willow","state":"NE","wildfire_risk_score":23.95,"wildfire_eal_total":11065.15,"risk_band":"Low","source":"FEMA National Risk Index v1.20 (December 2025)"},"geometry":{"type":"Polygon","coordinates":[[[-100.760578,40.210706],[-100.758435,40.349507],[-100.197807,40.350027],[-100.19359,40.001573],[-100.75883,40.002302],[-100.760578,40.210706]]]}},{"type":"Feature","properties":{"GEOID":"31033","NAME":"Cheyenne","state":"NE","wildfire_risk_score":43.384,"wildfire_eal_total":41048.32,"risk_band":"Low","source":"FEMA National Risk Index v1.20 (December 2025)"},"geometry":{"type":"Polygon","coordinates":[[[-103.382491,41.04767],[-103.375691,41.047623],[-103.37762,41.394633],[-103.370452,41.394677],[-103.369005,41.437766],[-102.636525,41.438809],[-102.636741,41.395221],[-102.609386,41.395115],[-102.610213,41.048207],[-102.620872,41.048],[-102.621033,41.002597],[-103.382492446889,41.00223211782],[-103.382491,41.04767]]]}},{"type":"Feature","properties":{"GEOID":"31087","NAME":"Hitchcock","state":"NE","wildfire_risk_score":31.361,"wildfire_eal_total":14173.87,"risk_band":"Low","source":"FEMA National Risk Index v1.20 (December 2025)"},"geometry":{"type":"Polygon","coordinates":[[[-101.325268,40.263418],[-101.323353,40.350553],[-100.758435,40.349507],[-100.75883,40.002302],[-101.324036,40.002696],[-101.325268,40.263418]]]}},{"type":"Feature","properties":{"GEOID":"31107","NAME":"Knox","state":"NE","wildfire_risk_score":81.393,"wildfire_eal_total":463119.76,"risk_band":"High","source":"FEMA National Risk Index v1.20 (December 2025)"},"geometry":{"type":"Polygon","coordinates":[[[-98.310314,42.869865],[-98.3097690850567,42.8825596624247],[-98.258276,42.87439],[-98.189765,42.841628],[-98.167523,42.836925],[-98.146933,42.839823],[-98.127489,42.820127],[-98.067388,42.784759],[-98.056625,42.770781],[-98.013046,42.762299],[-97.977588,42.769923],[-97.950147,42.769619],[-97.936716,42.775754],[-97.908983,42.794909],[-97.888562,42.817251],[-97.875345,42.858724],[-97.84527,42.867734],[-97.828496,42.868797],[-97.774456,42.849774],[-97.686506,42.842435],[-97.657846,42.844626],[-97.611811,42.858367],[-97.561928,42.847552],[-97.531867,42.850105],[-97.504847,42.858477],[-97.484921,42.850368],[-97.485298,42.438578],[-98.305456,42.43693],[-98.305051,42.784643],[-98.310239,42.784618],[-98.310314,42.869865]]]}},{"type":"Feature","properties":{"GEOID":"31043","NAME":"Dakota","state":"NE","wildfire_risk_score":78.053,"wildfire_eal_total":342709.23,"risk_band":"High","source":"FEMA National Risk Index v1.20 (December 2025)"},"geometry":{"type":"Polygon","coordinates":[[[-96.726614,42.284682],[-96.722231,42.524652],[-96.631494,42.524319],[-96.625958,42.513576],[-96.603468,42.50446],[-96.548791,42.520547],[-96.528753,42.513273],[-96.515891,42.49427],[-96.501321,42.482749],[-96.475565,42.480036],[-96.445508,42.49063],[-96.396107,42.484095],[-96.386007,42.474495],[-96.380707,42.446394],[-96.387608,42.432494],[-96.413609,42.407894],[-96.41498,42.393442],[-96.408436,42.376092],[-96.417786,42.351449],[-96.407998,42.337408],[-96.384169,42.325874],[-96.37179,42.314172],[-96.368454,42.291848],[-96.3564060678816,42.2764931056257],[-96.726661,42.278005],[-96.726614,42.284682]]]}},{"type":"Feature","properties":{"GEOID":"31127","NAME":"Nemaha","state":"NE","wildfire_risk_score":66.794,"wildfire_eal_total":124309.87,"risk_band":"Moderate","source":"FEMA National Risk Index v1.20 (December 2025)"},"geometry":{"type":"Polygon","coordinates":[[[-96.067084,40.34913],[-96.067012,40.523148],[-95.708591,40.521551],[-95.69505,40.533124],[-95.694147,40.556942],[-95.671754,40.562626],[-95.65341,40.541893],[-95.655674,40.523557],[-95.661687,40.517309],[-95.699969,40.505275],[-95.694726,40.493602],[-95.696365,40.475897],[-95.65819,40.44188],[-95.659134,40.40869],[-95.643934,40.386849],[-95.641027,40.366399],[-95.627124,40.3528],[-95.622704,40.340856],[-95.629936,40.330994],[-95.653729,40.322582],[-95.657328,40.310856],[-95.645329,40.305693],[-95.610439,40.31397],[-95.581787,40.29958],[-95.558732,40.295774],[-95.550966,40.285947],[-95.556275,40.270761],[-95.552473,40.261904],[-96.066736,40.262038],[-96.067084,40.34913]]]}},{"type":"Feature","properties":{"GEOID":"31053","NAME":"Dodge","state":"NE","wildfire_risk_score":70.324,"wildfire_eal_total":225785.08,"risk_band":"High","source":"FEMA National Risk Index v1.20 (December 2025)"},"geometry":{"type":"Polygon","coordinates":[[[-96.906032,41.626352],[-96.905922,41.742763],[-96.444217,41.741775],[-96.443898,41.523933],[-96.43446,41.523931],[-96.434792,41.494928],[-96.42522,41.494865],[-96.425211,41.480342],[-96.405936,41.48046],[-96.405622,41.465821],[-96.38642,41.465749],[-96.386478,41.451253],[-96.3672,41.450953],[-96.367336,41.436698],[-96.328923,41.436621],[-96.329012,41.393136],[-96.488157,41.393305],[-96.492212,41.397455],[-96.49593,41.394031],[-96.569398,41.433304],[-96.640327,41.436183],[-96.655733,41.429405],[-96.693743,41.425738],[-96.746472,41.449576],[-96.774305,41.450075],[-96.815203,41.439585],[-96.833757,41.445697],[-96.905862,41.453389],[-96.906032,41.626352]]]}},{"type":"Feature","properties":{"GEOID":"31021","NAME":"Burt","state":"NE","wildfire_risk_score":78.403,"wildfire_eal_total":409105.85,"risk_band":"High","source":"FEMA National Risk Index v1.20 (December 2025)"},"geometry":{"type":"Polygon","coordinates":[[[-96.555251,41.883174],[-96.554866,42.015875],[-96.309645,42.015187],[-96.309389,42.046692],[-96.2729013791207,42.047281245329],[-96.261132,42.038974],[-96.232125,42.039145],[-96.22173,42.026205],[-96.241932,42.006965],[-96.236487,41.996428],[-96.225463,41.994734],[-96.215225,42.006701],[-96.194556,42.008662],[-96.183568,41.999987],[-96.192141,41.984461],[-96.186265,41.977417],[-96.156538,41.980137],[-96.129505,41.971673],[-96.133318,41.955732],[-96.144583,41.941544],[-96.136743,41.920826],[-96.159098,41.910057],[-96.161756,41.90182],[-96.148826,41.888132],[-96.142045,41.868865],[-96.110246,41.84885],[-96.107592,41.820685],[-96.075548,41.807811],[-96.064879,41.79623],[-96.077543,41.777824],[-96.079915,41.757895],[-96.102772,41.746339],[-96.106425,41.73789],[-96.10261,41.728016],[-96.079682,41.717962],[-96.072321,41.706858],[-96.082429,41.698159],[-96.111968,41.697773],[-96.120157,41.69115],[-96.121711955686,41.6829898591487],[-96.444785,41.683633],[-96.444217,41.741775],[-96.555172,41.742018],[-96.555251,41.883174]]]}},{"type":"Feature","properties":{"GEOID":"31041","NAME":"Custer","state":"NE","wildfire_risk_score":82.316,"wildfire_eal_total":629058.42,"risk_band":"High","source":"FEMA National Risk Index v1.20 (December 2025)"},"geometry":{"type":"Polygon","coordinates":[[[-100.252812,41.62486],[-100.251224,41.739817],[-99.212016,41.740613],[-99.212465,41.394235],[-99.203261,41.39414],[-99.207564,41.047003],[-100.238155,41.046536],[-100.236106,41.393324],[-100.251279,41.395754],[-100.252812,41.62486]]]}},{"type":"Feature","properties":{"GEOID":"31045","NAME":"Dawes","state":"NE","wildfire_risk_score":81.298,"wildfire_eal_total":616786.88,"risk_band":"High","source":"FEMA National Risk Index v1.20 (December 2025)"},"geometry":{"type":"Polygon","coordinates":[[[-103.505099999707,43.0007699609796],[-102.792111,42.99998],[-102.792659,42.785165],[-102.773369,42.785265],[-102.773366,42.439922],[-103.48001,42.437267],[-103.480335,42.784908],[-103.503086,42.784913],[-103.505099999707,43.0007699609796]]]}},{"type":"Feature","properties":{"GEOID":"31183","NAME":"Wheeler","state":"NE","wildfire_risk_score":45.929,"wildfire_eal_total":35959.48,"risk_band":"Moderate","source":"FEMA National Risk Index v1.20 (December 2025)"},"geometry":{"type":"Polygon","coordinates":[[[-98.761155,42.088518],[-98.295438,42.088873],[-98.29576,41.741178],[-98.759133,41.740382],[-98.761155,42.088518]]]}},{"type":"Feature","properties":{"GEOID":"31117","NAME":"McPherson","state":"NE","wildfire_risk_score":38.454,"wildfire_eal_total":34706.09,"risk_band":"Low","source":"FEMA National Risk Index v1.20 (December 2025)"},"geometry":{"type":"Polygon","coordinates":[[[-101.407268,41.409853],[-101.406466,41.7432],[-100.711409,41.739759],[-100.713243,41.393511],[-101.40726,41.395416],[-101.407268,41.409853]]]}},{"type":"Feature","properties":{"GEOID":"31067","NAME":"Gage","state":"NE","wildfire_risk_score":78.944,"wildfire_eal_total":437835.76,"risk_band":"High","source":"FEMA National Risk Index v1.20 (December 2025)"},"geometry":{"type":"Polygon","coordinates":[[[-96.916626,40.083193],[-96.912637,40.523625],[-96.463632,40.523013],[-96.463712955188,40.0009682733452],[-96.9164069976229,40.0015058549306],[-96.916626,40.083193]]]}},{"type":"Feature","properties":{"GEOID":"31035","NAME":"Clay","state":"NE","wildfire_risk_score":59.542,"wildfire_eal_total":87869.57,"risk_band":"Moderate","source":"FEMA National Risk Index v1.20 (December 2025)"},"geometry":{"type":"Polygon","coordinates":[[[-98.278307,40.56774],[-98.278103,40.698291],[-97.82478,40.698537],[-97.824114,40.350541],[-98.27809,40.350347],[-98.278307,40.56774]]]}},{"type":"Feature","properties":{"GEOID":"31167","NAME":"Stanton","state":"NE","wildfire_risk_score":68.925,"wildfire_eal_total":194721.74,"risk_band":"High","source":"FEMA National Risk Index v1.20 (December 2025)"},"geometry":{"type":"Polygon","coordinates":[[[-97.368404,42.090922],[-97.019359,42.090577],[-97.019911,41.74298],[-97.36807,41.743207],[-97.368404,42.090922]]]}},{"type":"Feature","properties":{"GEOID":"31017","NAME":"Brown","state":"NE","wildfire_risk_score":58.492,"wildfire_eal_total":91505.47,"risk_band":"Moderate","source":"FEMA National Risk Index v1.20 (December 2025)"},"geometry":{"type":"Polygon","coordinates":[[[-100.198526,42.810525],[-100.198478,42.846102],[-100.187778,42.83761],[-100.163322,42.833445],[-100.161336,42.827567],[-100.150365,42.83255],[-100.145363,42.830215],[-100.144031,42.824131],[-100.134029,42.82065],[-100.139005,42.813379],[-100.133978,42.807819],[-100.055921,42.785438],[-100.007809,42.788566],[-99.968856,42.772474],[-99.898039,42.765462],[-99.862162,42.769002],[-99.855047,42.752853],[-99.837262,42.754108],[-99.819254,42.743293],[-99.800872,42.739367],[-99.775091,42.735029],[-99.752491,42.737633],[-99.711197,42.727108],[-99.677684,42.730903],[-99.675891,42.43445],[-99.663752,42.434609],[-99.662379,42.086009],[-100.167605,42.085848],[-100.167539,42.433281],[-100.183167,42.433497],[-100.18327,42.781005],[-100.198575,42.781021],[-100.198526,42.810525]]]}},{"type":"Feature","properties":{"GEOID":"31039","NAME":"Cuming","state":"NE","wildfire_risk_score":86.387,"wildfire_eal_total":721439.76,"risk_band":"High","source":"FEMA National Risk Index v1.20 (December 2025)"},"geometry":{"type":"Polygon","coordinates":[[[-97.019585,41.830011],[-97.019359,42.090577],[-96.555511,42.089957],[-96.555172,41.742018],[-97.019911,41.74298],[-97.019585,41.830011]]]}},{"type":"Feature","properties":{"GEOID":"31137","NAME":"Phelps","state":"NE","wildfire_risk_score":7.856,"wildfire_eal_total":3567.02,"risk_band":"Low","source":"FEMA National Risk Index v1.20 (December 2025)"},"geometry":{"type":"Polygon","coordinates":[[[-99.644405,40.517508],[-99.643462,40.684911],[-99.622304,40.686105],[-99.583465,40.677194],[-99.555917,40.680834],[-99.530138,40.675319],[-99.444401,40.677892],[-99.411674,40.66757],[-99.376036,40.664262],[-99.331627,40.671439],[-99.292741,40.662652],[-99.258754,40.664542],[-99.242345,40.658889],[-99.179248,40.660541],[-99.179403,40.350681],[-99.642209,40.3512],[-99.644405,40.517508]]]}},{"type":"Feature","properties":{"GEOID":"31147","NAME":"Richardson","state":"NE","wildfire_risk_score":66.889,"wildfire_eal_total":138508.29,"risk_band":"Moderate","source":"FEMA National Risk Index v1.20 (December 2025)"},"geometry":{"type":"Polygon","coordinates":[[[-96.010678,40.029711],[-96.010176,40.261482],[-95.552473,40.261904],[-95.521035,40.250083],[-95.493405,40.24956],[-95.477501,40.24272],[-95.469718,40.227908],[-95.482319,40.200667],[-95.479193,40.185652],[-95.460746,40.169173],[-95.436348,40.15872],[-95.428749,40.135577],[-95.395369,40.122811],[-95.394216,40.108263],[-95.407591,40.09803],[-95.409856,40.07432],[-95.42164,40.058952],[-95.413588,40.038424],[-95.391527,40.027058],[-95.348777,40.029297],[-95.336242,40.019104],[-95.315271,40.01207],[-95.30829,39.999998],[-96.010678,40.000638],[-96.010678,40.029711]]]}},{"type":"Feature","properties":{"GEOID":"31013","NAME":"Box Butte","state":"NE","wildfire_risk_score":61.323,"wildfire_eal_total":103239.25,"risk_band":"Moderate","source":"FEMA National Risk Index v1.20 (December 2025)"},"geometry":{"type":"Polygon","coordinates":[[[-103.444329,42.177987],[-103.444278,42.437275],[-102.749431,42.439934],[-102.751533,42.357112],[-102.747681,42.35185],[-102.741581,42.177721],[-102.742269,42.092388],[-102.702383,42.092747],[-102.697835,42.004843],[-102.862321,42.000665],[-103.401522,42.003537],[-103.401591,42.090411],[-103.444108,42.090708],[-103.444329,42.177987]]]}},{"type":"Feature","properties":{"GEOID":"31139","NAME":"Pierce","state":"NE","wildfire_risk_score":67.144,"wildfire_eal_total":200463.33,"risk_band":"Moderate","source":"FEMA National Risk Index v1.20 (December 2025)"},"geometry":{"type":"Polygon","coordinates":[[[-97.834945,42.205707],[-97.834431,42.437684],[-97.36759,42.438775],[-97.368404,42.090922],[-97.834536,42.08975],[-97.834945,42.205707]]]}},{"type":"Feature","properties":{"GEOID":"31109","NAME":"Lancaster","state":"NE","wildfire_risk_score":93.702,"wildfire_eal_total":3256628.52,"risk_band":"High","source":"FEMA National Risk Index v1.20 (December 2025)"},"geometry":{"type":"Polygon","coordinates":[[[-96.91393,40.625248],[-96.91094,41.046116],[-96.463869,41.045083],[-96.463632,40.523013],[-96.912637,40.523625],[-96.91393,40.625248]]]}},{"type":"Feature","properties":{"GEOID":"31175","NAME":"Valley","state":"NE","wildfire_risk_score":66.349,"wildfire_eal_total":135904.85,"risk_band":"Moderate","source":"FEMA National Risk Index v1.20 (December 2025)"},"geometry":{"type":"Polygon","coordinates":[[[-99.2123,41.437632],[-99.212016,41.740613],[-98.752225,41.740372],[-98.751558,41.394084],[-99.212465,41.394235],[-99.2123,41.437632]]]}},{"type":"Feature","properties":{"GEOID":"31133","NAME":"Pawnee","state":"NE","wildfire_risk_score":78.912,"wildfire_eal_total":325921.31,"risk_band":"High","source":"FEMA National Risk Index v1.20 (December 2025)"},"geometry":{"type":"Polygon","coordinates":[[[-96.463797,40.077154],[-96.463667,40.262173],[-96.010176,40.261482],[-96.010678,40.000638],[-96.463712955188,40.0009682733452],[-96.463797,40.077154]]]}},{"type":"Feature","properties":{"GEOID":"31057","NAME":"Dundy","state":"NE","wildfire_risk_score":27.99,"wildfire_eal_total":16573.67,"risk_band":"Low","source":"FEMA National Risk Index v1.20 (December 2025)"},"geometry":{"type":"Polygon","coordinates":[[[-102.051909,40.162674],[-102.051553251676,40.3492139863953],[-101.323353,40.350553],[-101.324036,40.002696],[-102.051744,40.003078],[-102.051909,40.162674]]]}},{"type":"Feature","properties":{"GEOID":"31121","NAME":"Merrick","state":"NE","wildfire_risk_score":50.095,"wildfire_eal_total":50898.17,"risk_band":"Moderate","source":"FEMA National Risk Index v1.20 (December 2025)"},"geometry":{"type":"Polygon","coordinates":[[[-98.287141,41.053417],[-98.286584,41.393898],[-98.273892,41.393855],[-98.275408,41.264341],[-98.10227,41.264027],[-98.10166,41.278654],[-98.053133,41.278532],[-98.053137,41.293123],[-97.897943,41.29363],[-97.898268,41.308224],[-97.705497,41.309134],[-97.703765,41.394876],[-97.598461,41.395068],[-97.598205,41.317247],[-97.630991,41.306745],[-97.641929,41.306056],[-97.642539,41.309688],[-97.658554,41.304862],[-97.656637,41.301462],[-97.664466,41.294748],[-97.668645,41.298125],[-97.679143,41.292563],[-97.715944,41.26425],[-97.750303,41.246742],[-97.804816,41.196901],[-97.801359,41.192602],[-97.82827,41.17549],[-97.847293,41.149861],[-97.88575,41.114648],[-97.966797,41.085616],[-97.970382,41.090841],[-98.010548,41.072761],[-98.030035,41.049739],[-98.054169,41.037788],[-98.088957,41.009659],[-98.100648,41.008723],[-98.146268,40.984283],[-98.169777,40.954766],[-98.215471,40.930521],[-98.282578,40.868677],[-98.282359,41.046355],[-98.287168,41.046363],[-98.287141,41.053417]]]}},{"type":"Feature","properties":{"GEOID":"31099","NAME":"Kearney","state":"NE","wildfire_risk_score":21.724,"wildfire_eal_total":12092.56,"risk_band":"Low","source":"FEMA National Risk Index v1.20 (December 2025)"},"geometry":{"type":"Polygon","coordinates":[[[-99.179487,40.525012],[-99.179248,40.660541],[-99.115474,40.654795],[-98.996026,40.652162],[-98.973705,40.657045],[-98.906096,40.652722],[-98.86673,40.659304],[-98.82659,40.674785],[-98.724387,40.689772],[-98.723948,40.350391],[-99.179403,40.350681],[-99.179487,40.525012]]]}},{"type":"Feature","properties":{"GEOID":"31097","NAME":"Johnson","state":"NE","wildfire_risk_score":77.545,"wildfire_eal_total":469361.17,"risk_band":"High","source":"FEMA National Risk Index v1.20 (December 2025)"},"geometry":{"type":"Polygon","coordinates":[[[-96.46379,40.349043],[-96.463632,40.523013],[-96.067012,40.523148],[-96.066736,40.262038],[-96.463667,40.262173],[-96.46379,40.349043]]]}},{"type":"Feature","properties":{"GEOID":"31011","NAME":"Boone","state":"NE","wildfire_risk_score":43.098,"wildfire_eal_total":29508.13,"risk_band":"Low","source":"FEMA National Risk Index v1.20 (December 2025)"},"geometry":{"type":"Polygon","coordinates":[[[-98.295824,41.795603],[-98.295602,41.914954],[-97.833288,41.916286],[-97.829846,41.526174],[-97.885492,41.525868],[-97.886415,41.511392],[-98.041328,41.510534],[-98.04146,41.495988],[-98.099797,41.495389],[-98.099523,41.480777],[-98.291344,41.480727],[-98.290943,41.74121],[-98.29576,41.741178],[-98.295824,41.795603]]]}},{"type":"Feature","properties":{"GEOID":"31161","NAME":"Sheridan","state":"NE","wildfire_risk_score":89.631,"wildfire_eal_total":1125089.44,"risk_band":"High","source":"FEMA National Risk Index v1.20 (December 2025)"},"geometry":{"type":"Polygon","coordinates":[[[-102.79287,42.82249],[-102.792111,42.99998],[-102.082546,42.999356],[-102.084961,42.785509],[-102.066905,42.78549],[-102.066689,42.443463],[-102.038169,42.443307],[-102.04028,42.096744],[-102.006428,42.096227],[-102.008562,42.008901],[-102.697835,42.004843],[-102.702383,42.092747],[-102.742269,42.092388],[-102.741581,42.177721],[-102.747681,42.35185],[-102.751533,42.357112],[-102.749431,42.439934],[-102.773366,42.439922],[-102.773369,42.785265],[-102.792659,42.785165],[-102.79287,42.82249]]]}}]}