{"type":"FeatureCollection","metadata":{"state":"NH","boundary_source":"U.S. Census Bureau 2024 Cartographic Boundary File (counties, 1:500,000)","risk_source":"FEMA National Risk Index v1.20 (December 2025)"},"features":[{"type":"Feature","properties":{"GEOID":"33017","NAME":"Strafford","state":"NH","wildfire_risk_score":34.51,"wildfire_eal_total":22890.84,"risk_band":"High","source":"FEMA National Risk Index v1.20 (December 2025)"},"geometry":{"type":"Polygon","coordinates":[[[-71.246967,43.276189],[-71.159364,43.355123],[-71.190799,43.515033],[-71.127808,43.572787],[-71.111496,43.506709],[-71.106536,43.512248],[-71.102081,43.506877],[-71.096939,43.511684],[-71.093276,43.507335],[-71.089477,43.512691],[-71.084838,43.506686],[-71.067565,43.52724],[-71.052519,43.524692],[-71.046431,43.529689],[-71.044523,43.524798],[-71.037931,43.529826],[-71.024244,43.482913],[-70.962536,43.541301],[-70.963342,43.535247],[-70.954066,43.52261],[-70.954755,43.509802],[-70.969572,43.486201],[-70.967968,43.480783],[-70.974245,43.47742],[-70.961428,43.469696],[-70.9669,43.450458],[-70.96115,43.438321],[-70.986812,43.414264],[-70.982565,43.39778],[-70.98739,43.393457],[-70.985965,43.380023],[-70.967229,43.343777],[-70.953034,43.333257],[-70.932735,43.33676],[-70.930783,43.329569],[-70.912004,43.319821],[-70.91246,43.308289],[-70.90231,43.304872],[-70.906005,43.291682],[-70.896332,43.29212],[-70.89922,43.287542],[-70.886504,43.282783],[-70.882804,43.273183],[-70.86323,43.265109],[-70.858207,43.256286],[-70.843302,43.254321],[-70.838678,43.242931],[-70.817865,43.237911],[-70.80964,43.225407],[-70.816903,43.214604],[-70.819344,43.193036],[-70.827901,43.188685],[-70.823501,43.174585],[-70.8338,43.146886],[-70.8281,43.129086],[-70.82,43.122586],[-70.829811,43.117638],[-70.846899,43.126086],[-70.86245,43.124359],[-70.86094,43.09462],[-70.864541,43.086731],[-70.875436,43.080422],[-70.934063,43.090108],[-70.980801,43.082367],[-71.072936,43.081681],[-71.026686,43.137947],[-71.246967,43.276189]]]}},{"type":"Feature","properties":{"GEOID":"33009","NAME":"Grafton","state":"NH","wildfire_risk_score":30.884,"wildfire_eal_total":16408.24,"risk_band":"Moderate","source":"FEMA National Risk Index v1.20 (December 2025)"},"geometry":{"type":"Polygon","coordinates":[[[-72.334401,43.61925],[-72.327236,43.630534],[-72.329126,43.635563],[-72.314083,43.64281],[-72.31402,43.656158],[-72.304322,43.669507],[-72.305133,43.695321],[-72.299564,43.706277],[-72.271776,43.733407],[-72.234178,43.745965],[-72.218099,43.765729],[-72.205143,43.771141],[-72.205536,43.784584],[-72.184847,43.804698],[-72.188949,43.821319],[-72.182203,43.834032],[-72.182864,43.845109],[-72.187916,43.856126],[-72.182846,43.865524],[-72.167907,43.869109],[-72.172714,43.884254],[-72.159216,43.888313],[-72.151324,43.901704],[-72.120421,43.919593],[-72.11862,43.946044],[-72.106293,43.949474],[-72.099088,43.957381],[-72.100492,43.963186],[-72.091413,43.965452],[-72.114726,43.968332],[-72.11218,43.986845],[-72.116985,43.99448],[-72.104367,44.002157],[-72.105283,44.013059],[-72.097593,44.015226],[-72.090059,44.009903],[-72.095258,44.021894],[-72.082913,44.021581],[-72.074841,44.032987],[-72.07832,44.043378],[-72.062496,44.049344],[-72.067612,44.058034],[-72.057293,44.058339],[-72.048931,44.069012],[-72.052494,44.076716],[-72.031841,44.078542],[-72.045146,44.08785],[-72.033689,44.09014],[-72.030897,44.099719],[-72.04005,44.103352],[-72.048334,44.096905],[-72.055141,44.110417],[-72.052342,44.119891],[-72.036922,44.125271],[-72.033412,44.1311],[-72.041881,44.137623],[-72.042827,44.150967],[-72.038921,44.156422],[-72.053021,44.167903],[-72.066166,44.189773],[-72.047889,44.238493],[-72.05978,44.256885],[-72.058559,44.269077],[-72.068432,44.271296],[-72.05888,44.28624],[-72.032725,44.302471],[-72.032816,44.320446],[-72.003881,44.32409],[-71.988306,44.329768],[-71.98112,44.3375],[-71.935395,44.33577],[-71.909416,44.348398],[-71.872472,44.336628],[-71.852628,44.340873],[-71.812902,44.355547],[-71.814388,44.381932],[-71.800316,44.384276],[-71.803488,44.39189],[-71.793924,44.399271],[-71.778613,44.399799],[-71.7656889774323,44.406307687658],[-71.696885,44.332118],[-71.686921,44.336581],[-71.587004,44.304759],[-71.575819,44.254596],[-71.507412,44.262897],[-71.50584,44.255557],[-71.469706,44.259936],[-71.443338,44.249172],[-71.415898,44.212169],[-71.426507,44.210903],[-71.413171,44.167462],[-71.387138,44.155201],[-71.376518,44.11887],[-71.376488,44.104069],[-71.38163,44.097874],[-71.366355,44.068524],[-71.346656,44.068822],[-71.383613,44.022611],[-71.361965,43.915938],[-71.564603,43.893172],[-71.543805,43.796043],[-71.538021,43.796478],[-71.521466,43.697992],[-71.648346,43.684511],[-71.648758,43.671739],[-71.655121,43.661264],[-71.650741,43.645052],[-71.656936,43.630311],[-71.651153,43.621119],[-71.665054,43.613573],[-71.664581,43.604449],[-71.686188,43.595553],[-71.70334,43.594614],[-71.710222,43.601084],[-71.728121,43.594904],[-71.731493,43.588496],[-71.715715,43.577898],[-71.725755,43.564432],[-71.735995,43.569315],[-71.744845,43.565219],[-71.76102,43.567729],[-71.7775,43.552501],[-71.78255,43.56058],[-71.797489,43.559413],[-71.80428,43.552745],[-71.815144,43.550921],[-71.817921,43.544208],[-71.849203,43.6112],[-71.892112,43.574618],[-71.93531,43.52888],[-72.067165,43.543971],[-72.069516,43.553172],[-72.090893,43.528857],[-72.120176,43.538302],[-72.106412,43.553485],[-72.208313,43.585207],[-72.3296772840816,43.6001836405589],[-72.328232,43.606839],[-72.334401,43.61925]]]}},{"type":"Feature","properties":{"GEOID":"33007","NAME":"Coos","state":"NH","wildfire_risk_score":16.412,"wildfire_eal_total":4935.83,"risk_band":"Low","source":"FEMA National Risk Index v1.20 (December 2025)"},"geometry":{"type":"Polygon","coordinates":[[[-71.764977,44.406587],[-71.745959,44.400942],[-71.736624,44.409445],[-71.702186,44.413828],[-71.682701,44.42734],[-71.676967,44.426848],[-71.679282,44.434337],[-71.659707,44.441465],[-71.652553,44.460518],[-71.638986,44.464411],[-71.647373,44.472127],[-71.632795,44.48389],[-71.625548,44.48346],[-71.634871,44.477441],[-71.626952,44.474267],[-71.617843,44.485841],[-71.599333,44.486283],[-71.593885,44.501031],[-71.585881,44.500057],[-71.587782,44.506745],[-71.576765,44.502618],[-71.594259,44.52168],[-71.582948,44.523352],[-71.572004,44.538224],[-71.597135,44.553849],[-71.596137,44.560898],[-71.587664,44.565798],[-71.559049,44.564446],[-71.557838,44.570268],[-71.547726,44.571381],[-71.554444,44.581336],[-71.546533,44.577819],[-71.535397,44.587113],[-71.540051,44.588524],[-71.538274,44.593524],[-71.547424,44.591831],[-71.546087,44.597377],[-71.555402,44.593842],[-71.550331,44.600896],[-71.5622,44.601592],[-71.55386,44.605598],[-71.55415,44.625419],[-71.545978,44.623118],[-71.55735,44.628448],[-71.547226,44.630355],[-71.563279,44.636648],[-71.557866,44.641218],[-71.562806,44.652356],[-71.57881,44.650982],[-71.57449,44.654832],[-71.587365,44.659715],[-71.586965,44.67047],[-71.581463,44.673204],[-71.596089,44.677637],[-71.597955,44.691767],[-71.594136,44.696932],[-71.600496,44.698737],[-71.6001,44.705999],[-71.618732,44.722471],[-71.617038,44.72825],[-71.626248,44.72904],[-71.625148,44.74275],[-71.631883,44.752463],[-71.616669,44.756299],[-71.592486,44.782669],[-71.57972,44.784725],[-71.571315,44.793339],[-71.568672,44.807457],[-71.576865,44.815197],[-71.573456,44.820644],[-71.562353,44.823282],[-71.551114,44.836965],[-71.555656,44.849118],[-71.548358,44.854686],[-71.549741,44.861458],[-71.528751,44.873494],[-71.501088,44.904433],[-71.49491,44.904299],[-71.493363,44.911612],[-71.499945,44.911174],[-71.523048,44.939258],[-71.517983,44.938745],[-71.514933,44.944159],[-71.518987,44.950115],[-71.516246,44.964089],[-71.523376,44.96396],[-71.518947,44.967869],[-71.523117,44.966852],[-71.541324,44.985071],[-71.532749,44.991066],[-71.536188,44.994592],[-71.524794,45.001921],[-71.504251,45.008223],[-71.489675,45.00114],[-71.480552,45.002334],[-71.476676,45.009179],[-71.464555,45.013637],[-71.501088,45.013349],[-71.491085,45.043671],[-71.500874,45.04511],[-71.505091,45.051465],[-71.497738,45.054751],[-71.497917,45.070589],[-71.489116,45.070853],[-71.480769,45.083556],[-71.468299,45.084092],[-71.464837,45.093023],[-71.449257,45.104522],[-71.450373,45.109958],[-71.428828,45.123881],[-71.427538,45.133352],[-71.437216,45.142333],[-71.42675,45.153257],[-71.414853,45.184908],[-71.39781,45.203553],[-71.403267,45.215348],[-71.415553,45.218001],[-71.443883,45.237061],[-71.420335,45.232719],[-71.402638,45.242589],[-71.384917,45.233351],[-71.376691,45.244911],[-71.357253,45.253336],[-71.363218,45.266429],[-71.360664,45.269835],[-71.336392,45.273066],[-71.331733,45.279969],[-71.309008,45.287238],[-71.301107,45.296563],[-71.284396,45.302434],[-71.28074,45.295188],[-71.264939,45.293446],[-71.259485,45.27244],[-71.244499,45.268139],[-71.231122,45.249712],[-71.198276,45.254257],[-71.180905,45.239858],[-71.162845,45.250332],[-71.147906,45.23928],[-71.131953,45.245423],[-71.115881,45.274562],[-71.107339,45.278612],[-71.105691,45.282498],[-71.110743,45.284576],[-71.105151,45.294635],[-71.097772,45.301906],[-71.083924,45.305451],[-71.037518,44.755607],[-71.0102711678684,44.284888321572],[-71.044385,44.283778],[-71.04228,44.237514],[-71.098434,44.235454],[-71.251957,44.244266],[-71.306036,44.137272],[-71.30245,44.137402],[-71.311758,44.091756],[-71.335882,44.085752],[-71.343588,44.092054],[-71.343223,44.123471],[-71.356482,44.165836],[-71.384239,44.178844],[-71.394874,44.214679],[-71.415898,44.212169],[-71.443338,44.249172],[-71.469706,44.259936],[-71.50584,44.255557],[-71.507412,44.262897],[-71.575819,44.254596],[-71.587004,44.304759],[-71.686921,44.336581],[-71.696885,44.332118],[-71.764977,44.406587]]]}},{"type":"Feature","properties":{"GEOID":"33015","NAME":"Rockingham","state":"NH","wildfire_risk_score":47.805,"wildfire_eal_total":63921.67,"risk_band":"High","source":"FEMA National Risk Index v1.20 (December 2025)"},"geometry":{"type":"MultiPolygon","coordinates":[[[[-70.617025,42.977182],[-70.614566,42.978599],[-70.610621,42.976407],[-70.613986,42.973349],[-70.617025,42.977182]]],[[[-70.626782,42.969493],[-70.62248,42.968207],[-70.622459,42.967479],[-70.626131,42.967704],[-70.626782,42.969493]]],[[[-70.62787,42.976294],[-70.626852,42.978155],[-70.624278,42.976661],[-70.627759,42.975383],[-70.62787,42.976294]]],[[[-71.449794,42.931091],[-71.375435,42.939318],[-71.402962,43.041054],[-71.392235,43.039285],[-71.247336,43.275232],[-71.026686,43.137947],[-71.072936,43.081681],[-70.980801,43.082367],[-70.934063,43.090108],[-70.875436,43.080422],[-70.862782,43.088569],[-70.85978,43.115593],[-70.864373,43.121696],[-70.853307,43.127105],[-70.833916,43.118011],[-70.82,43.122586],[-70.779098,43.095887],[-70.766398,43.092688],[-70.756397,43.079988],[-70.738078,43.073821],[-70.706503,43.075329],[-70.703799,43.059574],[-70.711535,43.057975],[-70.712085,43.043725],[-70.718936,43.03235],[-70.730426,43.025392],[-70.749969,42.991689],[-70.761474,42.986681],[-70.771729,42.961321],[-70.793996,42.93989],[-70.798636,42.924288],[-70.794748,42.918125],[-70.808712,42.912787],[-70.817296,42.87229],[-70.848625,42.860939],[-70.886136,42.88261],[-70.927629,42.885326],[-70.9665,42.868989],[-71.031201,42.859089],[-71.047501,42.844089],[-71.064201,42.806289],[-71.132503,42.821389],[-71.149703,42.815489],[-71.167703,42.807389],[-71.186104,42.790689],[-71.181803,42.73759],[-71.223904,42.746689],[-71.245539259394,42.7425673577623],[-71.26009,42.755734],[-71.351035,42.772183],[-71.35308,42.783261],[-71.364418,42.785237],[-71.366203,42.791691],[-71.360679,42.798962],[-71.3872,42.823559],[-71.427067,42.82484],[-71.449794,42.931091]]]]}},{"type":"Feature","properties":{"GEOID":"33013","NAME":"Merrimack","state":"NH","wildfire_risk_score":35.178,"wildfire_eal_total":24357.06,"risk_band":"High","source":"FEMA National Risk Index v1.20 (December 2025)"},"geometry":{"type":"Polygon","coordinates":[[[-72.078625,43.33859],[-72.04974,43.380261],[-72.04681,43.410862],[-72.05804,43.423245],[-72.053752,43.441097],[-72.011363,43.436871],[-71.928368,43.536777],[-71.849203,43.6112],[-71.817921,43.544208],[-71.815144,43.550921],[-71.80428,43.552745],[-71.797489,43.559413],[-71.78255,43.56058],[-71.7775,43.552501],[-71.76102,43.567729],[-71.730547,43.567729],[-71.728014,43.558939],[-71.713822,43.549876],[-71.708848,43.539675],[-71.687623,43.52814],[-71.691453,43.516139],[-71.677293,43.500491],[-71.654861,43.492],[-71.653473,43.487621],[-71.638066,43.491749],[-71.624114,43.469852],[-71.628413,43.46864],[-71.62503,43.459504],[-71.628148,43.458556],[-71.611891,43.437824],[-71.60446,43.44064],[-71.601077,43.435009],[-71.59312,43.443113],[-71.555435,43.454967],[-71.236011,43.284994],[-71.246967,43.276189],[-71.392235,43.039285],[-71.402962,43.041054],[-71.392388,43.009309],[-71.449962,43.020069],[-71.454783,43.044],[-71.473981,43.035274],[-71.489109,43.051779],[-71.512767,43.049615],[-71.517467,43.068909],[-71.641291,43.054168],[-71.667771,43.152534],[-71.8561,43.115135],[-71.913215,43.207099],[-72.009074,43.187882],[-72.041545,43.222724],[-72.045284,43.254767],[-72.065442,43.25508],[-72.090146,43.322553],[-72.078625,43.33859]]]}},{"type":"Feature","properties":{"GEOID":"33005","NAME":"Cheshire","state":"NH","wildfire_risk_score":24.491,"wildfire_eal_total":12935.48,"risk_band":"Low","source":"FEMA National Risk Index v1.20 (December 2025)"},"geometry":{"type":"Polygon","coordinates":[[[-72.557247,42.853019],[-72.552834,42.884968],[-72.532777,42.896076],[-72.530218,42.911576],[-72.52443,42.915575],[-72.527431,42.943148],[-72.534554,42.949894],[-72.532186,42.954945],[-72.481706,42.973985],[-72.473827,42.972045],[-72.461627,42.982906],[-72.465335,42.989558],[-72.46294,42.996943],[-72.443762,43.006245],[-72.462397,43.02556],[-72.460252,43.040671],[-72.467363,43.052648],[-72.435316,43.083536],[-72.443051,43.100841],[-72.433129,43.112637],[-72.432972,43.119655],[-72.442933,43.130192],[-72.440905,43.135793],[-72.451986,43.138924],[-72.45689,43.146558],[-72.4520937442892,43.1613424195726],[-72.43209,43.15982],[-72.431632,43.135635],[-72.372045,43.132118],[-72.376439,43.157684],[-72.330326,43.155166],[-72.332139,43.162842],[-72.156661,43.181968],[-72.178497,43.131866],[-72.034083,43.128746],[-72.057949,43.018922],[-72.062222,42.944796],[-72.00619,42.943789],[-71.97471,42.789402],[-71.944283,42.78841],[-71.9290194043648,42.7122382005025],[-72.458519,42.726853],[-72.473071,42.745916],[-72.477615,42.761245],[-72.491122,42.772465],[-72.497949,42.772918],[-72.507985,42.764414],[-72.516082,42.765949],[-72.508858,42.779919],[-72.5396,42.804832],[-72.54855,42.842021],[-72.557247,42.853019]]]}},{"type":"Feature","properties":{"GEOID":"33003","NAME":"Carroll","state":"NH","wildfire_risk_score":33.556,"wildfire_eal_total":18825.07,"risk_band":"Moderate","source":"FEMA National Risk Index v1.20 (December 2025)"},"geometry":{"type":"Polygon","coordinates":[[[-71.564603,43.893172],[-71.361965,43.915938],[-71.383613,44.022611],[-71.346656,44.068822],[-71.366355,44.068524],[-71.38163,44.097874],[-71.376488,44.104069],[-71.376518,44.11887],[-71.387138,44.155201],[-71.413171,44.167462],[-71.426507,44.210903],[-71.394874,44.214679],[-71.384239,44.178844],[-71.356482,44.165836],[-71.343223,44.123471],[-71.343588,44.092054],[-71.335882,44.085752],[-71.311758,44.091756],[-71.30245,44.137402],[-71.306036,44.137272],[-71.251957,44.244266],[-71.098434,44.235454],[-71.04228,44.237514],[-71.044385,44.283778],[-71.0102711678684,44.284888321572],[-70.989067,43.79244],[-70.972716,43.570255],[-70.95586,43.559787],[-70.950838,43.551026],[-70.953504,43.540603],[-70.962536,43.541301],[-71.024244,43.482913],[-71.037931,43.529826],[-71.044523,43.524798],[-71.046431,43.529689],[-71.052519,43.524692],[-71.067565,43.52724],[-71.084838,43.506686],[-71.089477,43.512691],[-71.093276,43.507335],[-71.096939,43.511684],[-71.102081,43.506877],[-71.106536,43.512248],[-71.111496,43.506709],[-71.127808,43.572787],[-71.162675,43.538959],[-71.199465,43.55913],[-71.208941,43.550517],[-71.22768,43.564585],[-71.257954,43.571291],[-71.335639,43.621431],[-71.531658,43.760979],[-71.538021,43.796478],[-71.543805,43.796043],[-71.564603,43.893172]]]}},{"type":"Feature","properties":{"GEOID":"33019","NAME":"Sullivan","state":"NH","wildfire_risk_score":13.74,"wildfire_eal_total":5834.74,"risk_band":"Low","source":"FEMA National Risk Index v1.20 (December 2025)"},"geometry":{"type":"Polygon","coordinates":[[[-72.452556,43.172117],[-72.443405,43.179729],[-72.45028,43.192485],[-72.437719,43.20275],[-72.4405,43.219049],[-72.433684,43.233427],[-72.438693,43.252905],[-72.41545,43.271374],[-72.395462,43.312994],[-72.410353,43.331675],[-72.390103,43.356926],[-72.413377,43.362741],[-72.415978,43.376531],[-72.403811,43.391935],[-72.390567,43.451225],[-72.3925,43.467364],[-72.381723,43.480091],[-72.380894,43.493394],[-72.398563,43.513435],[-72.394218,43.5274],[-72.380383,43.54088],[-72.382625,43.564127],[-72.373372,43.579667],[-72.3296772840816,43.6001836405589],[-72.208313,43.585207],[-72.106412,43.553485],[-72.120176,43.538302],[-72.090893,43.528857],[-72.069516,43.553172],[-72.067165,43.543971],[-71.93531,43.52888],[-72.011363,43.436871],[-72.053752,43.441097],[-72.05804,43.423245],[-72.04681,43.410862],[-72.04974,43.380261],[-72.090146,43.322553],[-72.065442,43.25508],[-72.045284,43.254767],[-72.041545,43.222724],[-72.009074,43.187882],[-72.036845,43.182471],[-72.023478,43.160125],[-72.038149,43.128807],[-72.178497,43.131866],[-72.156661,43.181968],[-72.332139,43.162842],[-72.330326,43.155166],[-72.376439,43.157684],[-72.372045,43.132118],[-72.431632,43.135635],[-72.43209,43.15982],[-72.4520937442892,43.1613424195726],[-72.452556,43.172117]]]}},{"type":"Feature","properties":{"GEOID":"33011","NAME":"Hillsborough","state":"NH","wildfire_risk_score":67.048,"wildfire_eal_total":203766.67,"risk_band":"High","source":"FEMA National Risk Index v1.20 (December 2025)"},"geometry":{"type":"Polygon","coordinates":[[[-72.061246,42.965806],[-72.057949,43.018922],[-72.041972,43.082238],[-72.034083,43.128746],[-72.038149,43.128807],[-72.023478,43.160125],[-72.036845,43.182471],[-71.913215,43.207099],[-71.8561,43.115135],[-71.667771,43.152534],[-71.641291,43.054168],[-71.517467,43.068909],[-71.512767,43.049615],[-71.489109,43.051779],[-71.473981,43.035274],[-71.454783,43.044],[-71.449962,43.020069],[-71.392388,43.009309],[-71.375435,42.939318],[-71.451231,42.930438],[-71.427067,42.82484],[-71.3872,42.823559],[-71.360679,42.798962],[-71.366203,42.791691],[-71.364418,42.785237],[-71.35308,42.783261],[-71.351035,42.772183],[-71.26009,42.755734],[-71.245539259394,42.7425673577623],[-71.267905,42.72589],[-71.294205,42.69699],[-71.9290194043648,42.7122382005025],[-71.944283,42.78841],[-71.97471,42.789402],[-72.00619,42.943789],[-72.062222,42.944796],[-72.061246,42.965806]]]}},{"type":"Feature","properties":{"GEOID":"33001","NAME":"Belknap","state":"NH","wildfire_risk_score":25.35,"wildfire_eal_total":13328.63,"risk_band":"Moderate","source":"FEMA National Risk Index v1.20 (December 2025)"},"geometry":{"type":"Polygon","coordinates":[[[-71.731533,43.590716],[-71.713286,43.600544],[-71.707704,43.601023],[-71.70334,43.594614],[-71.688096,43.59495],[-71.662827,43.605997],[-71.665054,43.613573],[-71.651153,43.621119],[-71.656936,43.630311],[-71.650741,43.645052],[-71.655121,43.661264],[-71.648758,43.671739],[-71.648346,43.684511],[-71.521466,43.697992],[-71.531658,43.760979],[-71.335639,43.621431],[-71.257954,43.571291],[-71.22768,43.564585],[-71.208941,43.550517],[-71.199465,43.55913],[-71.162675,43.538959],[-71.190799,43.515033],[-71.159364,43.355123],[-71.236011,43.284994],[-71.555435,43.454967],[-71.59312,43.443113],[-71.601077,43.435009],[-71.60446,43.44064],[-71.611891,43.437824],[-71.628148,43.458556],[-71.62503,43.459504],[-71.628413,43.46864],[-71.624114,43.469852],[-71.638066,43.491749],[-71.653473,43.487621],[-71.654861,43.492],[-71.677293,43.500491],[-71.691453,43.516139],[-71.687623,43.52814],[-71.706346,43.537623],[-71.713822,43.549876],[-71.728014,43.558939],[-71.72481,43.57059],[-71.715715,43.577898],[-71.731533,43.590716]]]}}]}