{"type":"FeatureCollection","metadata":{"state":"NJ","boundary_source":"U.S. Census Bureau 2024 Cartographic Boundary File (counties, 1:500,000)","risk_source":"FEMA National Risk Index v1.20 (December 2025)"},"features":[{"type":"Feature","properties":{"GEOID":"34001","NAME":"Atlantic","state":"NJ","wildfire_risk_score":94.307,"wildfire_eal_total":2822797.62,"risk_band":"High","source":"FEMA National Risk Index v1.20 (December 2025)"},"geometry":{"type":"Polygon","coordinates":[[[-74.985271,39.514967],[-74.736216,39.729775],[-74.667967,39.683699],[-74.657863,39.661382],[-74.659977,39.639116],[-74.655021,39.627119],[-74.64895,39.629003],[-74.639954,39.622512],[-74.63481,39.627973],[-74.630161,39.620241],[-74.620577,39.626435],[-74.588718,39.611802],[-74.575749,39.598395],[-74.554295,39.598484],[-74.541981,39.585816],[-74.540563,39.575607],[-74.525622,39.569355],[-74.515301,39.574172],[-74.496148,39.562501],[-74.493369,39.555744],[-74.482473,39.558392],[-74.473757,39.551235],[-74.462164,39.556094],[-74.457308,39.547317],[-74.452615,39.556915],[-74.445565,39.558571],[-74.445734,39.546352],[-74.4375,39.541198],[-74.433447,39.543839],[-74.438368,39.553519],[-74.417393,39.557255],[-74.416225,39.549803],[-74.401683,39.537922],[-74.380796,39.498537],[-74.354214,39.505572],[-74.326382,39.506332],[-74.311918,39.479895],[-74.319209,39.464519],[-74.33417,39.450955],[-74.330988,39.439792],[-74.333966,39.435112],[-74.36699,39.402017],[-74.405572,39.372806],[-74.412692,39.360816],[-74.423627,39.355403],[-74.459894,39.345016],[-74.535908,39.303576],[-74.568107,39.299079],[-74.588701,39.310074],[-74.620612,39.292598],[-74.640088,39.29599],[-74.65259,39.288566],[-74.658169,39.289656],[-74.658899,39.297303],[-74.668342,39.297735],[-74.673362,39.2892],[-74.676408,39.297336],[-74.69845,39.289257],[-74.702672,39.29471],[-74.716694,39.292083],[-74.719595,39.298644],[-74.746838,39.294727],[-74.754368,39.299154],[-74.7792,39.299155],[-74.77781,39.303738],[-74.783778,39.307201],[-74.825265,39.305388],[-74.837555,39.314878],[-74.860614,39.319449],[-74.864907,39.338473],[-74.851977,39.376555],[-74.85794,39.394854],[-74.85268,39.412466],[-74.855979,39.424041],[-74.985271,39.514967]]]}},{"type":"Feature","properties":{"GEOID":"34009","NAME":"Cape May","state":"NJ","wildfire_risk_score":86.419,"wildfire_eal_total":843611.37,"risk_band":"High","source":"FEMA National Risk Index v1.20 (December 2025)"},"geometry":{"type":"Polygon","coordinates":[[[-74.9719086038907,38.9405820172568],[-74.94947,39.015637],[-74.897784,39.098811],[-74.885914,39.143627],[-74.887167,39.158825],[-74.899852,39.17331],[-74.9147759897249,39.177623973507],[-74.913701,39.187739],[-74.922535,39.188823],[-74.918459,39.194702],[-74.925943,39.196753],[-74.922527,39.204219],[-74.925756,39.218813],[-74.921518,39.224999],[-74.896384,39.235054],[-74.882148,39.308378],[-74.864567,39.324375],[-74.860614,39.319449],[-74.837555,39.314878],[-74.825265,39.305388],[-74.783778,39.307201],[-74.77781,39.303738],[-74.7792,39.299155],[-74.754368,39.299154],[-74.746838,39.294727],[-74.719595,39.298644],[-74.716694,39.292083],[-74.702672,39.29471],[-74.69845,39.289257],[-74.676408,39.297336],[-74.673362,39.2892],[-74.668342,39.297735],[-74.658899,39.297303],[-74.658169,39.289656],[-74.65259,39.288566],[-74.640088,39.29599],[-74.620612,39.292598],[-74.588701,39.310074],[-74.568107,39.299079],[-74.54882,39.301751],[-74.552597,39.300143],[-74.554023,39.285876],[-74.619305,39.24038],[-74.67143,39.179802],[-74.714341,39.119804],[-74.714135,39.114631],[-74.704409,39.107858],[-74.705876,39.102937],[-74.737365,39.074945],[-74.771248,39.032545],[-74.77788,39.029663],[-74.787433,39.033465],[-74.798486,39.026228],[-74.786965,39.002164],[-74.79367,38.994144],[-74.864458,38.94041],[-74.883945,38.94241],[-74.90705,38.931994],[-74.933571,38.928519],[-74.963463,38.931194],[-74.9719086038907,38.9405820172568]]]}},{"type":"Feature","properties":{"GEOID":"34041","NAME":"Warren","state":"NJ","wildfire_risk_score":23.441,"wildfire_eal_total":12711.75,"risk_band":"Low","source":"FEMA National Risk Index v1.20 (December 2025)"},"geometry":{"type":"Polygon","coordinates":[[[-75.20392,40.691498],[-75.182084,40.731522],[-75.196533,40.751631],[-75.17904,40.761897],[-75.171587,40.777745],[-75.1344,40.773765],[-75.123088,40.786746],[-75.108505,40.791094],[-75.1008,40.799797],[-75.100277,40.807578],[-75.083929,40.824471],[-75.097006,40.839336],[-75.095784,40.847082],[-75.066014,40.847591],[-75.063925,40.855424],[-75.051029,40.865662],[-75.053664,40.87366],[-75.07534,40.894162],[-75.079279,40.91389],[-75.095526,40.924152],[-75.117764,40.953023],[-75.120232,40.968702],[-75.13378,40.970973],[-75.130575,40.991093],[-75.027102,41.039529],[-75.013099,41.066487],[-74.970987,41.085293],[-74.9670977569147,41.0943389229102],[-74.769425,40.910934],[-74.786893,40.899787],[-74.791652,40.890668],[-74.806081,40.883768],[-74.808295,40.869486],[-74.802003,40.863732],[-74.820831,40.849654],[-74.82383,40.844106],[-74.818434,40.836946],[-74.831022,40.828999],[-74.842817,40.811386],[-74.850263,40.804173],[-74.864387,40.803163],[-74.869394,40.79504],[-74.904623,40.780559],[-74.902718,40.771836],[-74.927262,40.754573],[-74.967953,40.71158],[-74.979299,40.710888],[-75.004554,40.692851],[-75.016943,40.694612],[-75.04916,40.679464],[-75.110007,40.638915],[-75.145315,40.628981],[-75.149667,40.620501],[-75.161196,40.618203],[-75.163058,40.610967],[-75.185492,40.592275],[-75.190369434453,40.5916420033367],[-75.192291,40.602676],[-75.201348,40.614628],[-75.188579,40.624628],[-75.200452,40.649219],[-75.176803,40.675715],[-75.19692,40.681299],[-75.20392,40.691498]]]}},{"type":"Feature","properties":{"GEOID":"34019","NAME":"Hunterdon","state":"NJ","wildfire_risk_score":26.336,"wildfire_eal_total":20041.14,"risk_band":"Low","source":"FEMA National Risk Index v1.20 (December 2025)"},"geometry":{"type":"Polygon","coordinates":[[[-75.195114,40.579689],[-75.190369434453,40.5916420033367],[-75.174886,40.598926],[-75.162314,40.617076],[-75.149667,40.620501],[-75.145315,40.628981],[-75.110007,40.638915],[-75.04916,40.679464],[-75.016943,40.694612],[-75.004554,40.692851],[-74.979299,40.710888],[-74.967953,40.71158],[-74.927262,40.754573],[-74.902718,40.771836],[-74.904623,40.780559],[-74.889819,40.787729],[-74.827484,40.744072],[-74.798013,40.742189],[-74.7529,40.731129],[-74.724954,40.71947],[-74.716555,40.703914],[-74.723938,40.687837],[-74.718464,40.680573],[-74.722701,40.67009],[-74.730776,40.665556],[-74.71958,40.651821],[-74.726544,40.63241],[-74.713277,40.630616],[-74.702703,40.621117],[-74.721752,40.600702],[-74.718582,40.599656],[-74.724937,40.588755],[-74.712962,40.584231],[-74.724597,40.566184],[-74.743081,40.553255],[-74.7766,40.503284],[-74.797881,40.51567],[-74.748147,40.424156],[-74.80847,40.416664],[-74.802016,40.384972],[-74.869678,40.377774],[-74.856262,40.346696],[-74.9429542775691,40.3416426197195],[-74.948722,40.364768],[-74.96813,40.399129],[-74.996378,40.410528],[-75.028315,40.403883],[-75.058848,40.418065],[-75.070568,40.455165],[-75.062625,40.48955],[-75.068615,40.542223],[-75.100325,40.567811],[-75.117292,40.573211],[-75.141906,40.575273],[-75.168609,40.564111],[-75.186737,40.569406],[-75.195114,40.579689]]]}},{"type":"Feature","properties":{"GEOID":"34025","NAME":"Monmouth","state":"NJ","wildfire_risk_score":88.772,"wildfire_eal_total":1395077.89,"risk_band":"High","source":"FEMA National Risk Index v1.20 (December 2025)"},"geometry":{"type":"Polygon","coordinates":[[[-74.614576,40.182383],[-74.599635,40.186791],[-74.593675,40.179421],[-74.570429,40.185722],[-74.562387,40.190137],[-74.543268,40.216692],[-74.481476,40.24289],[-74.487407,40.253129],[-74.460776,40.251358],[-74.393384,40.279637],[-74.394231,40.28839],[-74.377545,40.305432],[-74.247894,40.406605],[-74.247482,40.431531],[-74.236332,40.443444],[-74.226431,40.444666],[-74.2224775241454,40.4518756721361],[-74.20239,40.439371],[-74.191309,40.44299],[-74.181025,40.457476],[-74.158204,40.446616],[-74.13532,40.455446],[-74.058984,40.422708],[-74.006383,40.411108],[-74.000795,40.41155],[-73.995486,40.419472],[-73.991682,40.442908],[-74.002383,40.449269],[-74.006077,40.464625],[-74.019451,40.474682],[-74.002506,40.476314],[-73.986059,40.454427],[-73.971817,40.35427],[-73.977442,40.299373],[-74.0337343000302,40.101980248251],[-74.050943,40.103664],[-74.072373,40.089381],[-74.094222,40.107509],[-74.095919,40.128744],[-74.107667,40.13701],[-74.150315,40.098877],[-74.160306,40.10702],[-74.179463,40.110929],[-74.231947,40.109846],[-74.244582,40.11814],[-74.241833,40.130959],[-74.251251,40.146445],[-74.259811,40.149052],[-74.261455,40.167033],[-74.40671,40.172402],[-74.527323,40.090276],[-74.553105,40.07913],[-74.614576,40.182383]]]}},{"type":"Feature","properties":{"GEOID":"34023","NAME":"Middlesex","state":"NJ","wildfire_risk_score":79.707,"wildfire_eal_total":376175.47,"risk_band":"High","source":"FEMA National Risk Index v1.20 (December 2025)"},"geometry":{"type":"Polygon","coordinates":[[[-74.630228,40.343127],[-74.62024,40.373749],[-74.602567,40.38072],[-74.587865,40.394136],[-74.585616,40.417485],[-74.53619,40.438326],[-74.482344,40.481751],[-74.459863,40.491046],[-74.466947,40.508898],[-74.481679,40.511856],[-74.526685,40.559474],[-74.525893,40.568226],[-74.516348,40.580745],[-74.490669,40.586514],[-74.466266,40.599077],[-74.458466,40.594805],[-74.302921,40.608683],[-74.305326,40.600586],[-74.290849,40.59195],[-74.259559,40.597313],[-74.257689,40.602276],[-74.229745,40.598826],[-74.214049,40.604058],[-74.2051531367397,40.5938778981664],[-74.220411,40.55888],[-74.23182,40.562311],[-74.25226,40.55274],[-74.249171,40.523297],[-74.27269,40.488405],[-74.261889,40.464706],[-74.2224775241454,40.4518756721361],[-74.226431,40.444666],[-74.236332,40.443444],[-74.247482,40.431531],[-74.247894,40.406605],[-74.377545,40.305432],[-74.394231,40.28839],[-74.393384,40.279637],[-74.460776,40.251358],[-74.484962,40.253325],[-74.48203,40.273915],[-74.506721,40.28036],[-74.514855,40.287138],[-74.523208,40.286099],[-74.521918,40.290214],[-74.528641,40.294313],[-74.539918,40.28833],[-74.556698,40.291656],[-74.582875,40.306082],[-74.58659,40.313366],[-74.622462,40.3248],[-74.623274,40.334425],[-74.630228,40.343127]]]}},{"type":"Feature","properties":{"GEOID":"34031","NAME":"Passaic","state":"NJ","wildfire_risk_score":16.062,"wildfire_eal_total":4158.74,"risk_band":"Low","source":"FEMA National Risk Index v1.20 (December 2025)"},"geometry":{"type":"Polygon","coordinates":[[[-74.501679,41.087181],[-74.3673835938909,41.2034891734234],[-74.211326583784,41.1335230742556],[-74.272226,41.017935],[-74.248532,40.992094],[-74.224533,40.981303],[-74.171141,40.977066],[-74.170275,40.983904],[-74.141048,40.966348],[-74.148071,40.941643],[-74.140473,40.936015],[-74.140253,40.924036],[-74.129408,40.920213],[-74.133453,40.91291],[-74.130347,40.885641],[-74.115855,40.87519],[-74.106786,40.859299],[-74.109508,40.855319],[-74.113884,40.859695],[-74.121248,40.857597],[-74.123718,40.822814],[-74.130016,40.819938],[-74.196999,40.859464],[-74.26464,40.887358],[-74.273524,40.906497],[-74.266864,40.910239],[-74.284412,40.917422],[-74.289246,40.928791],[-74.279398,40.943445],[-74.277521,40.955071],[-74.282033,40.969171],[-74.277508,40.97355],[-74.281688,40.979961],[-74.297417,40.979623],[-74.292833,40.987955],[-74.300029,41.003115],[-74.309494,40.998409],[-74.315554,41.002369],[-74.328456,41.001264],[-74.336801,41.007598],[-74.350189,41.003975],[-74.355401,41.013897],[-74.389132,41.012195],[-74.419064,41.028738],[-74.43504,41.020021],[-74.426823,41.035437],[-74.439708,41.043191],[-74.447017,41.054429],[-74.475882,41.047896],[-74.497358,41.034112],[-74.501692,41.042098],[-74.49489,41.061526],[-74.487549,41.06568],[-74.486936,41.076748],[-74.501679,41.087181]]]}},{"type":"Feature","properties":{"GEOID":"34035","NAME":"Somerset","state":"NJ","wildfire_risk_score":35.401,"wildfire_eal_total":33111.45,"risk_band":"Moderate","source":"FEMA National Risk Index v1.20 (December 2025)"},"geometry":{"type":"Polygon","coordinates":[[[-74.795822,40.515273],[-74.7766,40.503284],[-74.743081,40.553255],[-74.724597,40.566184],[-74.712962,40.584231],[-74.724937,40.588755],[-74.718582,40.599656],[-74.721752,40.600702],[-74.702703,40.621117],[-74.727658,40.636233],[-74.71958,40.651821],[-74.730776,40.665556],[-74.722701,40.67009],[-74.717744,40.683988],[-74.723938,40.687837],[-74.715847,40.700742],[-74.725666,40.719532],[-74.556018,40.758288],[-74.549109,40.747045],[-74.548837,40.733717],[-74.530893,40.729854],[-74.531228,40.719683],[-74.524118,40.715643],[-74.525979,40.709327],[-74.513866,40.701064],[-74.517297,40.688734],[-74.524477,40.689142],[-74.527879,40.684344],[-74.52598,40.670209],[-74.534359,40.667308],[-74.525585,40.660606],[-74.523229,40.649157],[-74.51035,40.650458],[-74.5037,40.65963],[-74.461035,40.673504],[-74.450846,40.654148],[-74.432919,40.664526],[-74.419781,40.657718],[-74.405002,40.667734],[-74.401751,40.66428],[-74.408194,40.643086],[-74.41442,40.640652],[-74.416179,40.629365],[-74.427079,40.617182],[-74.483218,40.589433],[-74.509721,40.584218],[-74.525893,40.568226],[-74.526685,40.559474],[-74.517594,40.552523],[-74.514122,40.542031],[-74.495188,40.529065],[-74.481679,40.511856],[-74.466947,40.508898],[-74.459863,40.491046],[-74.482344,40.481751],[-74.53619,40.438326],[-74.584173,40.41869],[-74.587865,40.394136],[-74.612978,40.37576],[-74.62024,40.373749],[-74.617494,40.377884],[-74.622682,40.384336],[-74.654146,40.390978],[-74.722061,40.375205],[-74.795822,40.515273]]]}},{"type":"Feature","properties":{"GEOID":"34033","NAME":"Salem","state":"NJ","wildfire_risk_score":68.066,"wildfire_eal_total":167732.15,"risk_band":"Moderate","source":"FEMA National Risk Index v1.20 (December 2025)"},"geometry":{"type":"MultiPolygon","coordinates":[[[[-75.4127239958821,39.3843703989058],[-75.409435,39.387667],[-75.4070457388058,39.381106999364],[-75.412492,39.380927],[-75.4127239958821,39.3843703989058]]],[[[-75.558895,39.628767],[-75.514643,39.668613],[-75.507162,39.696961],[-75.496241,39.701413],[-75.488553,39.714833],[-75.47764,39.715013],[-75.474168,39.735473],[-75.459439,39.765813],[-75.4383,39.784402],[-75.4054892080789,39.7963685705255],[-75.429061,39.78382],[-75.409172,39.787749],[-75.407787,39.781208],[-75.402481,39.78258],[-75.400521,39.773578],[-75.395215,39.772609],[-75.404922,39.769043],[-75.405959,39.763484],[-75.39782,39.757473],[-75.396577,39.761281],[-75.389947,39.76051],[-75.394662,39.753117],[-75.376758,39.744944],[-75.376589,39.726421],[-75.35891,39.712298],[-75.336052,39.70388],[-75.325522,39.695135],[-75.326815,39.690733],[-75.302159,39.688404],[-75.286802,39.679839],[-75.253278,39.679026],[-75.247905,39.665208],[-75.235128,39.661707],[-75.199976,39.667033],[-75.061854,39.568746],[-75.074457,39.544564],[-75.071063,39.532445],[-75.079699,39.501434],[-75.073296,39.485128],[-75.080965,39.459987],[-75.083823,39.457354],[-75.238434,39.559039],[-75.31802,39.49204],[-75.326506,39.48845],[-75.342297,39.490606],[-75.351423,39.471595],[-75.368107,39.456802],[-75.39983,39.462271],[-75.413859,39.453663],[-75.409212,39.443057],[-75.416598,39.438474],[-75.40964,39.436716],[-75.418821,39.432301],[-75.410851,39.430968],[-75.408276,39.425095],[-75.419407,39.411212],[-75.413008,39.40445],[-75.409767,39.408702],[-75.405096,39.405544],[-75.411162,39.401093],[-75.407456,39.395951],[-75.417746,39.395217],[-75.4168418163419,39.3873779046746],[-75.427826,39.387792],[-75.442393,39.402291],[-75.465212,39.43893],[-75.483572,39.440824],[-75.488433,39.447967],[-75.505672,39.452927],[-75.508383,39.459131],[-75.536431,39.460559],[-75.542894,39.470447],[-75.542693,39.496568],[-75.527835,39.49813],[-75.526787,39.53144],[-75.534014,39.540702],[-75.511026,39.568125],[-75.511531,39.577177],[-75.553502,39.602],[-75.558895,39.628767]]]]}},{"type":"Feature","properties":{"GEOID":"34007","NAME":"Camden","state":"NJ","wildfire_risk_score":86.26,"wildfire_eal_total":711004.13,"risk_band":"High","source":"FEMA National Risk Index v1.20 (December 2025)"},"geometry":{"type":"Polygon","coordinates":[[[-75.137296,39.889966],[-75.12792,39.911813],[-75.13612,39.933912],[-75.13012,39.958712],[-75.102287,39.972377],[-75.075605,39.978041],[-75.0601125243152,39.9915160075617],[-75.027353,39.993589],[-75.010354,39.979996],[-75.019866,39.969361],[-75.01307,39.956479],[-75.015081,39.946813],[-74.994428,39.939365],[-74.975708,39.939762],[-74.983901,39.926826],[-74.962971,39.92028],[-74.949572,39.898294],[-74.930745,39.885908],[-74.902963,39.791108],[-74.894929,39.783421],[-74.876185,39.781459],[-74.843208,39.789919],[-74.819419,39.788001],[-74.790724,39.771303],[-74.77209,39.750436],[-74.736216,39.729775],[-74.878894,39.608981],[-74.90256,39.631683],[-74.910617,39.652916],[-74.909044,39.665436],[-74.929922,39.690281],[-74.959345,39.703059],[-74.987551,39.706701],[-74.999556,39.719982],[-75.024252,39.730582],[-75.02115,39.744759],[-75.044352,39.762019],[-75.054462,39.782602],[-75.063449,39.785974],[-75.074413,39.773962],[-75.077986,39.780864],[-75.08707,39.779576],[-75.081939,39.79133],[-75.07082,39.793888],[-75.076425,39.79894],[-75.073884,39.803098],[-75.088621,39.814932],[-75.082776,39.827057],[-75.086761,39.831478],[-75.083269,39.84209],[-75.10465,39.856555],[-75.104353,39.862306],[-75.114334,39.859714],[-75.117991,39.867487],[-75.118844,39.862761],[-75.124402,39.871787],[-75.120653,39.872641],[-75.13139,39.877341],[-75.127414,39.880839],[-75.137296,39.889966]]]}},{"type":"Feature","properties":{"GEOID":"34015","NAME":"Gloucester","state":"NJ","wildfire_risk_score":79.676,"wildfire_eal_total":497713.09,"risk_band":"Moderate","source":"FEMA National Risk Index v1.20 (December 2025)"},"geometry":{"type":"Polygon","coordinates":[[[-75.428302,39.784373],[-75.404274,39.795567],[-75.415062,39.801919],[-75.341765,39.846082],[-75.272141,39.84909],[-75.243431,39.854597],[-75.221371,39.861543],[-75.189323,39.880713],[-75.148893,39.883727],[-75.1394044896645,39.8884317818934],[-75.128796,39.882943],[-75.13139,39.877341],[-75.120653,39.872641],[-75.124402,39.871787],[-75.118844,39.862761],[-75.117991,39.867487],[-75.114334,39.859714],[-75.104353,39.862306],[-75.10465,39.856555],[-75.083269,39.84209],[-75.086761,39.831478],[-75.082776,39.827057],[-75.088621,39.814932],[-75.073884,39.803098],[-75.076425,39.79894],[-75.07082,39.793888],[-75.081939,39.79133],[-75.08707,39.779576],[-75.077986,39.780864],[-75.074413,39.773962],[-75.063449,39.785974],[-75.054462,39.782602],[-75.044352,39.762019],[-75.02115,39.744759],[-75.024252,39.730582],[-74.999556,39.719982],[-74.987551,39.706701],[-74.959345,39.703059],[-74.929922,39.690281],[-74.909044,39.665436],[-74.910617,39.652916],[-74.90256,39.631683],[-74.87726,39.608352],[-74.985271,39.514967],[-75.199976,39.667033],[-75.235128,39.661707],[-75.247905,39.665208],[-75.253278,39.679026],[-75.286802,39.679839],[-75.302159,39.688404],[-75.326815,39.690733],[-75.325522,39.695135],[-75.336052,39.70388],[-75.35891,39.712298],[-75.376589,39.726421],[-75.376758,39.744944],[-75.394662,39.753117],[-75.389947,39.76051],[-75.396577,39.761281],[-75.39782,39.757473],[-75.405959,39.763484],[-75.404922,39.769043],[-75.395215,39.772609],[-75.400521,39.773578],[-75.402481,39.78258],[-75.407787,39.781208],[-75.408106,39.787689],[-75.428302,39.784373]]]}},{"type":"Feature","properties":{"GEOID":"34011","NAME":"Cumberland","state":"NJ","wildfire_risk_score":85.782,"wildfire_eal_total":673063.95,"risk_band":"High","source":"FEMA National Risk Index v1.20 (December 2025)"},"geometry":{"type":"Polygon","coordinates":[[[-75.419562,39.413255],[-75.408276,39.425095],[-75.410851,39.430968],[-75.418821,39.432301],[-75.40964,39.436716],[-75.416598,39.438474],[-75.409212,39.443057],[-75.414691,39.452259],[-75.407678,39.458781],[-75.39983,39.462271],[-75.368107,39.456802],[-75.351423,39.471595],[-75.342297,39.490606],[-75.326506,39.48845],[-75.31802,39.49204],[-75.238434,39.559039],[-75.08347,39.4575],[-75.073296,39.485128],[-75.079699,39.501434],[-75.071063,39.532445],[-75.074457,39.544564],[-75.061854,39.568746],[-74.856978,39.424966],[-74.85268,39.412466],[-74.85794,39.394854],[-74.851977,39.376555],[-74.864907,39.338473],[-74.861294,39.323815],[-74.882148,39.308378],[-74.896384,39.235054],[-74.921518,39.224999],[-74.925756,39.218813],[-74.922527,39.204219],[-74.925943,39.196753],[-74.918459,39.194702],[-74.922535,39.188823],[-74.913701,39.187739],[-74.912192,39.178638],[-74.918001,39.176724],[-74.96316,39.192015],[-75.028885,39.19456],[-75.023586,39.202594],[-75.026383,39.213196],[-75.021328,39.218745],[-75.029795,39.225466],[-75.031923,39.220421],[-75.043496,39.22093],[-75.048487,39.215222],[-75.094065,39.212081],[-75.107427,39.218354],[-75.129739,39.200421],[-75.127838,39.190359],[-75.136914,39.182088],[-75.167352,39.203299],[-75.163009,39.214327],[-75.171899,39.23784],[-75.182005,39.246168],[-75.190768,39.246276],[-75.205857,39.262619],[-75.241639,39.274097],[-75.244056,39.27769],[-75.237765,39.284038],[-75.252709,39.296432],[-75.251699,39.300341],[-75.283013,39.305467],[-75.288306,39.291602],[-75.315201,39.310593],[-75.326835,39.339621],[-75.333743,39.345335],[-75.350103,39.349889],[-75.356753,39.347754],[-75.360297,39.339893],[-75.368281,39.350764],[-75.390239,39.358824],[-75.398171,39.379034],[-75.4070457388058,39.381106999364],[-75.409435,39.387667],[-75.4127239958821,39.3843703989058],[-75.4168418163419,39.3873779046746],[-75.417746,39.395217],[-75.407456,39.395951],[-75.411162,39.401093],[-75.405096,39.405544],[-75.409767,39.408702],[-75.413008,39.40445],[-75.419562,39.413255]]]}},{"type":"Feature","properties":{"GEOID":"34021","NAME":"Mercer","state":"NJ","wildfire_risk_score":73.441,"wildfire_eal_total":215926.05,"risk_band":"Moderate","source":"FEMA National Risk Index v1.20 (December 2025)"},"geometry":{"type":"Polygon","coordinates":[[[-74.9429542775691,40.3416426197195],[-74.856262,40.346696],[-74.869678,40.377774],[-74.802016,40.384972],[-74.80847,40.416664],[-74.748147,40.424156],[-74.722061,40.375205],[-74.654146,40.390978],[-74.622682,40.384336],[-74.617484,40.377599],[-74.631011,40.340111],[-74.623274,40.334425],[-74.622462,40.3248],[-74.58659,40.313366],[-74.582875,40.306082],[-74.556698,40.291656],[-74.539918,40.28833],[-74.528641,40.294313],[-74.521918,40.290214],[-74.523208,40.286099],[-74.514855,40.287138],[-74.506721,40.28036],[-74.48203,40.273915],[-74.487407,40.253129],[-74.481103,40.243915],[-74.543268,40.216692],[-74.562387,40.190137],[-74.570429,40.185722],[-74.593675,40.179421],[-74.599635,40.186791],[-74.614576,40.182383],[-74.587835,40.138254],[-74.621795,40.141123],[-74.62316,40.148638],[-74.63308,40.149098],[-74.665384,40.166079],[-74.67766,40.166335],[-74.674668,40.173691],[-74.70056,40.183648],[-74.711072,40.180709],[-74.710782,40.168045],[-74.704213,40.168731],[-74.706269,40.161793],[-74.7221310215466,40.1503235497687],[-74.722304,40.160609],[-74.737205,40.177609],[-74.754305,40.185209],[-74.771719,40.215287],[-74.842308,40.250508],[-74.868209,40.295207],[-74.9429542775691,40.3416426197195]]]}},{"type":"Feature","properties":{"GEOID":"34013","NAME":"Essex","state":"NJ","wildfire_risk_score":10.592,"wildfire_eal_total":2374.26,"risk_band":"Low","source":"FEMA National Risk Index v1.20 (December 2025)"},"geometry":{"type":"Polygon","coordinates":[[[-74.37727,40.76118],[-74.370011,40.766561],[-74.372971,40.775334],[-74.366811,40.78049],[-74.364004,40.799279],[-74.348532,40.812841],[-74.33842,40.813025],[-74.3322,40.821702],[-74.334904,40.82781],[-74.328798,40.831917],[-74.329277,40.841748],[-74.325511,40.843661],[-74.330284,40.848888],[-74.317571,40.863495],[-74.337465,40.867778],[-74.335155,40.877372],[-74.340139,40.879574],[-74.339855,40.888907],[-74.33398,40.896669],[-74.33763,40.898789],[-74.334294,40.90546],[-74.322771,40.908903],[-74.318655,40.90324],[-74.292421,40.905804],[-74.290068,40.899392],[-74.281848,40.90081],[-74.28728,40.898473],[-74.284292,40.894822],[-74.271482,40.897131],[-74.258986,40.883403],[-74.24029,40.880436],[-74.196999,40.859464],[-74.130016,40.819938],[-74.138474,40.813259],[-74.138324,40.79822],[-74.163188,40.759635],[-74.165954,40.745107],[-74.161958,40.736007],[-74.155279,40.733538],[-74.136802,40.741462],[-74.117605,40.739638],[-74.123188,40.712222],[-74.120663,40.704481],[-74.143723916511,40.6795008647149],[-74.16505,40.690161],[-74.201804,40.68681],[-74.221949,40.707341],[-74.285187,40.722152],[-74.30403,40.713283],[-74.316567,40.719269],[-74.325596,40.717075],[-74.371738,40.73964],[-74.357696,40.755002],[-74.37727,40.76118]]]}},{"type":"Feature","properties":{"GEOID":"34003","NAME":"Bergen","state":"NJ","wildfire_risk_score":21.66,"wildfire_eal_total":8880.48,"risk_band":"Low","source":"FEMA National Risk Index v1.20 (December 2025)"},"geometry":{"type":"Polygon","coordinates":[[[-74.270658,41.021033],[-74.211326583784,41.1335230742556],[-73.90268,40.997297],[-73.893628,40.997165],[-73.929821,40.888682],[-73.963182,40.8269],[-73.9848017882995,40.7976903485926],[-74.017819,40.823341],[-74.035823,40.808103],[-74.060685,40.80573],[-74.076753,40.795621],[-74.090028,40.778013],[-74.09027,40.76159],[-74.095836,40.76286],[-74.100879,40.775807],[-74.10923,40.777825],[-74.12719,40.771342],[-74.130359,40.777564],[-74.147529,40.786491],[-74.138085,40.798846],[-74.135971,40.818303],[-74.123718,40.822814],[-74.121248,40.857597],[-74.113884,40.859695],[-74.109508,40.855319],[-74.106786,40.859299],[-74.115855,40.87519],[-74.130347,40.885641],[-74.133453,40.91291],[-74.129408,40.920213],[-74.140253,40.924036],[-74.140473,40.936015],[-74.148071,40.941643],[-74.141048,40.966348],[-74.170275,40.983904],[-74.171141,40.977066],[-74.224533,40.981303],[-74.248532,40.992094],[-74.272226,41.017935],[-74.270658,41.021033]]]}},{"type":"Feature","properties":{"GEOID":"34027","NAME":"Morris","state":"NJ","wildfire_risk_score":29.994,"wildfire_eal_total":22977.03,"risk_band":"Moderate","source":"FEMA National Risk Index v1.20 (December 2025)"},"geometry":{"type":"Polygon","coordinates":[[[-74.889234,40.78883],[-74.869394,40.79504],[-74.864387,40.803163],[-74.850263,40.804173],[-74.831022,40.828999],[-74.818434,40.836946],[-74.82383,40.844106],[-74.821655,40.848498],[-74.802003,40.863732],[-74.808295,40.869486],[-74.806081,40.883768],[-74.791652,40.890668],[-74.779094,40.906348],[-74.748011,40.919821],[-74.731887,40.920827],[-74.712874,40.907665],[-74.71134,40.89918],[-74.653214,40.921313],[-74.653539,40.929043],[-74.641581,40.933647],[-74.63644,40.942638],[-74.635073,40.950655],[-74.641619,40.961376],[-74.632378,40.973717],[-74.503212,41.085873],[-74.486936,41.076748],[-74.487549,41.06568],[-74.49489,41.061526],[-74.501692,41.042098],[-74.497358,41.034112],[-74.475882,41.047896],[-74.447017,41.054429],[-74.439708,41.043191],[-74.426823,41.035437],[-74.43504,41.020021],[-74.419064,41.028738],[-74.389132,41.012195],[-74.355401,41.013897],[-74.350189,41.003975],[-74.336801,41.007598],[-74.328456,41.001264],[-74.315554,41.002369],[-74.309494,40.998409],[-74.300029,41.003115],[-74.292833,40.987955],[-74.297417,40.979623],[-74.281688,40.979961],[-74.277508,40.97355],[-74.282033,40.969171],[-74.277521,40.955071],[-74.279398,40.943445],[-74.289246,40.928791],[-74.284412,40.917422],[-74.271681,40.915425],[-74.266691,40.907726],[-74.271593,40.910027],[-74.273524,40.906497],[-74.271975,40.897321],[-74.284292,40.894822],[-74.28728,40.898473],[-74.281848,40.90081],[-74.290068,40.899392],[-74.292421,40.905804],[-74.318655,40.90324],[-74.322771,40.908903],[-74.334294,40.90546],[-74.33763,40.898789],[-74.33398,40.896669],[-74.339855,40.888907],[-74.340139,40.879574],[-74.335155,40.877372],[-74.337465,40.867778],[-74.317571,40.863495],[-74.330284,40.848888],[-74.325511,40.843661],[-74.329277,40.841748],[-74.328798,40.831917],[-74.334904,40.82781],[-74.334987,40.817052],[-74.348532,40.812841],[-74.367062,40.793286],[-74.366811,40.78049],[-74.372971,40.775334],[-74.370011,40.766561],[-74.37727,40.76118],[-74.357696,40.755002],[-74.367781,40.748396],[-74.366272,40.743893],[-74.3722,40.743403],[-74.371127,40.73458],[-74.379995,40.733734],[-74.377469,40.730044],[-74.384266,40.724492],[-74.38997,40.726073],[-74.390747,40.718446],[-74.402323,40.717984],[-74.408413,40.710209],[-74.426814,40.701845],[-74.430515,40.693656],[-74.451903,40.685397],[-74.454183,40.674088],[-74.5037,40.65963],[-74.513088,40.649563],[-74.523229,40.649157],[-74.525585,40.660606],[-74.534359,40.667308],[-74.52598,40.670209],[-74.527879,40.684344],[-74.524477,40.689142],[-74.517297,40.688734],[-74.513866,40.701064],[-74.525979,40.709327],[-74.524118,40.715643],[-74.531228,40.719683],[-74.530893,40.729854],[-74.548837,40.733717],[-74.549109,40.747045],[-74.556018,40.758288],[-74.732704,40.720082],[-74.770989,40.736048],[-74.823905,40.742369],[-74.889234,40.78883]]]}},{"type":"Feature","properties":{"GEOID":"34005","NAME":"Burlington","state":"NJ","wildfire_risk_score":92.207,"wildfire_eal_total":2441368.94,"risk_band":"High","source":"FEMA National Risk Index v1.20 (December 2025)"},"geometry":{"type":"Polygon","coordinates":[[[-75.059647,39.992145],[-75.04709,40.009941],[-75.012214,40.020698],[-74.966891,40.052716],[-74.93258,40.06881],[-74.909011,40.07021],[-74.862106,40.083283],[-74.854609,40.09327],[-74.835108,40.10391],[-74.822531,40.126844],[-74.785106,40.12031],[-74.758882,40.134036],[-74.740555,40.135492],[-74.706269,40.161793],[-74.704213,40.168731],[-74.709769,40.16656],[-74.708423,40.171846],[-74.712812,40.175189],[-74.708279,40.181904],[-74.696229,40.182756],[-74.696521,40.179292],[-74.674668,40.173691],[-74.67766,40.166335],[-74.665384,40.166079],[-74.63308,40.149098],[-74.62316,40.148638],[-74.621795,40.141123],[-74.587835,40.138254],[-74.528324,40.036679],[-74.389708,39.773283],[-74.390396,39.596201],[-74.400819,39.572242],[-74.418833,39.568583],[-74.414398,39.560977],[-74.417393,39.557255],[-74.438368,39.553519],[-74.433447,39.543839],[-74.4375,39.541198],[-74.445734,39.546352],[-74.445565,39.558571],[-74.452615,39.556915],[-74.457308,39.547317],[-74.462164,39.556094],[-74.473757,39.551235],[-74.482473,39.558392],[-74.493369,39.555744],[-74.496148,39.562501],[-74.515301,39.574172],[-74.525622,39.569355],[-74.540563,39.575607],[-74.541981,39.585816],[-74.554295,39.598484],[-74.575749,39.598395],[-74.588718,39.611802],[-74.620577,39.626435],[-74.630161,39.620241],[-74.63481,39.627973],[-74.639954,39.622512],[-74.64895,39.629003],[-74.655021,39.627119],[-74.659977,39.639116],[-74.657863,39.661382],[-74.667967,39.683699],[-74.77209,39.750436],[-74.806856,39.783463],[-74.843208,39.789919],[-74.876185,39.781459],[-74.894929,39.783421],[-74.902963,39.791108],[-74.930745,39.885908],[-74.949572,39.898294],[-74.962971,39.92028],[-74.983901,39.926826],[-74.975708,39.939762],[-74.994428,39.939365],[-75.015081,39.946813],[-75.01307,39.956479],[-75.019866,39.969361],[-75.010354,39.979996],[-75.018387,39.988954],[-75.035233,39.995862],[-75.059647,39.992145]]]}},{"type":"Feature","properties":{"GEOID":"34017","NAME":"Hudson","state":"NJ","wildfire_risk_score":4.548,"wildfire_eal_total":1010.65,"risk_band":"Low","source":"FEMA National Risk Index v1.20 (December 2025)"},"geometry":{"type":"MultiPolygon","coordinates":[[[[-74.042196,40.699966],[-74.038997,40.697619],[-74.041658,40.696435],[-74.042196,40.699966]]],[[[-74.166079,40.747235],[-74.147529,40.786491],[-74.130359,40.777564],[-74.12719,40.771342],[-74.10923,40.777825],[-74.100879,40.775807],[-74.095836,40.76286],[-74.09027,40.76159],[-74.090028,40.778013],[-74.076753,40.795621],[-74.060685,40.80573],[-74.035823,40.808103],[-74.017819,40.823341],[-73.9848017882995,40.7976903485926],[-74.014029,40.757551],[-74.023193,40.719891],[-74.029383,40.718967],[-74.035495,40.705741],[-74.055335,40.690824],[-74.064978,40.69595],[-74.077813,40.674646],[-74.064225,40.668865],[-74.070198,40.660827],[-74.08694,40.66675],[-74.09079,40.663613],[-74.087452,40.653742],[-74.095047,40.649182],[-74.143864,40.643631],[-74.14626,40.646568],[-74.102481,40.701926],[-74.108154,40.715963],[-74.12057,40.717133],[-74.117605,40.739638],[-74.136802,40.741462],[-74.155279,40.733538],[-74.161958,40.736007],[-74.166079,40.747235]]]]}},{"type":"Feature","properties":{"GEOID":"34037","NAME":"Sussex","state":"NJ","wildfire_risk_score":36.705,"wildfire_eal_total":33192.14,"risk_band":"Moderate","source":"FEMA National Risk Index v1.20 (December 2025)"},"geometry":{"type":"Polygon","coordinates":[[[-74.991718,41.092284],[-74.979873,41.110423],[-74.964294,41.114237],[-74.945067,41.129052],[-74.923169,41.138146],[-74.882139,41.180836],[-74.859632,41.219077],[-74.867405,41.22777],[-74.857151,41.248975],[-74.846932,41.253318],[-74.846319,41.263077],[-74.830057,41.2872],[-74.792558,41.310628],[-74.79504,41.320407],[-74.771588,41.325079],[-74.753239,41.346122],[-74.720923,41.347384],[-74.694914,41.357423],[-74.3673835938909,41.2034891734234],[-74.632378,40.973717],[-74.641619,40.961376],[-74.635073,40.950655],[-74.63644,40.942638],[-74.641581,40.933647],[-74.653539,40.929043],[-74.653214,40.921313],[-74.71134,40.89918],[-74.712874,40.907665],[-74.731887,40.920827],[-74.748011,40.919821],[-74.769425,40.910934],[-74.967464,41.095327],[-74.984782,41.088545],[-74.991718,41.092284]]]}},{"type":"Feature","properties":{"GEOID":"34029","NAME":"Ocean","state":"NJ","wildfire_risk_score":95.229,"wildfire_eal_total":3568856.43,"risk_band":"High","source":"FEMA National Risk Index v1.20 (December 2025)"},"geometry":{"type":"Polygon","coordinates":[[[-74.553105,40.07913],[-74.527323,40.090276],[-74.40671,40.172402],[-74.261455,40.167033],[-74.259811,40.149052],[-74.251251,40.146445],[-74.241833,40.130959],[-74.244582,40.11814],[-74.231947,40.109846],[-74.179463,40.110929],[-74.160306,40.10702],[-74.150315,40.098877],[-74.107667,40.13701],[-74.095919,40.128744],[-74.094222,40.107509],[-74.072373,40.089381],[-74.050943,40.103664],[-74.0337343000302,40.101980248251],[-74.077363,39.910274],[-74.0991,39.756825],[-74.117323,39.735333],[-74.142032,39.689785],[-74.240647,39.555753],[-74.289496,39.509315],[-74.354214,39.505572],[-74.380796,39.498537],[-74.4033,39.540325],[-74.416225,39.549803],[-74.41471,39.563236],[-74.418833,39.568583],[-74.400819,39.572242],[-74.390396,39.596201],[-74.389708,39.773283],[-74.553105,40.07913]]]}},{"type":"Feature","properties":{"GEOID":"34039","NAME":"Union","state":"NJ","wildfire_risk_score":16.349,"wildfire_eal_total":4945.51,"risk_band":"Low","source":"FEMA National Risk Index v1.20 (December 2025)"},"geometry":{"type":"Polygon","coordinates":[[[-74.459878,40.600033],[-74.42435,40.619595],[-74.416179,40.629365],[-74.41442,40.640652],[-74.408194,40.643086],[-74.401751,40.66428],[-74.405002,40.667734],[-74.419781,40.657718],[-74.432919,40.664526],[-74.450846,40.654148],[-74.461035,40.673504],[-74.454183,40.674088],[-74.451903,40.685397],[-74.430515,40.693656],[-74.426814,40.701845],[-74.408413,40.710209],[-74.402323,40.717984],[-74.390747,40.718446],[-74.390776,40.725388],[-74.384266,40.724492],[-74.377469,40.730044],[-74.379995,40.733734],[-74.371127,40.73458],[-74.371738,40.73964],[-74.325596,40.717075],[-74.316567,40.719269],[-74.30403,40.713283],[-74.285187,40.722152],[-74.221949,40.707341],[-74.201804,40.68681],[-74.16505,40.690161],[-74.138816,40.673903],[-74.149263,40.659983],[-74.156823,40.662751],[-74.202679,40.633836],[-74.205947,40.605995],[-74.200922,40.601843],[-74.2051531367397,40.5938778981664],[-74.214049,40.604058],[-74.229745,40.598826],[-74.257689,40.602276],[-74.259559,40.597313],[-74.290849,40.59195],[-74.305326,40.600586],[-74.302921,40.608683],[-74.458466,40.594805],[-74.463291,40.599187],[-74.459878,40.600033]]]}}]}