{"type":"FeatureCollection","metadata":{"state":"NV","boundary_source":"U.S. Census Bureau 2024 Cartographic Boundary File (counties, 1:500,000)","risk_source":"FEMA National Risk Index v1.20 (December 2025)"},"features":[{"type":"Feature","properties":{"GEOID":"32011","NAME":"Eureka","state":"NV","wildfire_risk_score":90.935,"wildfire_eal_total":2069697.41,"risk_band":"Moderate","source":"FEMA National Risk Index v1.20 (December 2025)"},"geometry":{"type":"Polygon","coordinates":[[[-116.600983,39.176149],[-116.597109,39.176241],[-116.596828,39.372793],[-116.592432,39.372787],[-116.59105,39.633717],[-116.590396,40.072277],[-116.600095,40.073996],[-116.594214,40.320251],[-116.596815,40.94646],[-116.587104,40.947021],[-116.586786,41.000398],[-116.158155,40.999912],[-116.157834,40.666389],[-116.000897,40.127376],[-115.834969,40.127842],[-115.824056,40.121202],[-115.830643,40.112659],[-115.825356,40.106073],[-115.840203,40.097569],[-115.834227,40.092661],[-115.838558,40.080338],[-115.833518,40.077908],[-115.82663,40.053118],[-115.833246,40.043201],[-115.82654,40.026055],[-115.835301,40.017371],[-115.831252,39.9992],[-115.835826,39.99395],[-115.816578,39.956214],[-115.817445,39.931003],[-115.802359,39.912821],[-115.807786,39.899178],[-115.800987,39.877379],[-115.805135,39.869087],[-115.794864,39.853104],[-115.798717,39.835088],[-115.812471,39.824535],[-115.815634,39.814334],[-115.810113,39.795829],[-115.813916,39.778684],[-115.812084,39.752929],[-115.824274,39.744011],[-115.833101,39.729412],[-115.822557,39.670248],[-115.82751,39.646043],[-115.813476,39.593521],[-115.838173,39.556187],[-115.83046,39.541386],[-115.84481,39.51318],[-115.842154,39.511244],[-115.851164,39.508793],[-115.855824,39.503942],[-115.852542,39.498968],[-115.870264,39.487128],[-115.866523,39.478622],[-115.870268,39.470046],[-115.894784,39.461077],[-115.898339,39.45389],[-115.907224,39.464298],[-115.907071,39.161848],[-116.600946,39.161463],[-116.600983,39.176149]]]}},{"type":"Feature","properties":{"GEOID":"32033","NAME":"White Pine","state":"NV","wildfire_risk_score":84.192,"wildfire_eal_total":662434.14,"risk_band":"Low","source":"FEMA National Risk Index v1.20 (December 2025)"},"geometry":{"type":"Polygon","coordinates":[[[-115.907224,39.464298],[-115.898339,39.45389],[-115.894784,39.461077],[-115.870268,39.470046],[-115.866523,39.478622],[-115.870264,39.487128],[-115.852542,39.498968],[-115.855824,39.503942],[-115.851164,39.508793],[-115.842154,39.511244],[-115.84481,39.51318],[-115.83046,39.541386],[-115.838173,39.556187],[-115.813476,39.593521],[-115.82751,39.646043],[-115.822557,39.670248],[-115.833101,39.729412],[-115.824274,39.744011],[-115.812084,39.752929],[-115.813916,39.778684],[-115.810113,39.795829],[-115.815634,39.814334],[-115.812471,39.824535],[-115.798717,39.835088],[-115.794864,39.853104],[-115.805135,39.869087],[-115.800987,39.877379],[-115.807786,39.899178],[-115.802359,39.912821],[-115.817445,39.931003],[-115.816578,39.956214],[-115.835826,39.99395],[-115.831252,39.9992],[-115.835301,40.017371],[-115.82654,40.026055],[-115.833246,40.043201],[-115.82663,40.053118],[-115.833518,40.077908],[-115.838558,40.080338],[-115.834227,40.092661],[-115.840203,40.097569],[-115.825356,40.106073],[-115.830643,40.112659],[-115.823777,40.118822],[-115.834969,40.127842],[-114.046682520363,40.1169354028727],[-114.049883347847,38.677365],[-115.000846,38.677322],[-115.907071,39.161848],[-115.907224,39.464298]]]}},{"type":"Feature","properties":{"GEOID":"32017","NAME":"Lincoln","state":"NV","wildfire_risk_score":91.603,"wildfire_eal_total":968872.6,"risk_band":"Moderate","source":"FEMA National Risk Index v1.20 (December 2025)"},"geometry":{"type":"Polygon","coordinates":[[[-115.89446,36.861717],[-115.893857,38.050531],[-115.000846,38.050757],[-115.000846,38.677322],[-114.049883347847,38.677365],[-114.050618928072,36.8431412145167],[-114.762301,36.843856],[-114.762507,36.853473],[-115.740846,36.853084],[-115.740748,36.8419],[-115.896925,36.842085],[-115.89446,36.861717]]]}},{"type":"Feature","properties":{"GEOID":"32015","NAME":"Lander","state":"NV","wildfire_risk_score":94.02,"wildfire_eal_total":1751287.06,"risk_band":"Moderate","source":"FEMA National Risk Index v1.20 (December 2025)"},"geometry":{"type":"Polygon","coordinates":[[[-117.806786,39.145375],[-117.79352,39.144763],[-117.784638,39.151042],[-117.792608,39.158947],[-117.788776,39.164424],[-117.791599,39.169636],[-117.782407,39.175849],[-117.770992,39.17416],[-117.76276,39.184911],[-117.753163,39.184802],[-117.744234,39.191425],[-117.74424,39.198545],[-117.734611,39.210074],[-117.719897,39.213377],[-117.71995,39.236821],[-117.714056,39.245558],[-117.722805,39.250781],[-117.73298,39.281348],[-117.743587,39.287793],[-117.739553,39.296305],[-117.752673,39.311781],[-117.752092,39.323978],[-117.75987,39.334056],[-117.75746,39.344799],[-117.762589,39.35837],[-117.750158,39.383787],[-117.728097,39.380199],[-117.696305,39.385934],[-117.680841,39.405934],[-117.68271,39.41077],[-117.676387,39.413634],[-117.675592,39.422469],[-117.646011,39.426602],[-117.637231,39.451821],[-117.64502,39.458431],[-117.653755,39.45777],[-117.656648,39.467907],[-117.623237,39.476209],[-117.615458,39.489794],[-117.601766,39.490817],[-117.601588,39.49543],[-117.58684,39.503022],[-117.59014,39.518021],[-117.565739,39.519222],[-117.560839,39.525921],[-117.531838,39.527022],[-117.518514,39.538212],[-117.510543,39.531349],[-117.501394,39.530821],[-117.492936,39.535922],[-117.492836,39.542822],[-117.485236,39.545622],[-117.482442,39.573626],[-117.47609,39.583641],[-117.476938,39.596721],[-117.481936,39.598522],[-117.461587,39.622644],[-117.463373,39.633101],[-117.47333,39.6347],[-117.486071,39.644966],[-117.472093,39.661548],[-117.473697,39.669559],[-117.464385,39.677271],[-117.487824,39.703903],[-117.48402,39.70811],[-117.487626,39.714118],[-117.475212,39.735851],[-117.477617,39.742359],[-117.495344,39.748364],[-117.496049,39.770294],[-117.48574,39.786518],[-117.48944,39.807018],[-117.48354,39.811818],[-117.487944,39.826823],[-117.47234,39.839218],[-117.47054,39.854518],[-117.46464,39.858218],[-117.46674,39.865018],[-117.46134,39.867818],[-117.46164,39.886817],[-117.470541,39.918017],[-117.467941,39.922117],[-117.478042,39.939617],[-117.502543,39.951516],[-117.508843,39.962816],[-117.507143,39.968816],[-117.519644,39.972516],[-117.520444,39.979516],[-117.541749,40.001034],[-117.246788,40.642445],[-117.018664,40.643035],[-117.018419,41.000254],[-116.586786,41.000398],[-116.587104,40.947021],[-116.596815,40.94646],[-116.594214,40.320251],[-116.600095,40.073996],[-116.590396,40.072277],[-116.59105,39.633717],[-116.592432,39.372787],[-116.596828,39.372793],[-116.597109,39.176241],[-116.600983,39.176149],[-116.600946,39.161463],[-117.331857,39.16343],[-117.775468,39.093425],[-117.780903,39.104485],[-117.800112,39.11252],[-117.800809,39.117531],[-117.793055,39.117602],[-117.796422,39.122006],[-117.791497,39.131382],[-117.79493,39.138813],[-117.80154,39.138817],[-117.806786,39.145375]]]}},{"type":"Feature","properties":{"GEOID":"32003","NAME":"Clark","state":"NV","wildfire_risk_score":99.141,"wildfire_eal_total":24456603.93,"risk_band":"High","source":"FEMA National Risk Index v1.20 (December 2025)"},"geometry":{"type":"Polygon","coordinates":[[[-115.896925,36.842085],[-115.740748,36.8419],[-115.740846,36.853084],[-114.762507,36.853473],[-114.762301,36.843856],[-114.050618928072,36.8431412145167],[-114.043133,36.469716],[-114.043944,36.19335],[-114.05779,36.188633],[-114.068222,36.177687],[-114.096994,36.120823],[-114.107419,36.119401],[-114.121284,36.109519],[-114.1119,36.095845],[-114.131212,36.065765],[-114.134841,36.043873],[-114.145907,36.027229],[-114.15139,36.023133],[-114.173267,36.026752],[-114.211932,36.014834],[-114.242139,36.015187],[-114.265001,36.028848],[-114.270862,36.045523],[-114.313591,36.059048],[-114.304171,36.07558],[-114.306939,36.082487],[-114.328777,36.105501],[-114.358968,36.127795],[-114.370181,36.142624],[-114.40914,36.147],[-114.443736,36.125593],[-114.463637,36.139695],[-114.483827,36.12972],[-114.504715,36.127188],[-114.50921,36.133247],[-114.500236,36.143226],[-114.51428,36.150795],[-114.52885,36.147751],[-114.539233,36.151764],[-114.57109,36.151099],[-114.615455,36.129653],[-114.630474,36.142218],[-114.662144,36.117742],[-114.679775,36.109874],[-114.693655,36.112482],[-114.736165,36.104367],[-114.754798,36.084704],[-114.736253,36.05847],[-114.742105,36.039792],[-114.722096,36.028952],[-114.742779,36.009963],[-114.740595,35.975656],[-114.707526,35.92806],[-114.708516,35.912313],[-114.661636,35.871067],[-114.706532,35.849027],[-114.695249,35.832285],[-114.71211,35.806185],[-114.69891,35.790185],[-114.701409,35.769086],[-114.695709,35.755986],[-114.705409,35.708287],[-114.680631,35.684046],[-114.690214,35.665159],[-114.689001,35.65028],[-114.653406,35.610789],[-114.659238,35.587477],[-114.675751,35.579459],[-114.663226,35.565164],[-114.657163,35.532301],[-114.677156,35.51287],[-114.678715,35.49875],[-114.673164,35.474814],[-114.665988,35.467985],[-114.663541,35.447797],[-114.652752,35.430819],[-114.626765,35.409644],[-114.605748,35.358454],[-114.595162,35.324238],[-114.597503,35.296954],[-114.587129,35.262376],[-114.579963,35.20964],[-114.572119,35.200591],[-114.569238,35.18348],[-114.572597,35.139557],[-114.578263,35.12881],[-114.632282,35.117088],[-114.646759,35.101872],[-114.613132,35.083097],[-114.602908,35.068588],[-114.606694,35.058941],[-114.627124,35.044721],[-114.636893,35.028367],[-114.633487,35.001857],[-115.271342,35.51266],[-115.845983929593,35.9642074573715],[-115.845762,36.170764],[-115.895753,36.172227],[-115.896925,36.842085]]]}},{"type":"Feature","properties":{"GEOID":"32009","NAME":"Esmeralda","state":"NV","wildfire_risk_score":34.733,"wildfire_eal_total":11709.73,"risk_band":"Low","source":"FEMA National Risk Index v1.20 (December 2025)"},"geometry":{"type":"Polygon","coordinates":[[[-118.417945,37.896505],[-118.351484,37.893705],[-117.691021,38.473797],[-117.24091,38.069902],[-117.241063,38.050116],[-117.219264,38.050348],[-117.165612,38.001692],[-117.166000489853,36.9712239643835],[-117.875927,37.497267],[-118.427800363848,37.8962298945818],[-118.417945,37.896505]]]}},{"type":"Feature","properties":{"GEOID":"32031","NAME":"Washoe","state":"NV","wildfire_risk_score":98.95,"wildfire_eal_total":26514857.77,"risk_band":"High","source":"FEMA National Risk Index v1.20 (December 2025)"},"geometry":{"type":"Polygon","coordinates":[[[-120.006452848097,39.2728781076314],[-119.996183,40.262461],[-119.999234,41.994944],[-119.324182599298,41.9942055845967],[-119.327027,41.590584],[-119.321112,41.590915],[-119.323955,41.414519],[-119.304635,41.414695],[-119.305713,41.234542],[-119.331068,41.235118],[-119.329791,40.960394],[-119.309598,40.960378],[-119.309326,40.954888],[-119.313037,40.518314],[-119.338504,40.517805],[-119.339296,39.998609],[-119.225176,39.999385],[-119.226139,39.899449],[-119.208628,39.899459],[-119.208543,39.809967],[-119.189761,39.809994],[-119.189707,39.788221],[-119.170899,39.788288],[-119.170641,39.680453],[-119.189327,39.68048],[-119.189344,39.651423],[-119.257342,39.65132],[-119.276866,39.622324],[-119.283116,39.622317],[-119.282425,39.62889],[-119.284407,39.623094],[-119.314024,39.607421],[-119.339532,39.596612],[-119.357868,39.597857],[-119.370604,39.586882],[-119.39487,39.585676],[-119.413453,39.590649],[-119.444476,39.585124],[-119.456815,39.58914],[-119.46784,39.584022],[-119.473235,39.565811],[-119.511744,39.562281],[-119.529076,39.56668],[-119.536683,39.560983],[-119.546607,39.56229],[-119.593855,39.544292],[-119.623248,39.511044],[-119.664926,39.508516],[-119.695643,39.520023],[-119.69609,39.447463],[-119.655069,39.447479],[-119.657145,39.404111],[-119.677,39.404471],[-119.677271,39.389575],[-119.685464,39.389575],[-119.685415,39.375063],[-119.677527,39.375095],[-119.677527,39.360647],[-119.668102,39.360798],[-119.668134,39.346216],[-119.658821,39.346088],[-119.658501,39.331544],[-119.677414,39.331655],[-119.677476,39.280871],[-119.695957,39.280903],[-119.69652,39.259145],[-119.71407,39.259175],[-119.715297,39.244283],[-119.752093,39.244385],[-119.752168,39.229892],[-119.770872,39.229832],[-119.770871,39.215285],[-119.79886,39.215238],[-119.798856,39.208038],[-119.826731,39.207988],[-119.826716,39.200819],[-119.843933,39.200776],[-119.843883,39.193152],[-119.85326,39.193022],[-119.853265,39.185755],[-119.862517,39.185639],[-119.862103,39.171148],[-119.880802,39.17091],[-119.880787,39.165509],[-120.004504420333,39.1655986798664],[-120.006452848097,39.2728781076314]]]}},{"type":"Feature","properties":{"GEOID":"32019","NAME":"Lyon","state":"NV","wildfire_risk_score":96.788,"wildfire_eal_total":7377311.36,"risk_band":"High","source":"FEMA National Risk Index v1.20 (December 2025)"},"geometry":{"type":"Polygon","coordinates":[[[-119.712112,39.251046],[-119.647306,39.266786],[-119.478792,39.337851],[-119.283116,39.622317],[-119.276866,39.622324],[-119.257342,39.65132],[-119.189344,39.651423],[-119.190676,39.631787],[-119.179326,39.651336],[-119.161892,39.655571],[-119.11286,39.689056],[-119.063449,39.737124],[-119.058566,39.737129],[-119.05857,39.729873],[-119.067979,39.729868],[-119.067978,39.722634],[-119.077136,39.722637],[-119.077148,39.636796],[-119.089146,39.636829],[-119.090531,39.518871],[-119.117637,39.518948],[-119.117714,39.388658],[-119.099685,39.387904],[-119.09955,39.373804],[-119.081212,39.373576],[-119.080929,39.359382],[-119.062279,39.359293],[-119.062267,39.344614],[-119.044256,39.344567],[-119.044207,39.330111],[-119.025501,39.330085],[-119.025479,39.3156],[-119.006794,39.315565],[-119.006792,39.299974],[-118.987818,39.299975],[-118.987721,39.285474],[-118.965017,39.285476],[-118.964996,39.27068],[-118.946441,39.270663],[-118.946329,39.256173],[-118.927836,39.25617],[-118.927678,39.241681],[-118.909148,39.241679],[-118.909031,39.227191],[-118.890663,39.2272],[-118.890831,39.198218],[-118.866757,39.19821],[-118.866737,39.185337],[-118.848103,39.185314],[-118.848091,39.17123],[-118.82944,39.171137],[-118.829429,39.156334],[-118.810815,39.156329],[-118.810817,39.141819],[-118.792219,39.141826],[-118.792209,39.11285],[-118.755068,39.112811],[-118.755059,39.074702],[-118.91868,39.075191],[-119.014858,38.94414],[-119.014499,38.851951],[-118.902141,38.851922],[-118.902122,38.764656],[-118.907473,38.764654],[-118.906244,38.415363],[-119.155569132771,38.4137556228129],[-119.330063278439,38.5359450982061],[-119.329897,38.648724],[-119.347802,38.648775],[-119.349893,38.736227],[-119.405969,38.733543],[-119.403029,38.809284],[-119.412162,38.809349],[-119.412342,38.823873],[-119.421571,38.823868],[-119.421766,38.852946],[-119.440148,38.852955],[-119.439805,38.882088],[-119.421721,38.882164],[-119.420234,38.954713],[-119.402285,38.954746],[-119.401852,38.983651],[-119.348528,38.982929],[-119.343386,38.990975],[-119.310541,38.990915],[-119.310841,39.084681],[-119.550386,39.086259],[-119.551245,39.099498],[-119.558884,39.110819],[-119.561102,39.136381],[-119.571219,39.144178],[-119.574721,39.154977],[-119.560683,39.178498],[-119.56148,39.194424],[-119.647945,39.19506],[-119.682256,39.209226],[-119.712112,39.251046]]]}},{"type":"Feature","properties":{"GEOID":"32007","NAME":"Elko","state":"NV","wildfire_risk_score":99.873,"wildfire_eal_total":61636632.85,"risk_band":"High","source":"FEMA National Risk Index v1.20 (December 2025)"},"geometry":{"type":"Polygon","coordinates":[[[-117.019251,41.778962],[-117.018208514199,41.9993463578912],[-115.031783,41.996008],[-114.831077,42.002207],[-114.598267,41.994511],[-114.041477,41.993873],[-114.046682520363,40.1169354028727],[-115.245841,40.122333],[-115.500879,40.127903],[-116.000897,40.127376],[-116.157834,40.666389],[-116.158155,40.999912],[-117.018419,41.000254],[-117.019251,41.778962]]]}},{"type":"Feature","properties":{"GEOID":"32013","NAME":"Humboldt","state":"NV","wildfire_risk_score":97.137,"wildfire_eal_total":9658621.67,"risk_band":"High","source":"FEMA National Risk Index v1.20 (December 2025)"},"geometry":{"type":"Polygon","coordinates":[[[-119.331068,41.235118],[-119.305713,41.234542],[-119.304635,41.414695],[-119.323955,41.414519],[-119.321112,41.590915],[-119.327027,41.590584],[-119.324182599298,41.9942055845967],[-118.696409,41.991794],[-117.018208514199,41.9993463578912],[-117.018664,40.643035],[-117.246788,40.642445],[-117.300597,40.526136],[-117.301168,40.682348],[-117.644399,40.684343],[-117.64422,40.857824],[-118.786738,40.855929],[-118.786705,40.96085],[-119.329791,40.960394],[-119.331068,41.235118]]]}},{"type":"Feature","properties":{"GEOID":"32001","NAME":"Churchill","state":"NV","wildfire_risk_score":64.472,"wildfire_eal_total":120801.12,"risk_band":"Low","source":"FEMA National Risk Index v1.20 (December 2025)"},"geometry":{"type":"Polygon","coordinates":[[[-119.226068,39.906771],[-119.225176,39.999385],[-117.541749,40.001034],[-117.520444,39.979516],[-117.519644,39.972516],[-117.507143,39.968816],[-117.508843,39.962816],[-117.502543,39.951516],[-117.480742,39.942317],[-117.467941,39.922117],[-117.470541,39.918017],[-117.465941,39.910717],[-117.46134,39.867818],[-117.46674,39.865018],[-117.46464,39.858218],[-117.47054,39.854518],[-117.47234,39.839218],[-117.487944,39.826823],[-117.48354,39.811818],[-117.48944,39.807018],[-117.48574,39.786518],[-117.494949,39.7742],[-117.496648,39.761082],[-117.495344,39.748364],[-117.477617,39.742359],[-117.475212,39.735851],[-117.487626,39.714118],[-117.48402,39.70811],[-117.487824,39.703903],[-117.464385,39.677271],[-117.473697,39.669559],[-117.472093,39.661548],[-117.486071,39.644966],[-117.47333,39.6347],[-117.463373,39.633101],[-117.461587,39.622644],[-117.481936,39.598522],[-117.476938,39.596721],[-117.47609,39.583641],[-117.482442,39.573626],[-117.480636,39.561821],[-117.485236,39.545622],[-117.492836,39.542822],[-117.495636,39.533022],[-117.508626,39.530743],[-117.518514,39.538212],[-117.531838,39.527022],[-117.560839,39.525921],[-117.565739,39.519222],[-117.59014,39.518021],[-117.58684,39.503022],[-117.601588,39.49543],[-117.601766,39.490817],[-117.615458,39.489794],[-117.623237,39.476209],[-117.656648,39.467907],[-117.653755,39.45777],[-117.64502,39.458431],[-117.637231,39.451821],[-117.646011,39.426602],[-117.675592,39.422469],[-117.676387,39.413634],[-117.68271,39.41077],[-117.680841,39.405934],[-117.696305,39.385934],[-117.728097,39.380199],[-117.746483,39.385736],[-117.755784,39.376219],[-117.762589,39.35837],[-117.75746,39.344799],[-117.75987,39.334056],[-117.752092,39.323978],[-117.752673,39.311781],[-117.739553,39.296305],[-117.743587,39.287793],[-117.73298,39.281348],[-117.722805,39.250781],[-117.714056,39.245558],[-117.71995,39.236821],[-117.719897,39.213377],[-117.734611,39.210074],[-117.74424,39.198545],[-117.744234,39.191425],[-117.753163,39.184802],[-117.76276,39.184911],[-117.770992,39.17416],[-117.782407,39.175849],[-117.791599,39.169636],[-117.788776,39.164424],[-117.792608,39.158947],[-117.784638,39.151042],[-117.79352,39.144763],[-117.806786,39.145375],[-117.80154,39.138817],[-117.79493,39.138813],[-117.791497,39.131382],[-117.796422,39.122006],[-117.793055,39.117602],[-117.800809,39.117531],[-117.800112,39.11252],[-117.780903,39.104485],[-117.775468,39.093425],[-117.865116,39.073654],[-118.755059,39.074702],[-118.755068,39.112811],[-118.792209,39.11285],[-118.792219,39.141826],[-118.810817,39.141819],[-118.810815,39.156329],[-118.829429,39.156334],[-118.82944,39.171137],[-118.848091,39.17123],[-118.848103,39.185314],[-118.866737,39.185337],[-118.866757,39.19821],[-118.890831,39.198218],[-118.890663,39.2272],[-118.909031,39.227191],[-118.909148,39.241679],[-118.927678,39.241681],[-118.927836,39.25617],[-118.946329,39.256173],[-118.946441,39.270663],[-118.964996,39.27068],[-118.965017,39.285476],[-118.987721,39.285474],[-118.987818,39.299975],[-119.006792,39.299974],[-119.006794,39.315565],[-119.025479,39.3156],[-119.025501,39.330085],[-119.044207,39.330111],[-119.044256,39.344567],[-119.062267,39.344614],[-119.062279,39.359293],[-119.080929,39.359382],[-119.081212,39.373576],[-119.09955,39.373804],[-119.099685,39.387904],[-119.117714,39.388658],[-119.117637,39.518948],[-119.090531,39.518871],[-119.089146,39.636829],[-119.077148,39.636796],[-119.077136,39.722637],[-119.067978,39.722634],[-119.067979,39.729868],[-119.05857,39.729873],[-119.058566,39.737129],[-119.063449,39.737124],[-119.11286,39.689056],[-119.161892,39.655571],[-119.179326,39.651336],[-119.190676,39.631787],[-119.189327,39.68048],[-119.170641,39.680453],[-119.170899,39.788288],[-119.189707,39.788221],[-119.189761,39.809994],[-119.208543,39.809967],[-119.208628,39.899459],[-119.226139,39.899449],[-119.226068,39.906771]]]}},{"type":"Feature","properties":{"GEOID":"32510","NAME":"Carson City","state":"NV","wildfire_risk_score":93.543,"wildfire_eal_total":2873105.33,"risk_band":"Moderate","source":"FEMA National Risk Index v1.20 (December 2025)"},"geometry":{"type":"Polygon","coordinates":[[[-120.004504420333,39.1655986798664],[-119.880787,39.165509],[-119.880802,39.17091],[-119.862103,39.171148],[-119.862517,39.185639],[-119.853265,39.185755],[-119.85326,39.193022],[-119.843883,39.193152],[-119.843933,39.200776],[-119.826716,39.200819],[-119.826731,39.207988],[-119.798856,39.208038],[-119.79886,39.215238],[-119.770871,39.215285],[-119.770872,39.229832],[-119.752168,39.229892],[-119.752093,39.244385],[-119.715297,39.244283],[-119.712112,39.251046],[-119.682256,39.209226],[-119.647945,39.19506],[-119.56148,39.194424],[-119.560683,39.178498],[-119.574721,39.154977],[-119.571219,39.144178],[-119.561102,39.136381],[-119.557319,39.10478],[-119.548308,39.090785],[-119.55102,39.085791],[-119.752116,39.084904],[-119.75219,39.099526],[-119.761213,39.099508],[-119.761213,39.114009],[-120.00340238137,39.112687055111],[-120.004504420333,39.1655986798664]]]}},{"type":"Feature","properties":{"GEOID":"32029","NAME":"Storey","state":"NV","wildfire_risk_score":96.31,"wildfire_eal_total":7097593.08,"risk_band":"Moderate","source":"FEMA National Risk Index v1.20 (December 2025)"},"geometry":{"type":"Polygon","coordinates":[[[-119.71407,39.259175],[-119.69652,39.259145],[-119.695957,39.280903],[-119.677476,39.280871],[-119.677414,39.331655],[-119.658501,39.331544],[-119.658821,39.346088],[-119.668134,39.346216],[-119.668102,39.360798],[-119.677527,39.360647],[-119.677527,39.375095],[-119.685415,39.375063],[-119.685464,39.389575],[-119.677271,39.389575],[-119.677,39.404471],[-119.657145,39.404111],[-119.655069,39.447479],[-119.69609,39.447463],[-119.695643,39.520023],[-119.664926,39.508516],[-119.623248,39.511044],[-119.593855,39.544292],[-119.546607,39.56229],[-119.536683,39.560983],[-119.529076,39.56668],[-119.511744,39.562281],[-119.473235,39.565811],[-119.46784,39.584022],[-119.456815,39.58914],[-119.444476,39.585124],[-119.413453,39.590649],[-119.39487,39.585676],[-119.370604,39.586882],[-119.364279,39.595474],[-119.328381,39.600669],[-119.279801,39.627112],[-119.478792,39.337851],[-119.647306,39.266786],[-119.712645,39.250871],[-119.71407,39.259175]]]}},{"type":"Feature","properties":{"GEOID":"32023","NAME":"Nye","state":"NV","wildfire_risk_score":80.916,"wildfire_eal_total":274847.26,"risk_band":"Low","source":"FEMA National Risk Index v1.20 (December 2025)"},"geometry":{"type":"Polygon","coordinates":[[[-118.196274,38.999926],[-117.775468,39.093425],[-117.331857,39.16343],[-115.907071,39.161848],[-115.000846,38.677322],[-115.000846,38.050757],[-115.893857,38.050531],[-115.895753,36.172227],[-115.845762,36.170764],[-115.845983929593,35.9642074573715],[-116.488233,36.459097],[-117.166000489853,36.9712239643835],[-117.165612,38.001692],[-117.219264,38.050348],[-117.241063,38.050116],[-117.24091,38.069902],[-118.196235,38.919058],[-118.196274,38.999926]]]}},{"type":"Feature","properties":{"GEOID":"32027","NAME":"Pershing","state":"NV","wildfire_risk_score":87.309,"wildfire_eal_total":629679.63,"risk_band":"Moderate","source":"FEMA National Risk Index v1.20 (December 2025)"},"geometry":{"type":"Polygon","coordinates":[[[-119.3387,40.1576],[-119.338504,40.517805],[-119.313037,40.518314],[-119.309598,40.960378],[-118.786705,40.96085],[-118.786738,40.855929],[-117.64422,40.857824],[-117.644399,40.684343],[-117.301168,40.682348],[-117.300597,40.526136],[-117.541749,40.001034],[-119.339296,39.998609],[-119.3387,40.1576]]]}},{"type":"Feature","properties":{"GEOID":"32005","NAME":"Douglas","state":"NV","wildfire_risk_score":97.933,"wildfire_eal_total":10409026.27,"risk_band":"High","source":"FEMA National Risk Index v1.20 (December 2025)"},"geometry":{"type":"Polygon","coordinates":[[[-120.00340238137,39.112687055111],[-119.761213,39.114009],[-119.761213,39.099508],[-119.75219,39.099526],[-119.752116,39.084904],[-119.310841,39.084681],[-119.310541,38.990915],[-119.343386,38.990975],[-119.348528,38.982929],[-119.401852,38.983651],[-119.402285,38.954746],[-119.420234,38.954713],[-119.421721,38.882164],[-119.439805,38.882088],[-119.440148,38.852955],[-119.421766,38.852946],[-119.421571,38.823868],[-119.412342,38.823873],[-119.412162,38.809349],[-119.403029,38.809284],[-119.405969,38.733543],[-119.349893,38.736227],[-119.347802,38.648775],[-119.329897,38.648724],[-119.330063278439,38.5359450982061],[-120.001014,38.999574],[-120.00340238137,39.112687055111]]]}},{"type":"Feature","properties":{"GEOID":"32021","NAME":"Mineral","state":"NV","wildfire_risk_score":49.332,"wildfire_eal_total":38498.58,"risk_band":"Low","source":"FEMA National Risk Index v1.20 (December 2025)"},"geometry":{"type":"Polygon","coordinates":[[[-119.155569132771,38.4137556228129],[-118.906244,38.415363],[-118.907473,38.764654],[-118.902122,38.764656],[-118.902141,38.851922],[-119.014499,38.851951],[-119.014858,38.94414],[-118.91868,39.075191],[-117.865116,39.073654],[-118.196274,38.999926],[-118.196235,38.919058],[-117.691021,38.473797],[-118.351484,37.893705],[-118.427800363848,37.8962298945818],[-119.155569132771,38.4137556228129]]]}}]}