{"type":"FeatureCollection","metadata":{"state":"NY","boundary_source":"U.S. Census Bureau 2024 Cartographic Boundary File (counties, 1:500,000)","risk_source":"FEMA National Risk Index v1.20 (December 2025)"},"features":[{"type":"Feature","properties":{"GEOID":"36005","NAME":"Bronx","state":"NY","wildfire_risk_score":2.385,"wildfire_eal_total":497.82,"risk_band":"Low","source":"FEMA National Risk Index v1.20 (December 2025)"},"geometry":{"type":"MultiPolygon","coordinates":[[[[-73.7724178973261,40.8595369572044],[-73.765621,40.855657],[-73.769792,40.844967],[-73.77156,40.847161],[-73.7724178973261,40.8595369572044]]],[[[-73.787392672921,40.8599078373386],[-73.784562,40.860301],[-73.784077,40.859397],[-73.786706,40.858769],[-73.787392672921,40.8599078373386]]],[[[-73.7922879984819,40.8554424402514],[-73.788777,40.858433],[-73.782169,40.846718],[-73.783005,40.837463],[-73.7922879984819,40.8554424402514]]],[[[-73.929821,40.888682],[-73.9183175291271,40.9177052097217],[-73.859393,40.900381],[-73.851123,40.910009],[-73.852688,40.907143],[-73.841386,40.904174],[-73.838407,40.894061],[-73.7929777683978,40.8833538619394],[-73.794926,40.879187],[-73.78576,40.878788],[-73.783443,40.871019],[-73.791209,40.868946],[-73.799843,40.848667],[-73.804417,40.861616],[-73.817976,40.863639],[-73.8126,40.8587],[-73.816641,40.853487],[-73.814172,40.825911],[-73.80702,40.825248],[-73.804518,40.818546],[-73.798306,40.816805],[-73.803358,40.811484],[-73.79024,40.805032],[-73.7941119431447,40.800539354068],[-73.817418,40.80579],[-73.853072,40.800113],[-73.878307,40.785357],[-73.92725,40.802558],[-73.932477,40.808864],[-73.933006,40.835679],[-73.907,40.873455],[-73.909505,40.878878],[-73.9152,40.875581],[-73.9337868955222,40.882206616177],[-73.929821,40.888682]]]]}},{"type":"Feature","properties":{"GEOID":"36119","NAME":"Westchester","state":"NY","wildfire_risk_score":56.648,"wildfire_eal_total":65502.21,"risk_band":"High","source":"FEMA National Risk Index v1.20 (December 2025)"},"geometry":{"type":"MultiPolygon","coordinates":[[[[-73.772371,40.884793],[-73.76707,40.886032],[-73.767715,40.881038],[-73.774013,40.882641],[-73.772371,40.884793]]],[[[-73.982532,41.321824],[-73.5447070189854,41.3665399980477],[-73.550961,41.295422],[-73.482709,41.21276],[-73.727775,41.100696],[-73.655255,41.012246],[-73.660268,41.000484],[-73.657228,40.990914],[-73.664911,40.983734],[-73.656297,40.979725],[-73.660114,40.96912],[-73.677615,40.964196],[-73.683113,40.949636],[-73.695413,40.940002],[-73.693223,40.955019],[-73.704904,40.940344],[-73.708796,40.944738],[-73.720618,40.940981],[-73.721739,40.932037],[-73.734353,40.921536],[-73.737493,40.928053],[-73.742247,40.927693],[-73.743764,40.917785],[-73.756776,40.912599],[-73.783076,40.881977],[-73.824047,40.889866],[-73.838407,40.894061],[-73.841386,40.904174],[-73.852688,40.907143],[-73.851123,40.910009],[-73.859393,40.900381],[-73.9183175291271,40.9177052097217],[-73.893628,40.997165],[-73.88938,41.037597],[-73.89488,41.082396],[-73.88748,41.138295],[-73.892481,41.150595],[-73.911681,41.167795],[-73.931482,41.204994],[-73.961383,41.234194],[-73.961283,41.241994],[-73.970784,41.247893],[-73.969684,41.263193],[-73.945783,41.287593],[-73.980984,41.314193],[-73.982532,41.321824]]]]}},{"type":"Feature","properties":{"GEOID":"36053","NAME":"Madison","state":"NY","wildfire_risk_score":20.07,"wildfire_eal_total":8298.16,"risk_band":"Low","source":"FEMA National Risk Index v1.20 (December 2025)"},"geometry":{"type":"Polygon","coordinates":[[[-75.992428,43.185164],[-75.979489,43.177401],[-75.959359,43.180389],[-75.952491,43.171089],[-75.932778,43.176583],[-75.927453,43.162738],[-75.884275,43.155562],[-75.867596,43.146629],[-75.839993,43.160513],[-75.793059,43.160201],[-75.776144,43.173294],[-75.750124,43.158009],[-75.737774,43.164673],[-75.724937,43.1572],[-75.723929,43.162596],[-75.719899,43.161053],[-75.722525,43.15618],[-75.71614,43.15065],[-75.706661,43.151197],[-75.706771,43.137026],[-75.694338,43.139337],[-75.693805,43.133643],[-75.678746,43.127833],[-75.685137,43.124972],[-75.681116,43.120999],[-75.65297,43.113953],[-75.655874,43.109791],[-75.639285,43.097004],[-75.641752,43.081908],[-75.637316,43.076468],[-75.622213,43.073846],[-75.617704,43.0674],[-75.599496,43.0614],[-75.607969,43.053108],[-75.597926,43.042873],[-75.596879,43.035399],[-75.552774,43.037554],[-75.542803,42.931774],[-75.444173,42.933089],[-75.437167,42.863319],[-75.247963,42.871604],[-75.244062,42.861299],[-75.247717,42.846475],[-75.239547,42.834233],[-75.250225,42.823837],[-75.242095,42.817365],[-75.249133,42.811718],[-75.251037,42.785115],[-75.258825,42.776993],[-75.271876,42.773483],[-75.273734,42.765817],[-75.279721,42.763959],[-75.280061,42.754546],[-75.290898,42.751427],[-75.295877,42.744106],[-75.427988,42.738111],[-75.428668,42.745421],[-75.889832,42.723844],[-75.917219,43.085926],[-75.927245,43.090372],[-75.96168,43.085493],[-75.960592,43.088856],[-75.975588,43.091278],[-75.97623,43.103294],[-75.971524,43.104914],[-75.965599,43.119505],[-75.9544,43.116857],[-75.960494,43.122969],[-75.950057,43.134853],[-75.960459,43.13284],[-75.972347,43.140476],[-75.977009,43.136014],[-75.971511,43.154926],[-75.977068,43.157646],[-75.97438,43.163175],[-75.982668,43.173631],[-75.992635,43.173849],[-75.992428,43.185164]]]}},{"type":"Feature","properties":{"GEOID":"36029","NAME":"Erie","state":"NY","wildfire_risk_score":62.627,"wildfire_eal_total":96747.89,"risk_band":"High","source":"FEMA National Risk Index v1.20 (December 2025)"},"geometry":{"type":"Polygon","coordinates":[[[-79.1368929076035,42.5697987744532],[-79.13049,42.590186],[-79.121921,42.594234],[-79.111361,42.613358],[-79.078761,42.640058],[-79.06376,42.644758],[-79.062261,42.668358],[-79.046754,42.691346],[-78.991159,42.705358],[-78.944158,42.731958],[-78.918157,42.737258],[-78.853455,42.783958],[-78.856456,42.800258],[-78.871805,42.822679],[-78.868403,42.832912],[-78.859877,42.831954],[-78.857922,42.838781],[-78.906075,42.899324],[-78.905659,42.923357],[-78.918859,42.946857],[-78.93236,42.955857],[-78.961761,42.957756],[-78.975062,42.968756],[-79.011563,42.985256],[-79.019964,42.994756],[-79.023256,43.016356],[-79.011764,43.028956],[-78.999435,43.056057],[-79.00713,43.065757],[-79.0192327742718,43.0679314265878],[-78.945262,43.066956],[-78.91152,43.05474],[-78.89626,43.044156],[-78.890159,43.021956],[-78.841745,43.018863],[-78.825366,43.033656],[-78.83126,43.050246],[-78.80735,43.053555],[-78.806143,43.063181],[-78.799571,43.066435],[-78.745354,43.069786],[-78.727242,43.086201],[-78.719048,43.081055],[-78.691338,43.088669],[-78.681808,43.080269],[-78.679749,43.084625],[-78.664711,43.086399],[-78.646561,43.080791],[-78.648995,43.087287],[-78.641753,43.088583],[-78.640732,43.097275],[-78.630077,43.093546],[-78.632683,43.090961],[-78.626671,43.08511],[-78.618881,43.087444],[-78.612511,43.083645],[-78.616295,43.074486],[-78.601831,43.076636],[-78.606544,43.072674],[-78.59404,43.0695],[-78.590904,43.076157],[-78.582656,43.07515],[-78.580193,43.08017],[-78.584557,43.086655],[-78.578201,43.087498],[-78.57431,43.080208],[-78.576248,43.088791],[-78.565323,43.088219],[-78.560265,43.097279],[-78.554893,43.094913],[-78.560875,43.090405],[-78.545616,43.098686],[-78.541267,43.093349],[-78.54689,43.090256],[-78.53627,43.085491],[-78.514099,43.090363],[-78.510384,43.097958],[-78.496498,43.081751],[-78.476677,43.086246],[-78.472537,43.08165],[-78.464449,43.088703],[-78.464382,42.867355],[-78.486251,42.867511],[-78.487957,42.780471],[-78.463321,42.780462],[-78.463901,42.536354],[-78.488476,42.534845],[-78.491376,42.530037],[-78.511558,42.527812],[-78.519078,42.51916],[-78.531526,42.521103],[-78.538842,42.51419],[-78.548488,42.517689],[-78.563664,42.508784],[-78.568564,42.512707],[-78.583728,42.514154],[-78.587828,42.508975],[-78.596881,42.512683],[-78.610039,42.503696],[-78.621969,42.504189],[-78.627253,42.497347],[-78.638678,42.498058],[-78.644446,42.491067],[-78.6624,42.492437],[-78.680307,42.484555],[-78.682593,42.478135],[-78.691439,42.476597],[-78.693738,42.471723],[-78.699378,42.473795],[-78.70223,42.48639],[-78.712082,42.483571],[-78.714057,42.486726],[-78.731472,42.478666],[-78.738306,42.480456],[-78.738387,42.47309],[-78.749801,42.473729],[-78.75165,42.468264],[-78.763624,42.470547],[-78.758296,42.465731],[-78.762288,42.461675],[-78.776685,42.463797],[-78.771588,42.457085],[-78.780825,42.455155],[-78.797127,42.462655],[-78.8381,42.442811],[-78.88299,42.438286],[-78.887139,42.442105],[-78.893757,42.439119],[-78.900455,42.449115],[-78.920446,42.442556],[-78.918535,42.453199],[-78.938927,42.468006],[-78.95703,42.472362],[-78.963436,42.486587],[-78.961177,42.494018],[-78.966565,42.493699],[-78.980228,42.506155],[-78.986235,42.505284],[-78.982775,42.511559],[-78.987486,42.513131],[-78.986404,42.519115],[-78.995326,42.531796],[-79.033098,42.54328],[-79.039826,42.537679],[-79.060777,42.537853],[-79.089624,42.54997],[-79.080877,42.555437],[-79.092414,42.557123],[-79.095841,42.564487],[-79.106152,42.564104],[-79.104213,42.568189],[-79.108557,42.570201],[-79.125798,42.565092],[-79.1368929076035,42.5697987744532]]]}},{"type":"Feature","properties":{"GEOID":"36091","NAME":"Saratoga","state":"NY","wildfire_risk_score":37.405,"wildfire_eal_total":36452.84,"risk_band":"High","source":"FEMA National Risk Index v1.20 (December 2025)"},"geometry":{"type":"Polygon","coordinates":[[[-74.1601,43.371532],[-73.883299,43.397988],[-73.870977,43.372523],[-73.875139,43.361921],[-73.853286,43.33775],[-73.858647,43.328115],[-73.84319,43.318852],[-73.836918,43.306611],[-73.824615,43.30427],[-73.825152,43.277545],[-73.835567,43.265835],[-73.834917,43.251004],[-73.826645,43.245694],[-73.815369,43.250989],[-73.792889,43.246243],[-73.767498,43.222123],[-73.743957,43.242717],[-73.737883,43.25473],[-73.739824,43.265559],[-73.732845,43.269884],[-73.711231,43.273571],[-73.688561,43.284305],[-73.681263,43.268063],[-73.672099,43.263159],[-73.661757,43.272581],[-73.673238,43.282125],[-73.671226,43.290239],[-73.641861,43.293273],[-73.641056,43.305776],[-73.596726,43.3064],[-73.588822,43.300543],[-73.600044,43.279762],[-73.600738,43.268836],[-73.592356,43.267149],[-73.58722,43.259712],[-73.597481,43.24095],[-73.579464,43.210677],[-73.585705,43.19312],[-73.581003,43.18249],[-73.589836,43.170472],[-73.583827,43.166131],[-73.580214,43.152882],[-73.590938,43.13511],[-73.575484,43.114851],[-73.575297,43.082502],[-73.581714,43.068695],[-73.578155,43.055787],[-73.586306,43.048716],[-73.593635,43.01433],[-73.606699,42.999241],[-73.609282,42.982241],[-73.631467,42.969739],[-73.628708,42.959151],[-73.632305,42.944379],[-73.659675,42.933364],[-73.683074,42.903776],[-73.684447,42.891586],[-73.673202,42.875077],[-73.675904,42.858575],[-73.658462,42.809077],[-73.672355,42.795791],[-73.676762,42.783277],[-73.689162,42.775377],[-73.703163,42.782477],[-73.719863,42.801277],[-73.716663,42.808177],[-73.726663,42.822577],[-73.737663,42.818877],[-73.766664,42.786077],[-73.779964,42.792177],[-73.799464,42.778878],[-73.822166,42.780278],[-73.875864,42.834274],[-73.881769,42.850876],[-73.895938,42.851076],[-73.904386,42.911163],[-73.955458,42.897306],[-74.006531,42.934073],[-74.055605,42.953289],[-74.09298,42.955868],[-74.1601,43.371532]]]}},{"type":"Feature","properties":{"GEOID":"36031","NAME":"Essex","state":"NY","wildfire_risk_score":24.809,"wildfire_eal_total":9458.62,"risk_band":"Moderate","source":"FEMA National Risk Index v1.20 (December 2025)"},"geometry":{"type":"Polygon","coordinates":[[[-74.336826,43.925223],[-74.255998,43.969797],[-74.28187,44.120552],[-74.09349,44.137615],[-74.141424,44.407268],[-73.748205,44.442813],[-73.701105,44.445544],[-73.700375,44.440819],[-73.669281,44.441355],[-73.629049,44.458391],[-73.614453,44.454386],[-73.596836,44.463109],[-73.573099,44.464564],[-73.55497,44.482549],[-73.526907,44.488028],[-73.524413,44.493241],[-73.517184,44.488255],[-73.496604,44.486081],[-73.490367,44.49792],[-73.47014,44.508661],[-73.471458,44.514035],[-73.459337,44.520807],[-73.463838,44.537681],[-73.33863,44.546844],[-73.329458,44.529203],[-73.322026,44.525289],[-73.320836,44.513631],[-73.306707,44.500334],[-73.293855,44.437556],[-73.315016,44.388513],[-73.333575,44.372288],[-73.334939,44.364441],[-73.323997,44.333842],[-73.324229,44.310023],[-73.312299,44.280025],[-73.312852,44.265346],[-73.323596,44.243897],[-73.34323,44.238049],[-73.362013,44.208545],[-73.390583,44.190886],[-73.389658,44.181249],[-73.396892,44.173846],[-73.402381,44.145856],[-73.415761,44.132826],[-73.411316,44.112686],[-73.429239,44.079414],[-73.43774,44.045006],[-73.410776,44.026944],[-73.405999,44.016229],[-73.412581,43.98272],[-73.406823,43.967317],[-73.408589,43.932933],[-73.395878,43.903044],[-73.374051,43.875563],[-73.382046,43.855008],[-73.372247,43.845337],[-73.388389,43.832404],[-73.392751,43.822196],[-73.3793298267232,43.808476322237],[-74.057005,43.744513],[-74.054106,43.770332],[-74.046139,43.781207],[-74.050991,43.788615],[-74.047062,43.796343],[-74.085652,43.808863],[-74.09168,43.804329],[-74.11657,43.809031],[-74.138677,43.817719],[-74.139464,43.826435],[-74.149076,43.829613],[-74.201218,43.821238],[-74.213734,43.810875],[-74.336826,43.925223]]]}},{"type":"Feature","properties":{"GEOID":"36113","NAME":"Warren","state":"NY","wildfire_risk_score":24.873,"wildfire_eal_total":11796.85,"risk_band":"Moderate","source":"FEMA National Risk Index v1.20 (December 2025)"},"geometry":{"type":"Polygon","coordinates":[[[-74.214625,43.728703],[-73.495503,43.799319],[-73.436578,43.801419],[-73.471057,43.775257],[-73.471307,43.771681],[-73.457331,43.765094],[-73.466722,43.758141],[-73.460119,43.747331],[-73.464379,43.733444],[-73.459294,43.730031],[-73.464614,43.730945],[-73.486556,43.679774],[-73.496501,43.673072],[-73.49283,43.670158],[-73.494314,43.653966],[-73.502407,43.651728],[-73.501189,43.645767],[-73.512484,43.643214],[-73.513784,43.637607],[-73.526789,43.636014],[-73.539036,43.625675],[-73.566516,43.590803],[-73.580653,43.581848],[-73.577127,43.579431],[-73.581441,43.57337],[-73.61323,43.562932],[-73.614129,43.556107],[-73.607084,43.551681],[-73.617884,43.534843],[-73.618957,43.520629],[-73.626539,43.521616],[-73.636212,43.50013],[-73.62894,43.486391],[-73.594713,43.305928],[-73.635941,43.306998],[-73.642761,43.304172],[-73.641861,43.293273],[-73.671226,43.290239],[-73.673238,43.282125],[-73.661757,43.272581],[-73.672099,43.263159],[-73.681263,43.268063],[-73.688561,43.284305],[-73.711231,43.273571],[-73.732845,43.269884],[-73.739824,43.265559],[-73.737883,43.25473],[-73.743957,43.242717],[-73.767498,43.222123],[-73.792889,43.246243],[-73.815369,43.250989],[-73.826645,43.245694],[-73.834917,43.251004],[-73.835567,43.265835],[-73.825152,43.277545],[-73.824615,43.30427],[-73.836918,43.306611],[-73.84319,43.318852],[-73.858647,43.328115],[-73.853286,43.33775],[-73.875139,43.361921],[-73.870977,43.372523],[-73.883299,43.397988],[-74.1601,43.371532],[-74.214625,43.728703]]]}},{"type":"Feature","properties":{"GEOID":"36017","NAME":"Chenango","state":"NY","wildfire_risk_score":26.495,"wildfire_eal_total":10131.22,"risk_band":"Moderate","source":"FEMA National Risk Index v1.20 (December 2025)"},"geometry":{"type":"Polygon","coordinates":[[[-75.889832,42.723844],[-75.428668,42.745421],[-75.427988,42.738111],[-75.295877,42.744106],[-75.292825,42.737751],[-75.300333,42.729091],[-75.295644,42.727237],[-75.296513,42.718653],[-75.313283,42.689745],[-75.330394,42.674195],[-75.331103,42.661072],[-75.322993,42.64381],[-75.323762,42.633949],[-75.330067,42.631482],[-75.323054,42.622913],[-75.336922,42.613561],[-75.338641,42.605764],[-75.336319,42.594318],[-75.325407,42.588821],[-75.33027,42.581186],[-75.326639,42.577851],[-75.332372,42.573001],[-75.330256,42.567432],[-75.354116,42.554229],[-75.367956,42.55205],[-75.37315,42.536321],[-75.386717,42.523858],[-75.384042,42.520908],[-75.389161,42.511231],[-75.403459,42.508699],[-75.39577,42.502998],[-75.398811,42.499456],[-75.395112,42.487017],[-75.404464,42.479117],[-75.399939,42.462391],[-75.386205,42.44499],[-75.384922,42.431532],[-75.376569,42.423282],[-75.379135,42.416544],[-75.374617,42.415998],[-75.380685,42.403851],[-75.392582,42.400913],[-75.40669,42.380781],[-75.403345,42.365732],[-75.392846,42.357916],[-75.402453,42.348536],[-75.398331,42.336065],[-75.40984,42.325882],[-75.407197,42.320161],[-75.414489,42.320179],[-75.416932,42.314094],[-75.418421,42.195032],[-75.63711,42.195628],[-75.639055,42.248675],[-75.819798,42.248987],[-75.83631,42.244091],[-75.843792,42.259707],[-75.852063,42.345331],[-75.8624,42.39777],[-75.889832,42.723844]]]}},{"type":"Feature","properties":{"GEOID":"36051","NAME":"Livingston","state":"NY","wildfire_risk_score":17.653,"wildfire_eal_total":6115.62,"risk_band":"Low","source":"FEMA National Risk Index v1.20 (December 2025)"},"geometry":{"type":"Polygon","coordinates":[[[-78.060784,42.535823],[-78.050006,42.542449],[-78.046673,42.559013],[-78.028311,42.567238],[-78.033728,42.573574],[-78.046609,42.570328],[-78.050902,42.574905],[-78.047987,42.57936],[-78.036839,42.587542],[-78.012561,42.586692],[-78.004181,42.595172],[-78.006222,42.598799],[-78.026009,42.597712],[-78.028308,42.6044],[-78.015997,42.607406],[-78.013225,42.612329],[-78.005819,42.609922],[-77.990308,42.615015],[-77.988938,42.62828],[-77.972538,42.646301],[-77.974519,42.654061],[-77.968987,42.662218],[-77.955883,42.667887],[-77.95553,42.905861],[-77.93523,42.905261],[-77.934234,42.94558],[-77.911413,42.945064],[-77.909832,42.987762],[-77.730957,42.988372],[-77.732941,42.981912],[-77.720748,42.979193],[-77.717828,42.973365],[-77.724586,42.971293],[-77.728407,42.953033],[-77.734469,42.954771],[-77.731671,42.946078],[-77.759418,42.944491],[-77.758727,42.940461],[-77.580377,42.943963],[-77.572898,42.935368],[-77.567004,42.936089],[-77.567077,42.928699],[-77.560566,42.921432],[-77.563094,42.9175],[-77.559717,42.917563],[-77.560487,42.900056],[-77.554246,42.897487],[-77.557265,42.895512],[-77.55279,42.891867],[-77.556643,42.890608],[-77.549366,42.879072],[-77.554004,42.874381],[-77.548118,42.874666],[-77.552069,42.868717],[-77.546309,42.86569],[-77.554968,42.863217],[-77.551926,42.854064],[-77.587997,42.854011],[-77.588217,42.762964],[-77.61167,42.763169],[-77.598815,42.671965],[-77.486875,42.670279],[-77.490889,42.577288],[-77.659917,42.580409],[-77.661315,42.535067],[-77.720617,42.535066],[-77.722964,42.471216],[-77.840231,42.474576],[-77.840694,42.517771],[-78.043418,42.518464],[-78.037962,42.525928],[-78.048275,42.526927],[-78.044255,42.535923],[-78.049858,42.538889],[-78.060086,42.532379],[-78.060784,42.535823]]]}},{"type":"Feature","properties":{"GEOID":"36063","NAME":"Niagara","state":"NY","wildfire_risk_score":33.81,"wildfire_eal_total":18809.38,"risk_band":"High","source":"FEMA National Risk Index v1.20 (December 2025)"},"geometry":{"type":"Polygon","coordinates":[[[-79.075367,43.081355],[-79.057961,43.106957],[-79.069091,43.119956],[-79.044066,43.138055],[-79.042366,43.143655],[-79.053067,43.173655],[-79.048658,43.199655],[-79.057058,43.210654],[-79.052868,43.222054],[-79.05606,43.254156],[-79.070469,43.262454],[-78.971866,43.281254],[-78.836261,43.318455],[-78.696856,43.341255],[-78.634346,43.357624],[-78.51993,43.372361],[-78.485857,43.374884],[-78.4655020828508,43.3712326509368],[-78.466429,43.302775],[-78.460416,43.216222],[-78.464449,43.088703],[-78.469736,43.082797],[-78.484668,43.086163],[-78.496498,43.081751],[-78.510384,43.097958],[-78.514099,43.090363],[-78.53627,43.085491],[-78.54689,43.090256],[-78.541267,43.093349],[-78.545616,43.098686],[-78.560875,43.090405],[-78.554893,43.094913],[-78.560265,43.097279],[-78.565323,43.088219],[-78.576248,43.088791],[-78.57431,43.080208],[-78.578201,43.087498],[-78.584557,43.086655],[-78.580193,43.08017],[-78.582656,43.07515],[-78.590904,43.076157],[-78.59404,43.0695],[-78.606544,43.072674],[-78.601831,43.076636],[-78.616295,43.074486],[-78.612511,43.083645],[-78.618881,43.087444],[-78.626671,43.08511],[-78.632683,43.090961],[-78.630077,43.093546],[-78.640732,43.097275],[-78.641753,43.088583],[-78.648995,43.087287],[-78.646561,43.080791],[-78.664711,43.086399],[-78.679749,43.084625],[-78.681808,43.080269],[-78.691338,43.088669],[-78.719048,43.081055],[-78.727242,43.086201],[-78.745354,43.069786],[-78.799571,43.066435],[-78.806143,43.063181],[-78.80735,43.053555],[-78.83126,43.050246],[-78.825366,43.033656],[-78.841745,43.018863],[-78.890159,43.021956],[-78.89626,43.044156],[-78.91152,43.05474],[-78.945262,43.066956],[-79.0192327742718,43.0679314265878],[-79.074467,43.077855],[-79.075367,43.081355]]]}},{"type":"Feature","properties":{"GEOID":"36045","NAME":"Jefferson","state":"NY","wildfire_risk_score":27.958,"wildfire_eal_total":13582.05,"risk_band":"Moderate","source":"FEMA National Risk Index v1.20 (December 2025)"},"geometry":{"type":"MultiPolygon","coordinates":[[[[-76.147437,43.942825],[-76.14299,43.944029],[-76.141999,43.942805],[-76.145034,43.940876],[-76.147437,43.942825]]],[[[-76.187253,44.013777],[-76.173467,44.024716],[-76.169664,44.024887],[-76.176557,44.017196],[-76.187253,44.013777]]],[[[-76.217856,43.895616],[-76.211542,43.897516],[-76.210928,43.895798],[-76.217171,43.892367],[-76.217856,43.895616]]],[[[-76.226382,43.887673],[-76.222446,43.88931],[-76.221001,43.888496],[-76.223793,43.885646],[-76.226382,43.887673]]],[[[-76.336539,44.034548],[-76.329628,44.044296],[-76.317583,44.050281],[-76.326533,44.040095],[-76.321297,44.031208],[-76.336539,44.034548]]],[[[-76.3559740350339,43.8800949275693],[-76.344997,43.894143],[-76.330977,43.902754],[-76.315124,43.905478],[-76.313963,43.913706],[-76.302894,43.917231],[-76.32708,43.88187],[-76.3559740350339,43.8800949275693]]],[[[-76.369699,44.104671],[-76.347308,44.124224],[-76.355679,44.133258],[-76.312647,44.199044],[-76.245487,44.203669],[-76.191328,44.221244],[-76.164265,44.239603],[-76.161833,44.280777],[-76.130884,44.296635],[-76.097351,44.299547],[-76.045228,44.331724],[-76.000998,44.347534],[-75.970185,44.342835],[-75.94954,44.349129],[-75.8600508652205,44.4032885572263],[-75.446277,44.21773],[-75.548012,44.101698],[-75.484957,44.073682],[-75.504352,44.051115],[-75.493302,44.046643],[-75.501198,44.036335],[-75.498743,44.010116],[-75.551158,44.006954],[-75.543102,43.968019],[-75.57689,43.96516],[-75.581669,43.96881],[-75.597386,43.96663],[-75.603629,43.971327],[-75.758565,43.87881],[-75.840399,43.883926],[-75.850914,43.791894],[-75.786954,43.788702],[-75.773819,43.688778],[-76.025087,43.707018],[-76.022003,43.668143],[-76.1996693718617,43.6801913412181],[-76.213205,43.753513],[-76.229268,43.804135],[-76.237566,43.810643],[-76.234986,43.822625],[-76.24326,43.816208],[-76.248534,43.817481],[-76.245919,43.820911],[-76.250197,43.825541],[-76.270008,43.824838],[-76.267786,43.838228],[-76.299064,43.838503],[-76.294819,43.849266],[-76.297392,43.855925],[-76.27469,43.875879],[-76.233163,43.886267],[-76.222892,43.880123],[-76.237363,43.863596],[-76.217845,43.863865],[-76.208658,43.856626],[-76.208467,43.849119],[-76.203012,43.850752],[-76.199348,43.854286],[-76.202257,43.864898],[-76.153155,43.890511],[-76.145506,43.888681],[-76.127285,43.897889],[-76.125846,43.92106],[-76.139069,43.940779],[-76.125042,43.950491],[-76.115419,43.950559],[-76.082981,43.977044],[-76.073621,43.975623],[-76.072843,43.970185],[-76.060063,43.974544],[-76.061034,43.997261],[-76.077528,43.998072],[-76.0797,44.00329],[-76.086044,44.000583],[-76.085068,43.995135],[-76.124156,43.969833],[-76.159004,43.958995],[-76.169553,43.958713],[-76.175019,43.964359],[-76.170741,43.970688],[-76.174782,43.97428],[-76.199811,43.968345],[-76.208014,43.97957],[-76.199447,43.991672],[-76.187501,43.999637],[-76.14039,44.011987],[-76.123358,44.0244],[-76.118753,44.034472],[-76.121928,44.03925],[-76.133586,44.039432],[-76.149724,44.03082],[-76.168284,44.032723],[-76.149546,44.046166],[-76.141278,44.058113],[-76.147438,44.061113],[-76.140145,44.070194],[-76.164062,44.062676],[-76.171224,44.066001],[-76.20428,44.054271],[-76.21397,44.059373],[-76.20164,44.079039],[-76.221574,44.066564],[-76.246657,44.064855],[-76.263436,44.052739],[-76.272841,44.051777],[-76.264732,44.048751],[-76.283859,44.019908],[-76.282217,44.012306],[-76.230112,44.028625],[-76.20502,44.028643],[-76.201164,44.024177],[-76.221798,44.002639],[-76.221598,43.993886],[-76.237226,43.97792],[-76.254449,43.966914],[-76.281393,43.960945],[-76.284114,43.9669],[-76.267744,43.983803],[-76.265882,43.995483],[-76.281928,44.009177],[-76.300956,44.009864],[-76.301345,44.020602],[-76.307674,44.025277],[-76.294836,44.043712],[-76.294902,44.058274],[-76.333812,44.064652],[-76.333732,44.069364],[-76.320521,44.074788],[-76.323385,44.077318],[-76.359687,44.071024],[-76.344247,44.087917],[-76.349714,44.092527],[-76.358575,44.088782],[-76.357104,44.099351],[-76.370706,44.100499],[-76.369699,44.104671]]],[[[-76.373974,43.875261],[-76.367849,43.879004],[-76.364403,43.87886],[-76.367346,43.875744],[-76.373974,43.875261]]],[[[-76.381711,44.039633],[-76.367935,44.052695],[-76.341828,44.052038],[-76.348305,44.038416],[-76.360929,44.033594],[-76.375737,44.033599],[-76.381711,44.039633]]],[[[-76.398833,43.884789],[-76.39378,43.888447],[-76.392347,43.887859],[-76.395758,43.882896],[-76.398833,43.884789]]],[[[-76.445999,43.890255],[-76.406359,43.920705],[-76.379412,43.921099],[-76.401472,43.901134],[-76.439149,43.887812],[-76.445999,43.890255]]]]}},{"type":"Feature","properties":{"GEOID":"36047","NAME":"Kings","state":"NY","wildfire_risk_score":38.55,"wildfire_eal_total":13786.43,"risk_band":"High","source":"FEMA National Risk Index v1.20 (December 2025)"},"geometry":{"type":"Polygon","coordinates":[[[-74.041712,40.626379],[-74.033421,40.643924],[-73.999994,40.663822],[-74.009855,40.668625],[-74.017819,40.66572],[-74.018828,40.679595],[-74.000699,40.690612],[-73.992722,40.705544],[-73.969613,40.707634],[-73.961543,40.723876],[-73.962672,40.736446],[-73.955087,40.7394],[-73.927801,40.726494],[-73.921892,40.709396],[-73.90426,40.6957],[-73.896518,40.682397],[-73.868917,40.69515],[-73.857282,40.670312],[-73.855685,40.663867],[-73.863171,40.658277],[-73.854938,40.64265],[-73.848338,40.643521],[-73.833041,40.628261],[-73.834463,40.607193],[-73.849852,40.588669],[-73.879222,40.574656],[-73.88348,40.578935],[-73.895545,40.577977],[-73.900446,40.588096],[-73.915839,40.582004],[-73.930162,40.583596],[-73.931968,40.57577],[-73.990899,40.570628],[-74.01147,40.574479],[-74.010881,40.580582],[-73.998272,40.581871],[-73.997084,40.591414],[-74.010926,40.600789],[-74.031384,40.605201],[-74.040191,40.614837],[-74.041712,40.626379]]]}},{"type":"Feature","properties":{"GEOID":"36075","NAME":"Oswego","state":"NY","wildfire_risk_score":35.687,"wildfire_eal_total":19933.52,"risk_band":"High","source":"FEMA National Risk Index v1.20 (December 2025)"},"geometry":{"type":"Polygon","coordinates":[[[-76.6169252975653,43.4180442652892],[-76.598907,43.424365],[-76.564958,43.448886],[-76.486962,43.47535],[-76.469724,43.495521],[-76.447505,43.50303],[-76.417581,43.521285],[-76.368849,43.525822],[-76.345492,43.513437],[-76.297103,43.51287],[-76.228701,43.532987],[-76.221234,43.539567],[-76.203473,43.574978],[-76.196596,43.649761],[-76.1996693718617,43.6801913412181],[-76.022003,43.668143],[-76.025087,43.707018],[-75.773819,43.688778],[-75.756416,43.470416],[-75.814627,43.483578],[-75.886756,43.325021],[-75.862934,43.319222],[-75.884275,43.155562],[-75.927453,43.162738],[-75.932778,43.176583],[-75.952491,43.171089],[-75.959359,43.180389],[-75.979489,43.177401],[-75.992428,43.185164],[-76.003613,43.176752],[-76.011647,43.185477],[-76.032525,43.19119],[-76.046131,43.202161],[-76.078902,43.19948],[-76.082687,43.204537],[-76.078243,43.208329],[-76.085288,43.212875],[-76.069414,43.214699],[-76.106601,43.224422],[-76.115887,43.233329],[-76.169047,43.246668],[-76.202573,43.271539],[-76.211711,43.267668],[-76.208825,43.263648],[-76.213393,43.24002],[-76.205008,43.237412],[-76.202548,43.222268],[-76.194248,43.217068],[-76.198748,43.212568],[-76.206176,43.216612],[-76.208336,43.208036],[-76.224449,43.204968],[-76.24465,43.214568],[-76.258051,43.237368],[-76.272851,43.240168],[-76.275551,43.238768],[-76.263551,43.226168],[-76.262051,43.218468],[-76.271351,43.203968],[-76.281027,43.201091],[-76.289524,43.219028],[-76.307541,43.230788],[-76.479224,43.227519],[-76.481148,43.256641],[-76.605012,43.25357],[-76.6169252975653,43.4180442652892]]]}},{"type":"Feature","properties":{"GEOID":"36071","NAME":"Orange","state":"NY","wildfire_risk_score":51.177,"wildfire_eal_total":56265.3,"risk_band":"High","source":"FEMA National Risk Index v1.20 (December 2025)"},"geometry":{"type":"Polygon","coordinates":[[[-74.762466,41.449525],[-74.759897,41.460692],[-74.750412,41.46433],[-74.762042,41.488065],[-74.752399,41.493743],[-74.475619,41.503953],[-74.476102,41.510239],[-74.465616,41.516882],[-74.465748,41.522862],[-74.444602,41.537233],[-74.445176,41.544094],[-74.435089,41.54618],[-74.434171,41.553541],[-74.419733,41.562426],[-74.418399,41.569397],[-74.407625,41.568885],[-74.411023,41.57123],[-74.408278,41.575175],[-74.397614,41.575094],[-74.390613,41.586221],[-74.386149,41.583132],[-74.353704,41.591683],[-74.349354,41.598621],[-74.34068,41.594376],[-74.332033,41.596739],[-74.312046,41.61127],[-74.306701,41.60882],[-74.304121,41.615788],[-74.264093,41.632738],[-74.250186,41.629324],[-74.251601,41.605374],[-74.187505,41.590793],[-74.185361,41.594128],[-74.126393,41.582544],[-74.134511,41.615695],[-74.098653,41.607259],[-74.089896,41.598602],[-74.068083,41.606001],[-74.053942,41.580724],[-73.953307,41.589977],[-73.959467,41.571443],[-73.98593,41.545621],[-73.996536,41.522649],[-73.994784,41.498293],[-74.000108,41.456549],[-73.981486,41.438905],[-73.962355,41.403699],[-73.947355,41.395254],[-73.961257,41.348539],[-73.980754,41.32542],[-74.2342999706713,41.1431492402799],[-74.696398,41.357339],[-74.689767,41.361558],[-74.691129,41.367324],[-74.708458,41.378901],[-74.715979,41.392584],[-74.738554,41.401191],[-74.741717,41.40788],[-74.735519,41.427465],[-74.740932,41.43116],[-74.754708208531,41.4249933746765],[-74.751868,41.432477],[-74.762466,41.449525]]]}},{"type":"Feature","properties":{"GEOID":"36061","NAME":"New York","state":"NY","wildfire_risk_score":9.924,"wildfire_eal_total":2007.28,"risk_band":"Low","source":"FEMA National Risk Index v1.20 (December 2025)"},"geometry":{"type":"MultiPolygon","coordinates":[[[[-74.0064144965104,40.6887021444156],[-73.998459260799,40.7003103900978],[-73.9975,40.699653],[-74.000699,40.690612],[-74.0064144965104,40.6887021444156]]],[[[-74.0230657739048,40.7204139707265],[-74.014029,40.757551],[-73.963182,40.8269],[-73.9337868955222,40.882206616177],[-73.9152,40.875581],[-73.909505,40.878878],[-73.907104,40.872978],[-73.933459,40.833184],[-73.932477,40.808864],[-73.910296,40.790657],[-73.928277,40.776899],[-73.93638,40.776921],[-73.935323,40.770485],[-73.959725,40.745261],[-73.961543,40.723876],[-73.969613,40.707634],[-73.9977471780287,40.7013494582089],[-74.0001,40.706351],[-74.012691,40.700506],[-74.019215,40.706554],[-74.017105,40.716604],[-74.0230657739048,40.7204139707265]]],[[[-74.026288,40.686317],[-74.0195,40.693382],[-74.012132,40.690679],[-74.024638,40.683943],[-74.026288,40.686317]]],[[[-74.039944,40.70082],[-74.037615,40.69921],[-74.038997,40.697619],[-74.042196,40.699966],[-74.039944,40.70082]]],[[[-74.047083,40.691062],[-74.043577,40.690305],[-74.043247,40.689338],[-74.045733,40.688605],[-74.047083,40.691062]]]]}},{"type":"Feature","properties":{"GEOID":"36059","NAME":"Nassau","state":"NY","wildfire_risk_score":43.607,"wildfire_eal_total":36148.66,"risk_band":"High","source":"FEMA National Risk Index v1.20 (December 2025)"},"geometry":{"type":"Polygon","coordinates":[[[-73.768709,40.624386],[-73.743295,40.638048],[-73.73996,40.635144],[-73.741437,40.646889],[-73.724984,40.652678],[-73.730326,40.722157],[-73.707939,40.727771],[-73.700384,40.73919],[-73.701633,40.752493],[-73.750295,40.782478],[-73.753418,40.799532],[-73.76554,40.810866],[-73.754032,40.820941],[-73.757221,40.833888],[-73.753009,40.838392],[-73.721851,40.82187],[-73.716287,40.805104],[-73.710934,40.805751],[-73.700448,40.834734],[-73.725439,40.839297],[-73.728462,40.832989],[-73.730363,40.84234],[-73.737566,40.848409],[-73.727952,40.852888],[-73.729575,40.8665],[-73.714053,40.869989],[-73.676694,40.857237],[-73.660485,40.834608],[-73.648602,40.828821],[-73.653355,40.836406],[-73.648126,40.85389],[-73.655784,40.864939],[-73.654372,40.878199],[-73.633134,40.90269],[-73.617571,40.897898],[-73.569969,40.915398],[-73.548068,40.908698],[-73.521423,40.918304],[-73.50742,40.908656],[-73.50837,40.90147],[-73.517164,40.901111],[-73.520254,40.886738],[-73.533089,40.8853],[-73.533802,40.890151],[-73.523582,40.897877],[-73.523582,40.909554],[-73.547825,40.903626],[-73.548063,40.886378],[-73.541883,40.876854],[-73.506231,40.872361],[-73.51146,40.887995],[-73.508846,40.893745],[-73.494822,40.894823],[-73.48793,40.877034],[-73.469391,40.86643],[-73.46253,40.867295],[-73.464067,40.859554],[-73.455363,40.842593],[-73.423509,40.671413],[-73.4240200623355,40.6095801139079],[-73.571791,40.578257],[-73.57056,40.583675],[-73.578303,40.58581],[-73.610873,40.587703],[-73.640902,40.582823],[-73.754332,40.584542],[-73.747749,40.591503],[-73.737185,40.592965],[-73.738358,40.60266],[-73.745492,40.611805],[-73.766719,40.615004],[-73.768709,40.624386]]]}},{"type":"Feature","properties":{"GEOID":"36111","NAME":"Ulster","state":"NY","wildfire_risk_score":52.863,"wildfire_eal_total":52779.1,"risk_band":"High","source":"FEMA National Risk Index v1.20 (December 2025)"},"geometry":{"type":"Polygon","coordinates":[[[-74.780693,42.016375],[-74.553598,42.121484],[-74.530985,42.146475],[-74.503984,42.14492],[-74.451713,42.169225],[-74.307571,42.114346],[-74.074797,42.096589],[-74.042393,42.170386],[-74.024878,42.162134],[-74.003589,42.163365],[-74.00245,42.176992],[-73.910675,42.127293],[-73.921465,42.110025],[-73.929114,42.081658],[-73.926186,42.07193],[-73.932877,42.059943],[-73.937051,42.032923],[-73.933435,42.015659],[-73.952829,41.957067],[-73.958301,41.920332],[-73.964413,41.913148],[-73.962221,41.90102],[-73.945629,41.882188],[-73.939389,41.865852],[-73.948941,41.848636],[-73.952446,41.787965],[-73.951614,41.770621],[-73.940829,41.754317],[-73.946682,41.699396],[-73.942482,41.684093],[-73.952582,41.625193],[-73.953307,41.589977],[-74.053942,41.580724],[-74.068083,41.606001],[-74.089896,41.598602],[-74.098653,41.607259],[-74.134511,41.615695],[-74.126393,41.582544],[-74.185361,41.594128],[-74.187505,41.590793],[-74.251601,41.605374],[-74.250186,41.629324],[-74.264093,41.632738],[-74.304121,41.615788],[-74.306701,41.60882],[-74.312046,41.61127],[-74.332033,41.596739],[-74.34068,41.594376],[-74.349354,41.598621],[-74.353704,41.591683],[-74.368191,41.591353],[-74.364486,41.593783],[-74.376138,41.598189],[-74.395071,41.644876],[-74.575086,41.745258],[-74.487829,41.834361],[-74.453685,41.875595],[-74.780693,42.016375]]]}},{"type":"Feature","properties":{"GEOID":"36077","NAME":"Otsego","state":"NY","wildfire_risk_score":25.7,"wildfire_eal_total":9943.72,"risk_band":"Moderate","source":"FEMA National Risk Index v1.20 (December 2025)"},"geometry":{"type":"Polygon","coordinates":[[[-75.416932,42.314094],[-75.414489,42.320179],[-75.407197,42.320161],[-75.40984,42.325882],[-75.398331,42.336065],[-75.402453,42.348536],[-75.392846,42.357916],[-75.403345,42.365732],[-75.40669,42.380781],[-75.394404,42.399264],[-75.380685,42.403851],[-75.374905,42.410784],[-75.374617,42.415998],[-75.379135,42.416544],[-75.376979,42.424789],[-75.385666,42.433277],[-75.386205,42.44499],[-75.399939,42.462391],[-75.404464,42.479117],[-75.395112,42.487017],[-75.398811,42.499456],[-75.39577,42.502998],[-75.403459,42.508699],[-75.389161,42.511231],[-75.384042,42.520908],[-75.386717,42.523858],[-75.37315,42.536321],[-75.367956,42.55205],[-75.354116,42.554229],[-75.330256,42.567432],[-75.332372,42.573001],[-75.326639,42.577851],[-75.33027,42.581186],[-75.325407,42.588821],[-75.336319,42.594318],[-75.338641,42.605764],[-75.336922,42.613561],[-75.323054,42.622913],[-75.330067,42.631482],[-75.323762,42.633949],[-75.322993,42.64381],[-75.331103,42.661072],[-75.330394,42.674195],[-75.313283,42.689745],[-75.296513,42.718653],[-75.295644,42.727237],[-75.300333,42.729091],[-75.292825,42.737751],[-75.296195,42.742281],[-75.290898,42.751427],[-75.282613,42.752052],[-75.271876,42.773483],[-75.258825,42.776993],[-75.251037,42.785115],[-75.249133,42.811718],[-75.242095,42.817365],[-75.250225,42.823837],[-75.239547,42.834233],[-75.247717,42.846475],[-75.244062,42.861299],[-75.247963,42.871604],[-75.242745,42.877869],[-75.212158,42.879973],[-75.209644,42.856611],[-75.13987,42.85976],[-75.100999,42.908363],[-74.906738,42.824943],[-74.894671,42.832051],[-74.890873,42.841356],[-74.878822,42.898274],[-74.648298,42.829558],[-74.665217,42.792237],[-74.667512,42.75071],[-74.630652,42.62677],[-74.672018,42.564836],[-74.712513,42.516585],[-74.751731,42.51448],[-74.771507,42.504387],[-74.844121,42.512591],[-74.957926,42.462756],[-74.959246,42.470385],[-74.97494,42.467488],[-74.983987,42.444086],[-74.990995,42.446511],[-74.992362,42.440357],[-75.017958,42.454243],[-75.01981,42.429159],[-75.059068,42.43064],[-75.093408,42.420634],[-75.126762,42.398576],[-75.122202,42.39407],[-75.143069,42.381401],[-75.147133,42.385662],[-75.197237,42.358329],[-75.19096,42.379852],[-75.209792,42.376364],[-75.216738,42.367556],[-75.261569,42.366673],[-75.272922,42.356655],[-75.269461,42.351027],[-75.292726,42.339488],[-75.308405,42.321151],[-75.341368,42.314797],[-75.354633,42.319183],[-75.371922,42.316014],[-75.375684,42.322362],[-75.382485,42.315367],[-75.390202,42.319907],[-75.398212,42.31503],[-75.416932,42.314094]]]}},{"type":"Feature","properties":{"GEOID":"36067","NAME":"Onondaga","state":"NY","wildfire_risk_score":46.279,"wildfire_eal_total":37942.03,"risk_band":"High","source":"FEMA National Risk Index v1.20 (December 2025)"},"geometry":{"type":"Polygon","coordinates":[[[-76.499312,43.097949],[-76.491232,43.106295],[-76.471774,43.104983],[-76.475689,43.123862],[-76.486303,43.143223],[-76.473066,43.146017],[-76.479224,43.227519],[-76.307541,43.230788],[-76.289524,43.219028],[-76.281027,43.201091],[-76.271351,43.203968],[-76.262051,43.218468],[-76.263551,43.226168],[-76.275551,43.238768],[-76.272851,43.240168],[-76.25745,43.236868],[-76.24465,43.214568],[-76.217646,43.204821],[-76.208336,43.208036],[-76.206176,43.216612],[-76.198748,43.212568],[-76.194248,43.217068],[-76.202548,43.222268],[-76.205008,43.237412],[-76.213393,43.24002],[-76.208825,43.263648],[-76.211711,43.267668],[-76.202573,43.271539],[-76.169047,43.246668],[-76.115887,43.233329],[-76.106601,43.224422],[-76.069414,43.214699],[-76.085288,43.212875],[-76.078243,43.208329],[-76.082687,43.204537],[-76.078902,43.19948],[-76.049958,43.202953],[-76.032525,43.19119],[-76.011647,43.185477],[-76.003613,43.176752],[-75.991437,43.18325],[-75.992635,43.173849],[-75.982668,43.173631],[-75.97438,43.163175],[-75.977068,43.157646],[-75.971511,43.154926],[-75.977009,43.136014],[-75.972347,43.140476],[-75.960459,43.13284],[-75.950057,43.134853],[-75.960494,43.122969],[-75.9544,43.116857],[-75.965599,43.119505],[-75.971524,43.104914],[-75.97623,43.103294],[-75.975588,43.091278],[-75.960592,43.088856],[-75.96168,43.085493],[-75.927245,43.090372],[-75.917219,43.085926],[-75.896079,42.790964],[-76.274673,42.771257],[-76.275348,42.78047],[-76.29877,42.80746],[-76.357018,42.849448],[-76.450738,42.84576],[-76.462999,43.006316],[-76.491941,43.004964],[-76.499312,43.097949]]]}},{"type":"Feature","properties":{"GEOID":"36013","NAME":"Chautauqua","state":"NY","wildfire_risk_score":43.13,"wildfire_eal_total":25696.29,"risk_band":"High","source":"FEMA National Risk Index v1.20 (December 2025)"},"geometry":{"type":"Polygon","coordinates":[[[-79.762152,42.243054],[-79.761951,42.26986],[-79.645358,42.315631],[-79.597671,42.342817],[-79.569767,42.351197],[-79.474794,42.404291],[-79.453533,42.411157],[-79.425718,42.431353],[-79.417732,42.453369],[-79.408723,42.451715],[-79.381943,42.466491],[-79.36213,42.480195],[-79.354483,42.494071],[-79.345098,42.493057],[-79.343806,42.48671],[-79.331312,42.488918],[-79.317865,42.50234],[-79.278033,42.51123],[-79.249667,42.531744],[-79.190734,42.545078],[-79.17983,42.551784],[-79.151872,42.552244],[-79.1368929076035,42.5697987744532],[-79.125798,42.565092],[-79.108557,42.570201],[-79.104213,42.568189],[-79.106152,42.564104],[-79.095841,42.564487],[-79.092414,42.557123],[-79.080877,42.555437],[-79.089624,42.54997],[-79.060777,42.537853],[-79.061265,41.999259],[-79.761374,41.999067],[-79.762152,42.243054]]]}},{"type":"Feature","properties":{"GEOID":"36009","NAME":"Cattaraugus","state":"NY","wildfire_risk_score":35.051,"wildfire_eal_total":14277.89,"risk_band":"High","source":"FEMA National Risk Index v1.20 (December 2025)"},"geometry":{"type":"Polygon","coordinates":[[[-79.059082,42.086725],[-79.060777,42.537853],[-79.039826,42.537679],[-79.033098,42.54328],[-78.995326,42.531796],[-78.986404,42.519115],[-78.987486,42.513131],[-78.982775,42.511559],[-78.986235,42.505284],[-78.980228,42.506155],[-78.966565,42.493699],[-78.961177,42.494018],[-78.963436,42.486587],[-78.95703,42.472362],[-78.938927,42.468006],[-78.918535,42.453199],[-78.920446,42.442556],[-78.900455,42.449115],[-78.893757,42.439119],[-78.887139,42.442105],[-78.88299,42.438286],[-78.8381,42.442811],[-78.797127,42.462655],[-78.780825,42.455155],[-78.771588,42.457085],[-78.776685,42.463797],[-78.762288,42.461675],[-78.758296,42.465731],[-78.763624,42.470547],[-78.75165,42.468264],[-78.749801,42.473729],[-78.738387,42.47309],[-78.738306,42.480456],[-78.731472,42.478666],[-78.714057,42.486726],[-78.712082,42.483571],[-78.70223,42.48639],[-78.699378,42.473795],[-78.693738,42.471723],[-78.691439,42.476597],[-78.682593,42.478135],[-78.680307,42.484555],[-78.6624,42.492437],[-78.644446,42.491067],[-78.638678,42.498058],[-78.627253,42.497347],[-78.621969,42.504189],[-78.610039,42.503696],[-78.596881,42.512683],[-78.587828,42.508975],[-78.583728,42.514154],[-78.568564,42.512707],[-78.563664,42.508784],[-78.548488,42.517689],[-78.538842,42.51419],[-78.531526,42.521103],[-78.519078,42.51916],[-78.511558,42.527812],[-78.491376,42.530037],[-78.488476,42.534845],[-78.463901,42.536354],[-78.464551,42.519227],[-78.308839,42.521217],[-78.308128,41.999415],[-79.061265,41.999259],[-79.059082,42.086725]]]}},{"type":"Feature","properties":{"GEOID":"36105","NAME":"Sullivan","state":"NY","wildfire_risk_score":29.548,"wildfire_eal_total":12775.76,"risk_band":"Moderate","source":"FEMA National Risk Index v1.20 (December 2025)"},"geometry":{"type":"Polygon","coordinates":[[[-75.144744,41.851677],[-74.780693,42.016375],[-74.453685,41.875595],[-74.487829,41.834361],[-74.575086,41.745258],[-74.395071,41.644876],[-74.376138,41.598189],[-74.364486,41.593783],[-74.383515,41.583879],[-74.390613,41.586221],[-74.397614,41.575094],[-74.408278,41.575175],[-74.411023,41.57123],[-74.407625,41.568885],[-74.418399,41.569397],[-74.419733,41.562426],[-74.434171,41.553541],[-74.435089,41.54618],[-74.445176,41.544094],[-74.444602,41.537233],[-74.465748,41.522862],[-74.465616,41.516882],[-74.476102,41.510239],[-74.475619,41.503953],[-74.752399,41.493743],[-74.762042,41.488065],[-74.750412,41.46433],[-74.759897,41.460692],[-74.762466,41.449525],[-74.751868,41.432477],[-74.758587,41.423287],[-74.773239,41.426352],[-74.793856,41.422671],[-74.807582,41.442847],[-74.830671,41.430503],[-74.858578,41.444427],[-74.893913,41.43893],[-74.896399,41.442179],[-74.890358,41.455324],[-74.906887,41.461131],[-74.912517,41.475605],[-74.941798,41.483542],[-74.95826,41.476396],[-74.983341,41.480894],[-74.984372,41.506611],[-75.003151,41.508101],[-75.00385,41.524052],[-75.024757,41.535099],[-75.024798,41.539801],[-75.016144,41.544246],[-75.018524,41.551802],[-75.027343,41.563541],[-75.04049,41.569688],[-75.04676,41.583258],[-75.074613,41.605711],[-75.059725,41.610801],[-75.060098,41.617482],[-75.044224,41.617978],[-75.04992,41.662556],[-75.059332,41.67232],[-75.051285,41.679961],[-75.052736,41.688393],[-75.06883,41.708161],[-75.06663,41.712588],[-75.049862,41.713309],[-75.053431,41.752538],[-75.060759,41.764638],[-75.075942,41.771518],[-75.095451,41.768366],[-75.104334,41.772693],[-75.101463,41.787941],[-75.092876,41.796386],[-75.076889,41.798509],[-75.072172,41.813732],[-75.089484,41.811576],[-75.113334,41.822782],[-75.114399,41.843583],[-75.144744,41.851677]]]}},{"type":"Feature","properties":{"GEOID":"36065","NAME":"Oneida","state":"NY","wildfire_risk_score":38.486,"wildfire_eal_total":21174.62,"risk_band":"High","source":"FEMA National Risk Index v1.20 (December 2025)"},"geometry":{"type":"Polygon","coordinates":[[[-75.886756,43.325021],[-75.814627,43.483578],[-75.533429,43.419815],[-75.11016,43.615229],[-75.076581,43.330705],[-75.09175,43.328613],[-75.093769,43.323103],[-75.099839,43.325175],[-75.107313,43.311919],[-75.119206,43.310508],[-75.120295,43.304165],[-75.14818,43.304828],[-75.148198,43.289057],[-75.162371,43.258463],[-75.152504,43.257811],[-75.150974,43.246903],[-75.142703,43.255001],[-75.136319,43.248689],[-75.123923,43.2465],[-75.122684,43.241048],[-75.090899,43.230492],[-75.073002,43.234817],[-75.073787,43.229505],[-75.069165,43.227333],[-75.18553,43.088445],[-75.181701,43.087701],[-75.184078,43.083329],[-75.1779,43.082543],[-75.182334,43.075303],[-75.195728,43.077651],[-75.219106,43.052469],[-75.201444,42.880664],[-75.242745,42.877869],[-75.247963,42.871604],[-75.437167,42.863319],[-75.444173,42.933089],[-75.542803,42.931774],[-75.552774,43.037554],[-75.596879,43.035399],[-75.597926,43.042873],[-75.607969,43.053108],[-75.599496,43.0614],[-75.617704,43.0674],[-75.622213,43.073846],[-75.637316,43.076468],[-75.641752,43.081908],[-75.639285,43.097004],[-75.655874,43.109791],[-75.65297,43.113953],[-75.681116,43.120999],[-75.685137,43.124972],[-75.678746,43.127833],[-75.693805,43.133643],[-75.694338,43.139337],[-75.706771,43.137026],[-75.706661,43.151197],[-75.71614,43.15065],[-75.722525,43.15618],[-75.719899,43.161053],[-75.723929,43.162596],[-75.724937,43.1572],[-75.737774,43.164673],[-75.750124,43.158009],[-75.776144,43.173294],[-75.793059,43.160201],[-75.839993,43.160513],[-75.864263,43.146897],[-75.884275,43.155562],[-75.862934,43.319222],[-75.886756,43.325021]]]}},{"type":"Feature","properties":{"GEOID":"36025","NAME":"Delaware","state":"NY","wildfire_risk_score":18.734,"wildfire_eal_total":4837.03,"risk_band":"Low","source":"FEMA National Risk Index v1.20 (December 2025)"},"geometry":{"type":"Polygon","coordinates":[[[-75.422637,42.055913],[-75.415319,42.314151],[-75.390202,42.319907],[-75.382485,42.315367],[-75.375684,42.322362],[-75.371922,42.316014],[-75.354633,42.319183],[-75.341368,42.314797],[-75.308405,42.321151],[-75.292726,42.339488],[-75.269461,42.351027],[-75.272922,42.356655],[-75.261569,42.366673],[-75.216738,42.367556],[-75.209792,42.376364],[-75.19096,42.379852],[-75.197237,42.358329],[-75.147133,42.385662],[-75.143069,42.381401],[-75.122202,42.39407],[-75.126762,42.398576],[-75.093408,42.420634],[-75.059068,42.43064],[-75.01981,42.429159],[-75.017958,42.454243],[-74.992362,42.440357],[-74.990995,42.446511],[-74.983987,42.444086],[-74.97494,42.467488],[-74.959246,42.470385],[-74.957926,42.462756],[-74.844121,42.512591],[-74.771507,42.504387],[-74.751731,42.51448],[-74.71158,42.517799],[-74.618895,42.424389],[-74.428196,42.349075],[-74.53731,42.201424],[-74.451713,42.169225],[-74.503984,42.14492],[-74.530985,42.146475],[-74.553598,42.121484],[-75.152898,41.848564],[-75.166217,41.853862],[-75.169142,41.87029],[-75.174574,41.87266],[-75.185254,41.85993],[-75.204002,41.869867],[-75.21497,41.867449],[-75.223734,41.857456],[-75.241134,41.867118],[-75.251197,41.86204],[-75.260527,41.8638],[-75.263815,41.870757],[-75.257564,41.877108],[-75.260623,41.883783],[-75.271292,41.88736],[-75.272778,41.897112],[-75.267562,41.907054],[-75.276552,41.922208],[-75.279094,41.938917],[-75.289383,41.942891],[-75.293713,41.954593],[-75.300409,41.953871],[-75.301664,41.94838],[-75.310358,41.949012],[-75.329318,41.968232],[-75.342204,41.972872],[-75.337602,41.9867],[-75.341125,41.992772],[-75.3596448764317,41.99944492537],[-75.364225,42.008168],[-75.37922,42.002192],[-75.402239,42.010699],[-75.410033,42.029827],[-75.421443,42.041032],[-75.422637,42.055913]]]}},{"type":"Feature","properties":{"GEOID":"36103","NAME":"Suffolk","state":"NY","wildfire_risk_score":73.378,"wildfire_eal_total":264838.88,"risk_band":"High","source":"FEMA National Risk Index v1.20 (December 2025)"},"geometry":{"type":"MultiPolygon","coordinates":[[[[-72.037695,41.251282],[-72.029438,41.26309],[-72.021292,41.262356],[-72.023055,41.274847],[-72.007872,41.270946],[-72.012992,41.264324],[-72.006941,41.262306],[-71.99435,41.270507],[-71.991117,41.281331],[-71.942293,41.282705],[-71.939376,41.291263],[-71.922614,41.29234],[-71.935259,41.280579],[-71.967144,41.274692],[-72.002461,41.252867],[-72.017122,41.255425],[-72.037695,41.251282]]],[[[-72.142929,41.097811],[-72.128352,41.108131],[-72.125973,41.121182],[-72.114475,41.110487],[-72.077929,41.099873],[-72.085863,41.090398],[-72.082571,41.073162],[-72.086999,41.059031],[-72.0972,41.054884],[-72.097136,41.075844],[-72.1064,41.088883],[-72.137743,41.092982],[-72.142929,41.097811]]],[[[-72.211393,41.176562],[-72.189141,41.188311],[-72.161834,41.190324],[-72.18413,41.185013],[-72.197319,41.165468],[-72.211393,41.176562]]],[[[-73.496886,40.925667],[-73.492764,40.941439],[-73.485365,40.946397],[-73.463708,40.937697],[-73.437956,40.934651],[-73.430189,40.928688],[-73.433976,40.909015],[-73.413463,40.904046],[-73.396692,40.908937],[-73.380125,40.900181],[-73.373892,40.912864],[-73.362389,40.90396],[-73.357556,40.893045],[-73.352468,40.897917],[-73.358168,40.911382],[-73.351658,40.922698],[-73.37027,40.930277],[-73.389506,40.923629],[-73.40354,40.931329],[-73.402068,40.954393],[-73.392862,40.955297],[-73.365961,40.931697],[-73.344881,40.924413],[-73.33136,40.929597],[-73.295059,40.924497],[-73.228384,40.905961],[-73.147077,40.928721],[-73.144673,40.955842],[-73.158129,40.967517],[-73.138766,40.966404],[-73.118434,40.977294],[-73.102399,40.969195],[-73.077551,40.972801],[-73.043765,40.962114],[-72.995931,40.966498],[-72.913834,40.962466],[-72.833129,40.970116],[-72.774104,40.965314],[-72.708069,40.977851],[-72.635562,40.981957],[-72.585327,40.997587],[-72.517981,41.040118],[-72.477306,41.052212],[-72.459252,41.06636],[-72.445242,41.086116],[-72.417945,41.087955],[-72.397,41.096307],[-72.382555,41.114534],[-72.362285,41.125965],[-72.354123,41.139952],[-72.321635,41.138716],[-72.312775,41.148002],[-72.278789,41.158722],[-72.266947,41.15408],[-72.247003,41.160944],[-72.233927,41.158914],[-72.24258,41.153296],[-72.254744,41.133986],[-72.294106,41.114121],[-72.284469,41.126273],[-72.312841,41.140327],[-72.32663,41.132162],[-72.339163,41.115045],[-72.335177,41.106917],[-72.320998,41.100584],[-72.317238,41.088659],[-72.277427,41.078723],[-72.283093,41.067874],[-72.274046,41.052428],[-72.280892,41.047728],[-72.275875,41.03657],[-72.229364,41.044355],[-72.209213,41.034455],[-72.190563,41.032579],[-72.16037,41.053827],[-72.137297,41.039684],[-72.137409,41.023908],[-72.116368,40.999796],[-72.10216,40.991509],[-72.083039,40.996453],[-72.080058,41.006064],[-72.062913,41.011317],[-72.054564,41.02184],[-72.034521,41.019614],[-72.01693,41.023517],[-71.992638,41.047147],[-71.982126,41.047831],[-71.972232,41.040839],[-71.963513,41.042533],[-71.957256,41.048278],[-71.961563,41.064021],[-71.955203,41.07307],[-71.904329,41.085989],[-71.895496,41.077381],[-71.86447,41.076918],[-71.856483,41.071037],[-71.87474,41.052035],[-71.902566,41.041127],[-71.958819,41.026726],[-72.474097,40.840837],[-72.768152,40.761587],[-72.923214,40.713282],[-73.054963,40.666371],[-73.262348,40.621962],[-73.306396,40.620756],[-73.326262,40.6331],[-73.341766,40.6327],[-73.4240200623355,40.6095801139079],[-73.423509,40.671413],[-73.455363,40.842593],[-73.464067,40.859554],[-73.46253,40.867295],[-73.470817,40.875057],[-73.475333,40.897518],[-73.496886,40.925667]]]]}},{"type":"Feature","properties":{"GEOID":"36043","NAME":"Herkimer","state":"NY","wildfire_risk_score":25.732,"wildfire_eal_total":11207.2,"risk_band":"Moderate","source":"FEMA National Risk Index v1.20 (December 2025)"},"geometry":{"type":"Polygon","coordinates":[[[-75.219106,43.052469],[-75.195728,43.077651],[-75.182334,43.075303],[-75.1779,43.082543],[-75.184078,43.083329],[-75.181701,43.087701],[-75.18553,43.088445],[-75.069165,43.227333],[-75.073787,43.229505],[-75.073002,43.234817],[-75.090899,43.230492],[-75.122684,43.241048],[-75.123923,43.2465],[-75.136319,43.248689],[-75.142703,43.255001],[-75.150974,43.246903],[-75.152504,43.257811],[-75.162371,43.258463],[-75.148198,43.289057],[-75.14818,43.304828],[-75.120295,43.304165],[-75.119206,43.310508],[-75.107313,43.311919],[-75.099839,43.325175],[-75.093769,43.323103],[-75.09175,43.328613],[-75.076581,43.330705],[-75.167806,44.095939],[-75.062779,44.0504],[-74.854171,44.070089],[-74.775617,43.486677],[-74.867712,43.339826],[-74.712615,43.286143],[-74.696003,43.177862],[-74.696333,43.173515],[-74.708235,43.172533],[-74.71759,43.165289],[-74.71836,43.160506],[-74.709977,43.156083],[-74.708088,43.149671],[-74.735293,43.142943],[-74.728444,43.125168],[-74.758948,43.119562],[-74.757783,43.114645],[-74.77015,43.112505],[-74.765815,43.090132],[-74.774199,43.078472],[-74.769843,43.065683],[-74.761938,43.05942],[-74.759235,43.042613],[-74.743805,43.030741],[-74.740237,43.014483],[-74.763303,42.863237],[-74.878822,42.898274],[-74.890873,42.841356],[-74.894671,42.832051],[-74.906738,42.824943],[-75.100999,42.908363],[-75.13987,42.85976],[-75.210666,42.856957],[-75.212158,42.879973],[-75.201444,42.880664],[-75.219106,43.052469]]]}},{"type":"Feature","properties":{"GEOID":"36115","NAME":"Washington","state":"NY","wildfire_risk_score":20.452,"wildfire_eal_total":7912.66,"risk_band":"Moderate","source":"FEMA National Risk Index v1.20 (December 2025)"},"geometry":{"type":"Polygon","coordinates":[[[-73.636215,43.498238],[-73.631983,43.497043],[-73.636212,43.50013],[-73.631242,43.504592],[-73.629006,43.518685],[-73.618957,43.520629],[-73.617884,43.534843],[-73.607084,43.551681],[-73.614129,43.556107],[-73.61323,43.562932],[-73.581441,43.57337],[-73.577127,43.579431],[-73.580653,43.581848],[-73.566516,43.590803],[-73.539036,43.625675],[-73.526789,43.636014],[-73.513784,43.637607],[-73.512484,43.643214],[-73.501189,43.645767],[-73.502407,43.651728],[-73.494314,43.653966],[-73.49283,43.670158],[-73.496501,43.673072],[-73.486556,43.679774],[-73.464614,43.730945],[-73.459294,43.730031],[-73.464379,43.733444],[-73.460119,43.747331],[-73.466722,43.758141],[-73.457331,43.765094],[-73.471307,43.771681],[-73.470131,43.776974],[-73.437007,43.80058],[-73.43812,43.803687],[-73.3793298267232,43.808476322237],[-73.376361,43.798766],[-73.357547,43.785933],[-73.350707,43.770463],[-73.369725,43.744274],[-73.370612,43.725329],[-73.404739,43.690213],[-73.404126,43.681339],[-73.415513,43.65245],[-73.426463,43.642598],[-73.42791,43.634428],[-73.417668,43.621687],[-73.430947,43.587036],[-73.395767,43.568087],[-73.383369,43.57677],[-73.382425,43.586062],[-73.387039,43.589463],[-73.372469,43.604848],[-73.376036,43.612596],[-73.369933,43.619093],[-73.371889,43.624489],[-73.347621,43.622509],[-73.323893,43.627629],[-73.310606,43.624114],[-73.306234,43.628018],[-73.300285,43.610806],[-73.292232,43.60255],[-73.296924,43.587323],[-73.292113,43.584509],[-73.294621,43.57897],[-73.284912,43.579272],[-73.258631,43.564949],[-73.248641,43.553857],[-73.250132,43.543429],[-73.241589,43.534973],[-73.247698,43.523173],[-73.256493,43.259249],[-73.274294,42.943652],[-73.380235,42.943739],[-73.379366,42.947562],[-73.392102,42.952586],[-73.430623,42.95865],[-73.449269,42.951217],[-73.450593,42.944581],[-73.635463,42.94129],[-73.628879,42.955457],[-73.631467,42.969739],[-73.609282,42.982241],[-73.606699,42.999241],[-73.593635,43.01433],[-73.586306,43.048716],[-73.578155,43.055787],[-73.581714,43.068695],[-73.573342,43.100545],[-73.575865,43.116882],[-73.585599,43.123665],[-73.590938,43.13511],[-73.580214,43.152882],[-73.583827,43.166131],[-73.589836,43.170472],[-73.581003,43.18249],[-73.585705,43.19312],[-73.579279,43.208906],[-73.585957,43.227432],[-73.597481,43.24095],[-73.58722,43.259712],[-73.592356,43.267149],[-73.600738,43.268836],[-73.600044,43.279762],[-73.588549,43.299414],[-73.594713,43.305928],[-73.62894,43.486391],[-73.636215,43.498238]]]}},{"type":"Feature","properties":{"GEOID":"36095","NAME":"Schoharie","state":"NY","wildfire_risk_score":11.228,"wildfire_eal_total":3687.46,"risk_band":"Low","source":"FEMA National Risk Index v1.20 (December 2025)"},"geometry":{"type":"Polygon","coordinates":[[[-74.71158,42.517799],[-74.672018,42.564836],[-74.630652,42.62677],[-74.667512,42.75071],[-74.665217,42.792237],[-74.648298,42.829558],[-74.562477,42.812916],[-74.454911,42.772979],[-74.289446,42.783805],[-74.256547,42.79587],[-74.248062,42.78457],[-74.254379,42.776006],[-74.25148,42.766096],[-74.258507,42.757398],[-74.293168,42.755762],[-74.306665,42.750074],[-74.27784,42.719472],[-74.270768,42.719542],[-74.272295,42.71427],[-74.239846,42.718924],[-74.202713,42.710826],[-74.184299,42.712494],[-74.180274,42.729979],[-74.164678,42.717207],[-74.173428,42.657318],[-74.193495,42.618999],[-74.215166,42.597435],[-74.220274,42.585412],[-74.233995,42.575688],[-74.241572,42.550802],[-74.225639,42.526403],[-74.226447,42.499233],[-74.244484,42.470182],[-74.264755,42.418876],[-74.263469,42.407127],[-74.254303,42.408207],[-74.244692,42.377159],[-74.258911,42.379151],[-74.276645,42.363349],[-74.346087,42.355691],[-74.379051,42.373873],[-74.443506,42.355017],[-74.618895,42.424389],[-74.71158,42.517799]]]}},{"type":"Feature","properties":{"GEOID":"36003","NAME":"Allegany","state":"NY","wildfire_risk_score":19.72,"wildfire_eal_total":6982.27,"risk_band":"Low","source":"FEMA National Risk Index v1.20 (December 2025)"},"geometry":{"type":"Polygon","coordinates":[[[-78.309316,42.231684],[-78.308839,42.521217],[-77.840694,42.517771],[-77.840231,42.474576],[-77.722964,42.471216],[-77.726111,42.404043],[-77.731058,42.404122],[-77.749931,41.998782],[-78.308128,41.999415],[-78.309316,42.231684]]]}},{"type":"Feature","properties":{"GEOID":"36011","NAME":"Cayuga","state":"NY","wildfire_risk_score":32.443,"wildfire_eal_total":17793.59,"risk_band":"Moderate","source":"FEMA National Risk Index v1.20 (December 2025)"},"geometry":{"type":"Polygon","coordinates":[[[-76.74006,42.789419],[-76.719514,42.825446],[-76.717185,42.83883],[-76.721246,42.869579],[-76.73746,42.902106],[-76.734327,42.944879],[-76.739361,42.954473],[-76.73674,42.970286],[-76.727623,42.978144],[-76.728814,42.987764],[-76.720654,42.995426],[-76.721657,43.007859],[-76.711202,43.018042],[-76.718614,43.033116],[-76.717789,43.062634],[-76.705885,43.070784],[-76.702325,43.080393],[-76.722492506055,43.3435792957798],[-76.69836,43.344436],[-76.684856,43.352691],[-76.630774,43.413356],[-76.6169252975653,43.4180442652892],[-76.605012,43.25357],[-76.481148,43.256641],[-76.473066,43.146017],[-76.486303,43.143223],[-76.475689,43.123862],[-76.471774,43.104983],[-76.491232,43.106295],[-76.499274,43.097201],[-76.491941,43.004964],[-76.462999,43.006316],[-76.450738,42.84576],[-76.357018,42.849448],[-76.286198,42.794443],[-76.275348,42.78047],[-76.265584,42.623588],[-76.4584,42.618615],[-76.458858,42.627416],[-76.666543,42.623457],[-76.687899,42.674784],[-76.728951,42.712898],[-76.74006,42.789419]]]}},{"type":"Feature","properties":{"GEOID":"36069","NAME":"Ontario","state":"NY","wildfire_risk_score":38.295,"wildfire_eal_total":26363.16,"risk_band":"High","source":"FEMA National Risk Index v1.20 (December 2025)"},"geometry":{"type":"Polygon","coordinates":[[[-77.61167,42.763169],[-77.588217,42.762964],[-77.587997,42.854011],[-77.551926,42.854064],[-77.554968,42.863217],[-77.546309,42.86569],[-77.552069,42.868717],[-77.548118,42.874666],[-77.554004,42.874381],[-77.549366,42.879072],[-77.556643,42.890608],[-77.55279,42.891867],[-77.557265,42.895512],[-77.554246,42.897487],[-77.560487,42.900056],[-77.559717,42.917563],[-77.563094,42.9175],[-77.560566,42.921432],[-77.567077,42.928699],[-77.566284,42.934778],[-77.572898,42.935368],[-77.580377,42.943963],[-77.482517,42.943164],[-77.485418,43.034564],[-77.246804,43.034663],[-77.246604,43.039763],[-77.134307,43.039887],[-77.133397,43.012463],[-76.963926,43.013157],[-76.963365,42.872945],[-76.97576,42.870523],[-76.981334,42.861213],[-76.972963,42.837569],[-76.978318,42.828979],[-76.974135,42.812088],[-76.978053,42.775656],[-76.971392,42.764223],[-77.313004,42.761265],[-77.336705,42.733966],[-77.349406,42.710266],[-77.357405,42.667967],[-77.367106,42.667866],[-77.366505,42.576368],[-77.490889,42.577288],[-77.486875,42.670279],[-77.598815,42.671965],[-77.61167,42.763169]]]}},{"type":"Feature","properties":{"GEOID":"36039","NAME":"Greene","state":"NY","wildfire_risk_score":18.861,"wildfire_eal_total":6458.17,"risk_band":"Low","source":"FEMA National Risk Index v1.20 (December 2025)"},"geometry":{"type":"Polygon","coordinates":[[[-74.511284,42.236697],[-74.428196,42.349075],[-74.443506,42.355017],[-74.379051,42.373873],[-74.346087,42.355691],[-74.276645,42.363349],[-74.258911,42.379151],[-74.244692,42.377159],[-74.254303,42.408207],[-73.836757,42.458592],[-73.783721,42.464231],[-73.775492,42.460222],[-73.774451,42.435269],[-73.794323,42.376822],[-73.780551,42.305688],[-73.788235,42.269832],[-73.802996,42.253655],[-73.832603,42.244058],[-73.847813,42.230347],[-73.855255,42.191415],[-73.874761,42.173916],[-73.892319,42.167534],[-73.893842,42.15692],[-73.910675,42.127293],[-74.00245,42.176992],[-74.003589,42.163365],[-74.024878,42.162134],[-74.042393,42.170386],[-74.074797,42.096589],[-74.307571,42.114346],[-74.53731,42.201424],[-74.511284,42.236697]]]}},{"type":"Feature","properties":{"GEOID":"36037","NAME":"Genesee","state":"NY","wildfire_risk_score":18.416,"wildfire_eal_total":6767.34,"risk_band":"Low","source":"FEMA National Risk Index v1.20 (December 2025)"},"geometry":{"type":"Polygon","coordinates":[[[-78.465505,43.128619],[-77.905934,43.133561],[-77.951044,43.039544],[-77.904121,43.037056],[-77.911413,42.945064],[-77.934234,42.94558],[-77.93523,42.905261],[-77.95553,42.905861],[-77.954964,42.862754],[-78.074161,42.863837],[-78.074171,42.870188],[-78.464382,42.867355],[-78.465505,43.128619]]]}},{"type":"Feature","properties":{"GEOID":"36049","NAME":"Lewis","state":"NY","wildfire_risk_score":13.454,"wildfire_eal_total":4951.33,"risk_band":"Low","source":"FEMA National Risk Index v1.20 (December 2025)"},"geometry":{"type":"Polygon","coordinates":[[[-75.847762,43.818622],[-75.840399,43.883926],[-75.758565,43.87881],[-75.603629,43.971327],[-75.597386,43.96663],[-75.581669,43.96881],[-75.57689,43.96516],[-75.543102,43.968019],[-75.551158,44.006954],[-75.498743,44.010116],[-75.501198,44.036335],[-75.493302,44.046643],[-75.504352,44.051115],[-75.484957,44.073682],[-75.548012,44.101698],[-75.446277,44.21773],[-75.167912,44.096805],[-75.110681,43.614886],[-75.533429,43.419815],[-75.756416,43.470416],[-75.767418,43.629709],[-75.786954,43.788702],[-75.850914,43.791894],[-75.847762,43.818622]]]}},{"type":"Feature","properties":{"GEOID":"36015","NAME":"Chemung","state":"NY","wildfire_risk_score":22.646,"wildfire_eal_total":9250.46,"risk_band":"Moderate","source":"FEMA National Risk Index v1.20 (December 2025)"},"geometry":{"type":"Polygon","coordinates":[[[-76.966091,42.143547],[-76.964761,42.28744],[-76.733912,42.29372],[-76.732677,42.248052],[-76.685779,42.248333],[-76.685668,42.237678],[-76.648114,42.238094],[-76.642256,42.233721],[-76.619533,42.248664],[-76.619303,42.282853],[-76.538349,42.281755],[-76.536507,42.155403],[-76.562732,42.155912],[-76.563565,42.152594],[-76.554237,42.131467],[-76.559409,42.131251],[-76.541489,42.051728],[-76.561303,42.009503],[-76.5576986691569,42.0001498257895],[-76.9657926446341,42.0012728405422],[-76.966091,42.143547]]]}},{"type":"Feature","properties":{"GEOID":"36007","NAME":"Broome","state":"NY","wildfire_risk_score":36.26,"wildfire_eal_total":18288.49,"risk_band":"High","source":"FEMA National Risk Index v1.20 (December 2025)"},"geometry":{"type":"Polygon","coordinates":[[[-76.130181,42.410337],[-76.022689,42.412706],[-76.014612,42.40914],[-75.86402,42.415702],[-75.843792,42.259707],[-75.83631,42.244091],[-75.819798,42.248987],[-75.639055,42.248675],[-75.63711,42.195628],[-75.418421,42.195032],[-75.421776,42.04203],[-75.396561,42.006605],[-75.37922,42.002192],[-75.364225,42.008168],[-75.3596448764317,41.99944492537],[-76.10584,41.998858],[-76.111534,42.10117],[-76.107191,42.102021],[-76.107559,42.112358],[-76.111482,42.112297],[-76.116225,42.18561],[-76.086683,42.186858],[-76.081134,42.230495],[-76.084499,42.230471],[-76.090908,42.249636],[-76.096346,42.249521],[-76.096629,42.25745],[-76.080666,42.257985],[-76.087728,42.278752],[-76.100309,42.27843],[-76.101226,42.287288],[-76.106582,42.287356],[-76.106572,42.29353],[-76.098759,42.293653],[-76.099115,42.303398],[-76.101622,42.310395],[-76.106254,42.310346],[-76.106394,42.318732],[-76.112401,42.318603],[-76.112427,42.326523],[-76.116357,42.326566],[-76.116702,42.33723],[-76.109286,42.337325],[-76.109912,42.347344],[-76.114554,42.366971],[-76.122439,42.367187],[-76.120211,42.380738],[-76.130181,42.410337]]]}},{"type":"Feature","properties":{"GEOID":"36055","NAME":"Monroe","state":"NY","wildfire_risk_score":47.106,"wildfire_eal_total":38845.35,"risk_band":"High","source":"FEMA National Risk Index v1.20 (December 2025)"},"geometry":{"type":"Polygon","coordinates":[[[-77.997248,43.136519],[-77.9955962913432,43.3652387952246],[-77.965238,43.368059],[-77.928725,43.357523],[-77.826999,43.342833],[-77.760231,43.341161],[-77.714129,43.323561],[-77.707683,43.310846],[-77.653759,43.279484],[-77.628315,43.271303],[-77.577223,43.243263],[-77.551022,43.235763],[-77.530053,43.235994],[-77.50092,43.250363],[-77.486879,43.250458],[-77.425457,43.270162],[-77.376046,43.2762243589198],[-77.371478,43.034696],[-77.485418,43.034564],[-77.482517,42.943164],[-77.758727,42.940461],[-77.759418,42.944491],[-77.731671,42.946078],[-77.734469,42.954771],[-77.728407,42.953033],[-77.724586,42.971293],[-77.717828,42.973365],[-77.720748,42.979193],[-77.732941,42.981912],[-77.730957,42.988372],[-77.909832,42.987762],[-77.904121,43.037056],[-77.951044,43.039544],[-77.905934,43.133561],[-77.99729,43.132981],[-77.997248,43.136519]]]}},{"type":"Feature","properties":{"GEOID":"36001","NAME":"Albany","state":"NY","wildfire_risk_score":36.196,"wildfire_eal_total":22439.45,"risk_band":"High","source":"FEMA National Risk Index v1.20 (December 2025)"},"geometry":{"type":"Polygon","coordinates":[[[-74.264731,42.420127],[-74.244484,42.470182],[-74.226447,42.499233],[-74.225639,42.526403],[-74.241572,42.550802],[-74.233995,42.575688],[-74.220274,42.585412],[-74.215166,42.597435],[-74.193495,42.618999],[-74.169725,42.667426],[-74.164678,42.717207],[-74.180274,42.729979],[-73.809603,42.775016],[-73.809369,42.778869],[-73.797965,42.779477],[-73.782464,42.791777],[-73.766664,42.786077],[-73.737663,42.818877],[-73.726663,42.822577],[-73.716663,42.808177],[-73.719863,42.801277],[-73.703163,42.782477],[-73.689162,42.775377],[-73.676762,42.783277],[-73.688962,42.738278],[-73.6972,42.728858],[-73.703563,42.709478],[-73.702921,42.6993],[-73.741798,42.654318],[-73.761265,42.610379],[-73.752168,42.56672],[-73.76113,42.526322],[-73.785548,42.487209],[-73.783721,42.464231],[-74.263469,42.407127],[-74.264731,42.420127]]]}},{"type":"Feature","properties":{"GEOID":"36101","NAME":"Steuben","state":"NY","wildfire_risk_score":30.725,"wildfire_eal_total":13266.62,"risk_band":"Moderate","source":"FEMA National Risk Index v1.20 (December 2025)"},"geometry":{"type":"Polygon","coordinates":[[[-77.74851,42.031893],[-77.731058,42.404122],[-77.726111,42.404043],[-77.720617,42.535066],[-77.661315,42.535067],[-77.659917,42.580409],[-77.143795,42.576869],[-77.149595,42.55387],[-77.149502,42.50007],[-77.138904,42.494279],[-77.127279,42.497259],[-77.11439,42.50813],[-77.107581,42.505365],[-77.099657,42.272356],[-76.965028,42.278495],[-76.9657926446341,42.0012728405422],[-77.749931,41.998782],[-77.74851,42.031893]]]}},{"type":"Feature","properties":{"GEOID":"36073","NAME":"Orleans","state":"NY","wildfire_risk_score":12.468,"wildfire_eal_total":4331.47,"risk_band":"Low","source":"FEMA National Risk Index v1.20 (December 2025)"},"geometry":{"type":"Polygon","coordinates":[[[-78.466021,43.332402],[-78.4655020828508,43.3712326509368],[-78.451877,43.372679],[-78.370221,43.376505],[-78.233609,43.36907],[-78.104509,43.375628],[-77.9955962913432,43.3652387952246],[-77.99729,43.132981],[-78.465505,43.128619],[-78.460416,43.216222],[-78.466021,43.332402]]]}},{"type":"Feature","properties":{"GEOID":"36079","NAME":"Putnam","state":"NY","wildfire_risk_score":19.656,"wildfire_eal_total":11989.54,"risk_band":"Low","source":"FEMA National Risk Index v1.20 (December 2025)"},"geometry":{"type":"Polygon","coordinates":[[[-73.981384,41.324693],[-73.961257,41.348539],[-73.947355,41.395254],[-73.962355,41.403699],[-73.981486,41.438905],[-73.933775,41.488279],[-73.580153,41.526382],[-73.530067,41.527194],[-73.5447070189854,41.3665399980477],[-73.982532,41.321824],[-73.981384,41.324693]]]}},{"type":"Feature","properties":{"GEOID":"36081","NAME":"Queens","state":"NY","wildfire_risk_score":15.522,"wildfire_eal_total":3278.9,"risk_band":"Low","source":"FEMA National Risk Index v1.20 (December 2025)"},"geometry":{"type":"Polygon","coordinates":[[[-73.96262,40.739033],[-73.935323,40.770485],[-73.93638,40.776921],[-73.917171,40.784193],[-73.910296,40.790657],[-73.912456,40.796096],[-73.873088,40.785855],[-73.862965,40.79767],[-73.817418,40.80579],[-73.7941119431447,40.800539354068],[-73.793879,40.789013],[-73.775558,40.795613],[-73.770642,40.788379],[-73.774334,40.786216],[-73.75787,40.766946],[-73.750295,40.782478],[-73.701633,40.752493],[-73.700384,40.73919],[-73.707939,40.727771],[-73.730326,40.722157],[-73.724984,40.652678],[-73.741437,40.646889],[-73.73996,40.635144],[-73.743295,40.638048],[-73.768761,40.624352],[-73.766719,40.615004],[-73.760021,40.611349],[-73.745492,40.611805],[-73.737185,40.592965],[-73.806834,40.584619],[-73.940542,40.54404],[-73.939917,40.554006],[-73.935379,40.557387],[-73.882437,40.568233],[-73.879222,40.574656],[-73.849852,40.588669],[-73.834463,40.607193],[-73.833041,40.628261],[-73.848338,40.643521],[-73.854938,40.64265],[-73.863171,40.658277],[-73.855685,40.663867],[-73.857282,40.670312],[-73.868917,40.69515],[-73.896518,40.682397],[-73.90426,40.6957],[-73.921892,40.709396],[-73.929058,40.727688],[-73.947064,40.737516],[-73.96262,40.739033]]]}},{"type":"Feature","properties":{"GEOID":"36033","NAME":"Franklin","state":"NY","wildfire_risk_score":17.494,"wildfire_eal_total":5675.0,"risk_band":"Low","source":"FEMA National Risk Index v1.20 (December 2025)"},"geometry":{"type":"Polygon","coordinates":[[[-74.7262280632075,44.9948630722006],[-74.702018,45.003322],[-74.673047,45.000942],[-74.670297,45.006194],[-74.661478,44.999592],[-74.335184,44.991905],[-74.0273915898679,44.9957655091112],[-74.007943,44.895568],[-74.006692,44.836938],[-73.986382,44.707773],[-73.966148,44.709118],[-73.9459,44.574869],[-73.932927,44.576197],[-73.909687,44.429699],[-74.141424,44.407268],[-74.09349,44.137615],[-74.535156,44.09925],[-74.544487,44.169414],[-74.525683,44.170636],[-74.641872,44.952621],[-74.720307,44.953011],[-74.7262280632075,44.9948630722006]]]}},{"type":"Feature","properties":{"GEOID":"36083","NAME":"Rensselaer","state":"NY","wildfire_risk_score":29.294,"wildfire_eal_total":13978.93,"risk_band":"Moderate","source":"FEMA National Risk Index v1.20 (December 2025)"},"geometry":{"type":"Polygon","coordinates":[[[-73.786047,42.483835],[-73.758313,42.534215],[-73.752365,42.57668],[-73.761265,42.610379],[-73.741798,42.654318],[-73.702921,42.6993],[-73.703563,42.709478],[-73.6972,42.728858],[-73.688962,42.738278],[-73.672562,42.795377],[-73.658462,42.809077],[-73.675904,42.858575],[-73.673202,42.875077],[-73.68461,42.892399],[-73.678913,42.912212],[-73.659675,42.933364],[-73.635463,42.94129],[-73.450593,42.944581],[-73.449269,42.951217],[-73.430623,42.95865],[-73.392102,42.952586],[-73.379366,42.947562],[-73.380235,42.943739],[-73.274294,42.943652],[-73.278673,42.83341],[-73.285388,42.834093],[-73.28375,42.813864],[-73.290944,42.80192],[-73.276421,42.746019],[-73.264957,42.74594],[-73.352527,42.510002],[-73.783721,42.464231],[-73.786047,42.483835]]]}},{"type":"Feature","properties":{"GEOID":"36021","NAME":"Columbia","state":"NY","wildfire_risk_score":38.677,"wildfire_eal_total":21125.48,"risk_band":"High","source":"FEMA National Risk Index v1.20 (December 2025)"},"geometry":{"type":"Polygon","coordinates":[[[-73.929114,42.081658],[-73.921465,42.110025],[-73.902415,42.139859],[-73.892319,42.167534],[-73.874761,42.173916],[-73.855255,42.191415],[-73.847813,42.230347],[-73.832603,42.244058],[-73.802996,42.253655],[-73.784116,42.280465],[-73.782394,42.327301],[-73.79326,42.356186],[-73.790638,42.364965],[-73.794327,42.375084],[-73.774451,42.435269],[-73.775492,42.460222],[-73.783721,42.464231],[-73.352527,42.510002],[-73.508142,42.086257],[-73.496879,42.049675],[-73.521416,42.049966],[-73.527072,41.97798],[-73.71093,42.005488],[-73.907785,42.07961],[-73.915593,42.080906],[-73.917098,42.076474],[-73.929114,42.081658]]]}},{"type":"Feature","properties":{"GEOID":"36107","NAME":"Tioga","state":"NY","wildfire_risk_score":23.887,"wildfire_eal_total":9287.97,"risk_band":"Moderate","source":"FEMA National Risk Index v1.20 (December 2025)"},"geometry":{"type":"Polygon","coordinates":[[[-76.563133,42.154184],[-76.536507,42.155403],[-76.538349,42.281755],[-76.473962,42.281132],[-76.474494,42.263761],[-76.416199,42.262976],[-76.415305,42.318368],[-76.350871,42.318288],[-76.350619,42.308437],[-76.28822,42.308227],[-76.288174,42.296764],[-76.250149,42.296676],[-76.251363,42.324894],[-76.238555,42.356621],[-76.242129,42.363678],[-76.265062,42.375155],[-76.298429,42.381546],[-76.293186,42.406403],[-76.130181,42.410337],[-76.129673,42.402038],[-76.124521,42.402013],[-76.120211,42.380738],[-76.122439,42.367187],[-76.114554,42.366971],[-76.109912,42.347344],[-76.109286,42.337325],[-76.116702,42.33723],[-76.116357,42.326566],[-76.112427,42.326523],[-76.112401,42.318603],[-76.106394,42.318732],[-76.106254,42.310346],[-76.101622,42.310395],[-76.099115,42.303398],[-76.098759,42.293653],[-76.106572,42.29353],[-76.106582,42.287356],[-76.101226,42.287288],[-76.100309,42.27843],[-76.087728,42.278752],[-76.080666,42.257985],[-76.096629,42.25745],[-76.096346,42.249521],[-76.090908,42.249636],[-76.084499,42.230471],[-76.081134,42.230495],[-76.086683,42.186858],[-76.116225,42.18561],[-76.111482,42.112297],[-76.107559,42.112358],[-76.107191,42.102021],[-76.111534,42.10117],[-76.10584,41.998858],[-76.5576986691569,42.0001498257895],[-76.561303,42.009503],[-76.541489,42.051728],[-76.559409,42.131251],[-76.554237,42.131467],[-76.563133,42.154184]]]}},{"type":"Feature","properties":{"GEOID":"36057","NAME":"Montgomery","state":"NY","wildfire_risk_score":27.735,"wildfire_eal_total":10022.06,"risk_band":"Moderate","source":"FEMA National Risk Index v1.20 (December 2025)"},"geometry":{"type":"Polygon","coordinates":[[[-74.758626,42.887775],[-74.740093,42.998315],[-74.743715,42.99941],[-74.740237,43.014483],[-74.743805,43.030741],[-74.759895,43.047423],[-74.542367,42.98553],[-74.097467,42.982934],[-74.083883,42.897354],[-74.256829,42.812214],[-74.255323,42.806064],[-74.264672,42.799659],[-74.263314,42.796534],[-74.289446,42.783805],[-74.454911,42.772979],[-74.562477,42.812916],[-74.649715,42.829846],[-74.763303,42.863237],[-74.758626,42.887775]]]}},{"type":"Feature","properties":{"GEOID":"36099","NAME":"Seneca","state":"NY","wildfire_risk_score":25.827,"wildfire_eal_total":8394.22,"risk_band":"Moderate","source":"FEMA National Risk Index v1.20 (December 2025)"},"geometry":{"type":"Polygon","coordinates":[[[-76.981021,42.861649],[-76.97576,42.870523],[-76.963365,42.872945],[-76.963926,43.013157],[-76.713806,43.024035],[-76.711202,43.018042],[-76.721657,43.007859],[-76.720654,42.995426],[-76.728814,42.987764],[-76.727623,42.978144],[-76.73674,42.970286],[-76.739361,42.954473],[-76.734327,42.944879],[-76.73746,42.902106],[-76.721246,42.869579],[-76.717185,42.83883],[-76.719514,42.825446],[-76.74006,42.789419],[-76.731636,42.72074],[-76.7234,42.704122],[-76.687899,42.674784],[-76.663139,42.616354],[-76.645317,42.591708],[-76.618239,42.566652],[-76.585989,42.54991],[-76.895596,42.541537],[-76.897117,42.66365],[-76.938702,42.721525],[-76.944986,42.737294],[-76.947429,42.76443],[-76.971392,42.764223],[-76.977888,42.77324],[-76.974135,42.812088],[-76.978318,42.828979],[-76.972963,42.837569],[-76.981021,42.861649]]]}},{"type":"Feature","properties":{"GEOID":"36109","NAME":"Tompkins","state":"NY","wildfire_risk_score":22.233,"wildfire_eal_total":9548.92,"risk_band":"Moderate","source":"FEMA National Risk Index v1.20 (December 2025)"},"geometry":{"type":"Polygon","coordinates":[[[-76.696655,42.54679],[-76.585989,42.54991],[-76.626761,42.573868],[-76.656226,42.604798],[-76.666543,42.623457],[-76.458858,42.627416],[-76.4584,42.618615],[-76.265584,42.623588],[-76.253359,42.407568],[-76.293186,42.406403],[-76.299493,42.385012],[-76.295481,42.38011],[-76.265062,42.375155],[-76.239779,42.359705],[-76.237818,42.350998],[-76.251363,42.324894],[-76.250149,42.296676],[-76.288174,42.296764],[-76.28822,42.308227],[-76.350619,42.308437],[-76.350871,42.318288],[-76.415305,42.318368],[-76.416199,42.262976],[-76.474494,42.263761],[-76.473962,42.281132],[-76.691406,42.284307],[-76.690552,42.373217],[-76.685726,42.375108],[-76.696655,42.54679]]]}},{"type":"Feature","properties":{"GEOID":"36023","NAME":"Cortland","state":"NY","wildfire_risk_score":9.892,"wildfire_eal_total":3177.23,"risk_band":"Low","source":"FEMA National Risk Index v1.20 (December 2025)"},"geometry":{"type":"Polygon","coordinates":[[[-76.274673,42.771257],[-75.896079,42.790964],[-75.86402,42.415702],[-76.014612,42.40914],[-76.022689,42.412706],[-76.253359,42.407568],[-76.274673,42.771257]]]}},{"type":"Feature","properties":{"GEOID":"36097","NAME":"Schuyler","state":"NY","wildfire_risk_score":6.934,"wildfire_eal_total":2082.02,"risk_band":"Low","source":"FEMA National Risk Index v1.20 (December 2025)"},"geometry":{"type":"Polygon","coordinates":[[[-77.107203,42.483771],[-76.989329,42.484821],[-76.98795,42.46325],[-76.964456,42.46425],[-76.963977,42.459186],[-76.889805,42.463054],[-76.900841,42.493812],[-76.895596,42.541537],[-76.696655,42.54679],[-76.685726,42.375108],[-76.690552,42.373217],[-76.691406,42.284307],[-76.619303,42.282853],[-76.619533,42.248664],[-76.642256,42.233721],[-76.648114,42.238094],[-76.685668,42.237678],[-76.685779,42.248333],[-76.732677,42.248052],[-76.733912,42.29372],[-76.964761,42.28744],[-76.965028,42.278495],[-77.099657,42.272356],[-77.107203,42.483771]]]}},{"type":"Feature","properties":{"GEOID":"36041","NAME":"Hamilton","state":"NY","wildfire_risk_score":3.117,"wildfire_eal_total":1025.17,"risk_band":"Low","source":"FEMA National Risk Index v1.20 (December 2025)"},"geometry":{"type":"Polygon","coordinates":[[[-74.867712,43.339826],[-74.775617,43.486677],[-74.854171,44.070089],[-74.28187,44.120552],[-74.255998,43.969797],[-74.336826,43.925223],[-74.213734,43.810875],[-74.201218,43.821238],[-74.149076,43.829613],[-74.139464,43.826435],[-74.138677,43.817719],[-74.11657,43.809031],[-74.09168,43.804329],[-74.085652,43.808863],[-74.047062,43.796343],[-74.050991,43.788615],[-74.046139,43.781207],[-74.054106,43.770332],[-74.057005,43.744513],[-74.214625,43.728703],[-74.140147,43.253979],[-74.224215,43.248165],[-74.220902,43.221403],[-74.292702,43.216609],[-74.322375,43.214684],[-74.326378,43.241635],[-74.534657,43.228115],[-74.867712,43.339826]]]}},{"type":"Feature","properties":{"GEOID":"36117","NAME":"Wayne","state":"NY","wildfire_risk_score":40.331,"wildfire_eal_total":26964.45,"risk_band":"High","source":"FEMA National Risk Index v1.20 (December 2025)"},"geometry":{"type":"Polygon","coordinates":[[[-77.376046,43.2762243589198],[-77.314619,43.28103],[-77.264177,43.277363],[-77.190746,43.285184],[-77.173088,43.281509],[-77.149641,43.289229],[-77.128663,43.285566],[-77.107075,43.289312],[-77.048691,43.277092],[-77.042559,43.270516],[-76.988445,43.2745],[-76.950964,43.270522],[-76.896207,43.295957],[-76.877397,43.292926],[-76.841675,43.305399],[-76.784102,43.312348],[-76.722492506055,43.3435792957798],[-76.702325,43.080393],[-76.705885,43.070784],[-76.717789,43.062634],[-76.719106,43.037139],[-76.713806,43.024035],[-76.963926,43.013157],[-77.133397,43.012463],[-77.134307,43.039887],[-77.371478,43.034696],[-77.376046,43.2762243589198]]]}},{"type":"Feature","properties":{"GEOID":"36089","NAME":"St. Lawrence","state":"NY","wildfire_risk_score":33.111,"wildfire_eal_total":14579.53,"risk_band":"Moderate","source":"FEMA National Risk Index v1.20 (December 2025)"},"geometry":{"type":"Polygon","coordinates":[[[-75.8600508652205,44.4032885572263],[-75.82083,44.432244],[-75.807778,44.471644],[-75.76623,44.515851],[-75.505903,44.705081],[-75.423943,44.756329],[-75.413792,44.772534],[-75.369953,44.782883],[-75.369829,44.788065],[-75.344538,44.809139],[-75.333744,44.806378],[-75.301976,44.826637],[-75.30763,44.836813],[-75.241303,44.866958],[-75.228635,44.8679],[-75.218576,44.877569],[-75.203012,44.877548],[-75.165123,44.893324],[-75.139866,44.896684],[-75.134416,44.915102],[-75.117575,44.921342],[-75.105086,44.919541],[-75.096659,44.927067],[-75.064826,44.929449],[-75.005155,44.958402],[-74.992756,44.977449],[-74.972463,44.983402],[-74.907956,44.983359],[-74.887837,45.000046],[-74.86664,45.000536],[-74.834669,45.014683],[-74.801638,45.014569],[-74.793148,45.004647],[-74.763407,45.005613],[-74.760215,44.994946],[-74.74464,44.990577],[-74.731301,44.990422],[-74.7262280632075,44.9948630722006],[-74.720307,44.953011],[-74.641872,44.952621],[-74.525683,44.170636],[-74.544487,44.169414],[-74.535156,44.09925],[-75.062779,44.0504],[-75.8600508652205,44.4032885572263]]]}},{"type":"Feature","properties":{"GEOID":"36085","NAME":"Richmond","state":"NY","wildfire_risk_score":31.457,"wildfire_eal_total":13244.94,"risk_band":"Moderate","source":"FEMA National Risk Index v1.20 (December 2025)"},"geometry":{"type":"MultiPolygon","coordinates":[[[[-74.161536,40.644157],[-74.158829,40.644591],[-74.157242,40.643011],[-74.161255,40.64179],[-74.161536,40.644157]]],[[[-74.255629,40.507919],[-74.240703,40.519322],[-74.247808,40.543396],[-74.228258,40.555405],[-74.212243,40.557213],[-74.204054,40.589336],[-74.195407,40.601806],[-74.196096,40.616169],[-74.201812,40.619507],[-74.20058,40.631448],[-74.187715,40.642636],[-74.174258,40.64463],[-74.1544,40.63718],[-74.086485,40.648601],[-74.071494,40.642838],[-74.071862,40.624038],[-74.053556,40.5995],[-74.135401,40.530407],[-74.140293,40.533277],[-74.128107,40.541221],[-74.132199,40.546225],[-74.194803,40.510141],[-74.208899,40.511462],[-74.219787,40.502603],[-74.246688,40.496103],[-74.255629,40.507919]]]]}},{"type":"Feature","properties":{"GEOID":"36093","NAME":"Schenectady","state":"NY","wildfire_risk_score":21.533,"wildfire_eal_total":9205.86,"risk_band":"Moderate","source":"FEMA National Risk Index v1.20 (December 2025)"},"geometry":{"type":"Polygon","coordinates":[[[-74.305932,42.751493],[-74.286988,42.756685],[-74.263839,42.755567],[-74.252815,42.76349],[-74.254379,42.776006],[-74.248131,42.786886],[-74.264672,42.799659],[-74.255323,42.806064],[-74.256829,42.812214],[-74.083883,42.897354],[-74.09298,42.955868],[-74.055605,42.953289],[-74.006531,42.934073],[-73.955458,42.897306],[-73.904386,42.911163],[-73.895938,42.851076],[-73.881769,42.850876],[-73.875864,42.834274],[-73.829064,42.790177],[-73.827667,42.783776],[-73.809369,42.778869],[-73.809603,42.775016],[-74.180274,42.729979],[-74.184299,42.712494],[-74.202713,42.710826],[-74.239846,42.718924],[-74.272295,42.71427],[-74.270768,42.719542],[-74.27784,42.719472],[-74.305932,42.751493]]]}},{"type":"Feature","properties":{"GEOID":"36087","NAME":"Rockland","state":"NY","wildfire_risk_score":14.631,"wildfire_eal_total":4023.79,"risk_band":"Low","source":"FEMA National Risk Index v1.20 (December 2025)"},"geometry":{"type":"Polygon","coordinates":[[[-74.212195,41.15927],[-73.980754,41.32542],[-73.980984,41.314193],[-73.945783,41.287593],[-73.969684,41.263193],[-73.970784,41.247893],[-73.961283,41.241994],[-73.961383,41.234194],[-73.931482,41.204994],[-73.911681,41.167795],[-73.892481,41.150595],[-73.88748,41.138295],[-73.89488,41.082396],[-73.88938,41.037597],[-73.893984026369,40.9971701917234],[-73.90268,40.997297],[-74.2342999706713,41.1431492402799],[-74.212195,41.15927]]]}},{"type":"Feature","properties":{"GEOID":"36019","NAME":"Clinton","state":"NY","wildfire_risk_score":24.205,"wildfire_eal_total":10042.5,"risk_band":"Moderate","source":"FEMA National Risk Index v1.20 (December 2025)"},"geometry":{"type":"Polygon","coordinates":[[[-74.0273915898679,44.9957655091112],[-73.343124,45.01084],[-73.354633,44.987352],[-73.338243,44.96475],[-73.338979,44.917681],[-73.35808,44.901325],[-73.369103,44.86668],[-73.379822,44.857037],[-73.381359,44.845021],[-73.369647,44.829136],[-73.335443,44.804602],[-73.333154,44.788759],[-73.365561,44.741786],[-73.365977,44.697559],[-73.361308,44.694523],[-73.370142,44.684853],[-73.369669,44.663478],[-73.384483,44.646683],[-73.378561,44.641475],[-73.386783,44.636369],[-73.390231,44.618353],[-73.376849,44.599598],[-73.381848,44.589316],[-73.374389,44.575455],[-73.33863,44.546844],[-73.463838,44.537681],[-73.459337,44.520807],[-73.471458,44.514035],[-73.47014,44.508661],[-73.490367,44.49792],[-73.496604,44.486081],[-73.517184,44.488255],[-73.524413,44.493241],[-73.526907,44.488028],[-73.55497,44.482549],[-73.573099,44.464564],[-73.596836,44.463109],[-73.614453,44.454386],[-73.629049,44.458391],[-73.669281,44.441355],[-73.700375,44.440819],[-73.701105,44.445544],[-73.909687,44.429699],[-73.932927,44.576197],[-73.9459,44.574869],[-73.966148,44.709118],[-73.986382,44.707773],[-74.006692,44.836938],[-74.007943,44.895568],[-74.0273915898679,44.9957655091112]]]}},{"type":"Feature","properties":{"GEOID":"36123","NAME":"Yates","state":"NY","wildfire_risk_score":12.723,"wildfire_eal_total":2866.44,"risk_band":"Low","source":"FEMA National Risk Index v1.20 (December 2025)"},"geometry":{"type":"Polygon","coordinates":[[[-77.367106,42.667866],[-77.357405,42.667967],[-77.349406,42.710266],[-77.336705,42.733966],[-77.313004,42.761265],[-76.947429,42.76443],[-76.944986,42.737294],[-76.938702,42.721525],[-76.895349,42.656255],[-76.894061,42.578795],[-76.900841,42.493812],[-76.889805,42.463054],[-76.963977,42.459186],[-76.964456,42.46425],[-76.98795,42.46325],[-76.989329,42.484821],[-77.107203,42.483771],[-77.107581,42.505365],[-77.11439,42.50813],[-77.127279,42.497259],[-77.143946,42.494705],[-77.150095,42.50787],[-77.149595,42.55387],[-77.143795,42.576869],[-77.366505,42.576368],[-77.367106,42.667866]]]}},{"type":"Feature","properties":{"GEOID":"36027","NAME":"Dutchess","state":"NY","wildfire_risk_score":57.284,"wildfire_eal_total":83854.58,"risk_band":"High","source":"FEMA National Risk Index v1.20 (December 2025)"},"geometry":{"type":"Polygon","coordinates":[[[-73.999911,41.459656],[-73.994784,41.498293],[-73.996536,41.522649],[-73.98593,41.545621],[-73.961913,41.568149],[-73.954146,41.583271],[-73.952582,41.625193],[-73.942482,41.684093],[-73.946682,41.699396],[-73.940829,41.754317],[-73.951614,41.770621],[-73.952446,41.787965],[-73.948941,41.848636],[-73.939581,41.870044],[-73.962221,41.90102],[-73.964413,41.913148],[-73.958301,41.920332],[-73.952829,41.957067],[-73.933435,42.015659],[-73.937051,42.032923],[-73.932877,42.059943],[-73.926186,42.07193],[-73.929626,42.078778],[-73.907785,42.07961],[-73.71093,42.005488],[-73.527072,41.97798],[-73.521416,42.049966],[-73.487314,42.049638],[-73.530067,41.527194],[-73.580153,41.526382],[-73.933775,41.488279],[-73.981486,41.438905],[-73.997784,41.452193],[-73.999911,41.459656]]]}},{"type":"Feature","properties":{"GEOID":"36035","NAME":"Fulton","state":"NY","wildfire_risk_score":27.417,"wildfire_eal_total":13028.6,"risk_band":"Moderate","source":"FEMA National Risk Index v1.20 (December 2025)"},"geometry":{"type":"Polygon","coordinates":[[[-74.774233,43.082269],[-74.765815,43.090132],[-74.769198,43.114089],[-74.728444,43.125168],[-74.735293,43.142943],[-74.708088,43.149671],[-74.709977,43.156083],[-74.71836,43.160506],[-74.71759,43.165289],[-74.708235,43.172533],[-74.696333,43.173515],[-74.713005,43.289003],[-74.534657,43.228115],[-74.326378,43.241635],[-74.322375,43.214684],[-74.220902,43.221403],[-74.224215,43.248165],[-74.140147,43.253979],[-74.097467,42.982934],[-74.542367,42.98553],[-74.759895,43.047423],[-74.774233,43.082269]]]}},{"type":"Feature","properties":{"GEOID":"36121","NAME":"Wyoming","state":"NY","wildfire_risk_score":13.104,"wildfire_eal_total":5105.26,"risk_band":"Low","source":"FEMA National Risk Index v1.20 (December 2025)"},"geometry":{"type":"Polygon","coordinates":[[[-78.487916,42.78157],[-78.486251,42.867511],[-78.074171,42.870188],[-78.074161,42.863837],[-77.954964,42.862754],[-77.955883,42.667887],[-77.968987,42.662218],[-77.974519,42.654061],[-77.972538,42.646301],[-77.988938,42.62828],[-77.990308,42.615015],[-78.005819,42.609922],[-78.013225,42.612329],[-78.015997,42.607406],[-78.028308,42.6044],[-78.021121,42.59593],[-78.006222,42.598799],[-78.008269,42.589764],[-78.02297,42.584768],[-78.036839,42.587542],[-78.050455,42.576452],[-78.046609,42.570328],[-78.033728,42.573574],[-78.028196,42.568154],[-78.046673,42.559013],[-78.050006,42.542449],[-78.060784,42.535823],[-78.057307,42.532706],[-78.048141,42.538781],[-78.043559,42.533153],[-78.048275,42.526927],[-78.037962,42.525928],[-78.038261,42.521522],[-78.464551,42.519227],[-78.463321,42.780462],[-78.487916,42.78157]]]}}]}