{"type":"FeatureCollection","metadata":{"state":"OH","boundary_source":"U.S. Census Bureau 2024 Cartographic Boundary File (counties, 1:500,000)","risk_source":"FEMA National Risk Index v1.20 (December 2025)"},"features":[{"type":"Feature","properties":{"GEOID":"39035","NAME":"Cuyahoga","state":"OH","wildfire_risk_score":56.87,"wildfire_eal_total":60272.08,"risk_band":"High","source":"FEMA National Risk Index v1.20 (December 2025)"},"geometry":{"type":"Polygon","coordinates":[[[-81.970965,41.369107],[-81.9683268768858,41.5049540930577],[-81.944454,41.492363],[-81.876987,41.483176],[-81.798106,41.49728],[-81.738755,41.48855],[-81.692131,41.509322],[-81.688873,41.518176],[-81.665113,41.531604],[-81.662396,41.528842],[-81.667526,41.522708],[-81.655503,41.528802],[-81.632947,41.541998],[-81.637787,41.543156],[-81.633286,41.54818],[-81.627303,41.544076],[-81.534952,41.610712],[-81.48864,41.631348],[-81.487842,41.570051],[-81.391005,41.569716],[-81.391518,41.445222],[-81.374992,41.445286],[-81.374772,41.424427],[-81.391764,41.424269],[-81.391694,41.348272],[-81.598052,41.351157],[-81.593317,41.349633],[-81.594726,41.34354],[-81.588099,41.342651],[-81.591542,41.327877],[-81.583645,41.315683],[-81.585444,41.308864],[-81.573334,41.303292],[-81.57573,41.300909],[-81.562419,41.280389],[-81.565139,41.277758],[-81.878053,41.275044],[-81.87696,41.350685],[-81.971262,41.351268],[-81.970965,41.369107]]]}},{"type":"Feature","properties":{"GEOID":"39061","NAME":"Hamilton","state":"OH","wildfire_risk_score":47.296,"wildfire_eal_total":39303.48,"risk_band":"High","source":"FEMA National Risk Index v1.20 (December 2025)"},"geometry":{"type":"Polygon","coordinates":[[[-84.8201490142937,39.1120069327249],[-84.819451,39.305152],[-84.641814,39.305044],[-84.630047,39.312056],[-84.523685,39.303278],[-84.504644,39.305957],[-84.262172,39.288342],[-84.264657,39.280663],[-84.256374,39.276825],[-84.261408,39.264686],[-84.293265,39.248865],[-84.299441,39.235156],[-84.307114,39.234413],[-84.320028,39.223433],[-84.31115,39.20963],[-84.284304,39.213243],[-84.276286,39.200927],[-84.288932,39.181501],[-84.299448,39.173875],[-84.295195,39.166964],[-84.301742,39.159434],[-84.3199364709232,39.0220809555344],[-84.360439,39.041362],[-84.406941,39.045662],[-84.42573,39.053059],[-84.432341,39.067561],[-84.435541,39.102261],[-84.445242,39.114461],[-84.462042,39.12176],[-84.480943,39.11676],[-84.493743,39.10246],[-84.509743,39.09366],[-84.524644,39.09216],[-84.550844,39.09936],[-84.572144,39.08206],[-84.607928,39.073238],[-84.632446,39.07676],[-84.657246,39.09546],[-84.684847,39.100459],[-84.718548,39.137059],[-84.744149,39.147458],[-84.754449,39.146658],[-84.766749,39.138558],[-84.78768,39.115297],[-84.820157,39.10548],[-84.8201490142937,39.1120069327249]]]}},{"type":"Feature","properties":{"GEOID":"39167","NAME":"Washington","state":"OH","wildfire_risk_score":22.615,"wildfire_eal_total":8564.18,"risk_band":"Moderate","source":"FEMA National Risk Index v1.20 (December 2025)"},"geometry":{"type":"Polygon","coordinates":[[[-81.85293,39.325373],[-81.844863,39.450216],[-81.825757,39.449172],[-81.823158,39.494072],[-81.760959,39.488583],[-81.760955,39.482773],[-81.708527,39.480775],[-81.705075,39.53099],[-81.722217,39.53155],[-81.723511,39.547608],[-81.716337,39.565963],[-81.716455,39.581752],[-81.710809,39.585801],[-81.68893,39.590486],[-81.473471,39.583318],[-81.47316,39.645976],[-81.451935,39.645449],[-81.452712,39.631165],[-81.413665,39.630502],[-81.41385,39.615874],[-81.395036,39.615681],[-81.394934,39.601547],[-81.35629,39.600865],[-81.356445,39.593512],[-81.28353,39.591838],[-81.283075,39.605796],[-81.264261,39.605344],[-81.265347,39.57681],[-81.036791,39.572118],[-81.038706017301,39.5400475328739],[-81.091433,39.496975],[-81.132534,39.446275],[-81.170634,39.439175],[-81.185946,39.430731],[-81.208231,39.407147],[-81.217315,39.38759],[-81.24184,39.390276],[-81.270716,39.385914],[-81.347567,39.34577],[-81.375961,39.341697],[-81.393794,39.351706],[-81.412706,39.394618],[-81.435642,39.408474],[-81.456143,39.409274],[-81.557547,39.338774],[-81.565247,39.276175],[-81.570247,39.267675],[-81.608408,39.276043],[-81.678331,39.273755],[-81.69638,39.257035],[-81.691339,39.227947],[-81.700908,39.220844],[-81.7255834730739,39.2158352234561],[-81.72181,39.269568],[-81.818361,39.272581],[-81.816614,39.302058],[-81.835447,39.302807],[-81.834635,39.317563],[-81.853668,39.318165],[-81.85293,39.325373]]]}},{"type":"Feature","properties":{"GEOID":"39067","NAME":"Harrison","state":"OH","wildfire_risk_score":16.953,"wildfire_eal_total":4688.45,"risk_band":"Moderate","source":"FEMA National Risk Index v1.20 (December 2025)"},"geometry":{"type":"Polygon","coordinates":[[[-81.338064,40.214077],[-81.334601,40.304316],[-81.275319,40.303434],[-81.269951,40.433486],[-80.865504,40.422929],[-80.867201,40.379378],[-80.871553,40.379458],[-80.872266,40.373721],[-80.882892,40.159495],[-81.112072,40.167917],[-81.111949,40.1711],[-81.339565,40.171999],[-81.338064,40.214077]]]}},{"type":"Feature","properties":{"GEOID":"39043","NAME":"Erie","state":"OH","wildfire_risk_score":23.028,"wildfire_eal_total":9004.84,"risk_band":"Moderate","source":"FEMA National Risk Index v1.20 (December 2025)"},"geometry":{"type":"MultiPolygon","coordinates":[[[[-82.734466,41.60351],[-82.724252,41.608969],[-82.718025,41.619418],[-82.707377,41.619489],[-82.696967,41.610782],[-82.673579,41.62322],[-82.681422,41.611777],[-82.677287,41.596208],[-82.688695,41.586538],[-82.698916,41.585223],[-82.701972,41.591215],[-82.72487,41.595782],[-82.734466,41.60351]]],[[[-82.901871,41.430509],[-82.837751,41.449847],[-82.828116,41.458618],[-82.830015,41.472846],[-82.812664,41.469818],[-82.811714,41.475339],[-82.801018,41.464297],[-82.766317,41.445771],[-82.736137,41.448851],[-82.731142,41.461203],[-82.734314,41.450519],[-82.701605,41.462994],[-82.692273,41.454458],[-82.673781,41.45347],[-82.672332,41.462586],[-82.681172,41.477381],[-82.693551,41.48392],[-82.694064,41.487936],[-82.686934,41.491398],[-82.65807,41.460839],[-82.620346,41.432928],[-82.625488,41.423068],[-82.600962,41.419537],[-82.512208,41.383024],[-82.481214,41.381342],[-82.460599,41.386316],[-82.363496,41.427001],[-82.3480701864688,41.4283140090786],[-82.342337,41.284244],[-82.841475,41.290023],[-82.847706,41.430495],[-82.901871,41.430509]]]]}},{"type":"Feature","properties":{"GEOID":"39077","NAME":"Huron","state":"OH","wildfire_risk_score":15.744,"wildfire_eal_total":5523.8,"risk_band":"Moderate","source":"FEMA National Risk Index v1.20 (December 2025)"},"geometry":{"type":"Polygon","coordinates":[[[-82.841475,41.290023],[-82.342337,41.284244],[-82.336496,41.065761],[-82.436916,41.065379],[-82.432852,40.992944],[-82.829512,40.996624],[-82.841475,41.290023]]]}},{"type":"Feature","properties":{"GEOID":"39065","NAME":"Hardin","state":"OH","wildfire_risk_score":1.272,"wildfire_eal_total":643.57,"risk_band":"Low","source":"FEMA National Risk Index v1.20 (December 2025)"},"geometry":{"type":"Polygon","coordinates":[[[-83.880194,40.64469],[-83.880063,40.819919],[-83.496296,40.81794],[-83.495704,40.701489],[-83.440169,40.702201],[-83.440278,40.687611],[-83.419836,40.686823],[-83.415624,40.515366],[-83.41867,40.505229],[-83.520227,40.504077],[-83.519727,40.509623],[-83.880001,40.531893],[-83.880194,40.64469]]]}},{"type":"Feature","properties":{"GEOID":"39171","NAME":"Williams","state":"OH","wildfire_risk_score":12.087,"wildfire_eal_total":3586.96,"risk_band":"Low","source":"FEMA National Risk Index v1.20 (December 2025)"},"geometry":{"type":"Polygon","coordinates":[[[-84.8060496362353,41.6890639126921],[-84.805972,41.696118],[-84.3995471043526,41.7058604309323],[-84.398375,41.61698],[-84.381312,41.61673],[-84.380735,41.513942],[-84.342051,41.514107],[-84.341664,41.427568],[-84.804063,41.426051],[-84.8060496362353,41.6890639126921]]]}},{"type":"Feature","properties":{"GEOID":"39161","NAME":"Van Wert","state":"OH","wildfire_risk_score":3.435,"wildfire_eal_total":1385.89,"risk_band":"Low","source":"FEMA National Risk Index v1.20 (December 2025)"},"geometry":{"type":"Polygon","coordinates":[[[-84.8032582490465,40.9893939921809],[-84.399486,40.990315],[-84.398407,40.903265],[-84.340969,40.903596],[-84.340101,40.816143],[-84.397374,40.815941],[-84.396778,40.684926],[-84.45618,40.684862],[-84.456172,40.728306],[-84.8022592386664,40.7281459943578],[-84.8032582490465,40.9893939921809]]]}},{"type":"Feature","properties":{"GEOID":"39123","NAME":"Ottawa","state":"OH","wildfire_risk_score":14.027,"wildfire_eal_total":5020.45,"risk_band":"Moderate","source":"FEMA National Risk Index v1.20 (December 2025)"},"geometry":{"type":"MultiPolygon","coordinates":[[[[-82.741669,41.496657],[-82.73218,41.502857],[-82.727337,41.502115],[-82.734841,41.490552],[-82.740547,41.489448],[-82.741669,41.496657]]],[[[-82.787,41.678679],[-82.785454,41.679015],[-82.78387,41.678605],[-82.785513,41.677017],[-82.787,41.678679]]],[[[-82.800573,41.694393],[-82.783958,41.697292],[-82.780404,41.696776],[-82.789847,41.693116],[-82.800573,41.694393]]],[[[-82.823186,41.658148],[-82.821533,41.659324],[-82.819527,41.658545],[-82.822281,41.657208],[-82.823186,41.658148]]],[[[-82.8253364088105,41.6850107831682],[-82.811752,41.692001],[-82.803337,41.689244],[-82.803157,41.681493],[-82.811883,41.675223],[-82.805511,41.672337],[-82.813661,41.67135],[-82.818048,41.682597],[-82.8253364088105,41.6850107831682]]],[[[-82.830378,41.691928],[-82.826111,41.693487],[-82.822779,41.691863],[-82.829721,41.69088],[-82.830378,41.691928]]],[[[-82.834767,41.591171],[-82.830852,41.592134],[-82.830317,41.591232],[-82.834135,41.590248],[-82.834767,41.591171]]],[[[-82.835506,41.71119],[-82.820409,41.724549],[-82.813489,41.723468],[-82.809316,41.70884],[-82.835506,41.71119]]],[[[-82.84385,41.646475],[-82.834092,41.657121],[-82.826625,41.659677],[-82.826459,41.654641],[-82.814387,41.65423],[-82.805179,41.664281],[-82.793708,41.664798],[-82.835026,41.629815],[-82.84152,41.62904],[-82.836619,41.641577],[-82.84385,41.646475]]],[[[-82.856471,41.681743],[-82.854679,41.682179],[-82.844473,41.678829],[-82.848819,41.677115],[-82.856471,41.681743]]],[[[-82.867909,41.646223],[-82.863588,41.646893],[-82.862832,41.64554],[-82.868085,41.644963],[-82.867909,41.646223]]],[[[-83.415941,41.61911],[-83.1695478899806,41.6232835284932],[-83.103422,41.612887],[-83.067183,41.595168],[-83.03859,41.562205],[-83.000329,41.538685],[-82.969679,41.523899],[-82.926384,41.514262],[-82.89427,41.519808],[-82.868583,41.533699],[-82.855061,41.54755],[-82.855776,41.555658],[-82.849946,41.563443],[-82.855049,41.564206],[-82.854119,41.571908],[-82.859531,41.576371],[-82.852923,41.583315],[-82.833823,41.586989],[-82.785496,41.540675],[-82.772017,41.538522],[-82.750201,41.546251],[-82.716648,41.540733],[-82.711584,41.536317],[-82.712258,41.527882],[-82.722465,41.517575],[-82.71456,41.501296],[-82.719201,41.499675],[-82.723574,41.51428],[-82.74741,41.512298],[-82.765171,41.502861],[-82.806027,41.506566],[-82.814945,41.502918],[-82.824073,41.490296],[-82.844213,41.502094],[-82.88291,41.488794],[-82.95936,41.488559],[-82.974755,41.467249],[-82.986645,41.467157],[-82.993062,41.460531],[-83.009144,41.469348],[-83.03888,41.464709],[-83.0386386190228,41.457539061065],[-83.338196,41.457508],[-83.338991,41.501189],[-83.414626,41.500228],[-83.415941,41.61911]]]]}},{"type":"Feature","properties":{"GEOID":"39003","NAME":"Allen","state":"OH","wildfire_risk_score":9.351,"wildfire_eal_total":2964.35,"risk_band":"Low","source":"FEMA National Risk Index v1.20 (December 2025)"},"geometry":{"type":"Polygon","coordinates":[[[-84.397374,40.815941],[-84.340101,40.816143],[-84.340531,40.859099],[-84.109586,40.860994],[-84.109516,40.90473],[-83.995165,40.905066],[-83.995228,40.919843],[-83.880423,40.920429],[-83.880194,40.64469],[-84.107787,40.643069],[-84.107908,40.657938],[-84.222749,40.656948],[-84.222799,40.685957],[-84.396778,40.684926],[-84.397374,40.815941]]]}},{"type":"Feature","properties":{"GEOID":"39021","NAME":"Champaign","state":"OH","wildfire_risk_score":3.372,"wildfire_eal_total":1394.4,"risk_band":"Low","source":"FEMA National Risk Index v1.20 (December 2025)"},"geometry":{"type":"Polygon","coordinates":[[[-84.031935,40.086072],[-84.014763,40.273459],[-83.784196,40.260046],[-83.785354,40.245213],[-83.494498,40.225467],[-83.516069,40.010818],[-84.036069,40.040182],[-84.031935,40.086072]]]}},{"type":"Feature","properties":{"GEOID":"39095","NAME":"Lucas","state":"OH","wildfire_risk_score":36.45,"wildfire_eal_total":19129.75,"risk_band":"High","source":"FEMA National Risk Index v1.20 (December 2025)"},"geometry":{"type":"MultiPolygon","coordinates":[[[[-83.110635,41.737888],[-83.105569,41.74251],[-83.102088,41.741803],[-83.106084,41.736861],[-83.110635,41.737888]]],[[[-83.443366,41.704453],[-83.427607,41.711745],[-83.42128,41.703376],[-83.438416,41.694319],[-83.445104,41.700952],[-83.443366,41.704453]]],[[[-83.461182,41.705705],[-83.449343,41.710499],[-83.446868,41.706991],[-83.460788,41.701259],[-83.461182,41.705705]]],[[[-83.882896,41.438633],[-83.882443,41.617517],[-83.877368,41.617547],[-83.8803872579474,41.7200894477788],[-83.455401,41.732843],[-83.45597,41.727612],[-83.467679,41.722571],[-83.478834,41.702798],[-83.469968,41.696234],[-83.484138,41.684775],[-83.480213,41.682079],[-83.45569,41.698068],[-83.423208,41.689448],[-83.394954,41.691963],[-83.379711,41.685614],[-83.35173,41.686953],[-83.343011,41.691963],[-83.335869,41.705491],[-83.305754,41.687738],[-83.309959,41.682912],[-83.306249,41.676631],[-83.283277,41.675707],[-83.208187,41.635243],[-83.1695478899806,41.6232835284932],[-83.569934,41.61715],[-83.612734,41.570751],[-83.625634,41.570051],[-83.636135,41.560251],[-83.644935,41.560751],[-83.665635,41.549251],[-83.680084,41.546859],[-83.699736,41.533952],[-83.709636,41.521852],[-83.712843,41.492494],[-83.736417,41.482004],[-83.748137,41.465852],[-83.77669,41.462996],[-83.78285,41.448664],[-83.817547,41.432296],[-83.84562,41.425028],[-83.85434,41.414445],[-83.883234,41.414503],[-83.882896,41.438633]]]]}},{"type":"Feature","properties":{"GEOID":"39073","NAME":"Hocking","state":"OH","wildfire_risk_score":12.691,"wildfire_eal_total":3981.23,"risk_band":"Low","source":"FEMA National Risk Index v1.20 (December 2025)"},"geometry":{"type":"Polygon","coordinates":[[[-82.747444,39.3819],[-82.730272,39.569066],[-82.620088,39.563987],[-82.617546,39.608605],[-82.496123,39.602849],[-82.490329,39.661704],[-82.374531,39.654959],[-82.37989,39.596738],[-82.261954,39.590592],[-82.263566,39.562137],[-82.159161,39.556574],[-82.167379,39.466307],[-82.28041,39.472906],[-82.289663,39.384195],[-82.514479,39.395767],[-82.51758,39.369468],[-82.634386,39.375966],[-82.635686,39.361566],[-82.748591,39.368165],[-82.747444,39.3819]]]}},{"type":"Feature","properties":{"GEOID":"39059","NAME":"Guernsey","state":"OH","wildfire_risk_score":31.107,"wildfire_eal_total":11855.99,"risk_band":"Moderate","source":"FEMA National Risk Index v1.20 (December 2025)"},"geometry":{"type":"Polygon","coordinates":[[[-81.726055,39.975633],[-81.716276,40.152166],[-81.670899,40.150976],[-81.66759,40.222468],[-81.338064,40.214077],[-81.339565,40.171999],[-81.225924,40.170075],[-81.234053,39.95127],[-81.386006,39.950694],[-81.386809,39.921518],[-81.46275,39.9235],[-81.464108,39.89455],[-81.57859,39.897683],[-81.580313,39.839104],[-81.680815,39.841924],[-81.694146,39.842636],[-81.691104,39.930756],[-81.728611,39.931728],[-81.726055,39.975633]]]}},{"type":"Feature","properties":{"GEOID":"39147","NAME":"Seneca","state":"OH","wildfire_risk_score":2.831,"wildfire_eal_total":1111.84,"risk_band":"Low","source":"FEMA National Risk Index v1.20 (December 2025)"},"geometry":{"type":"Polygon","coordinates":[[[-83.42123,41.151585],[-83.419843,41.254003],[-82.840087,41.255337],[-82.829512,40.996624],[-83.420319,40.991889],[-83.42123,41.151585]]]}},{"type":"Feature","properties":{"GEOID":"39049","NAME":"Franklin","state":"OH","wildfire_risk_score":29.071,"wildfire_eal_total":13434.21,"risk_band":"Moderate","source":"FEMA National Risk Index v1.20 (December 2025)"},"geometry":{"type":"Polygon","coordinates":[[[-83.260877,40.002807],[-83.25168,40.008376],[-83.255051,40.048614],[-83.212196,40.048069],[-83.206273,40.107733],[-83.170208,40.107073],[-83.169872,40.143077],[-82.761827,40.125855],[-82.773825,39.976125],[-82.779459,39.976293],[-82.782495,39.939662],[-82.810797,39.941162],[-82.813096,39.911663],[-82.794383,39.910785],[-82.802476,39.822953],[-82.821496,39.824271],[-82.824254,39.794996],[-83.243702,39.812503],[-83.252031,39.917363],[-83.225643,39.932262],[-83.241699,39.952552],[-83.240169,39.960119],[-83.246938,39.971139],[-83.250227,39.970328],[-83.246112,39.987323],[-83.260877,40.002807]]]}},{"type":"Feature","properties":{"GEOID":"39153","NAME":"Summit","state":"OH","wildfire_risk_score":53.181,"wildfire_eal_total":56916.01,"risk_band":"High","source":"FEMA National Risk Index v1.20 (December 2025)"},"geometry":{"type":"Polygon","coordinates":[[[-81.688154,41.004144],[-81.68495,41.277146],[-81.562183,41.279316],[-81.57573,41.300909],[-81.573334,41.303292],[-81.585444,41.308864],[-81.583645,41.315683],[-81.591542,41.327877],[-81.588099,41.342651],[-81.594726,41.34354],[-81.593317,41.349633],[-81.598052,41.351157],[-81.391694,41.348272],[-81.393249,40.988531],[-81.416334,40.988456],[-81.420363,40.906502],[-81.647735,40.914016],[-81.647689,40.988563],[-81.688491,40.98859],[-81.688154,41.004144]]]}},{"type":"Feature","properties":{"GEOID":"39173","NAME":"Wood","state":"OH","wildfire_risk_score":13.55,"wildfire_eal_total":7862.04,"risk_band":"Moderate","source":"FEMA National Risk Index v1.20 (December 2025)"},"geometry":{"type":"Polygon","coordinates":[[[-83.8835,41.35712],[-83.883234,41.414503],[-83.85434,41.414445],[-83.84562,41.425028],[-83.817547,41.432296],[-83.78285,41.448664],[-83.77669,41.462996],[-83.748137,41.465852],[-83.736417,41.482004],[-83.712843,41.492494],[-83.709636,41.521852],[-83.699736,41.533952],[-83.680084,41.546859],[-83.665635,41.549251],[-83.644935,41.560751],[-83.636135,41.560251],[-83.625634,41.570051],[-83.612734,41.570751],[-83.569934,41.61715],[-83.415941,41.61911],[-83.421054,41.16678],[-83.881149,41.167824],[-83.8835,41.35712]]]}},{"type":"Feature","properties":{"GEOID":"39013","NAME":"Belmont","state":"OH","wildfire_risk_score":40.681,"wildfire_eal_total":23319.79,"risk_band":"High","source":"FEMA National Risk Index v1.20 (December 2025)"},"geometry":{"type":"Polygon","coordinates":[[[-81.234297,39.949015],[-81.225811,40.172694],[-80.766269,40.155111],[-80.765853,40.159847],[-80.7029242071106,40.1572566856078],[-80.710042,40.138311],[-80.709102,40.101472],[-80.738604,40.075672],[-80.730904,40.046672],[-80.741901,40.007929],[-80.740126,39.970793],[-80.758527,39.959241],[-80.764479,39.95025],[-80.756432,39.91393],[-80.762592,39.908906],[-80.795714,39.91969],[-80.806018,39.91713],[-80.809011,39.903226],[-80.793989,39.882787],[-80.790761,39.86728],[-80.821279,39.849982],[-81.237316,39.867828],[-81.234297,39.949015]]]}},{"type":"Feature","properties":{"GEOID":"39089","NAME":"Licking","state":"OH","wildfire_risk_score":42.462,"wildfire_eal_total":36148.91,"risk_band":"High","source":"FEMA National Risk Index v1.20 (December 2025)"},"geometry":{"type":"Polygon","coordinates":[[[-82.781809,39.946981],[-82.779459,39.976293],[-82.773825,39.976125],[-82.772677,39.987112],[-82.750747,40.276996],[-82.476114,40.264703],[-82.477273,40.24581],[-82.182823,40.238624],[-82.198772,39.95014],[-82.231695,39.951075],[-82.233974,39.91326],[-82.418666,39.922447],[-82.418179,39.927936],[-82.462813,39.93038],[-82.473423,39.925065],[-82.782495,39.939662],[-82.781809,39.946981]]]}},{"type":"Feature","properties":{"GEOID":"39165","NAME":"Warren","state":"OH","wildfire_risk_score":37.659,"wildfire_eal_total":35801.27,"risk_band":"High","source":"FEMA National Risk Index v1.20 (December 2025)"},"geometry":{"type":"Polygon","coordinates":[[[-84.365232,39.589493],[-84.285687,39.589552],[-83.976987,39.569402],[-84.007454,39.255112],[-84.259431,39.27086],[-84.256374,39.276825],[-84.265237,39.28222],[-84.262172,39.288342],[-84.353209,39.292287],[-84.331682,39.549213],[-84.364305,39.54381],[-84.365232,39.589493]]]}},{"type":"Feature","properties":{"GEOID":"39119","NAME":"Muskingum","state":"OH","wildfire_risk_score":33.588,"wildfire_eal_total":17885.81,"risk_band":"Moderate","source":"FEMA National Risk Index v1.20 (December 2025)"},"geometry":{"type":"Polygon","coordinates":[[[-82.233735,39.920577],[-82.231695,39.951075],[-82.198772,39.95014],[-82.187105,40.16688],[-81.716277,40.152854],[-81.728611,39.931728],[-81.691104,39.930756],[-81.697442,39.755572],[-82.076639,39.77096],[-82.072934,39.816227],[-82.170047,39.82075],[-82.162372,39.909374],[-82.233974,39.91326],[-82.233735,39.920577]]]}},{"type":"Feature","properties":{"GEOID":"39139","NAME":"Richland","state":"OH","wildfire_risk_score":35.592,"wildfire_eal_total":19943.27,"risk_band":"High","source":"FEMA National Risk Index v1.20 (December 2025)"},"geometry":{"type":"Polygon","coordinates":[[[-82.726949,40.738592],[-82.724792,40.995638],[-82.4179,40.992938],[-82.415488,40.828424],[-82.420434,40.827839],[-82.420752,40.82333],[-82.416847,40.814567],[-82.407999,40.814567],[-82.407759,40.808247],[-82.388559,40.808169],[-82.389812,40.796179],[-82.378953,40.787227],[-82.378397,40.727145],[-82.339211,40.726683],[-82.336962,40.555001],[-82.374898,40.550871],[-82.623609,40.549879],[-82.62476,40.637283],[-82.644117,40.63724],[-82.644931,40.659593],[-82.644977,40.666425],[-82.626165,40.666132],[-82.627191,40.709416],[-82.727164,40.711203],[-82.726949,40.738592]]]}},{"type":"Feature","properties":{"GEOID":"39163","NAME":"Vinton","state":"OH","wildfire_risk_score":4.039,"wildfire_eal_total":979.65,"risk_band":"Low","source":"FEMA National Risk Index v1.20 (December 2025)"},"geometry":{"type":"Polygon","coordinates":[[[-82.760111,39.237644],[-82.748591,39.368165],[-82.635686,39.361566],[-82.634386,39.375966],[-82.51758,39.369468],[-82.514479,39.395767],[-82.289663,39.384195],[-82.298476,39.294996],[-82.260243,39.292915],[-82.268583,39.20376],[-82.306669,39.205494],[-82.322874,39.027674],[-82.435309,39.035079],[-82.424693,39.137816],[-82.540282,39.144471],[-82.537068,39.180983],[-82.651486,39.189567],[-82.650087,39.202269],[-82.762892,39.207967],[-82.760111,39.237644]]]}},{"type":"Feature","properties":{"GEOID":"39027","NAME":"Clinton","state":"OH","wildfire_risk_score":8.938,"wildfire_eal_total":3051.7,"risk_band":"Low","source":"FEMA National Risk Index v1.20 (December 2025)"},"geometry":{"type":"Polygon","coordinates":[[[-84.004117,39.288422],[-83.976987,39.569402],[-83.576286,39.544547],[-83.590878,39.378736],[-83.784793,39.262888],[-83.808297,39.224683],[-83.835869,39.223304],[-83.834404,39.245715],[-84.007454,39.255112],[-84.004117,39.288422]]]}},{"type":"Feature","properties":{"GEOID":"39115","NAME":"Morgan","state":"OH","wildfire_risk_score":11.196,"wildfire_eal_total":3498.05,"risk_band":"Low","source":"FEMA National Risk Index v1.20 (December 2025)"},"geometry":{"type":"Polygon","coordinates":[[[-82.079814,39.732677],[-82.076639,39.77096],[-81.639886,39.75342],[-81.6432,39.665681],[-81.586132,39.663993],[-81.588185,39.586973],[-81.68893,39.590486],[-81.715522,39.5834],[-81.716337,39.565963],[-81.723511,39.547608],[-81.722217,39.53155],[-81.705075,39.53099],[-81.708527,39.480775],[-81.760955,39.482773],[-81.760959,39.488583],[-81.823158,39.494072],[-81.825757,39.449172],[-82.055779,39.460053],[-82.047528,39.550825],[-82.039605,39.550217],[-82.024219,39.724686],[-82.080224,39.727673],[-82.079814,39.732677]]]}},{"type":"Feature","properties":{"GEOID":"39131","NAME":"Pike","state":"OH","wildfire_risk_score":24.173,"wildfire_eal_total":7770.25,"risk_band":"Moderate","source":"FEMA National Risk Index v1.20 (December 2025)"},"geometry":{"type":"Polygon","coordinates":[[[-83.382297,39.069151],[-83.353531,39.197585],[-82.785891,39.168769],[-82.80709,38.948073],[-83.212107,38.960148],[-83.21073,38.969856],[-83.217234,38.971758],[-83.213996,38.990251],[-83.23406,38.998819],[-83.237811,39.009856],[-83.268734,39.014453],[-83.30811,39.04026],[-83.314589,39.052195],[-83.385637,39.055197],[-83.382297,39.069151]]]}},{"type":"Feature","properties":{"GEOID":"39099","NAME":"Mahoning","state":"OH","wildfire_risk_score":48.632,"wildfire_eal_total":36417.13,"risk_band":"High","source":"FEMA National Risk Index v1.20 (December 2025)"},"geometry":{"type":"Polygon","coordinates":[[[-81.086712,40.930422],[-81.086312,40.988031],[-81.001695,40.987783],[-81.00229,41.134189],[-80.5191646523219,41.1332183913048],[-80.5197774232307,40.9003241991296],[-80.821923,40.900935],[-80.821635,40.929775],[-80.891285,40.9302],[-80.895813,40.930187],[-80.896032,40.900995],[-81.086679,40.901609],[-81.086712,40.930422]]]}},{"type":"Feature","properties":{"GEOID":"39001","NAME":"Adams","state":"OH","wildfire_risk_score":63.041,"wildfire_eal_total":95891.44,"risk_band":"High","source":"FEMA National Risk Index v1.20 (December 2025)"},"geometry":{"type":"Polygon","coordinates":[[[-83.7053141053281,38.6397614373579],[-83.673018,39.02043],[-83.611592,39.01889],[-83.385637,39.055197],[-83.314589,39.052195],[-83.30811,39.04026],[-83.270817,39.015791],[-83.2670668881558,38.6181775965671],[-83.286514,38.599241],[-83.294193,38.596588],[-83.311448,38.603314],[-83.319101,38.612233],[-83.327636,38.637489],[-83.366661,38.658537],[-83.468059,38.67547],[-83.493342,38.694187],[-83.520953,38.703045],[-83.626922,38.679387],[-83.63696,38.666023],[-83.644181,38.637833],[-83.657142,38.62791],[-83.671443,38.627381],[-83.7053141053281,38.6397614373579]]]}},{"type":"Feature","properties":{"GEOID":"39081","NAME":"Jefferson","state":"OH","wildfire_risk_score":40.522,"wildfire_eal_total":23417.41,"risk_band":"High","source":"FEMA National Risk Index v1.20 (December 2025)"},"geometry":{"type":"Polygon","coordinates":[[[-80.941129,40.443829],[-80.940153,40.468349],[-80.924705,40.467977],[-80.92092,40.556315],[-80.863567,40.555411],[-80.861994,40.599404],[-80.747112,40.596991],[-80.74732,40.583327],[-80.667957,40.582496],[-80.666917,40.573664],[-80.627507,40.535793],[-80.618003,40.502049],[-80.599194,40.482566],[-80.594794,40.471366],[-80.612295,40.434867],[-80.612195,40.402667],[-80.633596,40.390467],[-80.63074,40.3849],[-80.609695,40.374968],[-80.612796,40.347668],[-80.599895,40.317669],[-80.614896,40.291969],[-80.619297,40.26517],[-80.652098,40.24497],[-80.661543,40.229798],[-80.6681,40.199671],[-80.7029242071106,40.1572566856078],[-80.882892,40.159495],[-80.872266,40.373721],[-80.871553,40.379458],[-80.867201,40.379378],[-80.865504,40.422929],[-80.941911,40.4247],[-80.941129,40.443829]]]}},{"type":"Feature","properties":{"GEOID":"39143","NAME":"Sandusky","state":"OH","wildfire_risk_score":6.393,"wildfire_eal_total":2126.09,"risk_band":"Low","source":"FEMA National Risk Index v1.20 (December 2025)"},"geometry":{"type":"Polygon","coordinates":[[[-83.419582,41.26215],[-83.414626,41.500228],[-83.338991,41.501189],[-83.338196,41.457508],[-83.0386386190228,41.457539061065],[-83.041216,41.45119],[-83.025714,41.453238],[-83.024897,41.447944],[-83.011179,41.441177],[-83.01063,41.429262],[-83.001617,41.42816],[-83.002565,41.438164],[-82.986368,41.446715],[-82.986473,41.451303],[-82.976617,41.453612],[-82.957086,41.425486],[-82.940391,41.418919],[-82.922813,41.418849],[-82.9019299036973,41.4304742402657],[-82.847706,41.430495],[-82.840087,41.255337],[-83.419843,41.254003],[-83.419582,41.26215]]]}},{"type":"Feature","properties":{"GEOID":"39135","NAME":"Preble","state":"OH","wildfire_risk_score":13.581,"wildfire_eal_total":4843.43,"risk_band":"Moderate","source":"FEMA National Risk Index v1.20 (December 2025)"},"geometry":{"type":"Polygon","coordinates":[[[-84.8151219671,39.5729483476845],[-84.812411,39.916916],[-84.485367,39.918491],[-84.478927,39.56879],[-84.763092,39.566604],[-84.8149405460834,39.5677117935465],[-84.8151219671,39.5729483476845]]]}},{"type":"Feature","properties":{"GEOID":"39015","NAME":"Brown","state":"OH","wildfire_risk_score":60.655,"wildfire_eal_total":68014.23,"risk_band":"High","source":"FEMA National Risk Index v1.20 (December 2025)"},"geometry":{"type":"Polygon","coordinates":[[[-84.052447,38.772229],[-83.989921,39.254096],[-83.865679,39.247333],[-83.872214,39.021304],[-83.673018,39.02043],[-83.7053141053281,38.6397614373579],[-83.720779,38.646704],[-83.769347,38.65522],[-83.787113,38.699489],[-83.836696,38.717857],[-83.848734,38.747178],[-83.86653,38.7602],[-83.926986,38.771562],[-83.943978,38.783616],[-83.962123,38.787384],[-84.052447,38.772229]]]}},{"type":"Feature","properties":{"GEOID":"39105","NAME":"Meigs","state":"OH","wildfire_risk_score":8.365,"wildfire_eal_total":1760.1,"risk_band":"Low","source":"FEMA National Risk Index v1.20 (December 2025)"},"geometry":{"type":"Polygon","coordinates":[[[-82.322874,39.027674],[-82.306669,39.205494],[-81.7558150545194,39.1805241965567],[-81.744621,39.148413],[-81.742953,39.106578],[-81.752353,39.089878],[-81.775554,39.078378],[-81.803055,39.083878],[-81.813855,39.079278],[-81.811655,39.059578],[-81.803355,39.047678],[-81.764253,39.015279],[-81.765153,39.002579],[-81.774062,38.993682],[-81.78182,38.964935],[-81.778845,38.955892],[-81.756975,38.937152],[-81.758506,38.927942],[-81.766227,38.922946],[-81.781248,38.924804],[-81.814235,38.946168],[-81.827354,38.945898],[-81.844486,38.928746],[-81.845312,38.910088],[-81.855971,38.892734],[-81.889233,38.874279],[-81.908645,38.87846],[-81.928,38.893492],[-81.926671,38.901311],[-81.89847,38.929603],[-81.933186,38.987659],[-81.951447,38.996032],[-81.979371,38.993193],[-81.991361,39.018378],[-82.00599,39.029387],[-82.037749,39.023865],[-82.051563,38.994378],[-82.089065,38.975978],[-82.0988733706356,38.9583193160251],[-82.095465,39.002778],[-82.323894,39.013154],[-82.322874,39.027674]]]}},{"type":"Feature","properties":{"GEOID":"39111","NAME":"Monroe","state":"OH","wildfire_risk_score":18.257,"wildfire_eal_total":4732.33,"risk_band":"Moderate","source":"FEMA National Risk Index v1.20 (December 2025)"},"geometry":{"type":"Polygon","coordinates":[[[-81.318244,39.738579],[-81.313591,39.869471],[-80.821279,39.849982],[-80.826964,39.841656],[-80.822181,39.811708],[-80.826079,39.798584],[-80.863048,39.775197],[-80.869933,39.763555],[-80.865339,39.753251],[-80.831551,39.719475],[-80.829764,39.711839],[-80.833882,39.703497],[-80.863698,39.691724],[-80.866647,39.652616],[-80.88036,39.620706],[-80.933292,39.614812],[-81.038706017301,39.5400475328739],[-81.036791,39.572118],[-81.265347,39.57681],[-81.264261,39.605344],[-81.283075,39.605796],[-81.280588,39.707112],[-81.319125,39.70736],[-81.318244,39.738579]]]}},{"type":"Feature","properties":{"GEOID":"39029","NAME":"Columbiana","state":"OH","wildfire_risk_score":46.756,"wildfire_eal_total":34433.49,"risk_band":"High","source":"FEMA National Risk Index v1.20 (December 2025)"},"geometry":{"type":"Polygon","coordinates":[[[-81.087391,40.729443],[-81.086679,40.901609],[-80.896032,40.900995],[-80.895813,40.930187],[-80.891285,40.9302],[-80.821635,40.929775],[-80.821923,40.900935],[-80.5197774232307,40.9003241991296],[-80.518991,40.638801],[-80.551126,40.628847],[-80.576736,40.614224],[-80.598764,40.625263],[-80.627171,40.619936],[-80.662564,40.5916],[-80.667957,40.582496],[-80.74732,40.583327],[-80.747112,40.596991],[-80.861994,40.599404],[-80.860822,40.64257],[-80.918125,40.643464],[-80.917172,40.726934],[-81.087391,40.729443]]]}},{"type":"Feature","properties":{"GEOID":"39093","NAME":"Lorain","state":"OH","wildfire_risk_score":45.865,"wildfire_eal_total":39511.8,"risk_band":"High","source":"FEMA National Risk Index v1.20 (December 2025)"},"geometry":{"type":"Polygon","coordinates":[[[-82.3480701864688,41.4283140090786],[-82.268479,41.430842],[-82.236842,41.442344],[-82.187316,41.471109],[-82.027134,41.512274],[-81.99519,41.514516],[-81.9683268768858,41.5049540930577],[-81.971262,41.351268],[-81.87696,41.350685],[-81.878053,41.275044],[-81.972485,41.274829],[-81.973895,41.199831],[-82.072465,41.19985],[-82.074266,41.136456],[-82.169875,41.137097],[-82.171492,41.063537],[-82.336496,41.065761],[-82.3480701864688,41.4283140090786]]]}},{"type":"Feature","properties":{"GEOID":"39155","NAME":"Trumbull","state":"OH","wildfire_risk_score":43.702,"wildfire_eal_total":26814.14,"risk_band":"High","source":"FEMA National Risk Index v1.20 (December 2025)"},"geometry":{"type":"Polygon","coordinates":[[[-81.003311,41.462814],[-81.003126,41.501478],[-80.5192241242287,41.4993400013133],[-80.5191646523219,41.1332183913048],[-81.002532,41.134187],[-81.003311,41.462814]]]}},{"type":"Feature","properties":{"GEOID":"39007","NAME":"Ashtabula","state":"OH","wildfire_risk_score":36.101,"wildfire_eal_total":17425.36,"risk_band":"High","source":"FEMA National Risk Index v1.20 (December 2025)"},"geometry":{"type":"Polygon","coordinates":[[[-81.003125,41.501685],[-81.0021910663024,41.8530549793464],[-80.900554,41.868553],[-80.815501,41.897302],[-80.797081,41.910896],[-80.782672,41.91158],[-80.781327,41.907004],[-80.711339,41.921872],[-80.581483,41.957296],[-80.551403,41.971515],[-80.519408,41.977164],[-80.5192241242287,41.4993400013133],[-81.003125,41.501685]]]}},{"type":"Feature","properties":{"GEOID":"39023","NAME":"Clark","state":"OH","wildfire_risk_score":25.032,"wildfire_eal_total":9421.78,"risk_band":"Moderate","source":"FEMA National Risk Index v1.20 (December 2025)"},"geometry":{"type":"Polygon","coordinates":[[[-84.051012,39.87981],[-84.036069,40.040182],[-83.512625,40.010023],[-83.589909,39.768812],[-83.740851,39.78151],[-83.739475,39.788957],[-83.829374,39.797766],[-83.82742,39.822562],[-83.941289,39.828838],[-83.939806,39.843449],[-84.053713,39.850714],[-84.051012,39.87981]]]}},{"type":"Feature","properties":{"GEOID":"39041","NAME":"Delaware","state":"OH","wildfire_risk_score":26.749,"wildfire_eal_total":20823.85,"risk_band":"Moderate","source":"FEMA National Risk Index v1.20 (December 2025)"},"geometry":{"type":"Polygon","coordinates":[[[-83.249591,40.364305],[-83.248595,40.443989],[-83.020798,40.433795],[-83.022079,40.418884],[-82.924781,40.415004],[-82.929588,40.358123],[-82.744931,40.349603],[-82.761827,40.125855],[-83.169872,40.143077],[-83.17233,40.244257],[-83.248428,40.244466],[-83.249591,40.364305]]]}},{"type":"Feature","properties":{"GEOID":"39109","NAME":"Miami","state":"OH","wildfire_risk_score":21.024,"wildfire_eal_total":10523.89,"risk_band":"Moderate","source":"FEMA National Risk Index v1.20 (December 2025)"},"geometry":{"type":"Polygon","coordinates":[[[-84.432717,40.188911],[-84.432575,40.197037],[-84.218658,40.200004],[-84.219137,40.195499],[-84.022919,40.183945],[-84.051012,39.87981],[-84.157217,39.885994],[-84.167193,39.911366],[-84.157671,39.92297],[-84.425902,39.919622],[-84.432282,40.18084],[-84.436332,40.180801],[-84.432717,40.188911]]]}},{"type":"Feature","properties":{"GEOID":"39159","NAME":"Union","state":"OH","wildfire_risk_score":4.103,"wildfire_eal_total":2421.15,"risk_band":"Low","source":"FEMA National Risk Index v1.20 (December 2025)"},"geometry":{"type":"Polygon","coordinates":[[[-83.548306,40.256012],[-83.520227,40.504077],[-83.248289,40.507078],[-83.248428,40.244466],[-83.17233,40.244257],[-83.170208,40.107073],[-83.503714,40.111468],[-83.494498,40.225467],[-83.551338,40.22937],[-83.548306,40.256012]]]}},{"type":"Feature","properties":{"GEOID":"39019","NAME":"Carroll","state":"OH","wildfire_risk_score":24.746,"wildfire_eal_total":9274.73,"risk_band":"Moderate","source":"FEMA National Risk Index v1.20 (December 2025)"},"geometry":{"type":"Polygon","coordinates":[[[-81.321006,40.579308],[-81.317739,40.651579],[-81.24125,40.650534],[-81.237227,40.723542],[-81.19909,40.722208],[-81.198737,40.729147],[-80.917172,40.726934],[-80.918125,40.643464],[-80.860822,40.64257],[-80.863567,40.555411],[-80.92092,40.556315],[-80.924705,40.467977],[-80.940153,40.468349],[-80.941911,40.4247],[-81.269951,40.433486],[-81.264744,40.565042],[-81.321659,40.566648],[-81.321006,40.579308]]]}},{"type":"Feature","properties":{"GEOID":"39149","NAME":"Shelby","state":"OH","wildfire_risk_score":10.337,"wildfire_eal_total":3042.64,"risk_band":"Low","source":"FEMA National Risk Index v1.20 (December 2025)"},"geometry":{"type":"Polygon","coordinates":[[[-84.434631,40.354259],[-84.434018,40.378246],[-84.338768,40.378742],[-84.339137,40.481076],[-84.002372,40.483115],[-84.0037,40.312927],[-84.010101,40.3176],[-84.022919,40.183945],[-84.219137,40.195499],[-84.218658,40.200004],[-84.432575,40.197037],[-84.434631,40.354259]]]}},{"type":"Feature","properties":{"GEOID":"39075","NAME":"Holmes","state":"OH","wildfire_risk_score":46.883,"wildfire_eal_total":21159.05,"risk_band":"High","source":"FEMA National Risk Index v1.20 (December 2025)"},"geometry":{"type":"Polygon","coordinates":[[[-82.221118,40.667356],[-81.648921,40.667771],[-81.64911,40.634525],[-81.66795,40.632379],[-81.668187,40.627465],[-81.662777,40.627269],[-81.669765,40.443892],[-82.184277,40.456382],[-82.17854,40.573102],[-82.220268,40.568187],[-82.221118,40.667356]]]}},{"type":"Feature","properties":{"GEOID":"39087","NAME":"Lawrence","state":"OH","wildfire_risk_score":53.244,"wildfire_eal_total":52100.23,"risk_band":"High","source":"FEMA National Risk Index v1.20 (December 2025)"},"geometry":{"type":"Polygon","coordinates":[[[-82.8159813238463,38.5707183365762],[-82.740383,38.597167],[-82.766188,38.644678],[-82.763895,38.679974],[-82.706383,38.677485],[-82.695387,38.749977],[-82.662886,38.747977],[-82.650039,38.849073],[-82.575583,38.844478],[-82.582683,38.779077],[-82.483579,38.772278],[-82.486579,38.742978],[-82.466878,38.741478],[-82.472478,38.682279],[-82.354468,38.67607],[-82.361674,38.585182],[-82.2871015269719,38.5825881557857],[-82.293471,38.575383],[-82.304223,38.496308],[-82.318111,38.457876],[-82.330335,38.4445],[-82.381773,38.434783],[-82.404882,38.439347],[-82.549799,38.403202],[-82.571613,38.405138],[-82.593482,38.418252],[-82.610458,38.471457],[-82.657051,38.496816],[-82.700045,38.544336],[-82.730958,38.559264],[-82.789776,38.559951],[-82.8159813238463,38.5707183365762]]]}},{"type":"Feature","properties":{"GEOID":"39053","NAME":"Gallia","state":"OH","wildfire_risk_score":34.828,"wildfire_eal_total":14205.54,"risk_band":"Moderate","source":"FEMA National Risk Index v1.20 (December 2025)"},"geometry":{"type":"Polygon","coordinates":[[[-82.575583,38.844478],[-82.574383,38.853475],[-82.455197,38.844579],[-82.435309,39.035079],[-82.322874,39.027674],[-82.323894,39.013154],[-82.095465,39.002778],[-82.0988733706356,38.9583193160251],[-82.109065,38.945579],[-82.111666,38.932579],[-82.143167,38.898079],[-82.145267,38.883479],[-82.139224,38.86502],[-82.144867,38.84048],[-82.16157,38.824632],[-82.191172,38.815137],[-82.20929,38.802672],[-82.221566,38.787187],[-82.216614,38.76835],[-82.195606,38.752441],[-82.182467,38.708782],[-82.190867,38.680383],[-82.172066,38.619284],[-82.177267,38.603784],[-82.193824,38.593096],[-82.222168,38.591384],[-82.252469,38.598783],[-82.27147,38.595383],[-82.2871015269719,38.5825881557857],[-82.361674,38.585182],[-82.354468,38.67607],[-82.472478,38.682279],[-82.466878,38.741478],[-82.486579,38.742978],[-82.483579,38.772278],[-82.582683,38.779077],[-82.575583,38.844478]]]}},{"type":"Feature","properties":{"GEOID":"39039","NAME":"Defiance","state":"OH","wildfire_risk_score":6.902,"wildfire_eal_total":2585.73,"risk_band":"Low","source":"FEMA National Risk Index v1.20 (December 2025)"},"geometry":{"type":"Polygon","coordinates":[[[-84.804063,41.426051],[-84.228454,41.42781],[-84.228222,41.165862],[-84.341602,41.165524],[-84.341607,41.20906],[-84.457059,41.209434],[-84.457217,41.253485],[-84.8035312568312,41.2525619614428],[-84.804063,41.426051]]]}},{"type":"Feature","properties":{"GEOID":"39011","NAME":"Auglaize","state":"OH","wildfire_risk_score":5.248,"wildfire_eal_total":1936.74,"risk_band":"Low","source":"FEMA National Risk Index v1.20 (December 2025)"},"geometry":{"type":"Polygon","coordinates":[[[-84.45618,40.684862],[-84.222799,40.685957],[-84.222749,40.656948],[-84.107908,40.657938],[-84.107787,40.643069],[-83.880194,40.64469],[-83.880039,40.538694],[-83.993867,40.535174],[-83.993781,40.483004],[-84.339137,40.481076],[-84.338768,40.378742],[-84.434018,40.378246],[-84.434387,40.354534],[-84.455418,40.358589],[-84.45618,40.684862]]]}},{"type":"Feature","properties":{"GEOID":"39045","NAME":"Fairfield","state":"OH","wildfire_risk_score":26.304,"wildfire_eal_total":14350.93,"risk_band":"Moderate","source":"FEMA National Risk Index v1.20 (December 2025)"},"geometry":{"type":"Polygon","coordinates":[[[-82.841537,39.576123],[-82.821496,39.824271],[-82.802476,39.822953],[-82.794383,39.910785],[-82.813096,39.911663],[-82.810797,39.941162],[-82.473423,39.925065],[-82.462813,39.93038],[-82.472402,39.837223],[-82.396594,39.833057],[-82.404246,39.744605],[-82.366051,39.74252],[-82.374531,39.654959],[-82.490329,39.661704],[-82.496123,39.602849],[-82.617546,39.608605],[-82.620088,39.563987],[-82.730272,39.569066],[-82.731518,39.554445],[-82.842953,39.56148],[-82.841537,39.576123]]]}},{"type":"Feature","properties":{"GEOID":"39151","NAME":"Stark","state":"OH","wildfire_risk_score":48.95,"wildfire_eal_total":48340.47,"risk_band":"High","source":"FEMA National Risk Index v1.20 (December 2025)"},"geometry":{"type":"Polygon","coordinates":[[[-81.64983,40.668113],[-81.647735,40.914016],[-81.420363,40.906502],[-81.416334,40.988456],[-81.086312,40.988031],[-81.087289,40.727816],[-81.198737,40.729147],[-81.19909,40.722208],[-81.237227,40.723542],[-81.24125,40.650534],[-81.446925,40.65364],[-81.43582,40.661402],[-81.458952,40.666916],[-81.469104,40.654941],[-81.64911,40.634525],[-81.64983,40.668113]]]}},{"type":"Feature","properties":{"GEOID":"39071","NAME":"Highland","state":"OH","wildfire_risk_score":60.337,"wildfire_eal_total":81611.0,"risk_band":"High","source":"FEMA National Risk Index v1.20 (December 2025)"},"geometry":{"type":"Polygon","coordinates":[[[-83.872057,39.02356],[-83.865679,39.247333],[-83.834404,39.245715],[-83.835869,39.223304],[-83.808297,39.224683],[-83.784793,39.262888],[-83.590878,39.378736],[-83.372714,39.377416],[-83.380254,39.356608],[-83.375048,39.348281],[-83.38699,39.322018],[-83.383087,39.296901],[-83.376629,39.290944],[-83.381297,39.278361],[-83.393167,39.274858],[-83.393694,39.267788],[-83.380044,39.26161],[-83.381125,39.249618],[-83.362351,39.240576],[-83.355745,39.250065],[-83.347006,39.252824],[-83.347847,39.232847],[-83.343479,39.233216],[-83.385637,39.055197],[-83.611592,39.01889],[-83.872057,39.02356]]]}},{"type":"Feature","properties":{"GEOID":"39063","NAME":"Hancock","state":"OH","wildfire_risk_score":1.877,"wildfire_eal_total":1221.99,"risk_band":"Low","source":"FEMA National Risk Index v1.20 (December 2025)"},"geometry":{"type":"Polygon","coordinates":[[[-83.881149,41.167824],[-83.421054,41.16678],[-83.420319,40.991889],[-83.45785,40.991671],[-83.457681,40.948517],[-83.476793,40.948379],[-83.476741,40.904964],[-83.514728,40.905115],[-83.515883,40.818134],[-83.880063,40.819919],[-83.881149,41.167824]]]}},{"type":"Feature","properties":{"GEOID":"39069","NAME":"Henry","state":"OH","wildfire_risk_score":3.467,"wildfire_eal_total":1473.67,"risk_band":"Low","source":"FEMA National Risk Index v1.20 (December 2025)"},"geometry":{"type":"Polygon","coordinates":[[[-84.341902,41.485519],[-83.882943,41.487543],[-83.881149,41.167824],[-84.228222,41.165862],[-84.228454,41.42781],[-84.341664,41.427568],[-84.341902,41.485519]]]}},{"type":"Feature","properties":{"GEOID":"39083","NAME":"Knox","state":"OH","wildfire_risk_score":36.164,"wildfire_eal_total":17462.56,"risk_band":"High","source":"FEMA National Risk Index v1.20 (December 2025)"},"geometry":{"type":"Polygon","coordinates":[[[-82.750235,40.284087],[-82.744931,40.349603],[-82.646503,40.345076],[-82.633181,40.523066],[-82.642837,40.522111],[-82.642796,40.550011],[-82.374898,40.550871],[-82.17854,40.573102],[-82.195911,40.239071],[-82.477273,40.24581],[-82.476114,40.264703],[-82.750747,40.276996],[-82.750235,40.284087]]]}},{"type":"Feature","properties":{"GEOID":"39101","NAME":"Marion","state":"OH","wildfire_risk_score":3.69,"wildfire_eal_total":1135.0,"risk_band":"Low","source":"FEMA National Risk Index v1.20 (December 2025)"},"geometry":{"type":"Polygon","coordinates":[[[-83.420251,40.613982],[-83.419831,40.687278],[-83.304725,40.687124],[-83.304687,40.702006],[-82.858302,40.705019],[-82.859753,40.646395],[-82.957817,40.645148],[-82.958401,40.490664],[-83.016785,40.484511],[-83.020798,40.433795],[-83.248595,40.443989],[-83.248289,40.507078],[-83.41867,40.505229],[-83.415624,40.515366],[-83.420251,40.613982]]]}},{"type":"Feature","properties":{"GEOID":"39117","NAME":"Morrow","state":"OH","wildfire_risk_score":16.38,"wildfire_eal_total":6036.35,"risk_band":"Moderate","source":"FEMA National Risk Index v1.20 (December 2025)"},"geometry":{"type":"Polygon","coordinates":[[[-83.020798,40.433795],[-83.016785,40.484511],[-82.958401,40.490664],[-82.957817,40.645148],[-82.859753,40.646395],[-82.858197,40.712423],[-82.627191,40.709416],[-82.626165,40.666132],[-82.644977,40.666425],[-82.644117,40.63724],[-82.62476,40.637283],[-82.623609,40.549879],[-82.642796,40.550011],[-82.642837,40.522111],[-82.633181,40.523066],[-82.646503,40.345076],[-82.929588,40.358123],[-82.924781,40.415004],[-83.022079,40.418884],[-83.020798,40.433795]]]}},{"type":"Feature","properties":{"GEOID":"39055","NAME":"Geauga","state":"OH","wildfire_risk_score":42.271,"wildfire_eal_total":27747.32,"risk_band":"High","source":"FEMA National Risk Index v1.20 (December 2025)"},"geometry":{"type":"Polygon","coordinates":[[[-81.391934,41.401853],[-81.391764,41.424269],[-81.374772,41.424427],[-81.374992,41.445286],[-81.391518,41.445222],[-81.391005,41.569716],[-81.29588,41.56995],[-81.294669,41.640889],[-81.101422,41.641457],[-81.102258,41.714307],[-81.002929,41.714887],[-81.003191,41.347859],[-81.391694,41.348272],[-81.391934,41.401853]]]}},{"type":"Feature","properties":{"GEOID":"39097","NAME":"Madison","state":"OH","wildfire_risk_score":2.863,"wildfire_eal_total":1346.07,"risk_band":"Low","source":"FEMA National Risk Index v1.20 (December 2025)"},"geometry":{"type":"Polygon","coordinates":[[[-83.653386,39.71774],[-83.647169,39.773029],[-83.589909,39.768812],[-83.512625,40.010023],[-83.516069,40.010818],[-83.503714,40.111468],[-83.206273,40.107733],[-83.212196,40.048069],[-83.255051,40.048614],[-83.25168,40.008376],[-83.260877,40.002807],[-83.246112,39.987323],[-83.250227,39.970328],[-83.246938,39.971139],[-83.240169,39.960119],[-83.241699,39.952552],[-83.225643,39.932262],[-83.252031,39.917363],[-83.243702,39.812503],[-83.252435,39.695438],[-83.653386,39.71774]]]}},{"type":"Feature","properties":{"GEOID":"39005","NAME":"Ashland","state":"OH","wildfire_risk_score":30.025,"wildfire_eal_total":14202.89,"risk_band":"Moderate","source":"FEMA National Risk Index v1.20 (December 2025)"},"geometry":{"type":"Polygon","coordinates":[[[-82.436916,41.065379],[-82.171492,41.063537],[-82.173359,40.992082],[-82.129334,40.991807],[-82.12501,40.886263],[-82.126196,40.668357],[-82.221118,40.667356],[-82.220268,40.568187],[-82.336962,40.555001],[-82.339211,40.726683],[-82.378397,40.727145],[-82.378953,40.787227],[-82.389812,40.796179],[-82.388559,40.808169],[-82.407759,40.808247],[-82.407999,40.814567],[-82.416847,40.814567],[-82.420752,40.82333],[-82.420434,40.827839],[-82.415488,40.828424],[-82.4179,40.992938],[-82.432852,40.992944],[-82.436916,41.065379]]]}},{"type":"Feature","properties":{"GEOID":"39031","NAME":"Coshocton","state":"OH","wildfire_risk_score":29.898,"wildfire_eal_total":9429.1,"risk_band":"Moderate","source":"FEMA National Risk Index v1.20 (December 2025)"},"geometry":{"type":"Polygon","coordinates":[[[-82.19325,40.290287],[-82.184277,40.456382],[-81.709132,40.444775],[-81.712383,40.370763],[-81.616307,40.368125],[-81.622351,40.221306],[-81.66759,40.222468],[-81.670899,40.150976],[-82.187105,40.16688],[-82.182823,40.238624],[-82.195911,40.239071],[-82.19325,40.290287]]]}},{"type":"Feature","properties":{"GEOID":"39047","NAME":"Fayette","state":"OH","wildfire_risk_score":5.089,"wildfire_eal_total":1778.59,"risk_band":"Low","source":"FEMA National Risk Index v1.20 (December 2025)"},"geometry":{"type":"Polygon","coordinates":[[[-83.665343,39.598772],[-83.65333,39.716876],[-83.252435,39.695438],[-83.266737,39.516249],[-83.372714,39.377416],[-83.590878,39.378736],[-83.576286,39.544547],[-83.670196,39.550254],[-83.665343,39.598772]]]}},{"type":"Feature","properties":{"GEOID":"39025","NAME":"Clermont","state":"OH","wildfire_risk_score":41.38,"wildfire_eal_total":35105.66,"risk_band":"High","source":"FEMA National Risk Index v1.20 (December 2025)"},"geometry":{"type":"Polygon","coordinates":[[[-84.320028,39.223433],[-84.307114,39.234413],[-84.299441,39.235156],[-84.293265,39.248865],[-84.261408,39.264686],[-84.259431,39.27086],[-83.989921,39.254096],[-84.0526699451033,38.7713755116846],[-84.071491,38.770475],[-84.155912,38.794909],[-84.205592,38.802588],[-84.2253,38.817665],[-84.233265,38.842671],[-84.234453,38.893226],[-84.288164,38.955789],[-84.295076,38.968295],[-84.299362,38.995985],[-84.3199364709232,39.0220809555344],[-84.301742,39.159434],[-84.295195,39.166964],[-84.299448,39.173875],[-84.288932,39.181501],[-84.276286,39.200927],[-84.284304,39.213243],[-84.31115,39.20963],[-84.320028,39.223433]]]}},{"type":"Feature","properties":{"GEOID":"39037","NAME":"Darke","state":"OH","wildfire_risk_score":12.309,"wildfire_eal_total":4806.9,"risk_band":"Low","source":"FEMA National Risk Index v1.20 (December 2025)"},"geometry":{"type":"Polygon","coordinates":[[[-84.812433,39.922578],[-84.8038961675486,40.3527579915525],[-84.434631,40.354259],[-84.432575,40.197037],[-84.436332,40.180801],[-84.432282,40.18084],[-84.425902,39.919622],[-84.812411,39.916916],[-84.812433,39.922578]]]}},{"type":"Feature","properties":{"GEOID":"39085","NAME":"Lake","state":"OH","wildfire_risk_score":28.88,"wildfire_eal_total":14774.19,"risk_band":"Moderate","source":"FEMA National Risk Index v1.20 (December 2025)"},"geometry":{"type":"Polygon","coordinates":[[[-81.488923,41.626757],[-81.48864,41.631348],[-81.434198,41.678998],[-81.283818,41.76205],[-81.267785,41.758018],[-81.241129,41.762386],[-81.128461,41.811085],[-81.0021910663024,41.8530549793464],[-81.002929,41.714887],[-81.102258,41.714307],[-81.101422,41.641457],[-81.294669,41.640889],[-81.29588,41.56995],[-81.487842,41.570051],[-81.488923,41.626757]]]}},{"type":"Feature","properties":{"GEOID":"39103","NAME":"Medina","state":"OH","wildfire_risk_score":46.565,"wildfire_eal_total":47827.22,"risk_band":"High","source":"FEMA National Risk Index v1.20 (December 2025)"},"geometry":{"type":"Polygon","coordinates":[[[-82.171492,41.063537],[-82.169875,41.137097],[-82.074266,41.136456],[-82.072465,41.19985],[-81.973895,41.199831],[-81.972485,41.274829],[-81.68495,41.277146],[-81.688491,40.98859],[-82.173359,40.992082],[-82.171492,41.063537]]]}},{"type":"Feature","properties":{"GEOID":"39091","NAME":"Logan","state":"OH","wildfire_risk_score":6.679,"wildfire_eal_total":2254.58,"risk_band":"Low","source":"FEMA National Risk Index v1.20 (December 2025)"},"geometry":{"type":"Polygon","coordinates":[[[-84.01033,40.31718],[-84.0037,40.312927],[-84.002372,40.483115],[-83.993781,40.483004],[-83.993867,40.535174],[-83.880039,40.538694],[-83.880001,40.531893],[-83.519727,40.509623],[-83.551338,40.22937],[-83.785354,40.245213],[-83.784196,40.260046],[-84.014763,40.273459],[-84.01033,40.31718]]]}},{"type":"Feature","properties":{"GEOID":"39175","NAME":"Wyandot","state":"OH","wildfire_risk_score":0.986,"wildfire_eal_total":570.25,"risk_band":"Low","source":"FEMA National Risk Index v1.20 (December 2025)"},"geometry":{"type":"Polygon","coordinates":[[[-83.515883,40.818134],[-83.514728,40.905115],[-83.476741,40.904964],[-83.476793,40.948379],[-83.457681,40.948517],[-83.45785,40.991671],[-83.112737,40.993447],[-83.11136,40.702915],[-83.304687,40.702006],[-83.304725,40.687124],[-83.440278,40.687611],[-83.440169,40.702201],[-83.495704,40.701489],[-83.496296,40.81794],[-83.515883,40.818134]]]}},{"type":"Feature","properties":{"GEOID":"39107","NAME":"Mercer","state":"OH","wildfire_risk_score":6.457,"wildfire_eal_total":3588.82,"risk_band":"Low","source":"FEMA National Risk Index v1.20 (December 2025)"},"geometry":{"type":"Polygon","coordinates":[[[-84.804131,40.413014],[-84.8022592386664,40.7281459943578],[-84.456172,40.728306],[-84.455418,40.358589],[-84.431632,40.354198],[-84.8038961675486,40.3527579915525],[-84.804131,40.413014]]]}},{"type":"Feature","properties":{"GEOID":"39129","NAME":"Pickaway","state":"OH","wildfire_risk_score":18.575,"wildfire_eal_total":7531.4,"risk_band":"Moderate","source":"FEMA National Risk Index v1.20 (December 2025)"},"geometry":{"type":"Polygon","coordinates":[[[-83.264528,39.540162],[-83.243702,39.812503],[-82.824254,39.794996],[-82.842953,39.56148],[-82.731518,39.554445],[-82.740729,39.46835],[-82.749998,39.468062],[-82.998204,39.480061],[-82.992901,39.489861],[-82.980396,39.490261],[-82.978741,39.500854],[-82.98456,39.506754],[-83.266737,39.516249],[-83.264528,39.540162]]]}},{"type":"Feature","properties":{"GEOID":"39121","NAME":"Noble","state":"OH","wildfire_risk_score":22.583,"wildfire_eal_total":7643.54,"risk_band":"Moderate","source":"FEMA National Risk Index v1.20 (December 2025)"},"geometry":{"type":"Polygon","coordinates":[[[-81.697442,39.755572],[-81.694146,39.842636],[-81.580313,39.839104],[-81.57859,39.897683],[-81.464108,39.89455],[-81.46275,39.9235],[-81.386809,39.921518],[-81.386006,39.950694],[-81.234053,39.95127],[-81.237316,39.867828],[-81.313591,39.869471],[-81.319125,39.70736],[-81.280588,39.707112],[-81.28353,39.591838],[-81.356445,39.593512],[-81.35629,39.600865],[-81.394934,39.601547],[-81.395036,39.615681],[-81.41385,39.615874],[-81.413665,39.630502],[-81.452712,39.631165],[-81.451935,39.645449],[-81.47316,39.645976],[-81.473471,39.583318],[-81.588185,39.586973],[-81.586132,39.663993],[-81.6432,39.665681],[-81.639886,39.75342],[-81.697442,39.755572]]]}},{"type":"Feature","properties":{"GEOID":"39057","NAME":"Greene","state":"OH","wildfire_risk_score":30.821,"wildfire_eal_total":17704.68,"risk_band":"Moderate","source":"FEMA National Risk Index v1.20 (December 2025)"},"geometry":{"type":"Polygon","coordinates":[[[-84.113747,39.5845],[-84.092938,39.838345],[-84.055053,39.836211],[-84.053713,39.850714],[-83.939806,39.843449],[-83.941289,39.828838],[-83.82742,39.822562],[-83.829374,39.797766],[-83.739475,39.788957],[-83.740851,39.78151],[-83.647686,39.775207],[-83.670196,39.550254],[-84.114174,39.57823],[-84.113747,39.5845]]]}},{"type":"Feature","properties":{"GEOID":"39127","NAME":"Perry","state":"OH","wildfire_risk_score":18.448,"wildfire_eal_total":6179.94,"risk_band":"Moderate","source":"FEMA National Risk Index v1.20 (December 2025)"},"geometry":{"type":"Polygon","coordinates":[[[-82.472222,39.84188],[-82.462813,39.93038],[-82.418179,39.927936],[-82.418666,39.922447],[-82.162372,39.909374],[-82.170047,39.82075],[-82.072934,39.816227],[-82.080224,39.727673],[-82.024219,39.724686],[-82.039605,39.550217],[-82.263566,39.562137],[-82.261954,39.590592],[-82.37989,39.596738],[-82.366051,39.74252],[-82.404246,39.744605],[-82.396594,39.833057],[-82.472402,39.837223],[-82.472222,39.84188]]]}},{"type":"Feature","properties":{"GEOID":"39017","NAME":"Butler","state":"OH","wildfire_risk_score":41.19,"wildfire_eal_total":32688.52,"risk_band":"High","source":"FEMA National Risk Index v1.20 (December 2025)"},"geometry":{"type":"Polygon","coordinates":[[[-84.819238,39.317044],[-84.8149405460834,39.5677117935465],[-84.478927,39.56879],[-84.479213,39.591024],[-84.365242,39.589855],[-84.364305,39.54381],[-84.331682,39.549213],[-84.353209,39.292287],[-84.630047,39.312056],[-84.641814,39.305044],[-84.819451,39.305152],[-84.819238,39.317044]]]}},{"type":"Feature","properties":{"GEOID":"39033","NAME":"Crawford","state":"OH","wildfire_risk_score":3.053,"wildfire_eal_total":1182.1,"risk_band":"Low","source":"FEMA National Risk Index v1.20 (December 2025)"},"geometry":{"type":"Polygon","coordinates":[[[-83.112737,40.993447],[-82.724792,40.995638],[-82.727164,40.711203],[-82.858197,40.712423],[-82.858302,40.705019],[-83.11136,40.702915],[-83.112737,40.993447]]]}},{"type":"Feature","properties":{"GEOID":"39141","NAME":"Ross","state":"OH","wildfire_risk_score":48.537,"wildfire_eal_total":40855.35,"risk_band":"High","source":"FEMA National Risk Index v1.20 (December 2025)"},"geometry":{"type":"Polygon","coordinates":[[[-83.394005,39.272592],[-83.381297,39.278361],[-83.376629,39.290944],[-83.383087,39.296901],[-83.38699,39.322018],[-83.375048,39.348281],[-83.380254,39.356608],[-83.374577,39.37484],[-83.266737,39.516249],[-82.98456,39.506754],[-82.978741,39.500854],[-82.980396,39.490261],[-82.992901,39.489861],[-82.998204,39.480061],[-82.740729,39.46835],[-82.766692,39.167768],[-83.353531,39.197585],[-83.343479,39.233216],[-83.347847,39.232847],[-83.345073,39.250734],[-83.352988,39.251483],[-83.359419,39.242216],[-83.365739,39.241706],[-83.381125,39.249618],[-83.378029,39.258607],[-83.392967,39.266656],[-83.394005,39.272592]]]}},{"type":"Feature","properties":{"GEOID":"39137","NAME":"Putnam","state":"OH","wildfire_risk_score":2.258,"wildfire_eal_total":1119.83,"risk_band":"Low","source":"FEMA National Risk Index v1.20 (December 2025)"},"geometry":{"type":"Polygon","coordinates":[[[-84.399486,40.990315],[-84.341911,40.990692],[-84.341602,41.165524],[-83.881149,41.167824],[-83.880423,40.920429],[-83.995228,40.919843],[-83.995165,40.905066],[-84.109516,40.90473],[-84.109586,40.860994],[-84.340531,40.859099],[-84.340969,40.903596],[-84.398407,40.903265],[-84.399486,40.990315]]]}},{"type":"Feature","properties":{"GEOID":"39009","NAME":"Athens","state":"OH","wildfire_risk_score":13.359,"wildfire_eal_total":4130.71,"risk_band":"Moderate","source":"FEMA National Risk Index v1.20 (December 2025)"},"geometry":{"type":"Polygon","coordinates":[[[-82.297656,39.3033],[-82.28041,39.472906],[-82.167379,39.466307],[-82.159161,39.556574],[-82.047528,39.550825],[-82.055779,39.460053],[-81.844863,39.450216],[-81.853668,39.318165],[-81.834635,39.317563],[-81.835447,39.302807],[-81.816614,39.302058],[-81.818361,39.272581],[-81.72181,39.269568],[-81.7255834730739,39.2158352234561],[-81.737085,39.193836],[-81.7558150545194,39.1805241965567],[-82.268583,39.20376],[-82.260243,39.292915],[-82.298476,39.294996],[-82.297656,39.3033]]]}},{"type":"Feature","properties":{"GEOID":"39113","NAME":"Montgomery","state":"OH","wildfire_risk_score":44.084,"wildfire_eal_total":31687.53,"risk_band":"High","source":"FEMA National Risk Index v1.20 (December 2025)"},"geometry":{"type":"Polygon","coordinates":[[[-84.485367,39.918491],[-84.157671,39.92297],[-84.167193,39.911366],[-84.157217,39.885994],[-84.051012,39.87981],[-84.055053,39.836211],[-84.092938,39.838345],[-84.114174,39.57823],[-84.286319,39.589576],[-84.479213,39.591024],[-84.485367,39.918491]]]}},{"type":"Feature","properties":{"GEOID":"39145","NAME":"Scioto","state":"OH","wildfire_risk_score":34.192,"wildfire_eal_total":16998.69,"risk_band":"Moderate","source":"FEMA National Risk Index v1.20 (December 2025)"},"geometry":{"type":"Polygon","coordinates":[[[-83.270817,39.015791],[-83.237811,39.009856],[-83.23406,38.998819],[-83.215252,38.991922],[-83.217234,38.971758],[-83.21073,38.969856],[-83.212107,38.960148],[-82.753391,38.945373],[-82.76069,38.854875],[-82.650039,38.849073],[-82.662886,38.747977],[-82.695387,38.749977],[-82.706383,38.677485],[-82.763895,38.679974],[-82.766188,38.644678],[-82.740383,38.597167],[-82.8159813238463,38.5707183365762],[-82.844306,38.590862],[-82.854291,38.613454],[-82.859391,38.660378],[-82.877592,38.690177],[-82.870392,38.722077],[-82.871292,38.739376],[-82.879492,38.751476],[-82.894193,38.756576],[-82.943147,38.74328],[-82.979395,38.725976],[-83.011816,38.730057],[-83.030702,38.72572],[-83.053104,38.695831],[-83.112372,38.671685],[-83.135046,38.631719],[-83.153783,38.618827],[-83.203728,38.61673],[-83.239515,38.628588],[-83.268245,38.618529],[-83.270817,39.015791]]]}},{"type":"Feature","properties":{"GEOID":"39051","NAME":"Fulton","state":"OH","wildfire_risk_score":8.142,"wildfire_eal_total":2987.63,"risk_band":"Low","source":"FEMA National Risk Index v1.20 (December 2025)"},"geometry":{"type":"Polygon","coordinates":[[[-84.3995471043526,41.7058604309323],[-83.8803872579474,41.7200894477788],[-83.877368,41.617547],[-83.882443,41.617517],[-83.882943,41.487543],[-84.341902,41.485519],[-84.342051,41.514107],[-84.380735,41.513942],[-84.381312,41.61673],[-84.398375,41.61698],[-84.3995471043526,41.7058604309323]]]}},{"type":"Feature","properties":{"GEOID":"39157","NAME":"Tuscarawas","state":"OH","wildfire_risk_score":38.263,"wildfire_eal_total":17671.69,"risk_band":"High","source":"FEMA National Risk Index v1.20 (December 2025)"},"geometry":{"type":"Polygon","coordinates":[[[-81.712366,40.371101],[-81.709132,40.444775],[-81.669765,40.443892],[-81.662777,40.627269],[-81.668187,40.627465],[-81.66795,40.632379],[-81.469104,40.654941],[-81.458952,40.666916],[-81.43582,40.661402],[-81.446925,40.65364],[-81.317876,40.651934],[-81.321659,40.566648],[-81.264744,40.565042],[-81.275319,40.303434],[-81.334601,40.304316],[-81.338064,40.214077],[-81.622351,40.221306],[-81.616307,40.368125],[-81.712366,40.371101]]]}},{"type":"Feature","properties":{"GEOID":"39125","NAME":"Paulding","state":"OH","wildfire_risk_score":4.421,"wildfire_eal_total":1540.41,"risk_band":"Low","source":"FEMA National Risk Index v1.20 (December 2025)"},"geometry":{"type":"Polygon","coordinates":[[[-84.80355,41.172075],[-84.8035312568312,41.2525619614428],[-84.457217,41.253485],[-84.457059,41.209434],[-84.341607,41.20906],[-84.341911,40.990692],[-84.8032582490465,40.9893939921809],[-84.80355,41.172075]]]}},{"type":"Feature","properties":{"GEOID":"39079","NAME":"Jackson","state":"OH","wildfire_risk_score":20.356,"wildfire_eal_total":5523.33,"risk_band":"Moderate","source":"FEMA National Risk Index v1.20 (December 2025)"},"geometry":{"type":"Polygon","coordinates":[[[-82.80709,38.948073],[-82.785891,39.168769],[-82.766692,39.167768],[-82.762892,39.207967],[-82.650087,39.202269],[-82.651486,39.189567],[-82.537068,39.180983],[-82.540282,39.144471],[-82.424693,39.137816],[-82.455197,38.844579],[-82.574383,38.853475],[-82.575583,38.844478],[-82.76069,38.854875],[-82.753391,38.945373],[-82.80709,38.948073]]]}},{"type":"Feature","properties":{"GEOID":"39169","NAME":"Wayne","state":"OH","wildfire_risk_score":38.772,"wildfire_eal_total":21696.84,"risk_band":"High","source":"FEMA National Risk Index v1.20 (December 2025)"},"geometry":{"type":"Polygon","coordinates":[[[-82.129334,40.991807],[-81.647689,40.988563],[-81.650026,40.667774],[-82.126196,40.668357],[-82.12501,40.886263],[-82.129334,40.991807]]]}},{"type":"Feature","properties":{"GEOID":"39133","NAME":"Portage","state":"OH","wildfire_risk_score":39.186,"wildfire_eal_total":28968.54,"risk_band":"High","source":"FEMA National Risk Index v1.20 (December 2025)"},"geometry":{"type":"Polygon","coordinates":[[[-81.393284,41.019936],[-81.391694,41.348272],[-81.003191,41.347859],[-81.001695,40.987783],[-81.393249,40.988531],[-81.393284,41.019936]]]}}]}