{"type":"FeatureCollection","metadata":{"state":"OK","boundary_source":"U.S. Census Bureau 2024 Cartographic Boundary File (counties, 1:500,000)","risk_source":"FEMA National Risk Index v1.20 (December 2025)"},"features":[{"type":"Feature","properties":{"GEOID":"40095","NAME":"Marshall","state":"OK","wildfire_risk_score":79.262,"wildfire_eal_total":229878.68,"risk_band":"Moderate","source":"FEMA National Risk Index v1.20 (December 2025)"},"geometry":{"type":"Polygon","coordinates":[[[-96.969627,34.07102],[-96.968424,34.172684],[-96.669963,34.172521],[-96.667751,34.166758],[-96.656145,34.161193],[-96.638597,34.168103],[-96.641157,34.158398],[-96.628636,34.153698],[-96.625277,34.160527],[-96.619783,34.161191],[-96.619187,34.154043],[-96.607789,34.146176],[-96.613268,34.141377],[-96.606821,34.139873],[-96.602995,34.145635],[-96.59869,34.140397],[-96.600875,34.135583],[-96.582251,34.125327],[-96.582052,34.119102],[-96.58705,34.11738],[-96.579334,34.110064],[-96.582029,34.105907],[-96.565716,34.089691],[-96.568602,34.084785],[-96.555892,34.081178],[-96.564284,34.077159],[-96.550753,34.071749],[-96.547642,34.063652],[-96.558012,34.050463],[-96.571548,34.042516],[-96.576484,34.043476],[-96.571321,34.04927],[-96.577844,34.048568],[-96.578574,34.04503],[-96.574332,34.03696],[-96.579989,34.031199],[-96.573022,34.02862],[-96.579581,34.022609],[-96.573324,34.019611],[-96.578946,34.00914],[-96.584898,34.007297],[-96.593423,34.016728],[-96.602345,34.014194],[-96.604294,34.007869],[-96.616993,34.010209],[-96.620944,34.005527],[-96.624803,34.009724],[-96.6233,34.002418],[-96.614316,33.997017],[-96.615638,33.990729],[-96.602762,33.987938],[-96.606792,33.98194],[-96.593646,33.971013],[-96.585874,33.974661],[-96.585202,33.967356],[-96.57619,33.963885],[-96.585384,33.954884],[-96.584353,33.95042],[-96.593058,33.950922],[-96.596462,33.945667],[-96.590791,33.937328],[-96.593158,33.932961],[-96.580591,33.923312],[-96.59091,33.919231],[-96.580949,33.915425],[-96.58253,33.908299],[-96.59111,33.903225],[-96.5885189157485,33.8948810582175],[-96.628294,33.894477],[-96.659896,33.916666],[-96.667187,33.91694],[-96.680947,33.896204],[-96.684727,33.862905],[-96.699574,33.839049],[-96.712422,33.831633],[-96.761588,33.824406],[-96.770676,33.829621],[-96.780569,33.860098],[-96.794276,33.868886],[-96.832157,33.874835],[-96.839778,33.868396],[-96.841592,33.852894],[-96.850593,33.847211],[-96.866438,33.853149],[-96.88301,33.868019],[-96.895728,33.896414],[-96.899442,33.933728],[-96.905253,33.947219],[-96.918618,33.958926],[-96.9347906714179,33.9543587870584],[-96.934833,34.01293],[-96.969736,34.012953],[-96.969627,34.07102]]]}},{"type":"Feature","properties":{"GEOID":"40145","NAME":"Wagoner","state":"OK","wildfire_risk_score":81.679,"wildfire_eal_total":515725.9,"risk_band":"Moderate","source":"FEMA National Risk Index v1.20 (December 2025)"},"geometry":{"type":"Polygon","coordinates":[[[-95.819477,35.900949],[-95.762029,35.901151],[-95.76165,36.16275],[-95.61852,36.162512],[-95.617482,36.148472],[-95.604696,36.13346],[-95.593099,36.129668],[-95.591423,36.137067],[-95.567844,36.129378],[-95.570265,36.110725],[-95.552587,36.091486],[-95.556628,36.082447],[-95.579903,36.082991],[-95.571525,36.075282],[-95.207943,36.074772],[-95.208063,36.040478],[-95.225341,36.039841],[-95.225328,36.009204],[-95.23025,36.009261],[-95.230298,36.002315],[-95.234268,36.002282],[-95.234437,35.991299],[-95.252188,35.987845],[-95.278701,35.964102],[-95.269909,35.947432],[-95.26861,35.931831],[-95.280669,35.918935],[-95.281565,35.904081],[-95.257702,35.877297],[-95.232494,35.872752],[-95.227498,35.862166],[-95.231459,35.851195],[-95.253162,35.833956],[-95.253332,35.826961],[-95.266499,35.820442],[-95.265679,35.813266],[-95.344433,35.813632],[-95.362317,35.822574],[-95.426149,35.798399],[-95.477552,35.804199],[-95.520728,35.792249],[-95.563091,35.787908],[-95.577285,35.771553],[-95.590149,35.765428],[-95.60195,35.778087],[-95.621518,35.777641],[-95.638313,35.787596],[-95.638683,35.835489],[-95.649135,35.842141],[-95.650419,35.856644],[-95.819459,35.856255],[-95.819477,35.900949]]]}},{"type":"Feature","properties":{"GEOID":"40133","NAME":"Seminole","state":"OK","wildfire_risk_score":91.126,"wildfire_eal_total":1111778.9,"risk_band":"High","source":"FEMA National Risk Index v1.20 (December 2025)"},"geometry":{"type":"Polygon","coordinates":[[[-96.777033,35.290007],[-96.776695,35.410886],[-96.774473,35.405802],[-96.7692,35.41062],[-96.742784,35.406825],[-96.741446,35.414387],[-96.73314,35.416557],[-96.73806,35.419858],[-96.724807,35.425007],[-96.716876,35.419181],[-96.720368,35.412628],[-96.704536,35.416829],[-96.690002,35.403856],[-96.675319,35.403942],[-96.652425,35.391649],[-96.636243,35.39901],[-96.630182,35.392695],[-96.623699,35.400722],[-96.611392,35.394227],[-96.606708,35.399368],[-96.599717,35.396955],[-96.589102,35.411575],[-96.581367,35.409527],[-96.576671,35.401934],[-96.555566,35.402437],[-96.55673,35.394974],[-96.536718,35.390772],[-96.531716,35.400505],[-96.537415,35.403535],[-96.537163,35.41094],[-96.549996,35.414942],[-96.547775,35.418546],[-96.552592,35.422974],[-96.556844,35.418816],[-96.560102,35.421559],[-96.555866,35.434701],[-96.569602,35.439564],[-96.560295,35.448753],[-96.554093,35.447831],[-96.553641,35.454309],[-96.543905,35.453171],[-96.543213,35.457323],[-96.518633,35.431205],[-96.496594,35.428896],[-96.484402,35.436548],[-96.48306,35.44249],[-96.488281,35.448229],[-96.475754,35.463421],[-96.465588,35.45811],[-96.459052,35.46151],[-96.446202,35.458444],[-96.44129,35.467712],[-96.441305,35.115771],[-96.490434,35.115857],[-96.490786,34.910585],[-96.516987,34.871586],[-96.530287,34.869985],[-96.543762,34.880097],[-96.555888,34.898084],[-96.556889,34.914184],[-96.564089,34.917284],[-96.577089,34.916584],[-96.61319,34.900484],[-96.636791,34.898784],[-96.64599,34.901384],[-96.665392,34.928383],[-96.683574,34.933035],[-96.699488,34.930273],[-96.711492,34.916282],[-96.710934,34.911715],[-96.693452,34.901257],[-96.686303,34.888546],[-96.694182,34.868495],[-96.712395,34.859681],[-96.733692,34.859684],[-96.755517,34.899809],[-96.775681,34.899958],[-96.777033,35.290007]]]}},{"type":"Feature","properties":{"GEOID":"40065","NAME":"Jackson","state":"OK","wildfire_risk_score":65.935,"wildfire_eal_total":115917.54,"risk_band":"Low","source":"FEMA National Risk Index v1.20 (December 2025)"},"geometry":{"type":"Polygon","coordinates":[[[-99.8446582036581,34.5067869364725],[-99.666512,34.507121],[-99.666849,34.724555],[-99.423201,34.72502],[-99.432623,34.730621],[-99.442222,34.728651],[-99.437041,34.736464],[-99.440657,34.761469],[-99.437316,34.769133],[-99.405711,34.769025],[-99.405821,34.813038],[-99.246418,34.811991],[-99.246462,34.822114],[-99.235739,34.815868],[-99.226275,34.828721],[-99.212052,34.826731],[-99.214805,34.836672],[-99.201499,34.837453],[-99.19322,34.843753],[-99.190665,34.858182],[-99.177994,34.85864],[-99.168938,34.847874],[-99.14457,34.84954],[-99.153411,34.835708],[-99.144276,34.828354],[-99.153665,34.827669],[-99.15373,34.805039],[-99.148958,34.796311],[-99.15368,34.792006],[-99.162592,34.793108],[-99.165426,34.788413],[-99.163433,34.7686],[-99.15028,34.762],[-99.162603,34.760445],[-99.16391,34.751123],[-99.172873,34.755683],[-99.171626,34.744846],[-99.161249,34.741752],[-99.161031,34.731513],[-99.154126,34.722625],[-99.158597,34.710051],[-99.149114,34.702352],[-99.102403,34.695435],[-99.052511,34.701557],[-99.045746,34.692279],[-99.037288,34.690193],[-99.044001,34.676955],[-99.086451,34.675626],[-99.095321,34.668912],[-99.09703,34.645778],[-99.10315,34.63795],[-99.091868,34.626562],[-99.080284,34.622349],[-99.081834,34.613806],[-99.091781,34.613071],[-99.084881,34.606727],[-99.083103,34.590442],[-99.09396,34.587095],[-99.099668,34.594126],[-99.11155,34.592221],[-99.12459,34.582983],[-99.132213,34.59208],[-99.16332,34.588036],[-99.18451,34.562315],[-99.179832,34.550358],[-99.171111,34.54715],[-99.179611,34.539707],[-99.195666,34.544998],[-99.208697,34.513066],[-99.208391,34.503697],[-99.222083,34.49277],[-99.224595,34.481042],[-99.220279,34.477951],[-99.217985,34.483083],[-99.214858,34.481022],[-99.220992,34.462947],[-99.213052,34.456994],[-99.228536,34.451354],[-99.230299,34.438343],[-99.222969,34.432847],[-99.221639,34.425404],[-99.228022,34.419561],[-99.234026,34.428514],[-99.237619,34.427528],[-99.235752,34.402927],[-99.226631,34.401281],[-99.227647,34.387034],[-99.213862,34.394734],[-99.208997,34.39178],[-99.220252,34.37508],[-99.207639,34.374238],[-99.193991,34.357564],[-99.192322,34.346718],[-99.198281,34.339622],[-99.217335,34.34152],[-99.229245,34.336516],[-99.234256,34.340865],[-99.228636,34.348564],[-99.234252,34.353459],[-99.236177,34.365172],[-99.24812,34.367433],[-99.242855,34.372676],[-99.248969,34.375984],[-99.258606,34.37265],[-99.260441,34.378078],[-99.274858,34.384922],[-99.25898,34.391243],[-99.261321,34.403499],[-99.278828,34.400265],[-99.286437,34.413025],[-99.294648,34.415373],[-99.319606,34.408869],[-99.334037,34.427536],[-99.356713,34.442144],[-99.354672,34.451857],[-99.36961,34.458699],[-99.381011,34.456936],[-99.394956,34.442099],[-99.393306,34.427613],[-99.397135,34.419409],[-99.387653,34.411984],[-99.395921,34.395726],[-99.396839,34.379417],[-99.40296,34.373481],[-99.424897,34.385823],[-99.431043,34.371117],[-99.436474,34.370539],[-99.452648,34.388252],[-99.455085,34.381264],[-99.461053,34.380666],[-99.466383,34.3959],[-99.487219,34.397955],[-99.499875,34.409608],[-99.517624,34.414494],[-99.549242,34.412715],[-99.569696,34.418418],[-99.58006,34.416653],[-99.585442,34.388914],[-99.600026,34.374688],[-99.624197,34.373577],[-99.646511,34.382541],[-99.662705,34.37368],[-99.678283,34.379799],[-99.69497,34.378333],[-99.712682,34.390928],[-99.720259,34.406295],[-99.754248,34.421289],[-99.767234,34.430502],[-99.765599,34.437488],[-99.793684,34.453894],[-99.814313,34.476204],[-99.822281,34.4981],[-99.8446582036581,34.5067869364725]]]}},{"type":"Feature","properties":{"GEOID":"40141","NAME":"Tillman","state":"OK","wildfire_risk_score":52.704,"wildfire_eal_total":42292.52,"risk_band":"Low","source":"FEMA National Risk Index v1.20 (December 2025)"},"geometry":{"type":"Polygon","coordinates":[[[-99.23806,34.425009],[-99.234026,34.428514],[-99.228022,34.419561],[-99.221639,34.425404],[-99.23077,34.441366],[-99.228536,34.451354],[-99.213052,34.456994],[-99.220992,34.462947],[-99.214858,34.481022],[-99.217985,34.483083],[-99.220279,34.477951],[-99.224595,34.481042],[-99.222083,34.49277],[-99.208391,34.503697],[-99.208697,34.513066],[-99.195666,34.544998],[-99.179611,34.539707],[-99.171111,34.54715],[-99.179832,34.550358],[-99.18451,34.562315],[-99.16332,34.588036],[-99.132213,34.59208],[-99.12459,34.582983],[-99.11155,34.592221],[-99.099668,34.594126],[-99.09396,34.587095],[-99.083103,34.590442],[-99.084881,34.606727],[-99.091781,34.613071],[-99.081834,34.613806],[-99.080284,34.622349],[-99.091868,34.626562],[-99.10315,34.63795],[-99.001025,34.637872],[-99.001107,34.594366],[-98.826008,34.594413],[-98.826144,34.50737],[-98.661982,34.50746],[-98.662004,34.333431],[-98.60966,34.33372],[-98.6099870025661,34.1571540495728],[-98.648073,34.164441],[-98.690595,34.132972],[-98.703047,34.135903],[-98.712467,34.13116],[-98.717537,34.13645],[-98.734287,34.135758],[-98.741966,34.12553],[-98.757037,34.124633],[-98.76557,34.136376],[-98.788405,34.146668],[-98.796203,34.142775],[-98.812954,34.158444],[-98.831115,34.162154],[-98.83668,34.156495],[-98.855585,34.161621],[-98.860125,34.149913],[-98.868116,34.149635],[-98.874872,34.155657],[-98.872922,34.166584],[-98.918333,34.181831],[-98.952513,34.21265],[-98.960791,34.21303],[-98.966302,34.201323],[-98.974132,34.203566],[-98.987294,34.221223],[-99.000761,34.217643],[-99.002916,34.208782],[-99.013075,34.203222],[-99.036273,34.206912],[-99.043471,34.198208],[-99.079535,34.211518],[-99.088923,34.208475],[-99.095271,34.211842],[-99.102186,34.205483],[-99.126567,34.203004],[-99.131885,34.207382],[-99.126614,34.215329],[-99.130609,34.219408],[-99.13822,34.219159],[-99.15134,34.207603],[-99.189511,34.214312],[-99.190146,34.22966],[-99.197153,34.244298],[-99.191805,34.256444],[-99.198017,34.262723],[-99.19626,34.281463],[-99.207766,34.283823],[-99.213476,34.310672],[-99.205824,34.320082],[-99.210078,34.337705],[-99.195406,34.341476],[-99.192747,34.354861],[-99.207639,34.374238],[-99.220252,34.37508],[-99.209162,34.388619],[-99.210186,34.393406],[-99.228863,34.387698],[-99.225995,34.399976],[-99.235143,34.401072],[-99.23806,34.425009]]]}},{"type":"Feature","properties":{"GEOID":"40067","NAME":"Jefferson","state":"OK","wildfire_risk_score":78.244,"wildfire_eal_total":218344.89,"risk_band":"Low","source":"FEMA National Risk Index v1.20 (December 2025)"},"geometry":{"type":"Polygon","coordinates":[[[-98.139298,34.181067],[-98.139227,34.289824],[-97.562512,34.289183],[-97.560872,34.002978],[-97.553754,34.002721],[-97.551058,33.991941],[-97.536818,33.983877],[-97.560743,33.983964],[-97.5608977260312,33.8995888009747],[-97.581078,33.899679],[-97.596289,33.913769],[-97.591213,33.931245],[-97.59542,33.941436],[-97.590422,33.954104],[-97.633778,33.981257],[-97.671772,33.99137],[-97.69311,33.983699],[-97.709684,33.954997],[-97.725289,33.941045],[-97.733723,33.936392],[-97.762768,33.934396],[-97.759399,33.91882],[-97.76377,33.914241],[-97.779702,33.919721],[-97.785101,33.916815],[-97.779683,33.899243],[-97.782341,33.892306],[-97.797761,33.899286],[-97.80263,33.879971],[-97.807499,33.876401],[-97.816426,33.882081],[-97.819023,33.869908],[-97.834333,33.857671],[-97.871447,33.849001],[-97.936743,33.879204],[-97.967777,33.88243],[-97.98454,33.900703],[-97.978804,33.912548],[-97.969873,33.905999],[-97.957155,33.914454],[-97.953395,33.936445],[-97.971175,33.937129],[-97.974173,33.942832],[-97.960351,33.951928],[-97.94573,33.989839],[-97.958325,33.990846],[-97.974173,34.006716],[-97.987388,33.999823],[-98.027672,33.993357],[-98.088203,34.005481],[-98.082676,34.010796],[-98.106261,34.034154],[-98.103538,34.03853],[-98.092366,34.033929],[-98.08381,34.036656],[-98.083839,34.041719],[-98.114587,34.06228],[-98.121039,34.081266],[-98.099328,34.104295],[-98.089755,34.128211],[-98.100498,34.131369],[-98.101937,34.14683],[-98.109462,34.154111],[-98.123377,34.15454],[-98.1389788043646,34.1418054010562],[-98.139298,34.181067]]]}},{"type":"Feature","properties":{"GEOID":"40023","NAME":"Choctaw","state":"OK","wildfire_risk_score":65.14,"wildfire_eal_total":68979.05,"risk_band":"Low","source":"FEMA National Risk Index v1.20 (December 2025)"},"geometry":{"type":"Polygon","coordinates":[[[-95.991538,34.156805],[-95.156521,34.156965],[-95.1558864704409,33.9368927541364],[-95.214137,33.962142],[-95.226393,33.961954],[-95.232879,33.949736],[-95.250171,33.938497],[-95.252694,33.894234],[-95.260595,33.88765],[-95.264019,33.889757],[-95.266126,33.909773],[-95.278577,33.910191],[-95.285591,33.903357],[-95.280351,33.896751],[-95.278767,33.877906],[-95.289302,33.873103],[-95.30579,33.874805],[-95.326436,33.88607],[-95.334854,33.876831],[-95.362517,33.866581],[-95.384639,33.868425],[-95.402055,33.864188],[-95.427313,33.870446],[-95.440928,33.866429],[-95.464211,33.873372],[-95.461673,33.886998],[-95.484541,33.875897],[-95.502304,33.874742],[-95.505189,33.894991],[-95.510739,33.897877],[-95.533283,33.881162],[-95.545197,33.880294],[-95.550259,33.88833],[-95.548483,33.908534],[-95.554478,33.928072],[-95.580898,33.933844],[-95.593827,33.943031],[-95.600695,33.931268],[-95.616422,33.927406],[-95.629055,33.90587],[-95.665466,33.908978],[-95.684831,33.890232],[-95.697882,33.88611],[-95.710537,33.885],[-95.732961,33.895879],[-95.745905,33.896323],[-95.756367,33.892625],[-95.765593,33.871016],[-95.775168,33.874524],[-95.781459,33.868301],[-95.786747,33.873532],[-95.812023,33.869852],[-95.836905,33.873374],[-95.861155,33.8874],[-95.867339,33.905476],[-95.878595,33.915762],[-95.918871,33.925057],[-95.928892,33.939631],[-95.935944,33.942443],[-95.938196,34.125591],[-95.943954,34.124088],[-95.949783,34.129157],[-95.948408,34.134147],[-95.953803,34.138906],[-95.949758,34.145109],[-95.954576,34.14932],[-95.970187,34.155016],[-95.978912,34.150824],[-95.991538,34.156805]]]}},{"type":"Feature","properties":{"GEOID":"40135","NAME":"Sequoyah","state":"OK","wildfire_risk_score":96.12,"wildfire_eal_total":2961682.06,"risk_band":"High","source":"FEMA National Risk Index v1.20 (December 2025)"},"geometry":{"type":"Polygon","coordinates":[[[-95.13229,35.547764],[-95.132291,35.551808],[-95.12731,35.55182],[-95.127213,35.638788],[-94.472647,35.638556],[-94.430662,35.392478],[-94.441136,35.382146],[-94.472803,35.375781],[-94.486224,35.366057],[-94.480521,35.352291],[-94.494771,35.342566],[-94.494797,35.329809],[-94.483299,35.318105],[-94.481147,35.309507],[-94.494555,35.301126],[-94.516956,35.309517],[-94.533528,35.304331],[-94.547647,35.306352],[-94.569148,35.325641],[-94.588959,35.328526],[-94.59882,35.326445],[-94.615879,35.304111],[-94.629504,35.29527],[-94.66313,35.292563],[-94.678342,35.3048],[-94.683459,35.326252],[-94.703995,35.332475],[-94.730013,35.35195],[-94.750224,35.356969],[-94.775247,35.35318],[-94.794374,35.327086],[-94.817259,35.323867],[-94.825912,35.333399],[-94.82918,35.361915],[-94.834949,35.368368],[-94.845184,35.370785],[-94.865894,35.356599],[-94.90198,35.346709],[-94.914454,35.347525],[-94.919266,35.354141],[-94.894739,35.373088],[-94.892302,35.379676],[-94.901832,35.39794],[-94.925745,35.392845],[-94.938516,35.396595],[-94.951328,35.408334],[-95.000232,35.412025],[-95.021533,35.426795],[-95.023532,35.450795],[-95.027733,35.454795],[-95.061442,35.465095],[-95.084035,35.460396],[-95.096136,35.485696],[-95.124669,35.512023],[-95.132271,35.526055],[-95.13229,35.547764]]]}},{"type":"Feature","properties":{"GEOID":"40089","NAME":"McCurtain","state":"OK","wildfire_risk_score":77.608,"wildfire_eal_total":193065.25,"risk_band":"Low","source":"FEMA National Risk Index v1.20 (December 2025)"},"geometry":{"type":"Polygon","coordinates":[[[-95.156488,33.975303],[-95.156521,34.156965],[-95.151344,34.156841],[-95.151323,34.243737],[-95.046585,34.243776],[-95.046746,34.507276],[-94.461149,34.507457],[-94.485875,33.637867],[-94.491109,33.636233],[-94.487514,33.628939],[-94.491503,33.625115],[-94.504615,33.620682],[-94.511514,33.623105],[-94.51726,33.632729],[-94.519838,33.618077],[-94.527376,33.615833],[-94.535065,33.625115],[-94.518932,33.637164],[-94.527491,33.641344],[-94.555747,33.62709],[-94.569523,33.627832],[-94.568386,33.637203],[-94.545436,33.646228],[-94.543332,33.655686],[-94.549636,33.660676],[-94.577838,33.645557],[-94.59083,33.645563],[-94.560339,33.666591],[-94.579864,33.666167],[-94.580292,33.678819],[-94.587072,33.68582],[-94.59314,33.683236],[-94.591435,33.668914],[-94.59797,33.663381],[-94.607683,33.665569],[-94.622379,33.682428],[-94.628191,33.681073],[-94.637996,33.664578],[-94.655891,33.660166],[-94.669311,33.664362],[-94.668848,33.671878],[-94.661806,33.675133],[-94.651296,33.670419],[-94.645535,33.673531],[-94.648902,33.684024],[-94.638646,33.695804],[-94.644322,33.701666],[-94.650961,33.686558],[-94.667852,33.694607],[-94.684792,33.684353],[-94.716188,33.687902],[-94.713935,33.696835],[-94.702187,33.697452],[-94.701729,33.703413],[-94.732309,33.715987],[-94.731306,33.707081],[-94.717788,33.701846],[-94.716594,33.695164],[-94.720742,33.689056],[-94.735856,33.691625],[-94.741877,33.701223],[-94.753801,33.707729],[-94.732786,33.720035],[-94.735178,33.726616],[-94.741775,33.72687],[-94.752129,33.713835],[-94.757611,33.717164],[-94.748236,33.724712],[-94.752512,33.734468],[-94.760604,33.727054],[-94.773126,33.727187],[-94.788251,33.735316],[-94.777393,33.745196],[-94.757813,33.750109],[-94.757205,33.754818],[-94.76444,33.760178],[-94.774923,33.758115],[-94.780966,33.744804],[-94.802252,33.732788],[-94.816065,33.739215],[-94.812155,33.750936],[-94.821783,33.768752],[-94.83009,33.763661],[-94.830844,33.758079],[-94.823042,33.747525],[-94.822473,33.732716],[-94.830717,33.7405],[-94.849296,33.739585],[-94.8693,33.745871],[-94.87708,33.75222],[-94.866736,33.76183],[-94.868144,33.768874],[-94.873837,33.770315],[-94.876504,33.757405],[-94.887748,33.769016],[-94.897718,33.768839],[-94.904172,33.777198],[-94.911427,33.778383],[-94.921955,33.791599],[-94.917029,33.808321],[-94.910209,33.812429],[-94.914764,33.824487],[-94.926072,33.828533],[-94.925215,33.808678],[-94.947874,33.808356],[-94.953518,33.816475],[-94.943831,33.8293],[-94.964401,33.837021],[-94.968895,33.860916],[-94.988487,33.851],[-95.001993,33.863049],[-95.01728,33.857953],[-95.046568,33.862565],[-95.060105,33.901873],[-95.072413,33.902699],[-95.063338,33.910871],[-95.068729,33.917601],[-95.074052,33.915349],[-95.078822,33.903031],[-95.080586,33.882256],[-95.089607,33.880857],[-95.100168,33.896101],[-95.078528,33.910283],[-95.076372,33.915378],[-95.082387,33.921758],[-95.089111,33.914203],[-95.112575,33.904603],[-95.126442,33.90708],[-95.131642,33.916027],[-95.121184,33.931307],[-95.131056,33.936925],[-95.1558864704409,33.9368927541364],[-95.156488,33.975303]]]}},{"type":"Feature","properties":{"GEOID":"40087","NAME":"McClain","state":"OK","wildfire_risk_score":87.182,"wildfire_eal_total":1019305.78,"risk_band":"Moderate","source":"FEMA National Risk Index v1.20 (December 2025)"},"geometry":{"type":"Polygon","coordinates":[[[-97.671415,35.337465],[-97.652537,35.333381],[-97.617799,35.305211],[-97.581359,35.30246],[-97.560699,35.292074],[-97.554779,35.261978],[-97.564275,35.251772],[-97.558865,35.248108],[-97.566482,35.247436],[-97.556692,35.240201],[-97.562218,35.23463],[-97.55479,35.224329],[-97.442652,35.160442],[-97.433069,35.143794],[-97.407082,35.138144],[-97.401317,35.124871],[-97.405166,35.108941],[-97.402076,35.08637],[-97.38868,35.082103],[-97.364128,35.084556],[-97.353418,35.075251],[-97.349632,35.055532],[-97.358009,35.033715],[-97.341491,34.993707],[-97.347855,34.979216],[-97.341509,34.964001],[-97.333833,34.958948],[-97.311227,34.953282],[-97.299633,34.964611],[-97.273851,34.962994],[-97.261592,34.945441],[-97.239851,34.947111],[-97.232689,34.9419],[-97.230367,34.931907],[-97.217896,34.944277],[-97.198413,34.939844],[-97.196172,34.92825],[-97.154556,34.931385],[-97.135805,34.924399],[-97.132867,34.934642],[-97.114,34.935101],[-97.10035,34.929615],[-97.085537,34.931359],[-97.07179,34.91986],[-97.052477,34.921254],[-97.01593,34.907348],[-96.983308,34.921475],[-96.974944,34.934269],[-96.967349,34.934669],[-96.957037,34.950979],[-96.930586,34.964364],[-96.930872,34.854632],[-97.670437,34.855221],[-97.671415,35.337465]]]}},{"type":"Feature","properties":{"GEOID":"40125","NAME":"Pottawatomie","state":"OK","wildfire_risk_score":92.239,"wildfire_eal_total":1507589.4,"risk_band":"High","source":"FEMA National Risk Index v1.20 (December 2025)"},"geometry":{"type":"Polygon","coordinates":[[[-97.142314,35.012048],[-97.14149,35.463977],[-96.624681,35.462707],[-96.623699,35.400722],[-96.630182,35.392695],[-96.636243,35.39901],[-96.652425,35.391649],[-96.675319,35.403942],[-96.690002,35.403856],[-96.704536,35.416829],[-96.718812,35.411967],[-96.716876,35.419181],[-96.724807,35.425007],[-96.73806,35.419858],[-96.73314,35.416557],[-96.741446,35.414387],[-96.742784,35.406825],[-96.7692,35.41062],[-96.774473,35.405802],[-96.776695,35.410886],[-96.775681,34.899958],[-96.785069,34.899145],[-96.798583,34.905939],[-96.798208,34.929992],[-96.813452,34.944649],[-96.821488,34.946112],[-96.849442,34.929689],[-96.8854,34.926251],[-96.910609,34.958659],[-96.928271,34.965213],[-96.957037,34.950979],[-96.967349,34.934669],[-96.974944,34.934269],[-96.983308,34.921475],[-97.01593,34.907348],[-97.052477,34.921254],[-97.07179,34.91986],[-97.085537,34.931359],[-97.132867,34.934642],[-97.135805,34.924399],[-97.142349,34.928176],[-97.142314,35.012048]]]}},{"type":"Feature","properties":{"GEOID":"40101","NAME":"Muskogee","state":"OK","wildfire_risk_score":88.963,"wildfire_eal_total":849338.63,"risk_band":"High","source":"FEMA National Risk Index v1.20 (December 2025)"},"geometry":{"type":"Polygon","coordinates":[[[-95.766197,35.748022],[-95.766114,35.856284],[-95.650419,35.856644],[-95.649135,35.842141],[-95.638683,35.835489],[-95.638313,35.787596],[-95.621518,35.777641],[-95.60195,35.778087],[-95.590149,35.765428],[-95.577285,35.771553],[-95.563091,35.787908],[-95.520728,35.792249],[-95.477552,35.804199],[-95.426149,35.798399],[-95.362317,35.822574],[-95.337702,35.813278],[-95.127163,35.812755],[-95.12731,35.55182],[-95.132291,35.551808],[-95.132271,35.526055],[-95.120836,35.505696],[-95.096136,35.485696],[-95.086835,35.462496],[-95.077235,35.458796],[-95.061442,35.465095],[-95.049933,35.458894],[-95.070535,35.447096],[-95.079935,35.432996],[-95.085236,35.407196],[-95.102637,35.396896],[-95.120068,35.373066],[-95.135438,35.380396],[-95.159815,35.370132],[-95.159611,35.365224],[-95.141296,35.355565],[-95.148024,35.345953],[-95.165656,35.353066],[-95.179518,35.345701],[-95.182549,35.336857],[-95.17118,35.315426],[-95.171763,35.305553],[-95.176474,35.301344],[-95.19919,35.303592],[-95.209413,35.28382],[-95.23134,35.265927],[-95.243809,35.261636],[-95.256979,35.265766],[-95.285746,35.293397],[-95.300947,35.301397],[-95.316674,35.30209],[-95.344766,35.293035],[-95.344799,35.551751],[-95.712953,35.551738],[-95.713081,35.725807],[-95.766265,35.72575],[-95.766197,35.748022]]]}},{"type":"Feature","properties":{"GEOID":"40035","NAME":"Craig","state":"OK","wildfire_risk_score":60.433,"wildfire_eal_total":57207.16,"risk_band":"Low","source":"FEMA National Risk Index v1.20 (December 2025)"},"geometry":{"type":"Polygon","coordinates":[[[-95.431769,36.902261],[-95.431758,36.942593],[-95.407844,36.94271],[-95.4077330426944,36.99924099711],[-95.00762,36.999514],[-95.034008,36.994259],[-95.03411,36.984653],[-95.027934,36.977788],[-95.037735,36.974899],[-95.022231,36.9608],[-94.993385,36.949941],[-94.999151,36.943101],[-94.99945,36.59803],[-95.00569,36.59766],[-95.00573,36.50989],[-95.32817,36.51024],[-95.32837,36.59763],[-95.43157,36.59754],[-95.431769,36.902261]]]}},{"type":"Feature","properties":{"GEOID":"40075","NAME":"Kiowa","state":"OK","wildfire_risk_score":71.628,"wildfire_eal_total":132047.22,"risk_band":"Low","source":"FEMA National Risk Index v1.20 (December 2025)"},"geometry":{"type":"Polygon","coordinates":[[[-99.409285,35.116927],[-98.749158,35.116346],[-98.73586,35.101044],[-98.72887,35.109453],[-98.73177,35.113963],[-98.716384,35.113006],[-98.72009,35.109134],[-98.712452,35.104761],[-98.696315,35.111909],[-98.684943,35.107078],[-98.684776,35.1142],[-98.675941,35.108451],[-98.672232,35.119009],[-98.662203,35.118321],[-98.65227,35.123975],[-98.642795,35.120101],[-98.650435,35.114836],[-98.643803,35.111536],[-98.638918,35.123169],[-98.629975,35.116385],[-98.620692,35.097765],[-98.619816,34.85534],[-98.826041,34.855122],[-98.826008,34.594413],[-99.001107,34.594366],[-99.001025,34.637872],[-99.10315,34.63795],[-99.09703,34.645778],[-99.091607,34.672945],[-99.041894,34.678925],[-99.044694,34.681353],[-99.037288,34.690193],[-99.045746,34.692279],[-99.052511,34.701557],[-99.102403,34.695435],[-99.149114,34.702352],[-99.158597,34.710051],[-99.154126,34.722625],[-99.161031,34.731513],[-99.161249,34.741752],[-99.171626,34.744846],[-99.172873,34.755683],[-99.16391,34.751123],[-99.162603,34.760445],[-99.15028,34.762],[-99.163433,34.7686],[-99.165426,34.788413],[-99.162592,34.793108],[-99.15368,34.792006],[-99.148958,34.796311],[-99.15373,34.805039],[-99.153665,34.827669],[-99.144276,34.828354],[-99.153411,34.835708],[-99.14457,34.84954],[-99.168938,34.847874],[-99.177994,34.85864],[-99.190665,34.858182],[-99.19322,34.843753],[-99.201499,34.837453],[-99.214805,34.836672],[-99.212052,34.826731],[-99.226275,34.828721],[-99.23349,34.816419],[-99.238656,34.816073],[-99.25608,34.836341],[-99.277942,34.839373],[-99.282244,34.84897],[-99.30497,34.856372],[-99.31728,34.871489],[-99.317725,34.882238],[-99.310971,34.888743],[-99.290945,34.886685],[-99.292817,34.895656],[-99.298458,34.899119],[-99.289412,34.902574],[-99.298389,34.924067],[-99.315288,34.926352],[-99.310906,34.934968],[-99.330818,34.944761],[-99.334329,34.972769],[-99.34408,34.971102],[-99.347981,34.982415],[-99.335055,34.988453],[-99.336406,34.997625],[-99.326757,35.018912],[-99.336294,35.02478],[-99.324774,35.030681],[-99.323587,35.038493],[-99.349019,35.042803],[-99.352155,35.052813],[-99.370905,35.05342],[-99.372646,35.060284],[-99.364923,35.061644],[-99.368367,35.087867],[-99.375824,35.082985],[-99.376476,35.091758],[-99.385448,35.093434],[-99.388962,35.088855],[-99.397681,35.093897],[-99.401384,35.09951],[-99.397648,35.104479],[-99.404727,35.105832],[-99.409285,35.116927]]]}},{"type":"Feature","properties":{"GEOID":"40079","NAME":"Le Flore","state":"OK","wildfire_risk_score":96.088,"wildfire_eal_total":3214892.44,"risk_band":"High","source":"FEMA National Risk Index v1.20 (December 2025)"},"geometry":{"type":"Polygon","coordinates":[[[-95.059957,34.753208],[-95.059512,34.855019],[-94.997832,34.854915],[-94.998125,34.941964],[-94.927664,34.942025],[-94.927774,35.20261],[-94.814276,35.202331],[-94.813629,35.323344],[-94.792713,35.32835],[-94.775247,35.35318],[-94.750224,35.356969],[-94.730013,35.35195],[-94.703995,35.332475],[-94.683459,35.326252],[-94.678342,35.3048],[-94.66313,35.292563],[-94.629504,35.29527],[-94.615879,35.304111],[-94.59882,35.326445],[-94.588959,35.328526],[-94.569148,35.325641],[-94.547647,35.306352],[-94.533528,35.304331],[-94.516956,35.309517],[-94.494555,35.301126],[-94.481147,35.309507],[-94.483299,35.318105],[-94.494797,35.329809],[-94.494771,35.342566],[-94.480521,35.352291],[-94.486224,35.366057],[-94.472803,35.375781],[-94.446008,35.380101],[-94.43559,35.386122],[-94.431596,35.369538],[-94.461149,34.507457],[-94.937604,34.507296],[-94.937555,34.680792],[-95.059616,34.680736],[-95.059957,34.753208]]]}},{"type":"Feature","properties":{"GEOID":"40113","NAME":"Osage","state":"OK","wildfire_risk_score":94.752,"wildfire_eal_total":2389512.53,"risk_band":"High","source":"FEMA National Risk Index v1.20 (December 2025)"},"geometry":{"type":"Polygon","coordinates":[[[-97.064479,36.680758],[-97.061406,36.686856],[-97.032526,36.701959],[-97.024188,36.693404],[-97.005391,36.693999],[-96.992035,36.687596],[-96.931943,36.686097],[-96.92741,36.68842],[-96.920554,36.717752],[-96.888581,36.751793],[-96.86869,36.753537],[-96.853627,36.746111],[-96.830383,36.744172],[-96.818061,36.758988],[-96.822585,36.767559],[-96.788687,36.767597],[-96.788652,36.782006],[-96.752375,36.782092],[-96.749838,36.998988],[-96.00081,36.99886],[-96.001226,36.161296],[-96.268287,36.16198],[-96.269183,36.173684],[-96.243047,36.200241],[-96.246344,36.214681],[-96.25396,36.223772],[-96.339996,36.230024],[-96.386793,36.267137],[-96.427804,36.280183],[-96.436307,36.289751],[-96.441998,36.315117],[-96.456832,36.332173],[-96.48677,36.32985],[-96.502748,36.30589],[-96.515229,36.298332],[-96.536411,36.296416],[-96.560577,36.303974],[-96.573481,36.315709],[-96.572459,36.332635],[-96.559027,36.348543],[-96.534179,36.355957],[-96.523144,36.365215],[-96.518709,36.377576],[-96.526598,36.394223],[-96.540725,36.400402],[-96.572128,36.375987],[-96.586464,36.373862],[-96.600545,36.380628],[-96.606449,36.403268],[-96.620232,36.40995],[-96.627391,36.422227],[-96.635727,36.425908],[-96.678459,36.420854],[-96.710769,36.437656],[-96.718075,36.45398],[-96.706195,36.477564],[-96.706267,36.486212],[-96.724851,36.503204],[-96.723489,36.520178],[-96.732669,36.543233],[-96.753554,36.562601],[-96.76947,36.565407],[-96.820613,36.539317],[-96.837714,36.520767],[-96.837911,36.511749],[-96.851853,36.491056],[-96.875321,36.470915],[-96.912476,36.467841],[-96.940235,36.455525],[-96.981961,36.466059],[-97.00697,36.489247],[-97.009456,36.512532],[-97.005018,36.521825],[-96.981787,36.534493],[-96.94991,36.537301],[-96.92471,36.552558],[-96.901263,36.551741],[-96.890368,36.563605],[-96.888017,36.574886],[-96.909279,36.59631],[-96.920492,36.600663],[-96.948628,36.589997],[-97.004293,36.582595],[-97.055881,36.592462],[-97.057099,36.597829],[-97.043911,36.599934],[-97.052107,36.612579],[-97.048564,36.623233],[-97.051521,36.641225],[-97.061988,36.650733],[-97.064479,36.680758]]]}},{"type":"Feature","properties":{"GEOID":"40111","NAME":"Okmulgee","state":"OK","wildfire_risk_score":91.73,"wildfire_eal_total":1243090.48,"risk_band":"High","source":"FEMA National Risk Index v1.20 (December 2025)"},"geometry":{"type":"Polygon","coordinates":[[[-96.192689,35.558894],[-96.192403,35.856993],[-95.766114,35.856284],[-95.766265,35.72575],[-95.713081,35.725807],[-95.712953,35.551738],[-95.822361,35.551693],[-95.82243,35.463776],[-95.875347,35.463623],[-95.875405,35.37669],[-96.08753,35.376877],[-96.087801,35.552003],[-96.1927,35.551968],[-96.192689,35.558894]]]}},{"type":"Feature","properties":{"GEOID":"40117","NAME":"Pawnee","state":"OK","wildfire_risk_score":86.8,"wildfire_eal_total":621323.77,"risk_band":"Moderate","source":"FEMA National Risk Index v1.20 (December 2025)"},"geometry":{"type":"Polygon","coordinates":[[[-97.032118,36.506957],[-97.009785,36.506935],[-97.005201,36.485659],[-96.981961,36.466059],[-96.935276,36.455938],[-96.912476,36.467841],[-96.875321,36.470915],[-96.851853,36.491056],[-96.837911,36.511749],[-96.837714,36.520767],[-96.820613,36.539317],[-96.76947,36.565407],[-96.753554,36.562601],[-96.732669,36.543233],[-96.723489,36.520178],[-96.724851,36.503204],[-96.706267,36.486212],[-96.706195,36.477564],[-96.718075,36.45398],[-96.710769,36.437656],[-96.678459,36.420854],[-96.635727,36.425908],[-96.627391,36.422227],[-96.620232,36.40995],[-96.606449,36.403268],[-96.600545,36.380628],[-96.586464,36.373862],[-96.572128,36.375987],[-96.540725,36.400402],[-96.526598,36.394223],[-96.518709,36.377576],[-96.523144,36.365215],[-96.534179,36.355957],[-96.559027,36.348543],[-96.572459,36.332635],[-96.573481,36.315709],[-96.563906,36.306097],[-96.536411,36.296416],[-96.515229,36.298332],[-96.502748,36.30589],[-96.48677,36.32985],[-96.461255,36.333713],[-96.445764,36.321268],[-96.436307,36.289751],[-96.427804,36.280183],[-96.386793,36.267137],[-96.3366,36.22884],[-96.256624,36.225676],[-96.244607,36.210809],[-96.243967,36.196965],[-96.269183,36.173684],[-96.268287,36.16198],[-96.620917,36.163439],[-96.62212,36.159903],[-96.819005,36.158886],[-96.818968,36.246478],[-96.925069,36.246474],[-96.924936,36.333344],[-97.032106,36.333354],[-97.032118,36.506957]]]}},{"type":"Feature","properties":{"GEOID":"40027","NAME":"Cleveland","state":"OK","wildfire_risk_score":84.955,"wildfire_eal_total":759205.41,"risk_band":"Moderate","source":"FEMA National Risk Index v1.20 (December 2025)"},"geometry":{"type":"Polygon","coordinates":[[[-97.671463,35.346896],[-97.671369,35.377151],[-97.142114,35.37686],[-97.142349,34.928176],[-97.157795,34.931509],[-97.196172,34.92825],[-97.198413,34.939844],[-97.217896,34.944277],[-97.230367,34.931907],[-97.232689,34.9419],[-97.239851,34.947111],[-97.261592,34.945441],[-97.273851,34.962994],[-97.299633,34.964611],[-97.311227,34.953282],[-97.325925,34.955092],[-97.341509,34.964001],[-97.348362,34.981659],[-97.341491,34.993707],[-97.358009,35.033715],[-97.349632,35.055532],[-97.353418,35.075251],[-97.364128,35.084556],[-97.38868,35.082103],[-97.402076,35.08637],[-97.405166,35.108941],[-97.401317,35.124871],[-97.407082,35.138144],[-97.433069,35.143794],[-97.442652,35.160442],[-97.55479,35.224329],[-97.562218,35.23463],[-97.556692,35.240201],[-97.566482,35.247436],[-97.558865,35.248108],[-97.564275,35.251772],[-97.554779,35.261978],[-97.560699,35.292074],[-97.581359,35.30246],[-97.617799,35.305211],[-97.652537,35.333381],[-97.671415,35.337465],[-97.671463,35.346896]]]}},{"type":"Feature","properties":{"GEOID":"40077","NAME":"Latimer","state":"OK","wildfire_risk_score":92.621,"wildfire_eal_total":1293256.74,"risk_band":"High","source":"FEMA National Risk Index v1.20 (December 2025)"},"geometry":{"type":"Polygon","coordinates":[[[-95.514316,34.724163],[-95.514103,34.854929],[-95.507469,34.854937],[-95.507738,35.029265],[-95.349437,35.029299],[-95.349409,35.05852],[-94.927863,35.058246],[-94.927664,34.942025],[-94.998125,34.941964],[-94.997832,34.854915],[-95.059512,34.855019],[-95.059616,34.680736],[-95.514475,34.680718],[-95.514316,34.724163]]]}},{"type":"Feature","properties":{"GEOID":"40013","NAME":"Bryan","state":"OK","wildfire_risk_score":87.532,"wildfire_eal_total":681248.84,"risk_band":"Moderate","source":"FEMA National Risk Index v1.20 (December 2025)"},"geometry":{"type":"Polygon","coordinates":[[[-96.629747,33.850866],[-96.61197,33.869016],[-96.587494,33.884251],[-96.585452,33.891281],[-96.59111,33.903225],[-96.58253,33.908299],[-96.580949,33.915425],[-96.59091,33.919231],[-96.580591,33.923312],[-96.593158,33.932961],[-96.590791,33.937328],[-96.596462,33.945667],[-96.593058,33.950922],[-96.584353,33.95042],[-96.585384,33.954884],[-96.575927,33.962534],[-96.585202,33.967356],[-96.585874,33.974661],[-96.593646,33.971013],[-96.606792,33.98194],[-96.602762,33.987938],[-96.615638,33.990729],[-96.614316,33.997017],[-96.6233,34.002418],[-96.624803,34.009724],[-96.620944,34.005527],[-96.616993,34.010209],[-96.604294,34.007869],[-96.602345,34.014194],[-96.593423,34.016728],[-96.584898,34.007297],[-96.578946,34.00914],[-96.573324,34.019611],[-96.579581,34.022609],[-96.573022,34.02862],[-96.579989,34.031199],[-96.574332,34.03696],[-96.578574,34.04503],[-96.577844,34.048568],[-96.571321,34.04927],[-96.576484,34.043476],[-96.571548,34.042516],[-96.558012,34.050463],[-96.547642,34.063652],[-96.550753,34.071749],[-96.564284,34.077159],[-96.555892,34.081178],[-96.568602,34.084785],[-96.565716,34.089691],[-96.585355,34.114459],[-96.453836,34.1141],[-96.453901,34.157348],[-95.991578,34.156805],[-95.978912,34.150824],[-95.970187,34.155016],[-95.954576,34.14932],[-95.949758,34.145109],[-95.953803,34.138906],[-95.948408,34.134147],[-95.949783,34.129157],[-95.943954,34.124088],[-95.938196,34.125591],[-95.935944,33.942443],[-95.928892,33.939631],[-95.918871,33.925057],[-95.878595,33.915762],[-95.867339,33.905476],[-95.861155,33.8874],[-95.839776,33.874186],[-95.812023,33.869852],[-95.786747,33.873532],[-95.781459,33.868301],[-95.775168,33.874524],[-95.7614490359398,33.8731846176704],[-95.75129,33.858881],[-95.757465,33.850039],[-95.770556,33.845269],[-95.800842,33.861212],[-95.817618,33.859023],[-95.821666,33.856633],[-95.820784,33.840564],[-95.837516,33.83564],[-95.855521,33.849258],[-95.929561,33.885],[-95.944284,33.859811],[-95.984253,33.852664],[-95.984254,33.864403],[-96.003406,33.872344],[-96.001336,33.863496],[-95.994525,33.861465],[-95.995857,33.855693],[-96.00163,33.8477],[-96.019599,33.840566],[-96.023241,33.842479],[-96.019542,33.853497],[-96.023907,33.857067],[-96.029438,33.856348],[-96.037191,33.841245],[-96.048834,33.836468],[-96.100095,33.847971],[-96.09936,33.83047],[-96.122951,33.839964],[-96.14807,33.837799],[-96.150765,33.816987],[-96.164808,33.817797],[-96.178964,33.810553],[-96.170373,33.799382],[-96.166991,33.811103],[-96.156355,33.813349],[-96.169452,33.770131],[-96.178059,33.760518],[-96.229023,33.748021],[-96.263593,33.767467],[-96.293708,33.769409],[-96.303009,33.750878],[-96.307035,33.719987],[-96.316925,33.698997],[-96.348306,33.686379],[-96.362198,33.691818],[-96.36959,33.716809],[-96.408469,33.751192],[-96.422643,33.776041],[-96.448045,33.781031],[-96.459154,33.775232],[-96.500268,33.772583],[-96.515912,33.787795],[-96.516584,33.803168],[-96.526655,33.820891],[-96.572937,33.819098],[-96.623155,33.841483],[-96.629747,33.850866]]]}},{"type":"Feature","properties":{"GEOID":"40049","NAME":"Garvin","state":"OK","wildfire_risk_score":87.214,"wildfire_eal_total":809525.38,"risk_band":"Moderate","source":"FEMA National Risk Index v1.20 (December 2025)"},"geometry":{"type":"Polygon","coordinates":[[[-97.668483,34.693492],[-97.668099,34.855164],[-96.93244,34.854556],[-96.932452,34.636812],[-97.142671,34.637126],[-97.142604,34.622593],[-97.200073,34.622762],[-97.194838,34.616145],[-97.198015,34.608759],[-97.190676,34.605607],[-97.19134,34.597443],[-97.173979,34.595011],[-97.167061,34.588181],[-97.174196,34.584851],[-97.164306,34.573638],[-97.176025,34.57159],[-97.171558,34.563713],[-97.157314,34.563995],[-97.164765,34.559197],[-97.157504,34.552163],[-97.163343,34.548506],[-97.16021,34.534866],[-97.165706,34.531686],[-97.156792,34.521777],[-97.144282,34.522017],[-97.153095,34.516788],[-97.143973,34.506606],[-97.563183,34.507026],[-97.563004,34.681185],[-97.668512,34.68134],[-97.668483,34.693492]]]}},{"type":"Feature","properties":{"GEOID":"40143","NAME":"Tulsa","state":"OK","wildfire_risk_score":91.253,"wildfire_eal_total":1486406.43,"risk_band":"High","source":"FEMA National Risk Index v1.20 (December 2025)"},"geometry":{"type":"Polygon","coordinates":[[[-96.297906,36.076046],[-96.297888,36.162279],[-96.001226,36.161296],[-96.001171,36.423686],[-95.79437,36.42358],[-95.79425,36.394505],[-95.812256,36.394575],[-95.8154,36.16263],[-95.76165,36.16275],[-95.762029,35.901151],[-95.819477,35.901198],[-95.819459,35.856255],[-96.033118,35.856824],[-96.029583,36.075366],[-96.297906,36.076046]]]}},{"type":"Feature","properties":{"GEOID":"40063","NAME":"Hughes","state":"OK","wildfire_risk_score":89.695,"wildfire_eal_total":1168759.87,"risk_band":"High","source":"FEMA National Risk Index v1.20 (December 2025)"},"geometry":{"type":"Polygon","coordinates":[[[-96.490653,34.966094],[-96.490434,35.115857],[-96.441305,35.115771],[-96.441368,35.290122],[-95.981511,35.28978],[-95.983077,35.151695],[-96.012291,35.14506],[-96.009214,35.118759],[-96.029969,35.120336],[-96.041857,35.104348],[-96.060943,35.091577],[-96.070101,35.055513],[-96.088792,35.049875],[-96.092001,34.767479],[-96.406483,34.767328],[-96.406135,34.934191],[-96.418412,34.907851],[-96.424701,34.903687],[-96.435587,34.90228],[-96.460367,34.916499],[-96.478095,34.916352],[-96.490786,34.910585],[-96.490653,34.966094]]]}},{"type":"Feature","properties":{"GEOID":"40019","NAME":"Carter","state":"OK","wildfire_risk_score":88.422,"wildfire_eal_total":902424.78,"risk_band":"Moderate","source":"FEMA National Risk Index v1.20 (December 2025)"},"geometry":{"type":"Polygon","coordinates":[[[-97.562632,34.318173],[-97.562323,34.507036],[-97.352183,34.506796],[-97.352115,34.376188],[-97.038239,34.375707],[-97.033734,34.372915],[-97.038838,34.36691],[-97.031546,34.350524],[-97.042639,34.341783],[-97.02919,34.332235],[-96.933305,34.332561],[-96.933503,34.172748],[-96.968424,34.172684],[-96.968067,34.071001],[-97.56234,34.07115],[-97.562632,34.318173]]]}},{"type":"Feature","properties":{"GEOID":"40137","NAME":"Stephens","state":"OK","wildfire_risk_score":88.55,"wildfire_eal_total":980600.87,"risk_band":"Moderate","source":"FEMA National Risk Index v1.20 (December 2025)"},"geometry":{"type":"Polygon","coordinates":[[[-98.14212,34.543362],[-98.141799,34.681158],[-97.563004,34.681185],[-97.562512,34.289183],[-98.139227,34.289824],[-98.14212,34.543362]]]}},{"type":"Feature","properties":{"GEOID":"40099","NAME":"Murray","state":"OK","wildfire_risk_score":82.379,"wildfire_eal_total":399687.49,"risk_band":"Moderate","source":"FEMA National Risk Index v1.20 (December 2025)"},"geometry":{"type":"Polygon","coordinates":[[[-97.352191,34.492329],[-97.352183,34.506796],[-97.143973,34.506606],[-97.153095,34.516788],[-97.144282,34.522017],[-97.156792,34.521777],[-97.165706,34.531686],[-97.16021,34.534866],[-97.163343,34.548506],[-97.157504,34.552163],[-97.164765,34.559197],[-97.157314,34.563995],[-97.171558,34.563713],[-97.176025,34.57159],[-97.164306,34.573638],[-97.174196,34.584851],[-97.167061,34.588181],[-97.173979,34.595011],[-97.19134,34.597443],[-97.190676,34.605607],[-97.198015,34.608759],[-97.194838,34.616145],[-97.200073,34.622762],[-97.142604,34.622593],[-97.142671,34.637126],[-96.932452,34.636812],[-96.932423,34.593261],[-96.827144,34.59322],[-96.827343,34.506062],[-96.88079,34.506053],[-96.881005,34.332977],[-97.02919,34.332235],[-97.042639,34.341783],[-97.031546,34.350524],[-97.038838,34.36691],[-97.033734,34.372915],[-97.038239,34.375707],[-97.352115,34.376188],[-97.352191,34.492329]]]}},{"type":"Feature","properties":{"GEOID":"40057","NAME":"Harmon","state":"OK","wildfire_risk_score":57.952,"wildfire_eal_total":50201.7,"risk_band":"Low","source":"FEMA National Risk Index v1.20 (December 2025)"},"geometry":{"type":"Polygon","coordinates":[[[-100.000383599196,35.0299300002039],[-99.888454,35.030263],[-99.888222,34.943897],[-99.731092,34.944058],[-99.730862,34.856986],[-99.719805,34.857003],[-99.719797,34.768451],[-99.684839,34.768378],[-99.684712,34.753744],[-99.667145,34.753742],[-99.666512,34.507121],[-99.8446582036581,34.5067869364725],[-99.887147,34.549047],[-99.929334,34.576714],[-99.954567,34.578195],[-99.971555,34.562179],[-100.000381,34.560509],[-100.000383599196,35.0299300002039]]]}},{"type":"Feature","properties":{"GEOID":"40029","NAME":"Coal","state":"OK","wildfire_risk_score":86.832,"wildfire_eal_total":483597.35,"risk_band":"Moderate","source":"FEMA National Risk Index v1.20 (December 2025)"},"geometry":{"type":"Polygon","coordinates":[[[-96.513787,34.505396],[-96.512171,34.680065],[-96.406357,34.680023],[-96.406483,34.767328],[-96.092001,34.767479],[-96.092029,34.506157],[-96.145442,34.505944],[-96.145423,34.418313],[-96.513768,34.419569],[-96.513787,34.505396]]]}},{"type":"Feature","properties":{"GEOID":"40001","NAME":"Adair","state":"OK","wildfire_risk_score":90.617,"wildfire_eal_total":1040274.25,"risk_band":"High","source":"FEMA National Risk Index v1.20 (December 2025)"},"geometry":{"type":"Polygon","coordinates":[[[-94.807736,35.660232],[-94.807456,35.900919],[-94.797399,35.900918],[-94.797409,36.161652],[-94.5628276914512,36.1618934952038],[-94.472647,35.638556],[-94.807757,35.638546],[-94.807736,35.660232]]]}},{"type":"Feature","properties":{"GEOID":"40041","NAME":"Delaware","state":"OK","wildfire_risk_score":90.808,"wildfire_eal_total":935966.09,"risk_band":"High","source":"FEMA National Risk Index v1.20 (December 2025)"},"geometry":{"type":"Polygon","coordinates":[[[-95.011011,36.162914],[-95.010173,36.248822],[-95.005538,36.248706],[-95.00569,36.59766],[-94.99945,36.59803],[-94.999403,36.670631],[-94.6180194242896,36.6679212127705],[-94.617919,36.499414],[-94.5628276914512,36.1618934952038],[-95.011011,36.162914]]]}},{"type":"Feature","properties":{"GEOID":"40115","NAME":"Ottawa","state":"OK","wildfire_risk_score":64.854,"wildfire_eal_total":79760.73,"risk_band":"Low","source":"FEMA National Risk Index v1.20 (December 2025)"},"geometry":{"type":"Polygon","coordinates":[[[-95.037352,36.976174],[-95.027934,36.977788],[-95.03411,36.984653],[-95.034008,36.994259],[-95.00762,36.999514],[-94.617964,36.998905],[-94.6180194242896,36.6679212127705],[-94.999403,36.670631],[-94.999151,36.943101],[-94.993385,36.949941],[-95.022231,36.9608],[-95.037352,36.976174]]]}},{"type":"Feature","properties":{"GEOID":"40109","NAME":"Oklahoma","state":"OK","wildfire_risk_score":88.931,"wildfire_eal_total":1070333.39,"risk_band":"Moderate","source":"FEMA National Risk Index v1.20 (December 2025)"},"geometry":{"type":"Polygon","coordinates":[[[-97.674048,35.569321],[-97.674026,35.72597],[-97.141066,35.724401],[-97.142114,35.37686],[-97.671369,35.377151],[-97.674048,35.569321]]]}},{"type":"Feature","properties":{"GEOID":"40017","NAME":"Canadian","state":"OK","wildfire_risk_score":83.906,"wildfire_eal_total":917010.6,"risk_band":"Moderate","source":"FEMA National Risk Index v1.20 (December 2025)"},"geometry":{"type":"Polygon","coordinates":[[[-98.313282,35.617081],[-98.313155,35.724741],[-97.674026,35.72597],[-97.671414,35.335946],[-97.706291,35.324973],[-97.720035,35.328515],[-97.737305,35.323762],[-97.769273,35.34565],[-97.777567,35.337087],[-97.790427,35.332921],[-97.807186,35.340846],[-97.812129,35.333788],[-97.841333,35.33453],[-97.856847,35.344955],[-97.862805,35.36183],[-97.871665,35.362029],[-97.873923,35.355984],[-97.88496,35.355821],[-97.884098,35.349012],[-97.901203,35.344323],[-97.903133,35.355574],[-97.920835,35.353518],[-97.930496,35.364113],[-97.932252,35.373383],[-97.943409,35.377193],[-97.947212,35.374854],[-97.946843,35.356412],[-97.952548,35.34775],[-97.960124,35.34594],[-97.973856,35.357104],[-98.001489,35.364359],[-98.010836,35.360769],[-98.009872,35.369354],[-98.019312,35.378433],[-98.306326,35.377239],[-98.306496,35.536238],[-98.308393,35.551313],[-98.313251,35.551523],[-98.313282,35.617081]]]}},{"type":"Feature","properties":{"GEOID":"40015","NAME":"Caddo","state":"OK","wildfire_risk_score":85.592,"wildfire_eal_total":533128.02,"risk_band":"Moderate","source":"FEMA National Risk Index v1.20 (December 2025)"},"geometry":{"type":"Polygon","coordinates":[[[-98.623629,35.262045],[-98.623244,35.551522],[-98.308393,35.551313],[-98.306326,35.377239],[-98.096014,35.377753],[-98.094977,35.20372],[-98.09134,35.20373],[-98.093127,34.854988],[-98.619816,34.85534],[-98.61802,35.204135],[-98.623593,35.204154],[-98.623629,35.262045]]]}},{"type":"Feature","properties":{"GEOID":"40003","NAME":"Alfalfa","state":"OK","wildfire_risk_score":60.941,"wildfire_eal_total":70714.18,"risk_band":"Low","source":"FEMA National Risk Index v1.20 (December 2025)"},"geometry":{"type":"Polygon","coordinates":[[[-98.5446600848551,36.9989961823461],[-98.111985,36.998133],[-98.109311,36.593588],[-98.104286,36.593578],[-98.104427,36.463105],[-98.533617,36.46323],[-98.5334,36.594217],[-98.5405,36.59421],[-98.540237,36.942228],[-98.544989,36.942241],[-98.5446600848551,36.9989961823461]]]}},{"type":"Feature","properties":{"GEOID":"40139","NAME":"Texas","state":"OK","wildfire_risk_score":83.429,"wildfire_eal_total":606841.13,"risk_band":"Moderate","source":"FEMA National Risk Index v1.20 (December 2025)"},"geometry":{"type":"Polygon","coordinates":[[[-102.032006,36.704156],[-102.028207,36.993125],[-100.945468897552,36.9981529691762],[-100.945551,36.848654],[-100.953893,36.848185],[-100.954152945903,36.4995989128779],[-102.032339034056,36.5006100932816],[-102.032006,36.704156]]]}},{"type":"Feature","properties":{"GEOID":"40147","NAME":"Washington","state":"OK","wildfire_risk_score":78.435,"wildfire_eal_total":314621.8,"risk_band":"Low","source":"FEMA National Risk Index v1.20 (December 2025)"},"geometry":{"type":"Polygon","coordinates":[[[-96.001145,36.439763],[-96.00081,36.99886],[-95.786762,36.99931],[-95.78666,36.94194],[-95.80982,36.94193],[-95.812342,36.42358],[-96.001171,36.423686],[-96.001145,36.439763]]]}},{"type":"Feature","properties":{"GEOID":"40085","NAME":"Love","state":"OK","wildfire_risk_score":79.358,"wildfire_eal_total":335085.39,"risk_band":"Moderate","source":"FEMA National Risk Index v1.20 (December 2025)"},"geometry":{"type":"Polygon","coordinates":[[[-97.560743,33.983964],[-97.536818,33.983877],[-97.551058,33.991941],[-97.553754,34.002721],[-97.560872,34.002978],[-97.560761,34.07115],[-96.969627,34.07102],[-96.969736,34.012953],[-96.934833,34.01293],[-96.9347906714179,33.9543587870584],[-96.972542,33.935795],[-96.979818,33.941588],[-96.979415,33.956178],[-96.994288,33.949206],[-96.995023,33.932035],[-96.983835,33.890949],[-97.021438,33.846379],[-97.041245,33.837761],[-97.059826,33.858404],[-97.068071,33.860465],[-97.087247,33.853448],[-97.087731,33.841956],[-97.053024,33.833884],[-97.048146,33.817456],[-97.07859,33.812756],[-97.092112,33.804097],[-97.095236,33.794136],[-97.085218,33.765512],[-97.086195,33.743933],[-97.104525,33.722608],[-97.126102,33.716941],[-97.163149,33.729322],[-97.181843,33.75587],[-97.192817,33.761169],[-97.187724,33.769831],[-97.205705,33.802908],[-97.203514,33.821825],[-97.19369,33.831307],[-97.171627,33.835335],[-97.166629,33.847311],[-97.180845,33.895204],[-97.206141,33.91428],[-97.226522,33.914642],[-97.242092,33.906277],[-97.249209,33.875101],[-97.256625,33.863286],[-97.275607,33.858168],[-97.275348,33.863225],[-97.310143,33.888532],[-97.309946,33.874449],[-97.328729,33.855434],[-97.334616,33.857231],[-97.333382,33.864148],[-97.32345,33.87846],[-97.325812,33.883888],[-97.332457,33.884253],[-97.348338,33.843876],[-97.365507,33.823763],[-97.372941,33.819454],[-97.426493,33.819398],[-97.453057,33.828536],[-97.462857,33.841772],[-97.451469,33.87093],[-97.450954,33.891398],[-97.460376,33.903948],[-97.50096,33.919643],[-97.559917,33.897603],[-97.560743,33.983964]]]}},{"type":"Feature","properties":{"GEOID":"40129","NAME":"Roger Mills","state":"OK","wildfire_risk_score":89.154,"wildfire_eal_total":722929.61,"risk_band":"High","source":"FEMA National Risk Index v1.20 (December 2025)"},"geometry":{"type":"Polygon","coordinates":[[[-100.000396202899,35.8812329999967],[-99.97211,35.888776],[-99.959628,35.900036],[-99.925147,35.913664],[-99.908392,35.928122],[-99.905704,35.939545],[-99.911276,35.946021],[-99.911447,35.961924],[-99.895047,35.97712],[-99.893372,35.985295],[-99.872273,35.98871],[-99.85154,36.005128],[-99.830464,36.006327],[-99.809444,36.000044],[-99.802287,35.971603],[-99.809765,35.953339],[-99.810219,35.928909],[-99.80306,35.922031],[-99.801389,35.910645],[-99.781551,35.898586],[-99.774951,35.887334],[-99.761084,35.880745],[-99.746429,35.881961],[-99.717101,35.859769],[-99.620556,35.841955],[-99.601795,35.855905],[-99.558486,35.865988],[-99.549715,35.886046],[-99.55067,35.898894],[-99.513897,35.927671],[-99.497926,35.975233],[-99.488105,35.984542],[-99.477493,35.985731],[-99.462871,36.000046],[-99.446522,36.006987],[-99.381022,36.012925],[-99.381191,35.898881],[-99.376018,35.898893],[-99.377052,35.551741],[-99.364129,35.55172],[-99.364141,35.508793],[-99.575723,35.508864],[-99.57582,35.421655],[-100.000388844143,35.4223639883095],[-100.000396202899,35.8812329999967]]]}},{"type":"Feature","properties":{"GEOID":"40083","NAME":"Logan","state":"OK","wildfire_risk_score":78.467,"wildfire_eal_total":370338.1,"risk_band":"Moderate","source":"FEMA National Risk Index v1.20 (December 2025)"},"geometry":{"type":"Polygon","coordinates":[[[-97.675617,36.164663],[-97.353946,36.164304],[-97.35387,35.984934],[-97.339747,35.993674],[-97.331398,36.006734],[-97.308611,36.01099],[-97.294601,36.005557],[-97.285359,35.99179],[-97.285885,35.98049],[-97.27856,35.974462],[-97.243174,35.972182],[-97.221192,35.964573],[-97.208062,35.94776],[-97.198105,35.943029],[-97.161856,35.943855],[-97.140455,35.95906],[-97.141066,35.724401],[-97.674026,35.72597],[-97.675617,36.164663]]]}},{"type":"Feature","properties":{"GEOID":"40091","NAME":"McIntosh","state":"OK","wildfire_risk_score":90.681,"wildfire_eal_total":847539.8,"risk_band":"High","source":"FEMA National Risk Index v1.20 (December 2025)"},"geometry":{"type":"Polygon","coordinates":[[[-95.98313,35.202744],[-95.981465,35.376788],[-95.875405,35.37669],[-95.875347,35.463623],[-95.82243,35.463776],[-95.822361,35.551693],[-95.344799,35.551751],[-95.344766,35.293035],[-95.351582,35.290231],[-95.35565,35.304697],[-95.390252,35.327497],[-95.411153,35.323397],[-95.430454,35.302997],[-95.455855,35.294297],[-95.500366,35.300892],[-95.519057,35.281194],[-95.514959,35.263197],[-95.57037,35.245497],[-95.59938,35.221651],[-95.622464,35.224698],[-95.622664,35.228398],[-95.603463,35.239398],[-95.606063,35.247098],[-95.615664,35.249698],[-95.676867,35.224798],[-95.682767,35.216398],[-95.674189,35.20891],[-95.679107,35.203869],[-95.707153,35.202301],[-95.716157,35.189352],[-95.743894,35.191882],[-95.75797,35.176698],[-95.76707,35.178098],[-95.781971,35.193498],[-95.793271,35.197298],[-95.838873,35.184297],[-95.847773,35.188397],[-95.869174,35.186897],[-95.888374,35.155696],[-95.907966,35.143494],[-95.983077,35.151695],[-95.98313,35.202744]]]}},{"type":"Feature","properties":{"GEOID":"40107","NAME":"Okfuskee","state":"OK","wildfire_risk_score":91.667,"wildfire_eal_total":1039593.83,"risk_band":"High","source":"FEMA National Risk Index v1.20 (December 2025)"},"geometry":{"type":"Polygon","coordinates":[[[-96.624681,35.462707],[-96.620828,35.639005],[-96.192563,35.639087],[-96.1927,35.551968],[-96.087801,35.552003],[-96.08753,35.376877],[-95.981465,35.376788],[-95.981511,35.28978],[-96.441368,35.290122],[-96.44129,35.467712],[-96.446202,35.458444],[-96.459052,35.46151],[-96.465588,35.45811],[-96.475754,35.463421],[-96.488281,35.448229],[-96.48306,35.44249],[-96.484402,35.436548],[-96.496594,35.428896],[-96.518633,35.431205],[-96.543213,35.457323],[-96.543905,35.453171],[-96.553641,35.454309],[-96.554093,35.447831],[-96.560295,35.448753],[-96.569602,35.439564],[-96.555866,35.434701],[-96.560102,35.421559],[-96.556844,35.418816],[-96.552592,35.422974],[-96.547775,35.418546],[-96.549996,35.414942],[-96.537163,35.41094],[-96.537415,35.403535],[-96.531716,35.400505],[-96.536718,35.390772],[-96.55673,35.394974],[-96.555566,35.402437],[-96.576671,35.401934],[-96.585654,35.411474],[-96.599717,35.396955],[-96.606708,35.399368],[-96.611392,35.394227],[-96.621297,35.398089],[-96.624681,35.462707]]]}},{"type":"Feature","properties":{"GEOID":"40043","NAME":"Dewey","state":"OK","wildfire_risk_score":73.569,"wildfire_eal_total":215072.6,"risk_band":"Low","source":"FEMA National Risk Index v1.20 (December 2025)"},"geometry":{"type":"Polygon","coordinates":[[[-99.381901,36.098691],[-99.382074,36.164301],[-98.89476,36.161217],[-98.636899,36.164894],[-98.631985,35.812402],[-99.375817,35.812188],[-99.376018,35.898893],[-99.381191,35.898881],[-99.381901,36.098691]]]}},{"type":"Feature","properties":{"GEOID":"40071","NAME":"Kay","state":"OK","wildfire_risk_score":88.454,"wildfire_eal_total":882900.17,"risk_band":"Moderate","source":"FEMA National Risk Index v1.20 (December 2025)"},"geometry":{"type":"Polygon","coordinates":[[[-97.462477,36.600736],[-97.4623463219255,36.9986852256487],[-96.749838,36.998988],[-96.752375,36.782092],[-96.788652,36.782006],[-96.788687,36.767597],[-96.822585,36.767559],[-96.818061,36.758988],[-96.830383,36.744172],[-96.853627,36.746111],[-96.86869,36.753537],[-96.888581,36.751793],[-96.920554,36.717752],[-96.92741,36.68842],[-96.931943,36.686097],[-96.992035,36.687596],[-97.005391,36.693999],[-97.024188,36.693404],[-97.032526,36.701959],[-97.053235,36.69221],[-97.064107,36.684207],[-97.064051,36.665312],[-97.061988,36.650733],[-97.051521,36.641225],[-97.048564,36.623233],[-97.052107,36.612579],[-97.044685,36.602721],[-97.046887,36.597437],[-97.057099,36.597829],[-97.057556,36.593872],[-97.462459,36.593627],[-97.462477,36.600736]]]}},{"type":"Feature","properties":{"GEOID":"40025","NAME":"Cimarron","state":"OK","wildfire_risk_score":72.455,"wildfire_eal_total":138658.31,"risk_band":"Low","source":"FEMA National Risk Index v1.20 (December 2025)"},"geometry":{"type":"Polygon","coordinates":[[[-103.002565,36.526588],[-103.002199,37.000104],[-102.028207,36.993125],[-102.032339034056,36.5006100932816],[-103.002434,36.500397],[-103.002565,36.526588]]]}},{"type":"Feature","properties":{"GEOID":"40123","NAME":"Pontotoc","state":"OK","wildfire_risk_score":90.172,"wildfire_eal_total":1324743.5,"risk_band":"High","source":"FEMA National Risk Index v1.20 (December 2025)"},"geometry":{"type":"Polygon","coordinates":[[[-96.932491,34.694964],[-96.929872,34.965109],[-96.910609,34.958659],[-96.8854,34.926251],[-96.849442,34.929689],[-96.821488,34.946112],[-96.813452,34.944649],[-96.798208,34.929992],[-96.798583,34.905939],[-96.785069,34.899145],[-96.755517,34.899809],[-96.740393,34.866883],[-96.722891,34.856782],[-96.694182,34.868495],[-96.687292,34.880984],[-96.686992,34.891283],[-96.693452,34.901257],[-96.712092,34.913883],[-96.704596,34.926281],[-96.694154,34.932792],[-96.665392,34.928383],[-96.64599,34.901384],[-96.636791,34.898784],[-96.61319,34.900484],[-96.577089,34.916584],[-96.564089,34.917284],[-96.555389,34.911284],[-96.555888,34.898084],[-96.545984,34.88227],[-96.528587,34.869586],[-96.514587,34.873386],[-96.496887,34.904585],[-96.486483,34.912986],[-96.460367,34.916499],[-96.435587,34.90228],[-96.424701,34.903687],[-96.418412,34.907851],[-96.406135,34.934191],[-96.406357,34.680023],[-96.512171,34.680065],[-96.512099,34.505562],[-96.827343,34.506062],[-96.827144,34.59322],[-96.932423,34.593261],[-96.932491,34.694964]]]}},{"type":"Feature","properties":{"GEOID":"40097","NAME":"Mayes","state":"OK","wildfire_risk_score":85.623,"wildfire_eal_total":508488.75,"risk_band":"Moderate","source":"FEMA National Risk Index v1.20 (December 2025)"},"geometry":{"type":"Polygon","coordinates":[[[-95.44002,36.20597],[-95.435518,36.24932],[-95.43561,36.51016],[-95.00573,36.50989],[-95.005538,36.248706],[-95.010173,36.248822],[-95.011011,36.162914],[-95.1185,36.16163],[-95.118377,36.074544],[-95.43997,36.075268],[-95.44002,36.20597]]]}},{"type":"Feature","properties":{"GEOID":"40149","NAME":"Washita","state":"OK","wildfire_risk_score":68.893,"wildfire_eal_total":107566.63,"risk_band":"Low","source":"FEMA National Risk Index v1.20 (December 2025)"},"geometry":{"type":"Polygon","coordinates":[[[-99.364529,35.284115],[-99.364217,35.465328],[-98.623336,35.464225],[-98.623593,35.204154],[-98.61802,35.204135],[-98.618161,35.102063],[-98.622308,35.097237],[-98.6351,35.121335],[-98.639894,35.122849],[-98.64121,35.113275],[-98.645642,35.111605],[-98.650435,35.114836],[-98.642795,35.120101],[-98.65227,35.123975],[-98.662203,35.118321],[-98.672232,35.119009],[-98.678143,35.107925],[-98.684776,35.1142],[-98.683633,35.107375],[-98.696315,35.111909],[-98.712452,35.104761],[-98.72009,35.109134],[-98.716384,35.113006],[-98.73177,35.113963],[-98.72887,35.109453],[-98.73586,35.101044],[-98.749158,35.116346],[-99.360226,35.116738],[-99.364529,35.284115]]]}},{"type":"Feature","properties":{"GEOID":"40131","NAME":"Rogers","state":"OK","wildfire_risk_score":86.005,"wildfire_eal_total":791768.28,"risk_band":"Moderate","source":"FEMA National Risk Index v1.20 (December 2025)"},"geometry":{"type":"Polygon","coordinates":[[[-95.815352,36.206133],[-95.812256,36.394575],[-95.79425,36.394505],[-95.79437,36.42358],[-95.812342,36.42358],[-95.812336,36.59754],[-95.32837,36.59763],[-95.32817,36.51024],[-95.43561,36.51016],[-95.43997,36.075268],[-95.571525,36.075282],[-95.579903,36.082991],[-95.556628,36.082447],[-95.552587,36.091486],[-95.570265,36.110725],[-95.567844,36.129378],[-95.591423,36.137067],[-95.593099,36.129668],[-95.604696,36.13346],[-95.617482,36.148472],[-95.61852,36.162512],[-95.8154,36.16263],[-95.815352,36.206133]]]}},{"type":"Feature","properties":{"GEOID":"40127","NAME":"Pushmataha","state":"OK","wildfire_risk_score":88.709,"wildfire_eal_total":670718.34,"risk_band":"Moderate","source":"FEMA National Risk Index v1.20 (December 2025)"},"geometry":{"type":"Polygon","coordinates":[[[-95.779394,34.165612],[-95.779134,34.506644],[-95.67175,34.506794],[-95.67181,34.593732],[-95.514511,34.594153],[-95.514475,34.680718],[-94.937555,34.680792],[-94.937604,34.507296],[-95.046746,34.507276],[-95.046585,34.243776],[-95.151323,34.243737],[-95.151344,34.156841],[-95.779376,34.156699],[-95.779394,34.165612]]]}},{"type":"Feature","properties":{"GEOID":"40153","NAME":"Woodward","state":"OK","wildfire_risk_score":89.281,"wildfire_eal_total":1196694.06,"risk_band":"High","source":"FEMA National Risk Index v1.20 (December 2025)"},"geometry":{"type":"Polygon","coordinates":[[[-99.605606,36.40963],[-99.605642,36.593934],[-99.295193,36.595122],[-99.295186,36.819566],[-99.292718,36.804568],[-99.270217,36.789727],[-99.255946,36.786074],[-99.165277,36.790642],[-99.139855,36.78304],[-99.12656,36.762566],[-99.097449,36.742059],[-99.08449,36.721582],[-99.057235,36.711296],[-99.044347,36.694948],[-99.048435,36.686823],[-99.036333,36.669426],[-99.022365,36.658912],[-99.02254,36.642434],[-99.012958,36.640241],[-98.976083,36.603054],[-98.959973,36.598991],[-98.96057,36.2467],[-98.955943,36.246748],[-98.955849,36.161577],[-99.596079,36.164061],[-99.595942,36.246754],[-99.605067,36.246741],[-99.605606,36.40963]]]}},{"type":"Feature","properties":{"GEOID":"40069","NAME":"Johnston","state":"OK","wildfire_risk_score":82.156,"wildfire_eal_total":327812.66,"risk_band":"Moderate","source":"FEMA National Risk Index v1.20 (December 2025)"},"geometry":{"type":"Polygon","coordinates":[[[-96.933493,34.179987],[-96.933305,34.332561],[-96.881005,34.332977],[-96.88079,34.506053],[-96.513787,34.505396],[-96.513768,34.419569],[-96.407074,34.41839],[-96.407517,34.157317],[-96.453901,34.157348],[-96.453836,34.1141],[-96.585355,34.114459],[-96.582251,34.125327],[-96.600875,34.135583],[-96.59869,34.140397],[-96.602995,34.145635],[-96.606821,34.139873],[-96.613268,34.141377],[-96.607789,34.146176],[-96.619187,34.154043],[-96.620784,34.162041],[-96.628636,34.153698],[-96.641157,34.158398],[-96.638597,34.168103],[-96.656145,34.161193],[-96.667751,34.166758],[-96.669963,34.172521],[-96.933503,34.172748],[-96.933493,34.179987]]]}},{"type":"Feature","properties":{"GEOID":"40103","NAME":"Noble","state":"OK","wildfire_risk_score":75.382,"wildfire_eal_total":187097.33,"risk_band":"Low","source":"FEMA National Risk Index v1.20 (December 2025)"},"geometry":{"type":"Polygon","coordinates":[[[-97.461603,36.593637],[-97.057556,36.593872],[-97.004293,36.582595],[-96.948628,36.589997],[-96.923876,36.600369],[-96.912756,36.598949],[-96.888017,36.574886],[-96.890368,36.563605],[-96.89908,36.553224],[-96.92471,36.552558],[-96.958521,36.534307],[-96.988155,36.532372],[-97.005018,36.521825],[-97.009785,36.506935],[-97.032118,36.506957],[-97.032106,36.333354],[-96.924936,36.333344],[-96.925069,36.246474],[-97.140968,36.246435],[-97.140668,36.159231],[-97.354132,36.159072],[-97.353946,36.164304],[-97.460792,36.164462],[-97.461603,36.593637]]]}},{"type":"Feature","properties":{"GEOID":"40055","NAME":"Greer","state":"OK","wildfire_risk_score":68.289,"wildfire_eal_total":106172.23,"risk_band":"Low","source":"FEMA National Risk Index v1.20 (December 2025)"},"geometry":{"type":"Polygon","coordinates":[[[-99.888444,35.029889],[-99.782949,35.030111],[-99.782727,35.11694],[-99.440444,35.116858],[-99.443827,35.112848],[-99.44041,35.109398],[-99.430663,35.108218],[-99.423945,35.114057],[-99.408041,35.114558],[-99.404727,35.105832],[-99.397648,35.104479],[-99.401384,35.09951],[-99.397681,35.093897],[-99.388962,35.088855],[-99.385448,35.093434],[-99.376476,35.091758],[-99.375824,35.082985],[-99.368367,35.087867],[-99.364923,35.061644],[-99.372646,35.060284],[-99.370905,35.05342],[-99.352155,35.052813],[-99.349019,35.042803],[-99.323587,35.038493],[-99.324774,35.030681],[-99.336294,35.02478],[-99.326757,35.018912],[-99.336406,34.997625],[-99.335055,34.988453],[-99.347981,34.982415],[-99.34408,34.971102],[-99.334329,34.972769],[-99.330818,34.944761],[-99.310906,34.934968],[-99.315288,34.926352],[-99.298389,34.924067],[-99.289412,34.902574],[-99.298458,34.899119],[-99.292817,34.895656],[-99.290945,34.886685],[-99.310971,34.888743],[-99.317725,34.882238],[-99.31728,34.871489],[-99.30497,34.856372],[-99.282244,34.84897],[-99.277942,34.839373],[-99.25608,34.836341],[-99.246462,34.822114],[-99.246418,34.811991],[-99.405821,34.813038],[-99.405711,34.769025],[-99.437316,34.769133],[-99.440657,34.761469],[-99.437041,34.736464],[-99.442222,34.728651],[-99.432623,34.730621],[-99.423201,34.72502],[-99.666849,34.724555],[-99.667145,34.753742],[-99.684712,34.753744],[-99.684839,34.768378],[-99.719797,34.768451],[-99.719805,34.857003],[-99.730862,34.856986],[-99.731092,34.944058],[-99.888222,34.943897],[-99.888444,35.029889]]]}},{"type":"Feature","properties":{"GEOID":"40051","NAME":"Grady","state":"OK","wildfire_risk_score":91.539,"wildfire_eal_total":1657859.74,"risk_band":"High","source":"FEMA National Risk Index v1.20 (December 2025)"},"geometry":{"type":"Polygon","coordinates":[[[-98.096014,35.377753],[-98.019312,35.378433],[-98.009872,35.369354],[-98.010836,35.360769],[-98.001489,35.364359],[-97.973856,35.357104],[-97.960124,35.34594],[-97.948959,35.352711],[-97.947212,35.374854],[-97.940258,35.376903],[-97.932252,35.373383],[-97.930496,35.364113],[-97.920835,35.353518],[-97.903133,35.355574],[-97.901203,35.344323],[-97.88712,35.347391],[-97.88496,35.355821],[-97.873923,35.355984],[-97.871665,35.362029],[-97.865604,35.36234],[-97.857752,35.356264],[-97.853669,35.341097],[-97.841333,35.33453],[-97.812129,35.333788],[-97.807186,35.340846],[-97.790427,35.332921],[-97.777567,35.337087],[-97.769273,35.34565],[-97.737305,35.323762],[-97.720035,35.328515],[-97.706291,35.324973],[-97.671414,35.335946],[-97.668512,34.68134],[-98.089097,34.681163],[-98.096014,35.377753]]]}},{"type":"Feature","properties":{"GEOID":"40053","NAME":"Grant","state":"OK","wildfire_risk_score":44.338,"wildfire_eal_total":27099.06,"risk_band":"Low","source":"FEMA National Risk Index v1.20 (December 2025)"},"geometry":{"type":"Polygon","coordinates":[[[-98.111985,36.998133],[-97.4623463219255,36.9986852256487],[-97.462459,36.593627],[-98.109311,36.593588],[-98.111985,36.998133]]]}},{"type":"Feature","properties":{"GEOID":"40021","NAME":"Cherokee","state":"OK","wildfire_risk_score":94.593,"wildfire_eal_total":2445826.34,"risk_band":"High","source":"FEMA National Risk Index v1.20 (December 2025)"},"geometry":{"type":"Polygon","coordinates":[[[-95.283095,35.911133],[-95.26861,35.931831],[-95.269909,35.947432],[-95.278701,35.964102],[-95.252188,35.987845],[-95.234437,35.991299],[-95.234268,36.002282],[-95.230298,36.002315],[-95.23025,36.009261],[-95.225328,36.009204],[-95.225341,36.039841],[-95.208063,36.040478],[-95.207943,36.074772],[-95.118377,36.074544],[-95.1185,36.16163],[-94.797409,36.161652],[-94.797399,35.900918],[-94.807456,35.900919],[-94.807757,35.638546],[-95.127213,35.638788],[-95.127163,35.812755],[-95.265679,35.813266],[-95.266499,35.820442],[-95.255679,35.82468],[-95.253162,35.833956],[-95.231459,35.851195],[-95.227714,35.86407],[-95.232494,35.872752],[-95.261815,35.880697],[-95.283095,35.911133]]]}},{"type":"Feature","properties":{"GEOID":"40059","NAME":"Harper","state":"OK","wildfire_risk_score":81.934,"wildfire_eal_total":349417.89,"risk_band":"Moderate","source":"FEMA National Risk Index v1.20 (December 2025)"},"geometry":{"type":"Polygon","coordinates":[[[-100.00375,36.776152],[-100.002563,37.001706],[-99.456203,36.999471],[-99.441188,36.993434],[-99.424787,36.947702],[-99.398092,36.921539],[-99.374218,36.879597],[-99.314288,36.856191],[-99.318832,36.848134],[-99.316547,36.840518],[-99.295186,36.819566],[-99.295193,36.595122],[-100.00316,36.59325],[-100.00375,36.776152]]]}},{"type":"Feature","properties":{"GEOID":"40009","NAME":"Beckham","state":"OK","wildfire_risk_score":90.712,"wildfire_eal_total":1003766.89,"risk_band":"High","source":"FEMA National Risk Index v1.20 (December 2025)"},"geometry":{"type":"Polygon","coordinates":[[[-100.000388844143,35.4223639883095],[-99.57582,35.421655],[-99.575723,35.508864],[-99.364141,35.508793],[-99.364569,35.204467],[-99.360219,35.204464],[-99.360226,35.116738],[-99.409285,35.116927],[-99.430663,35.108218],[-99.44041,35.109398],[-99.443827,35.112848],[-99.440444,35.116858],[-99.782727,35.11694],[-99.782949,35.030111],[-100.000383599196,35.0299300002039],[-100.000388844143,35.4223639883095]]]}},{"type":"Feature","properties":{"GEOID":"40039","NAME":"Custer","state":"OK","wildfire_risk_score":76.813,"wildfire_eal_total":256193.77,"risk_band":"Low","source":"FEMA National Risk Index v1.20 (December 2025)"},"geometry":{"type":"Polygon","coordinates":[[[-99.376944,35.62445],[-99.375817,35.812188],[-98.631985,35.812402],[-98.632206,35.551516],[-98.623244,35.551522],[-98.623336,35.464225],[-99.364217,35.465328],[-99.364129,35.55172],[-99.377052,35.551741],[-99.376944,35.62445]]]}},{"type":"Feature","properties":{"GEOID":"40121","NAME":"Pittsburg","state":"OK","wildfire_risk_score":95.197,"wildfire_eal_total":2559108.19,"risk_band":"High","source":"FEMA National Risk Index v1.20 (December 2025)"},"geometry":{"type":"Polygon","coordinates":[[[-96.092001,34.767479],[-96.088792,35.049875],[-96.070101,35.055513],[-96.060943,35.091577],[-96.041857,35.104348],[-96.029969,35.120336],[-96.009214,35.118759],[-96.013639,35.141787],[-96.010257,35.146626],[-95.965551,35.152496],[-95.925578,35.142896],[-95.905867,35.143987],[-95.888374,35.155696],[-95.869174,35.186897],[-95.847773,35.188397],[-95.838873,35.184297],[-95.797572,35.197098],[-95.784771,35.195298],[-95.76707,35.178098],[-95.75597,35.177198],[-95.743894,35.191882],[-95.716157,35.189352],[-95.707153,35.202301],[-95.679107,35.203869],[-95.674189,35.20891],[-95.682767,35.216398],[-95.676867,35.224798],[-95.615664,35.249698],[-95.606063,35.247098],[-95.603463,35.239398],[-95.622664,35.228398],[-95.622464,35.224698],[-95.602342,35.220739],[-95.57037,35.245497],[-95.514959,35.263197],[-95.519057,35.281194],[-95.500366,35.300892],[-95.461656,35.292997],[-95.45125,35.296019],[-95.455018,35.160381],[-95.349525,35.160021],[-95.349437,35.029299],[-95.507738,35.029265],[-95.507469,34.854937],[-95.514103,34.854929],[-95.514511,34.594153],[-95.881987,34.593528],[-95.882198,34.680475],[-96.092043,34.680556],[-96.092001,34.767479]]]}},{"type":"Feature","properties":{"GEOID":"40119","NAME":"Payne","state":"OK","wildfire_risk_score":89.599,"wildfire_eal_total":1265163.01,"risk_band":"High","source":"FEMA National Risk Index v1.20 (December 2025)"},"geometry":{"type":"Polygon","coordinates":[[[-97.354132,36.159072],[-97.140668,36.159231],[-97.140968,36.246435],[-96.818968,36.246478],[-96.819005,36.158886],[-96.621441,36.159929],[-96.619655,35.941571],[-97.140583,35.941991],[-97.140455,35.95906],[-97.158227,35.945153],[-97.189552,35.941156],[-97.205841,35.945959],[-97.221192,35.964573],[-97.234292,35.969601],[-97.27856,35.974462],[-97.285885,35.98049],[-97.287467,35.996682],[-97.300453,36.009273],[-97.32362,36.010877],[-97.35387,35.984934],[-97.354132,36.159072]]]}},{"type":"Feature","properties":{"GEOID":"40011","NAME":"Blaine","state":"OK","wildfire_risk_score":63.136,"wildfire_eal_total":95963.23,"risk_band":"Low","source":"FEMA National Risk Index v1.20 (December 2025)"},"geometry":{"type":"Polygon","coordinates":[[[-98.636899,36.164894],[-98.210405,36.164889],[-98.207104,35.725187],[-98.313155,35.724741],[-98.313248,35.551411],[-98.632206,35.551516],[-98.636899,36.164894]]]}},{"type":"Feature","properties":{"GEOID":"40005","NAME":"Atoka","state":"OK","wildfire_risk_score":84.415,"wildfire_eal_total":501565.76,"risk_band":"Moderate","source":"FEMA National Risk Index v1.20 (December 2025)"},"geometry":{"type":"Polygon","coordinates":[[[-96.407517,34.157317],[-96.407074,34.41839],[-96.145423,34.418313],[-96.145442,34.505944],[-96.092029,34.506157],[-96.092043,34.680556],[-95.882198,34.680475],[-95.881987,34.593528],[-95.67181,34.593732],[-95.67175,34.506794],[-95.779134,34.506644],[-95.779376,34.156699],[-96.407517,34.157317]]]}},{"type":"Feature","properties":{"GEOID":"40151","NAME":"Woods","state":"OK","wildfire_risk_score":74.682,"wildfire_eal_total":321888.57,"risk_band":"Low","source":"FEMA National Risk Index v1.20 (December 2025)"},"geometry":{"type":"Polygon","coordinates":[[[-99.456203,36.999471],[-98.5446600848551,36.9989961823461],[-98.544989,36.942241],[-98.540237,36.942228],[-98.5405,36.59421],[-98.5334,36.594217],[-98.533658,36.397866],[-98.559753,36.401911],[-98.599816,36.391086],[-98.625361,36.392595],[-98.699493,36.416013],[-98.709224,36.421958],[-98.72681,36.445332],[-98.777705,36.448442],[-98.80782,36.460744],[-98.843702,36.506315],[-98.960505,36.506984],[-98.959973,36.598991],[-98.976083,36.603054],[-99.012958,36.640241],[-99.02254,36.642434],[-99.022365,36.658912],[-99.036333,36.669426],[-99.048435,36.686823],[-99.044347,36.694948],[-99.057235,36.711296],[-99.08449,36.721582],[-99.097449,36.742059],[-99.12656,36.762566],[-99.139855,36.78304],[-99.165277,36.790642],[-99.25141,36.785079],[-99.270217,36.789727],[-99.292718,36.804568],[-99.295186,36.819566],[-99.309756,36.83012],[-99.317419,36.842331],[-99.314288,36.856191],[-99.374218,36.879597],[-99.398092,36.921539],[-99.424787,36.947702],[-99.441188,36.993434],[-99.456203,36.999471]]]}},{"type":"Feature","properties":{"GEOID":"40033","NAME":"Cotton","state":"OK","wildfire_risk_score":67.017,"wildfire_eal_total":131014.76,"risk_band":"Low","source":"FEMA National Risk Index v1.20 (December 2025)"},"geometry":{"type":"Polygon","coordinates":[[[-98.661956,34.405948],[-98.609536,34.406143],[-98.609561,34.420623],[-98.504988,34.420452],[-98.504958,34.449414],[-98.295928,34.449043],[-98.295887,34.463535],[-98.244031,34.463723],[-98.24412,34.507121],[-98.139237,34.507003],[-98.1389788043646,34.1418054010562],[-98.154354,34.122734],[-98.16912,34.114171],[-98.203711,34.117676],[-98.2236,34.125093],[-98.231042,34.134023],[-98.256467,34.129481],[-98.293901,34.13302],[-98.325445,34.151025],[-98.365621,34.156993],[-98.384546,34.145997],[-98.386232,34.137728],[-98.379762,34.131174],[-98.395024,34.131318],[-98.400967,34.122236],[-98.399777,34.099973],[-98.411374,34.100324],[-98.411587,34.088057],[-98.418805,34.082655],[-98.440092,34.084311],[-98.449034,34.073462],[-98.466002,34.073081],[-98.471465,34.065665],[-98.486328,34.062598],[-98.504149,34.072287],[-98.536257,34.107343],[-98.560574,34.123567],[-98.550522,34.132194],[-98.560191,34.133202],[-98.577136,34.148962],[-98.599789,34.160571],[-98.6099870025661,34.1571540495728],[-98.60966,34.33372],[-98.662004,34.333431],[-98.661956,34.405948]]]}},{"type":"Feature","properties":{"GEOID":"40081","NAME":"Lincoln","state":"OK","wildfire_risk_score":92.812,"wildfire_eal_total":1446685.87,"risk_band":"High","source":"FEMA National Risk Index v1.20 (December 2025)"},"geometry":{"type":"Polygon","coordinates":[[[-97.141689,35.471829],[-97.140583,35.941991],[-96.619655,35.941571],[-96.624681,35.462707],[-97.14149,35.463977],[-97.141689,35.471829]]]}},{"type":"Feature","properties":{"GEOID":"40007","NAME":"Beaver","state":"OK","wildfire_risk_score":85.687,"wildfire_eal_total":751856.42,"risk_band":"Moderate","source":"FEMA National Risk Index v1.20 (December 2025)"},"geometry":{"type":"Polygon","coordinates":[[[-100.954348,36.670856],[-100.953893,36.848185],[-100.945551,36.848654],[-100.945468897552,36.9981529691762],[-100.002563,37.001706],[-100.003761886524,36.4996994535481],[-100.954152945903,36.4995989128779],[-100.954348,36.670856]]]}},{"type":"Feature","properties":{"GEOID":"40073","NAME":"Kingfisher","state":"OK","wildfire_risk_score":52.258,"wildfire_eal_total":48833.1,"risk_band":"Low","source":"FEMA National Risk Index v1.20 (December 2025)"},"geometry":{"type":"Polygon","coordinates":[[[-98.210405,36.164889],[-97.675617,36.164663],[-97.674026,35.72597],[-98.207104,35.72514],[-98.210405,36.164889]]]}},{"type":"Feature","properties":{"GEOID":"40037","NAME":"Creek","state":"OK","wildfire_risk_score":93.798,"wildfire_eal_total":2273339.16,"risk_band":"High","source":"FEMA National Risk Index v1.20 (December 2025)"},"geometry":{"type":"Polygon","coordinates":[[[-96.622541,36.060972],[-96.620917,36.163439],[-96.297888,36.162279],[-96.297905,36.075766],[-96.029583,36.075366],[-96.033118,35.856824],[-96.192403,35.856993],[-96.192563,35.639087],[-96.620828,35.639005],[-96.622541,36.060972]]]}},{"type":"Feature","properties":{"GEOID":"40093","NAME":"Major","state":"OK","wildfire_risk_score":66.094,"wildfire_eal_total":123728.46,"risk_band":"Low","source":"FEMA National Risk Index v1.20 (December 2025)"},"geometry":{"type":"Polygon","coordinates":[[[-98.960893,36.347938],[-98.960334,36.506914],[-98.843702,36.506315],[-98.81946,36.470995],[-98.792471,36.453263],[-98.764456,36.446666],[-98.72681,36.445332],[-98.709224,36.421958],[-98.699493,36.416013],[-98.644267,36.397167],[-98.602813,36.390848],[-98.559753,36.401911],[-98.533658,36.397866],[-98.533617,36.46323],[-98.104427,36.463105],[-98.103904,36.164877],[-98.955849,36.161577],[-98.960893,36.347938]]]}},{"type":"Feature","properties":{"GEOID":"40031","NAME":"Comanche","state":"OK","wildfire_risk_score":92.875,"wildfire_eal_total":1849171.01,"risk_band":"High","source":"FEMA National Risk Index v1.20 (December 2025)"},"geometry":{"type":"Polygon","coordinates":[[[-98.826303,34.781921],[-98.826041,34.855122],[-98.089558,34.854929],[-98.089097,34.681163],[-98.141799,34.681158],[-98.142148,34.506994],[-98.24412,34.507121],[-98.244031,34.463723],[-98.295887,34.463535],[-98.295928,34.449043],[-98.504958,34.449414],[-98.504988,34.420452],[-98.609561,34.420623],[-98.609536,34.406143],[-98.661956,34.405948],[-98.661982,34.50746],[-98.826144,34.50737],[-98.826303,34.781921]]]}},{"type":"Feature","properties":{"GEOID":"40045","NAME":"Ellis","state":"OK","wildfire_risk_score":85.178,"wildfire_eal_total":480617.95,"risk_band":"Moderate","source":"FEMA National Risk Index v1.20 (December 2025)"},"geometry":{"type":"Polygon","coordinates":[[[-100.00377,36.528868],[-100.00316,36.59325],[-99.605634,36.592754],[-99.605067,36.246741],[-99.595942,36.246754],[-99.596079,36.164061],[-99.382074,36.164301],[-99.381022,36.012925],[-99.446522,36.006987],[-99.462871,36.000046],[-99.477493,35.985731],[-99.488105,35.984542],[-99.497926,35.975233],[-99.513897,35.927671],[-99.55067,35.898894],[-99.549715,35.886046],[-99.558486,35.865988],[-99.601795,35.855905],[-99.620556,35.841955],[-99.717101,35.859769],[-99.746429,35.881961],[-99.761084,35.880745],[-99.774951,35.887334],[-99.781551,35.898586],[-99.801389,35.910645],[-99.80306,35.922031],[-99.810219,35.928909],[-99.809765,35.953339],[-99.802287,35.971603],[-99.809444,36.000044],[-99.830464,36.006327],[-99.85154,36.005128],[-99.872273,35.98871],[-99.893372,35.985295],[-99.895047,35.97712],[-99.911447,35.961924],[-99.911276,35.946021],[-99.905704,35.939545],[-99.908392,35.928122],[-99.925147,35.913664],[-99.959628,35.900036],[-99.97211,35.888776],[-100.000396202899,35.8812329999967],[-100.000406,36.499702],[-100.003761886524,36.4996994535481],[-100.00377,36.528868]]]}},{"type":"Feature","properties":{"GEOID":"40061","NAME":"Haskell","state":"OK","wildfire_risk_score":91.794,"wildfire_eal_total":1739346.17,"risk_band":"High","source":"FEMA National Risk Index v1.20 (December 2025)"},"geometry":{"type":"Polygon","coordinates":[[[-95.45519,35.202681],[-95.450987,35.202787],[-95.45125,35.296019],[-95.430454,35.302997],[-95.411153,35.323397],[-95.385751,35.326097],[-95.35565,35.304697],[-95.351582,35.290231],[-95.331949,35.298797],[-95.300947,35.301397],[-95.279146,35.287997],[-95.26215,35.268994],[-95.240718,35.26231],[-95.209413,35.28382],[-95.19919,35.303592],[-95.174962,35.302199],[-95.17057,35.31271],[-95.182549,35.336857],[-95.179518,35.345701],[-95.165656,35.353066],[-95.146059,35.346757],[-95.141673,35.357067],[-95.161766,35.367915],[-95.139238,35.379996],[-95.120068,35.373066],[-95.102637,35.396896],[-95.085236,35.407196],[-95.079935,35.432996],[-95.070535,35.447096],[-95.049933,35.458894],[-95.024933,35.453095],[-95.023733,35.430295],[-95.004348,35.413471],[-94.986829,35.40838],[-94.951328,35.408334],[-94.938516,35.396595],[-94.925745,35.392845],[-94.901832,35.39794],[-94.892302,35.379676],[-94.894739,35.373088],[-94.919266,35.354141],[-94.914454,35.347525],[-94.90198,35.346709],[-94.865894,35.356599],[-94.842143,35.371086],[-94.831227,35.365549],[-94.825912,35.333399],[-94.813629,35.323344],[-94.814276,35.202331],[-94.927774,35.20261],[-94.927863,35.058246],[-95.349409,35.05852],[-95.349525,35.160021],[-95.455018,35.160381],[-95.45519,35.202681]]]}},{"type":"Feature","properties":{"GEOID":"40047","NAME":"Garfield","state":"OK","wildfire_risk_score":53.626,"wildfire_eal_total":53302.62,"risk_band":"Low","source":"FEMA National Risk Index v1.20 (December 2025)"},"geometry":{"type":"Polygon","coordinates":[[[-98.104433,36.260373],[-98.104286,36.593578],[-97.461603,36.593637],[-97.460792,36.164462],[-98.103904,36.164877],[-98.104433,36.260373]]]}},{"type":"Feature","properties":{"GEOID":"40105","NAME":"Nowata","state":"OK","wildfire_risk_score":54.453,"wildfire_eal_total":39526.61,"risk_band":"Low","source":"FEMA National Risk Index v1.20 (December 2025)"},"geometry":{"type":"Polygon","coordinates":[[[-95.80988,36.916747],[-95.80982,36.94193],[-95.78666,36.94194],[-95.786762,36.99931],[-95.4077330426944,36.99924099711],[-95.407844,36.94271],[-95.431758,36.942593],[-95.43157,36.59754],[-95.80954,36.59754],[-95.80988,36.916747]]]}}]}