{"type":"FeatureCollection","metadata":{"state":"OR","boundary_source":"U.S. Census Bureau 2024 Cartographic Boundary File (counties, 1:500,000)","risk_source":"FEMA National Risk Index v1.20 (December 2025)"},"features":[{"type":"Feature","properties":{"GEOID":"41015","NAME":"Curry","state":"OR","wildfire_risk_score":93.416,"wildfire_eal_total":1764754.78,"risk_band":"Moderate","source":"FEMA National Risk Index v1.20 (December 2025)"},"geometry":{"type":"MultiPolygon","coordinates":[[[[-124.323889,42.066648],[-124.321769,42.067305],[-124.321095,42.065034],[-124.323287,42.064124],[-124.323889,42.066648]]],[[[-124.427244,42.314462],[-124.425349,42.315299],[-124.425038,42.312826],[-124.42693,42.312846],[-124.427244,42.314462]]],[[[-124.47709,42.66717],[-124.475545,42.668554],[-124.474793,42.666384],[-124.475862,42.665495],[-124.47709,42.66717]]],[[[-124.564595,42.840876],[-124.556645,42.838429],[-124.549492,42.843616],[-124.53648,42.862354],[-124.534589,42.875403],[-124.525653,42.879986],[-124.479636362958,42.9543325389089],[-124.258388,42.954946],[-124.253317,42.943809],[-124.239129,42.940948],[-124.239394,42.933751],[-124.219623,42.933782],[-124.219416,42.918156],[-124.209708,42.918227],[-124.214201,42.904006],[-124.189984,42.896696],[-124.180704,42.88245],[-124.161308,42.883499],[-124.162074,42.86973],[-124.146377,42.862081],[-124.146344,42.850511],[-124.141475,42.850586],[-124.141185,42.828475],[-124.160658,42.828288],[-124.160149,42.817761],[-124.164889,42.817825],[-124.164887,42.790006],[-124.160163,42.790087],[-124.159966,42.739947],[-124.138655,42.739956],[-124.138748,42.671115],[-124.132926,42.671119],[-124.132918,42.666697],[-124.119228,42.671129],[-124.1192,42.678339],[-124.089872,42.678208],[-124.089872,42.685454],[-123.996291,42.685651],[-123.996296,42.7001],[-123.976677,42.700118],[-123.976631,42.714558],[-123.956985,42.714569],[-123.957026,42.729051],[-123.937288,42.729097],[-123.937268,42.739666],[-123.925942,42.73971],[-123.925717,42.774514],[-123.868491,42.77484],[-123.868282,42.781921],[-123.84989,42.781821],[-123.849858,42.788994],[-123.806976,42.786983],[-123.783304,42.799426],[-123.743493,42.787971],[-123.732315,42.780131],[-123.716495,42.785376],[-123.720119,42.77747],[-123.733021,42.768945],[-123.737502,42.753118],[-123.749533,42.742038],[-123.759135,42.717906],[-123.831264,42.632313],[-123.831689,42.625798],[-123.821526,42.619743],[-123.819403,42.612446],[-123.828618,42.606107],[-123.830315,42.595067],[-123.849663,42.583353],[-123.850036,42.574579],[-123.860844,42.559989],[-123.854798,42.549736],[-123.878488,42.524647],[-123.875256,42.51372],[-123.890657,42.500538],[-123.919321,42.494737],[-123.945943,42.501334],[-123.972758,42.49535],[-123.988482,42.501979],[-124.008695,42.496147],[-124.011544,42.489628],[-124.002248,42.48466],[-124.001127,42.467382],[-124.005753,42.461239],[-124.002003,42.444308],[-124.014517,42.434189],[-124.00863,42.419622],[-124.013345,42.412677],[-124.035392,42.402296],[-124.041983,42.387656],[-124.035489,42.377858],[-124.036289,42.370303],[-124.027073,42.359216],[-123.949785,42.356568],[-123.936842,42.361632],[-123.920408,42.346469],[-123.888411,42.351627],[-123.878164,42.345236],[-123.878927,42.335279],[-123.869582,42.322796],[-123.859863,42.31854],[-123.851287,42.320577],[-123.839496,42.312202],[-123.847315,42.299219],[-123.837879,42.294693],[-123.838419,42.288537],[-123.825321,42.276123],[-123.823743,42.266983],[-123.814869,42.262425],[-123.812203,42.24399],[-123.792184,42.237625],[-123.790522,42.220299],[-123.808796,42.216961],[-123.820471,42.198974],[-123.821288,42.189849],[-123.813505,42.183987],[-123.812603,42.169651],[-123.823911,42.157656],[-123.853382,42.143597],[-123.858549,42.135116],[-123.850176,42.126945],[-123.839241,42.124671],[-123.840156,42.116779],[-123.821973,42.086567],[-123.827264,42.072475],[-123.84909,42.045069],[-123.844471,42.03336],[-123.836151,42.029292],[-123.838592,42.015304],[-123.827325,42.008438],[-123.828843,42.002504],[-123.818161,41.998791],[-123.822037891998,41.9956172960188],[-124.211605,41.99846],[-124.270464,42.045553],[-124.291269,42.043979],[-124.289478,42.046997],[-124.295473,42.04764],[-124.342058,42.097922],[-124.351083,42.100213],[-124.351193,42.110662],[-124.357122,42.118016],[-124.351784,42.134965],[-124.361563,42.143767],[-124.366832,42.15845],[-124.360318,42.162272],[-124.364606,42.169219],[-124.361009,42.180752],[-124.376215,42.196381],[-124.377762,42.218809],[-124.383633,42.22716],[-124.414149,42.252164],[-124.408514,42.260588],[-124.411815,42.307393],[-124.420557,42.320412],[-124.427782,42.318857],[-124.433063,42.323976],[-124.427222,42.33488],[-124.424759,42.376993],[-124.425499,42.409373],[-124.43512,42.441926],[-124.422038,42.461226],[-124.425631,42.46346],[-124.422394,42.475608],[-124.425816,42.476345],[-124.419964,42.48998],[-124.422195,42.496427],[-124.399829,42.53828],[-124.389977,42.574758],[-124.400031,42.591926],[-124.408289,42.594815],[-124.401716,42.597676],[-124.401177,42.627192],[-124.413764,42.645795],[-124.409836,42.649485],[-124.416774,42.661594],[-124.45074,42.675798],[-124.449417,42.689819],[-124.473864,42.732671],[-124.491679,42.741789],[-124.513663,42.732949],[-124.524439,42.789793],[-124.536073,42.814175],[-124.552845,42.830144],[-124.564487,42.834164],[-124.564595,42.840876]]]]}},{"type":"Feature","properties":{"GEOID":"41007","NAME":"Clatsop","state":"OR","wildfire_risk_score":44.402,"wildfire_eal_total":27563.88,"risk_band":"Low","source":"FEMA National Risk Index v1.20 (December 2025)"},"geometry":{"type":"MultiPolygon","coordinates":[[[[-123.664749,46.24431],[-123.648969,46.248461],[-123.64134,46.247981],[-123.650637,46.244072],[-123.664749,46.24431]]],[[[-124.012634,46.23685],[-124.000212,46.236416],[-123.988866,46.22715],[-123.995997,46.219092],[-123.989817,46.209224],[-123.98031,46.206921],[-123.972942,46.212678],[-123.953971,46.207159],[-123.905277,46.18069],[-123.900449,46.174343],[-123.902501,46.168704],[-123.891762,46.164978],[-123.878821,46.168089],[-123.87478,46.162821],[-123.854801,46.157342],[-123.839603,46.162163],[-123.838415,46.171051],[-123.859911,46.180379],[-123.864209,46.189527],[-123.821834,46.190293],[-123.783204,46.19854],[-123.757589,46.213001],[-123.718149,46.188989],[-123.69343,46.189812],[-123.674178,46.198203],[-123.67538,46.212401],[-123.666751,46.218228],[-123.644231,46.213172],[-123.619512,46.21531],[-123.548156,46.249018],[-123.547659,46.259109],[-123.501245,46.271004],[-123.474844,46.267831],[-123.447592,46.249832],[-123.427629,46.229348],[-123.430987,46.181571],[-123.390404,46.154428],[-123.363743140809,46.1463246103232],[-123.367438,46.039528],[-123.359614,46.039372],[-123.361622,45.779579],[-123.720001,45.77308],[-123.71984,45.783218],[-123.969078621366,45.7830789476988],[-123.961544,45.837101],[-123.96763,45.907807],[-123.978446,45.918179],[-123.977933,45.928564],[-123.99304,45.938842],[-123.993703,45.946431],[-123.974998,45.956129],[-123.969991,45.969139],[-123.937471,45.977306],[-123.927891,46.009564],[-123.92933,46.041978],[-123.933366,46.071672],[-123.947531,46.116131],[-123.996766,46.20399],[-124.010344,46.223514],[-124.021428,46.230109],[-124.012634,46.23685]]],[[[-124.035223,46.285137],[-124.025439,46.284567],[-124.02402,46.290834],[-124.008929,46.26557],[-124.028331,46.273967],[-124.035223,46.285137]]]]}},{"type":"Feature","properties":{"GEOID":"41035","NAME":"Klamath","state":"OR","wildfire_risk_score":94.402,"wildfire_eal_total":2562638.75,"risk_band":"High","source":"FEMA National Risk Index v1.20 (December 2025)"},"geometry":{"type":"Polygon","coordinates":[[[-122.289972,42.127156],[-122.282585,43.067719],[-122.076261,43.067744],[-122.093776,43.076257],[-122.092132,43.086837],[-122.075297,43.126545],[-122.065175,43.135701],[-122.066281,43.152756],[-122.053544,43.157965],[-122.05417,43.172116],[-122.038962,43.191598],[-122.040977,43.197659],[-122.033634,43.206901],[-122.040658,43.218136],[-122.028174,43.219886],[-122.011983,43.234109],[-122.001997,43.234752],[-121.992743,43.251153],[-121.974199,43.261693],[-121.987774,43.277653],[-122.00765,43.288227],[-122.008467,43.30118],[-121.999293,43.308993],[-122.015941,43.324152],[-122.009233,43.331929],[-122.010403,43.344697],[-122.021803,43.362042],[-122.033694,43.35665],[-122.029958,43.364558],[-122.056221,43.381459],[-122.062769,43.394378],[-122.0571,43.399646],[-122.081246,43.414465],[-122.091581,43.42882],[-122.101598,43.425083],[-122.15296,43.447662],[-122.136912,43.456339],[-122.140492,43.466716],[-122.135334,43.468423],[-122.130937,43.485057],[-122.129797,43.505694],[-122.147726,43.515463],[-122.149534,43.520693],[-122.140274,43.529683],[-122.142806,43.53711],[-122.131009,43.557284],[-122.110753,43.565274],[-122.093513,43.579215],[-122.071291,43.579585],[-122.071531,43.58775],[-122.002362,43.615498],[-121.332969,43.616645],[-121.332413,43.356663],[-121.348471,43.356753],[-121.349679,42.746644],[-120.883327,42.744214],[-120.879925977229,41.9937643415584],[-122.289748006076,42.0081011637255],[-122.289972,42.127156]]]}},{"type":"Feature","properties":{"GEOID":"41033","NAME":"Josephine","state":"OR","wildfire_risk_score":99.237,"wildfire_eal_total":22758092.63,"risk_band":"High","source":"FEMA National Risk Index v1.20 (December 2025)"},"geometry":{"type":"Polygon","coordinates":[[[-124.041983,42.387656],[-124.035392,42.402296],[-124.013345,42.412677],[-124.00863,42.419622],[-124.014517,42.434189],[-124.002003,42.444308],[-124.005753,42.461239],[-124.001127,42.467382],[-124.002248,42.48466],[-124.011544,42.489628],[-124.008695,42.496147],[-123.988482,42.501979],[-123.972758,42.49535],[-123.945943,42.501334],[-123.919321,42.494737],[-123.890657,42.500538],[-123.875256,42.51372],[-123.878488,42.524647],[-123.854798,42.549736],[-123.860844,42.559989],[-123.850036,42.574579],[-123.849663,42.583353],[-123.830315,42.595067],[-123.828618,42.606107],[-123.819403,42.612446],[-123.821526,42.619743],[-123.831689,42.625798],[-123.831264,42.632313],[-123.759135,42.717906],[-123.749533,42.742038],[-123.737502,42.753118],[-123.733021,42.768945],[-123.716492,42.784061],[-123.716505,42.739658],[-123.696843,42.739593],[-123.697,42.753907],[-123.677206,42.750145],[-123.677275,42.739682],[-123.581699,42.73992],[-123.581862,42.732149],[-123.566777,42.735693],[-123.562168,42.717574],[-123.542433,42.717122],[-123.542539,42.709832],[-123.494414,42.70918],[-123.494304,42.702248],[-123.455304,42.699406],[-123.455213,42.702982],[-123.445456,42.703025],[-123.444922,42.711122],[-123.425687,42.711039],[-123.425721,42.714483],[-123.4014,42.710297],[-123.401297,42.724958],[-123.371999,42.724955],[-123.371581,42.739484],[-123.36665,42.739471],[-123.366666,42.732194],[-123.328588,42.73175],[-123.328626,42.728247],[-123.274283,42.73203],[-123.27426,42.724712],[-123.249328,42.724404],[-123.249209,42.702421],[-123.229619,42.70261],[-123.23111258448,42.0039324384249],[-123.346955,41.999276],[-123.569305,42.000626],[-123.657212,41.995094],[-123.822037891998,41.9956172960188],[-123.818161,41.998791],[-123.828843,42.002504],[-123.827325,42.008438],[-123.839963,42.017586],[-123.836151,42.029292],[-123.844471,42.03336],[-123.84909,42.045069],[-123.827264,42.072475],[-123.821973,42.086567],[-123.840156,42.116779],[-123.839241,42.124671],[-123.850176,42.126945],[-123.858549,42.135116],[-123.853382,42.143597],[-123.823911,42.157656],[-123.812603,42.169651],[-123.813505,42.183987],[-123.821288,42.189849],[-123.820471,42.198974],[-123.808796,42.216961],[-123.790522,42.220299],[-123.792184,42.237625],[-123.812203,42.24399],[-123.814869,42.262425],[-123.823743,42.266983],[-123.825321,42.276123],[-123.838419,42.288537],[-123.837879,42.294693],[-123.847315,42.299219],[-123.839496,42.312202],[-123.851287,42.320577],[-123.859863,42.31854],[-123.869582,42.322796],[-123.878927,42.335279],[-123.878164,42.345236],[-123.888411,42.351627],[-123.920408,42.346469],[-123.936842,42.361632],[-123.949785,42.356568],[-124.027073,42.359216],[-124.036289,42.370303],[-124.035489,42.377858],[-124.041983,42.387656]]]}},{"type":"Feature","properties":{"GEOID":"41065","NAME":"Wasco","state":"OR","wildfire_risk_score":98.092,"wildfire_eal_total":14786487.91,"risk_band":"High","source":"FEMA National Risk Index v1.20 (December 2025)"},"geometry":{"type":"Polygon","coordinates":[[[-121.805269,45.011496],[-121.793219,45.017471],[-121.781958,45.015214],[-121.778672,45.037277],[-121.766495,45.03958],[-121.737791,45.033616],[-121.717652,45.037566],[-121.722584,45.045432],[-121.691214,45.065692],[-121.65871,45.066355],[-121.660828,45.075258],[-121.652018,45.086706],[-121.652638,45.101992],[-121.661656,45.105425],[-121.666378,45.120301],[-121.68383,45.123677],[-121.695074,45.117392],[-121.70805,45.134055],[-121.711596,45.152824],[-121.725283,45.159339],[-121.748649,45.1918],[-121.74687,45.205997],[-121.714469,45.21133],[-121.697685,45.227391],[-121.682607,45.228988],[-121.686262,45.233301],[-121.680898,45.250581],[-121.696479,45.25792],[-121.481888,45.258128],[-121.482168,45.519604],[-121.440646,45.519394],[-121.441224595532,45.6973034385521],[-121.401739,45.692887],[-121.372574,45.703111],[-121.33777,45.704949],[-121.312198,45.699925],[-121.287323,45.687019],[-121.215779,45.671238],[-121.200367,45.649829],[-121.196556,45.616689],[-121.183841,45.606441],[-121.131953,45.609762],[-121.084933,45.647893],[-121.06437,45.652549],[-121.007449,45.653217],[-120.983478,45.648344],[-120.943977,45.656445],[-120.915795173154,45.641301218792],[-120.904775,45.621645],[-120.911675,45.605245],[-120.895397,45.589342],[-120.909382,45.561148],[-120.898438,45.543979],[-120.884983,45.539326],[-120.882656,45.527564],[-120.864073,45.528746],[-120.825731,45.514077],[-120.838881,45.502441],[-120.833178,45.494646],[-120.839071,45.483245],[-120.836073,45.469146],[-120.859072,45.459946],[-120.865771,45.445046],[-120.863971,45.439046],[-120.84947,45.431445],[-120.852271,45.427145],[-120.86287,45.427346],[-120.866962,45.389224],[-120.881064,45.392552],[-120.898171,45.374445],[-120.901065,45.361596],[-120.918671,45.361345],[-120.921771,45.348045],[-120.938472,45.346845],[-120.939568,45.342046],[-120.932169,45.336443],[-120.93377,45.331343],[-120.953672,45.337245],[-120.946071,45.325045],[-120.959771,45.307945],[-120.97218,45.308635],[-120.973089,45.320315],[-120.982776,45.321963],[-120.992973,45.307444],[-121.01569,45.307148],[-121.019811,45.294684],[-121.031202,45.285857],[-121.020739,45.28618],[-121.017426,45.281969],[-121.024876,45.275176],[-121.018924,45.268668],[-121.024033,45.264107],[-121.0217,45.245501],[-121.025146,45.23835],[-121.019103,45.227813],[-121.024,45.218455],[-121.017866,45.217611],[-121.019103,45.212771],[-121.012104,45.208977],[-120.998011,45.208369],[-120.984865,45.197842],[-120.969286,45.200064],[-120.954372,45.196205],[-120.95345,45.201454],[-120.939661,45.198433],[-120.931529,45.203534],[-120.928682,45.199798],[-120.919099,45.202743],[-120.919644,45.197685],[-120.900336,45.203406],[-120.870218,45.199029],[-120.807523,45.167265],[-120.771213,45.162485],[-120.761575,45.144708],[-120.723166,45.130522],[-120.717999,45.112323],[-120.727736,45.099715],[-120.729824,45.083872],[-120.503733,45.083477],[-120.494548,45.07465],[-120.495548,45.06355],[-120.482647,45.05635],[-120.489747,45.04715],[-120.481346,45.03705],[-120.488946,45.02705],[-120.479645,45.01525],[-120.487646,45.002949],[-120.477168,44.981876],[-120.48367,44.972849],[-120.477712,44.972278],[-120.476778,44.967456],[-120.485982,44.962749],[-120.489133,44.951299],[-120.479385,44.947337],[-120.472884,44.935458],[-120.476621,44.929493],[-120.470495,44.924502],[-120.468709,44.913847],[-120.473566,44.908162],[-120.458259,44.903736],[-120.450991,44.908663],[-120.436139,44.894064],[-120.440553,44.886701],[-120.458764,44.881199],[-120.459592,44.874285],[-120.454706,44.872612],[-120.455204,44.865607],[-120.43628,44.862316],[-120.427549,44.853686],[-120.41258,44.852174],[-120.410061,44.840381],[-120.400495,44.830109],[-120.371441,44.821769],[-121.725068,44.825519],[-121.725068,44.829919],[-121.752994,44.829919],[-121.741864,44.847398],[-121.742406,44.853292],[-121.753182,44.86124],[-121.746221,44.875394],[-121.733528,44.882059],[-121.735253,44.888473],[-121.71822,44.89745],[-121.71456,44.90613],[-121.728994,44.904814],[-121.747297,44.914636],[-121.745436,44.923042],[-121.764083,44.941952],[-121.77977,44.935153],[-121.79511,44.935668],[-121.785593,44.950377],[-121.803345,44.977103],[-121.805269,45.011496]]]}},{"type":"Feature","properties":{"GEOID":"41017","NAME":"Deschutes","state":"OR","wildfire_risk_score":97.774,"wildfire_eal_total":13011174.08,"risk_band":"High","source":"FEMA National Risk Index v1.20 (December 2025)"},"geometry":{"type":"Polygon","coordinates":[[[-122.001944,43.616414],[-121.997755,43.62704],[-121.964918,43.627045],[-121.980509,43.639685],[-121.98691,43.653858],[-121.978224,43.688021],[-121.966917,43.702821],[-121.974607,43.708584],[-121.973125,43.715821],[-121.978262,43.724446],[-121.973689,43.730635],[-121.981248,43.742964],[-121.961437,43.763745],[-121.969609,43.769542],[-121.960507,43.78124],[-121.96739,43.78699],[-121.968382,43.800984],[-121.963754,43.809736],[-121.97546,43.811768],[-121.975113,43.85757],[-121.95296,43.871681],[-121.952256,43.878063],[-121.932415,43.894213],[-121.931479,43.898992],[-121.939333,43.900866],[-121.928213,43.909181],[-121.901482,43.9159],[-121.891442,43.908658],[-121.869385,43.911859],[-121.865553,43.919789],[-121.869966,43.923286],[-121.858102,43.945593],[-121.859711,43.961526],[-121.836722,43.971232],[-121.845087,43.976239],[-121.835458,43.987284],[-121.828402,43.988727],[-121.833384,43.991094],[-121.822016,44.012359],[-121.834472,44.039744],[-121.820056,44.050905],[-121.802225,44.052691],[-121.789211,44.075019],[-121.779748,44.080121],[-121.769259,44.10134],[-121.772735,44.139831],[-121.78402,44.148462],[-121.782017,44.159765],[-121.776708,44.159933],[-121.771647,44.167583],[-121.779738,44.17565],[-121.774047,44.190156],[-121.781511,44.194809],[-121.78161,44.205326],[-121.785631,44.207811],[-121.778226,44.221483],[-121.785753,44.229239],[-121.789648,44.249326],[-121.800871,44.25955],[-121.819172,44.26195],[-121.825631,44.283437],[-121.841346,44.285652],[-121.837607,44.334022],[-121.8439,44.346432],[-121.836875,44.357319],[-121.845989,44.366867],[-121.841952,44.372889],[-121.846471,44.385609],[-121.843138,44.39263],[-121.107534,44.3906],[-121.108537,44.218519],[-121.102938,44.218487],[-121.102773,44.138125],[-120.987271,44.134026],[-120.986587,43.960852],[-120.748249,43.95731],[-120.747848,43.871331],[-120.37874,43.872362],[-120.378107,43.785429],[-120.258386,43.785297],[-120.257777,43.698762],[-119.897434,43.6982],[-119.896581,43.611164],[-120.974975,43.617437],[-122.001944,43.616414]]]}},{"type":"Feature","properties":{"GEOID":"41031","NAME":"Jefferson","state":"OR","wildfire_risk_score":94.911,"wildfire_eal_total":3707945.48,"risk_band":"High","source":"FEMA National Risk Index v1.20 (December 2025)"},"geometry":{"type":"Polygon","coordinates":[[[-121.849512,44.468364],[-121.843049,44.479035],[-121.84938,44.484523],[-121.84688,44.49109],[-121.823104,44.511203],[-121.809382,44.514425],[-121.816317,44.537376],[-121.803286,44.555321],[-121.793895,44.594056],[-121.802325,44.610439],[-121.811566,44.615767],[-121.808206,44.628211],[-121.797945,44.640313],[-121.800402,44.683013],[-121.787179,44.689291],[-121.802975,44.709506],[-121.796107,44.714547],[-121.794385,44.725896],[-121.804597,44.729236],[-121.79161,44.746259],[-121.774175,44.752723],[-121.772321,44.759964],[-121.759958,44.762326],[-121.773183,44.775636],[-121.795963,44.772848],[-121.801658,44.779308],[-121.812542,44.781716],[-121.820278,44.800134],[-121.810174,44.806377],[-121.812221,44.811574],[-121.764831,44.820267],[-121.752994,44.829919],[-121.725068,44.829919],[-121.725068,44.825519],[-120.371441,44.821769],[-120.380711,44.817938],[-120.377797,44.812034],[-120.386035,44.810985],[-120.379005,44.806314],[-120.385062,44.796406],[-120.393173,44.797013],[-120.395872,44.803969],[-120.404676,44.794719],[-120.394668,44.786038],[-120.398603,44.776973],[-120.387782,44.769866],[-120.385687,44.761175],[-120.386561,44.564009],[-120.827555,44.562793],[-120.826899,44.476499],[-120.988824,44.476484],[-120.988375,44.390265],[-121.843138,44.39263],[-121.846756,44.4022],[-121.841332,44.41103],[-121.847578,44.430542],[-121.841128,44.444912],[-121.849512,44.468364]]]}},{"type":"Feature","properties":{"GEOID":"41055","NAME":"Sherman","state":"OR","wildfire_risk_score":90.204,"wildfire_eal_total":1501476.84,"risk_band":"Moderate","source":"FEMA National Risk Index v1.20 (December 2025)"},"geometry":{"type":"Polygon","coordinates":[[[-121.031202,45.285857],[-121.019811,45.294684],[-121.01569,45.307148],[-120.992973,45.307444],[-120.982776,45.321963],[-120.973089,45.320315],[-120.97218,45.308635],[-120.959771,45.307945],[-120.946071,45.325045],[-120.953672,45.337245],[-120.93377,45.331343],[-120.932169,45.336443],[-120.939568,45.342046],[-120.938472,45.346845],[-120.921771,45.348045],[-120.918671,45.361345],[-120.901065,45.361596],[-120.898171,45.374445],[-120.881064,45.392552],[-120.872479,45.388216],[-120.865759,45.391231],[-120.868569,45.401146],[-120.86287,45.427346],[-120.852271,45.427145],[-120.84947,45.431445],[-120.863971,45.439046],[-120.865771,45.445046],[-120.859072,45.459946],[-120.836073,45.469146],[-120.839071,45.483245],[-120.833178,45.494646],[-120.838881,45.502441],[-120.825731,45.514077],[-120.864073,45.528746],[-120.882656,45.527564],[-120.884983,45.539326],[-120.898438,45.543979],[-120.909382,45.561148],[-120.895397,45.589342],[-120.911675,45.605245],[-120.903975,45.617145],[-120.915795173154,45.641301218792],[-120.895575,45.642945],[-120.855674,45.671545],[-120.68937,45.715847],[-120.6535343441,45.7372486812962],[-120.643668,45.722346],[-120.618567,45.721447],[-120.604867,45.713047],[-120.602466,45.702847],[-120.569465,45.693748],[-120.566965,45.686048],[-120.552064,45.677548],[-120.547364,45.669048],[-120.531013,45.671899],[-120.488779,45.654991],[-120.491732,45.643504],[-120.479474,45.644858],[-120.479181,45.639518],[-120.486421,45.637158],[-120.468276,45.619474],[-120.440538,45.626112],[-120.438299,45.622848],[-120.446619,45.614262],[-120.444248,45.607454],[-120.432693,45.598438],[-120.410257,45.594812],[-120.402654,45.569936],[-120.407038,45.557779],[-120.388305,45.548723],[-120.381737,45.538738],[-120.358135,45.534239],[-120.380486,45.523731],[-120.360524,45.50945],[-120.367855,45.49525],[-120.426856,45.49795],[-120.423257,45.48365],[-120.411057,45.48185],[-120.407022,45.473147],[-120.409948,45.470332],[-120.421449,45.468017],[-120.45441,45.485194],[-120.495859,45.465349],[-120.482359,45.459549],[-120.496859,45.446949],[-120.484435,45.440716],[-120.483658,45.435549],[-120.501159,45.433999],[-120.506059,45.428249],[-120.489058,45.426949],[-120.482958,45.420549],[-120.489258,45.416849],[-120.501159,45.418749],[-120.507959,45.405749],[-120.525059,45.405249],[-120.528659,45.400349],[-120.518459,45.394649],[-120.532559,45.381549],[-120.512558,45.378649],[-120.534459,45.370249],[-120.530659,45.363849],[-120.533659,45.352949],[-120.543359,45.346049],[-120.530458,45.339249],[-120.530958,45.332249],[-120.541258,45.329349],[-120.527358,45.324249],[-120.527458,45.319149],[-120.540758,45.311549],[-120.525558,45.305749],[-120.524057,45.30015],[-120.534658,45.295049],[-120.540358,45.304349],[-120.545458,45.302549],[-120.548158,45.298349],[-120.543158,45.285649],[-120.555558,45.281249],[-120.541758,45.279049],[-120.547057,45.262949],[-120.533657,45.25905],[-120.535757,45.25495],[-120.556057,45.250449],[-120.541656,45.231949],[-120.544856,45.222449],[-120.524455,45.22255],[-120.527555,45.21675],[-120.540256,45.217049],[-120.541755,45.210349],[-120.534055,45.21125],[-120.531655,45.20605],[-120.521555,45.20535],[-120.506254,45.19615],[-120.48849,45.197233],[-120.481653,45.19335],[-120.487653,45.18075],[-120.472652,45.17765],[-120.483552,45.17025],[-120.468551,45.16355],[-120.476251,45.15185],[-120.464991,45.144196],[-120.44886,45.143185],[-120.465706,45.130127],[-120.458449,45.12065],[-120.462548,45.10115],[-120.476849,45.11165],[-120.482849,45.10505],[-120.506864,45.102778],[-120.51485,45.09465],[-120.503733,45.083477],[-120.729824,45.083872],[-120.727736,45.099715],[-120.717999,45.112323],[-120.723166,45.130522],[-120.761575,45.144708],[-120.771213,45.162485],[-120.807523,45.167265],[-120.870218,45.199029],[-120.900336,45.203406],[-120.919644,45.197685],[-120.919099,45.202743],[-120.928682,45.199798],[-120.931529,45.203534],[-120.939661,45.198433],[-120.95345,45.201454],[-120.954372,45.196205],[-120.969286,45.200064],[-120.984865,45.197842],[-120.998011,45.208369],[-121.019103,45.212771],[-121.017866,45.217611],[-121.024294,45.219531],[-121.019103,45.227813],[-121.024289,45.232197],[-121.020562,45.235346],[-121.025194,45.239548],[-121.0217,45.245501],[-121.024033,45.264107],[-121.018924,45.268668],[-121.024876,45.275176],[-121.017771,45.284738],[-121.031202,45.285857]]]}},{"type":"Feature","properties":{"GEOID":"41051","NAME":"Multnomah","state":"OR","wildfire_risk_score":67.303,"wildfire_eal_total":154682.67,"risk_band":"Low","source":"FEMA National Risk Index v1.20 (December 2025)"},"geometry":{"type":"Polygon","coordinates":[[[-122.929193,45.671015],[-122.929146,45.721482],[-122.784735,45.720946],[-122.784663,45.72865],[-122.762437,45.728665],[-122.774511,45.680437],[-122.76381,45.657138],[-122.675008,45.618039],[-122.643907,45.609739],[-122.602606,45.607639],[-122.548149,45.596768],[-122.479315,45.579761],[-122.438674,45.563585],[-122.380302,45.575941],[-122.352802,45.569441],[-122.331502,45.548241],[-122.294901,45.543541],[-122.248993,45.547745],[-122.2017,45.564141],[-122.183695,45.577696],[-122.14075,45.584508],[-122.101675,45.583516],[-122.044374,45.609516],[-121.983038,45.622812],[-121.963547,45.632784],[-121.955734,45.643559],[-121.922028852172,45.6491618990508],[-121.922051,45.610761],[-121.913115,45.601297],[-121.918386,45.585484],[-121.910547,45.581241],[-121.913911,45.571163],[-121.901879,45.55619],[-121.922136,45.546673],[-121.91644,45.543205],[-121.906688,45.520828],[-121.891749,45.512631],[-121.869342,45.514103],[-121.859828,45.499168],[-121.86337,45.492844],[-121.860323,45.489377],[-121.850403,45.486502],[-121.844301,45.476188],[-121.819587,45.461675],[-122.64158,45.461482],[-122.660979,45.457819],[-122.64616,45.441424],[-122.651183,45.436059],[-122.648725,45.432718],[-122.743721,45.433294],[-122.743862,45.519509],[-122.764464,45.519562],[-122.764412,45.533822],[-122.784864,45.533994],[-122.784771,45.5484],[-122.795111,45.548433],[-122.796057,45.555695],[-122.805432,45.555687],[-122.805481,45.562911],[-122.826005,45.563041],[-122.826342,45.577521],[-122.846978,45.577516],[-122.846849,45.591836],[-122.867592,45.591878],[-122.867495,45.606226],[-122.887963,45.606352],[-122.887837,45.620466],[-122.908992,45.620763],[-122.909078,45.635228],[-122.929128,45.635313],[-122.929193,45.671015]]]}},{"type":"Feature","properties":{"GEOID":"41021","NAME":"Gilliam","state":"OR","wildfire_risk_score":88.295,"wildfire_eal_total":853663.69,"risk_band":"Moderate","source":"FEMA National Risk Index v1.20 (December 2025)"},"geometry":{"type":"Polygon","coordinates":[[[-120.6535343441,45.7372486812962],[-120.634968,45.745847],[-120.591166,45.746547],[-120.559465,45.738348],[-120.505863,45.700048],[-120.482362,45.694449],[-120.40396,45.699249],[-120.282156,45.72125],[-120.210754,45.725951],[-120.170453,45.761951],[-120.141352,45.773152],[-120.07015,45.785152],[-119.999501176112,45.8124817188485],[-119.999242,45.517539],[-120.004783,45.517157],[-120.006555,45.257706],[-119.882346,45.256916],[-119.883914,45.169152],[-119.759759,45.169211],[-119.760731,45.081278],[-119.790831,45.081253],[-119.790699,45.067823],[-120.49516,45.068279],[-120.494548,45.07465],[-120.51485,45.09465],[-120.506864,45.102778],[-120.482849,45.10505],[-120.476849,45.11165],[-120.462548,45.10115],[-120.458449,45.12065],[-120.465706,45.130127],[-120.44886,45.143185],[-120.464991,45.144196],[-120.476251,45.15185],[-120.468551,45.16355],[-120.483552,45.17025],[-120.472652,45.17765],[-120.487653,45.18075],[-120.481653,45.19335],[-120.48849,45.197233],[-120.506254,45.19615],[-120.521555,45.20535],[-120.531655,45.20605],[-120.534055,45.21125],[-120.541755,45.210349],[-120.540256,45.217049],[-120.527555,45.21675],[-120.524455,45.22255],[-120.544856,45.222449],[-120.541656,45.231949],[-120.556057,45.250449],[-120.535757,45.25495],[-120.533657,45.25905],[-120.547057,45.262949],[-120.541758,45.279049],[-120.555558,45.281249],[-120.543158,45.285649],[-120.548158,45.298349],[-120.545458,45.302549],[-120.540358,45.304349],[-120.534658,45.295049],[-120.524057,45.30015],[-120.525558,45.305749],[-120.540758,45.311549],[-120.527458,45.319149],[-120.527358,45.324249],[-120.541258,45.329349],[-120.530958,45.332249],[-120.530458,45.339249],[-120.543359,45.346049],[-120.533659,45.352949],[-120.530659,45.363849],[-120.534459,45.370249],[-120.512558,45.378649],[-120.532559,45.381549],[-120.518459,45.394649],[-120.528659,45.400349],[-120.525059,45.405249],[-120.507959,45.405749],[-120.501159,45.418749],[-120.489258,45.416849],[-120.482958,45.420549],[-120.489058,45.426949],[-120.506059,45.428249],[-120.501159,45.433999],[-120.483658,45.435549],[-120.484435,45.440716],[-120.496859,45.446949],[-120.482359,45.459549],[-120.495859,45.465349],[-120.45441,45.485194],[-120.421449,45.468017],[-120.409948,45.470332],[-120.407022,45.473147],[-120.411057,45.48185],[-120.423257,45.48365],[-120.426856,45.49795],[-120.367855,45.49525],[-120.360524,45.50945],[-120.380486,45.523731],[-120.358135,45.534239],[-120.381737,45.538738],[-120.388305,45.548723],[-120.407038,45.557779],[-120.402654,45.569936],[-120.410257,45.594812],[-120.432693,45.598438],[-120.444248,45.607454],[-120.446619,45.614262],[-120.438299,45.622848],[-120.440538,45.626112],[-120.468276,45.619474],[-120.486421,45.637158],[-120.479181,45.639518],[-120.479474,45.644858],[-120.491732,45.643504],[-120.488779,45.654991],[-120.531013,45.671899],[-120.547364,45.669048],[-120.552064,45.677548],[-120.566965,45.686048],[-120.569465,45.693748],[-120.602466,45.702847],[-120.604867,45.713047],[-120.618567,45.721447],[-120.643668,45.722346],[-120.6535343441,45.7372486812962]]]}},{"type":"Feature","properties":{"GEOID":"41045","NAME":"Malheur","state":"OR","wildfire_risk_score":91.444,"wildfire_eal_total":1597663.48,"risk_band":"Moderate","source":"FEMA National Risk Index v1.20 (December 2025)"},"geometry":{"type":"Polygon","coordinates":[[[-118.232214,44.256129],[-118.193345,44.2562],[-118.193405,44.270708],[-118.152945,44.270684],[-118.152456,44.299509],[-118.132141,44.299483],[-118.132347,44.31431],[-118.112092,44.314271],[-118.112068,44.328754],[-118.092122,44.328734],[-118.087016,44.357646],[-118.071877,44.357562],[-118.071916,44.372009],[-118.051902,44.372004],[-118.051956,44.390032],[-118.031808,44.389953],[-118.031671,44.415192],[-118.011485,44.415169],[-118.011402,44.429615],[-117.971947,44.429296],[-117.971787,44.443849],[-117.590849,44.444573],[-117.590858,44.43013],[-117.56962,44.430062],[-117.569664,44.415678],[-117.52936,44.415722],[-117.529408,44.401329],[-117.509202,44.401461],[-117.509214,44.387143],[-117.486744,44.387246],[-117.487014,44.300317],[-117.220060553639,44.3014040000001],[-117.222647,44.297578],[-117.216974,44.288357],[-117.198147,44.273828],[-117.170342,44.25889],[-117.15706,44.25749],[-117.138523,44.25937],[-117.121037,44.277585],[-117.107673,44.280763],[-117.09457,44.270978],[-117.089503,44.258234],[-117.05303,44.229076],[-117.047062,44.229742],[-117.042283,44.242775],[-117.031862,44.248635],[-116.975905,44.242844],[-116.970365,44.221221],[-116.971675,44.197256],[-116.925392,44.191544],[-116.895757,44.171267],[-116.895931,44.154295],[-116.911218,44.139992],[-116.914236,44.127304],[-116.925642,44.118929],[-116.933704,44.100039],[-116.977351,44.085364],[-116.973185,44.049425],[-116.937342,44.029376],[-116.935911,44.012652],[-116.943742,44.003189],[-116.935584,43.986874],[-116.959871,43.982925],[-116.97618,43.974719],[-116.97088,43.968302],[-116.959206,43.96636],[-116.972331,43.958357],[-116.960415,43.954564],[-116.968931,43.937007],[-116.959993,43.93065],[-116.958752,43.923246],[-116.962615,43.91748],[-116.981919,43.912478],[-116.976114,43.894759],[-116.98384,43.880846],[-116.98294,43.86771],[-117.020035,43.858956],[-117.010383,43.844803],[-117.012831,43.840001],[-117.025156,43.841334],[-117.032881,43.830025],[-117.02155,43.819402],[-117.026634,43.80811],[-117.026841,43.732905],[-117.026197,41.99989],[-118.197369215928,41.9969940811635],[-118.195281,42.275813],[-118.214698,42.275891],[-118.216832,42.914703],[-118.228793,42.914625],[-118.232392,43.612266],[-118.227645,44.039862],[-118.232214,44.256129]]]}},{"type":"Feature","properties":{"GEOID":"41039","NAME":"Lane","state":"OR","wildfire_risk_score":68.734,"wildfire_eal_total":155116.07,"risk_band":"Moderate","source":"FEMA National Risk Index v1.20 (December 2025)"},"geometry":{"type":"Polygon","coordinates":[[[-124.150267,43.91085],[-124.123975,44.105834],[-124.127758,44.122027],[-124.123876,44.1341],[-124.128882,44.137549],[-124.122668,44.142519],[-124.117006,44.171913],[-124.111054,44.235071],[-124.115309,44.245977],[-124.108945,44.265475],[-124.114043752426,44.2769899702691],[-123.941072,44.277375],[-123.941075,44.282951],[-123.715386,44.283946],[-123.715377,44.280267],[-123.593513,44.276699],[-123.59329,44.281915],[-123.573614,44.282597],[-123.180388,44.283725],[-123.174054,44.266608],[-123.178411,44.250918],[-123.15034,44.226627],[-123.165428,44.200071],[-122.905755,44.200736],[-122.903999,44.259129],[-122.865545,44.25898],[-122.865465,44.287317],[-122.830451,44.282166],[-122.823015,44.27432],[-122.807156,44.284171],[-122.776319,44.283816],[-122.762735,44.290537],[-122.749834,44.28473],[-122.731121,44.28823],[-122.721184,44.281778],[-122.700224,44.279938],[-122.668915,44.268902],[-122.657909,44.271093],[-122.646853,44.266384],[-122.64493,44.253458],[-122.639699,44.249263],[-122.593471,44.244427],[-122.5754,44.235358],[-122.577232,44.228044],[-122.535382,44.23486],[-122.529542,44.226715],[-122.513425,44.231535],[-122.503182,44.22167],[-122.479635,44.219132],[-122.465628,44.223039],[-122.448436,44.216748],[-122.434885,44.221306],[-122.404748,44.22058],[-122.404781,44.216938],[-122.384561,44.217063],[-122.38457,44.211013],[-122.379589,44.20944],[-122.361244,44.211748],[-122.352623,44.220742],[-122.340612,44.221577],[-122.327313,44.231189],[-122.325744,44.237579],[-122.332446,44.243382],[-122.32715,44.252841],[-121.799426,44.25828],[-121.789648,44.249326],[-121.785753,44.229239],[-121.778226,44.221483],[-121.785631,44.207811],[-121.773407,44.185623],[-121.779738,44.17565],[-121.772426,44.16353],[-121.782017,44.159765],[-121.78402,44.148462],[-121.772735,44.139831],[-121.76807,44.115245],[-121.772481,44.091034],[-121.789211,44.075019],[-121.802225,44.052691],[-121.820056,44.050905],[-121.834472,44.039744],[-121.822016,44.012359],[-121.833384,43.991094],[-121.828402,43.988727],[-121.835458,43.987284],[-121.845087,43.976239],[-121.836722,43.971232],[-121.859711,43.961526],[-121.858102,43.945593],[-121.869966,43.923286],[-121.865553,43.919789],[-121.869385,43.911859],[-121.891442,43.908658],[-121.901482,43.9159],[-121.928213,43.909181],[-121.939333,43.900866],[-121.931479,43.898992],[-121.932415,43.894213],[-121.952256,43.878063],[-121.95296,43.871681],[-121.975113,43.85757],[-121.97546,43.811768],[-121.963754,43.809736],[-121.968382,43.800984],[-121.96739,43.78699],[-121.960507,43.78124],[-121.969609,43.769542],[-121.961437,43.763745],[-121.981248,43.742964],[-121.973689,43.730635],[-121.978262,43.724446],[-121.973125,43.715821],[-121.974607,43.708584],[-121.966917,43.702821],[-121.978224,43.688021],[-121.98691,43.653858],[-121.980509,43.639685],[-121.964918,43.627045],[-122.000095,43.626357],[-122.002362,43.615498],[-122.010965,43.609274],[-122.071531,43.58775],[-122.071291,43.579585],[-122.093513,43.579215],[-122.110753,43.565274],[-122.131009,43.557284],[-122.142806,43.53711],[-122.140274,43.529683],[-122.149534,43.520693],[-122.147726,43.515463],[-122.129797,43.505694],[-122.130937,43.485057],[-122.135334,43.468423],[-122.140492,43.466716],[-122.136912,43.456339],[-122.15296,43.447662],[-122.132034,43.440221],[-122.741716,43.437395],[-122.741845,43.544654],[-123.107475,43.540013],[-123.107318,43.605889],[-123.137211,43.605906],[-123.137319,43.77967],[-123.348246,43.78017],[-123.3482,43.809212],[-123.470371,43.810056],[-123.470251,43.831183],[-123.529153,43.830061],[-123.529005,43.86833],[-123.579689,43.868291],[-123.57958,43.891057],[-123.619574,43.891672],[-123.619012,43.921117],[-123.658909,43.921672],[-123.658767,43.936474],[-123.703628,43.937399],[-123.7038,43.944319],[-123.827004,43.944837],[-123.852602,43.920553],[-123.872399,43.916733],[-123.882804,43.904582],[-123.897197,43.904714],[-123.902391,43.896281],[-123.925917,43.898476],[-123.925479,43.865947],[-123.946529,43.871689],[-123.946294,43.862737],[-124.158728145934,43.8637200341693],[-124.150267,43.91085]]]}},{"type":"Feature","properties":{"GEOID":"41001","NAME":"Baker","state":"OR","wildfire_risk_score":96.056,"wildfire_eal_total":3889502.04,"risk_band":"High","source":"FEMA National Risk Index v1.20 (December 2025)"},"geometry":{"type":"Polygon","coordinates":[[[-118.51944,44.705886],[-118.492404,44.713621],[-118.470581,44.704],[-118.443456,44.724173],[-118.419381,44.718693],[-118.417419,44.726986],[-118.395839,44.726005],[-118.379786,44.744357],[-118.367621,44.747213],[-118.321741,44.74151],[-118.285439,44.750975],[-118.28984,44.765439],[-118.283385,44.772211],[-118.299459,44.796442],[-118.295068,44.813191],[-118.307522,44.819407],[-118.311173,44.823236],[-118.308421,44.830613],[-118.3187,44.836274],[-118.293566,44.853018],[-118.296234,44.862086],[-118.289794,44.866421],[-118.267786,44.869386],[-118.258237,44.863351],[-118.236861,44.86166],[-118.228076,44.865544],[-118.224904,44.875568],[-118.237399,44.908385],[-118.229421,44.913854],[-118.232128,44.923482],[-118.223449,44.93691],[-118.244382,44.94431],[-118.245136,44.960686],[-118.232197,44.960686],[-118.231806,44.969921],[-118.213869,44.989174],[-118.214184,45.007421],[-118.184709,45.019389],[-118.161036,45.015711],[-118.142367,45.027725],[-118.137729,45.040018],[-118.130351,45.045024],[-118.099201,45.044838],[-118.06955,45.016873],[-118.037125,45.004007],[-118.00333,44.99484],[-117.977728,44.994951],[-117.956183,45.000952],[-117.921696,45.019079],[-117.896386,45.037917],[-117.894708,45.04524],[-117.885732,45.051089],[-117.888408,45.0571],[-117.873396,45.060713],[-117.873734,45.065639],[-117.862587,45.054395],[-117.853788,45.060443],[-117.83775,45.055138],[-117.840934,45.050658],[-117.818062,45.025909],[-117.810347,45.025607],[-117.812956,45.032055],[-117.805679,45.032832],[-117.803038,45.02718],[-117.793742,45.026119],[-117.795976,45.018489],[-117.77942,45.01143],[-117.784917,44.998322],[-117.777504,44.992161],[-117.564033,44.992866],[-117.563486,45.079446],[-116.783771926572,45.078265731912],[-116.797329,45.060267],[-116.847944,45.022602],[-116.844625,45.001435],[-116.856754,44.984298],[-116.856964,44.975173],[-116.848093,44.971906],[-116.839031,44.983992],[-116.826271,44.982493],[-116.829329,44.975173],[-116.847888,44.964768],[-116.850737,44.958113],[-116.832176,44.931373],[-116.857038,44.880769],[-116.883598,44.858268],[-116.898153,44.854319],[-116.900146,44.836672],[-116.931099,44.804781],[-116.9347,44.783881],[-116.970902,44.773881],[-116.998903,44.756382],[-117.013802,44.756841],[-117.021398,44.750785],[-117.03827,44.748179],[-117.04782,44.741549],[-117.050495,44.732477],[-117.062273,44.727143],[-117.061799,44.706654],[-117.07912,44.692175],[-117.081022,44.673685],[-117.095868,44.664737],[-117.098221,44.640689],[-117.120522,44.614658],[-117.124754,44.583834],[-117.148255,44.564371],[-117.14293,44.557236],[-117.149242,44.536151],[-117.161033,44.525166],[-117.181583,44.52296],[-117.200237,44.492027],[-117.225076,44.482346],[-117.215573,44.453746],[-117.215072,44.427162],[-117.22698,44.405583],[-117.242675,44.396548],[-117.243027,44.390974],[-117.235117,44.373853],[-117.197339,44.347406],[-117.189769,44.336585],[-117.203323,44.313024],[-117.216795,44.308236],[-117.220060553639,44.3014040000001],[-117.487014,44.300317],[-117.486744,44.387246],[-117.509214,44.387143],[-117.509202,44.401461],[-117.529408,44.401329],[-117.52936,44.415722],[-117.569664,44.415678],[-117.56962,44.430062],[-117.590858,44.43013],[-117.590849,44.444573],[-117.971787,44.443849],[-117.971947,44.429296],[-118.011402,44.429615],[-118.011485,44.415169],[-118.031671,44.415192],[-118.031808,44.389953],[-118.051956,44.390032],[-118.051902,44.372004],[-118.071916,44.372009],[-118.071877,44.357562],[-118.087016,44.357646],[-118.092122,44.328734],[-118.112068,44.328754],[-118.112092,44.314271],[-118.132347,44.31431],[-118.132141,44.299483],[-118.152456,44.299509],[-118.152945,44.270684],[-118.193405,44.270708],[-118.193345,44.2562],[-118.497499,44.255248],[-118.500117,44.277057],[-118.478595,44.315917],[-118.467883,44.322048],[-118.46887,44.334584],[-118.461061,44.336551],[-118.452455,44.349406],[-118.43437,44.353977],[-118.432812,44.36914],[-118.413314,44.373543],[-118.407612,44.370845],[-118.409774,44.378619],[-118.428326,44.394126],[-118.425493,44.398748],[-118.43501,44.397508],[-118.435954,44.401907],[-118.418457,44.432468],[-118.420911,44.455072],[-118.408786,44.452648],[-118.380034,44.462276],[-118.375367,44.459231],[-118.360732,44.471699],[-118.367042,44.478912],[-118.357986,44.484385],[-118.374563,44.507891],[-118.368806,44.521255],[-118.37153,44.531191],[-118.365535,44.538112],[-118.359224,44.536041],[-118.337886,44.567029],[-118.323526,44.562368],[-118.305778,44.58881],[-118.311696,44.591181],[-118.309704,44.595679],[-118.316589,44.603863],[-118.337588,44.609502],[-118.343208,44.631204],[-118.354824,44.639263],[-118.379855,44.64645],[-118.388087,44.641555],[-118.404947,44.641444],[-118.425197,44.654828],[-118.446702,44.650017],[-118.47732,44.66142],[-118.504435,44.665556],[-118.518688,44.691562],[-118.51944,44.705886]]]}},{"type":"Feature","properties":{"GEOID":"41005","NAME":"Clackamas","state":"OR","wildfire_risk_score":86.768,"wildfire_eal_total":1084028.19,"risk_band":"Moderate","source":"FEMA National Risk Index v1.20 (December 2025)"},"geometry":{"type":"Polygon","coordinates":[[[-122.867891,45.317345],[-122.846503,45.317192],[-122.846494,45.34595],[-122.807188,45.346276],[-122.80547,45.331772],[-122.743741,45.332067],[-122.743721,45.433294],[-122.648725,45.432718],[-122.651183,45.436059],[-122.64616,45.441424],[-122.660979,45.457819],[-122.64158,45.461482],[-121.819587,45.461675],[-121.806845,45.454649],[-121.806952,45.435405],[-121.794887,45.425196],[-121.793187,45.415696],[-121.776304,45.402784],[-121.72419,45.393648],[-121.696925,45.373564],[-121.702141,45.363389],[-121.70326,45.331267],[-121.679081,45.297177],[-121.696411,45.255359],[-121.680898,45.250581],[-121.686262,45.233301],[-121.682607,45.228988],[-121.697685,45.227391],[-121.714469,45.21133],[-121.74687,45.205997],[-121.748649,45.1918],[-121.725283,45.159339],[-121.711596,45.152824],[-121.70805,45.134055],[-121.699675,45.12179],[-121.693387,45.116934],[-121.686121,45.123426],[-121.666378,45.120301],[-121.661656,45.105425],[-121.652638,45.101992],[-121.651394,45.088803],[-121.659639,45.079635],[-121.65871,45.066355],[-121.691214,45.065692],[-121.722584,45.045432],[-121.717652,45.037566],[-121.737791,45.033616],[-121.766495,45.03958],[-121.778672,45.037277],[-121.781958,45.015214],[-121.793219,45.017471],[-121.805269,45.011496],[-121.803345,44.977103],[-121.785593,44.950377],[-121.796127,44.937426],[-121.77977,44.935153],[-121.764083,44.941952],[-121.745436,44.923042],[-121.747297,44.914636],[-121.728994,44.904814],[-121.71456,44.90613],[-121.715592,44.900018],[-121.734223,44.88572],[-122.401021,44.88572],[-122.393227,44.891673],[-122.399554,44.904077],[-122.441487,44.903958],[-122.4585,44.915212],[-122.48619,44.922659],[-122.505316,44.918332],[-122.517542,44.932797],[-122.535472,44.936684],[-122.559757,44.965195],[-122.567385,44.982564],[-122.594954,44.99089],[-122.59552,45.01962],[-122.633939,45.033795],[-122.649252,45.032454],[-122.669637,45.046532],[-122.678492,45.046306],[-122.705237,45.05929],[-122.717097,45.069888],[-122.719677,45.079641],[-122.743301,45.096291],[-122.74984,45.10772],[-122.782827,45.124528],[-122.788505,45.130356],[-122.770026,45.159421],[-122.774752,45.16182],[-122.766605,45.163304],[-122.751894,45.182194],[-122.760134,45.182647],[-122.753184,45.187517],[-122.755088,45.191576],[-122.759434,45.189771],[-122.759871,45.194733],[-122.753163,45.19176],[-122.754437,45.196745],[-122.749815,45.194959],[-122.759494,45.203317],[-122.745399,45.215953],[-122.746712,45.225199],[-122.752533,45.228835],[-122.745299,45.232772],[-122.749821,45.231969],[-122.751948,45.242542],[-122.738988,45.259532],[-122.784756,45.259562],[-122.7849,45.274069],[-122.834576,45.274058],[-122.849872,45.259717],[-122.868073,45.259695],[-122.867891,45.317345]]]}},{"type":"Feature","properties":{"GEOID":"41003","NAME":"Benton","state":"OR","wildfire_risk_score":37.055,"wildfire_eal_total":26063.7,"risk_band":"Low","source":"FEMA National Risk Index v1.20 (December 2025)"},"geometry":{"type":"Polygon","coordinates":[[[-123.816709,44.344622],[-123.734996,44.345778],[-123.735153,44.36035],[-123.715538,44.360458],[-123.720071,44.433374],[-123.597677,44.433109],[-123.596929,44.651139],[-123.602817,44.651159],[-123.602609,44.721154],[-123.149025,44.720225],[-123.143316,44.70831],[-123.121299,44.691353],[-123.116892,44.676966],[-123.089899,44.675067],[-123.074122,44.65836],[-123.073574,44.650495],[-123.078206,44.646585],[-123.095339,44.641107],[-123.17088,44.634245],[-123.17011,44.622674],[-123.181816,44.619],[-123.18392,44.609246],[-123.198028,44.602857],[-123.19701,44.59756],[-123.184161,44.594289],[-123.185375,44.587298],[-123.221793,44.584597],[-123.251209,44.574626],[-123.260791,44.557491],[-123.242113,44.547324],[-123.251728,44.526486],[-123.238067,44.527969],[-123.212619,44.504978],[-123.214778,44.488627],[-123.221019,44.484751],[-123.214276,44.479649],[-123.216462,44.468473],[-123.205287,44.443038],[-123.209194,44.435239],[-123.228054,44.431889],[-123.21938,44.419436],[-123.220377,44.415712],[-123.229311,44.415073],[-123.223614,44.393452],[-123.245157,44.382254],[-123.219011,44.362497],[-123.235048,44.356979],[-123.228518,44.342591],[-123.245678,44.332099],[-123.220295,44.32943],[-123.216178,44.310808],[-123.193766,44.306974],[-123.18975,44.295892],[-123.193575,44.290742],[-123.180388,44.283725],[-123.573614,44.282597],[-123.59329,44.281915],[-123.593513,44.276699],[-123.775598,44.283547],[-123.775789,44.316167],[-123.816525,44.315303],[-123.816709,44.344622]]]}},{"type":"Feature","properties":{"GEOID":"41023","NAME":"Grant","state":"OR","wildfire_risk_score":93.575,"wildfire_eal_total":1801884.55,"risk_band":"High","source":"FEMA National Risk Index v1.20 (December 2025)"},"geometry":{"type":"Polygon","coordinates":[[[-119.672228,44.995117],[-118.468871,44.995176],[-118.464283,44.989822],[-118.448093,44.990623],[-118.437351,44.984781],[-118.439339,44.96625],[-118.4361,44.96242],[-118.425078,44.963809],[-118.404535,44.976476],[-118.389864,44.972402],[-118.387501,44.983786],[-118.380085,44.979488],[-118.359455,44.992301],[-118.329464,44.972329],[-118.318969,44.975929],[-118.308527,44.972016],[-118.299031,44.96063],[-118.286304,44.965046],[-118.274333,44.957348],[-118.244662,44.958396],[-118.244382,44.94431],[-118.223449,44.93691],[-118.232128,44.923482],[-118.229421,44.913854],[-118.237399,44.908385],[-118.224904,44.875568],[-118.228076,44.865544],[-118.236861,44.86166],[-118.258237,44.863351],[-118.267786,44.869386],[-118.289794,44.866421],[-118.296234,44.862086],[-118.293566,44.853018],[-118.3187,44.836274],[-118.308421,44.830613],[-118.311173,44.823236],[-118.307522,44.819407],[-118.295068,44.813191],[-118.299459,44.796442],[-118.283385,44.772211],[-118.28984,44.765439],[-118.285439,44.750975],[-118.321741,44.74151],[-118.367621,44.747213],[-118.379786,44.744357],[-118.395839,44.726005],[-118.417419,44.726986],[-118.419381,44.718693],[-118.443456,44.724173],[-118.470581,44.704],[-118.492404,44.713621],[-118.51944,44.705886],[-118.518688,44.691562],[-118.504435,44.665556],[-118.47732,44.66142],[-118.446702,44.650017],[-118.425197,44.654828],[-118.404947,44.641444],[-118.388087,44.641555],[-118.379855,44.64645],[-118.354824,44.639263],[-118.343208,44.631204],[-118.337588,44.609502],[-118.316589,44.603863],[-118.309704,44.595679],[-118.311696,44.591181],[-118.305778,44.58881],[-118.323526,44.562368],[-118.337886,44.567029],[-118.359224,44.536041],[-118.365535,44.538112],[-118.37153,44.531191],[-118.368806,44.521255],[-118.374563,44.507891],[-118.357986,44.484385],[-118.367042,44.478912],[-118.360732,44.471699],[-118.375367,44.459231],[-118.380034,44.462276],[-118.408786,44.452648],[-118.420911,44.455072],[-118.418457,44.432468],[-118.435954,44.401907],[-118.43501,44.397508],[-118.425493,44.398748],[-118.428326,44.394126],[-118.409774,44.378619],[-118.407612,44.370845],[-118.413314,44.373543],[-118.432812,44.36914],[-118.43437,44.353977],[-118.452455,44.349406],[-118.461061,44.336551],[-118.46887,44.334584],[-118.467883,44.322048],[-118.478595,44.315917],[-118.500117,44.277057],[-118.497499,44.255248],[-118.23217,44.257343],[-118.227645,44.039862],[-118.587125,44.040266],[-118.587172,44.046995],[-118.81689,44.047828],[-118.816931,43.960733],[-119.657183,43.95892],[-119.652431,44.823299],[-119.671532,44.823343],[-119.672228,44.995117]]]}},{"type":"Feature","properties":{"GEOID":"41019","NAME":"Douglas","state":"OR","wildfire_risk_score":97.837,"wildfire_eal_total":8243985.34,"risk_band":"High","source":"FEMA National Risk Index v1.20 (December 2025)"},"geometry":{"type":"Polygon","coordinates":[[[-124.214477,43.627619],[-124.206343,43.674021],[-124.177685,43.767228],[-124.158728145934,43.8637200341693],[-123.946294,43.862737],[-123.946529,43.871689],[-123.925479,43.865947],[-123.925917,43.898476],[-123.902391,43.896281],[-123.897197,43.904714],[-123.882804,43.904582],[-123.872399,43.916733],[-123.852602,43.920553],[-123.847057,43.928822],[-123.832118,43.935987],[-123.831984,43.94308],[-123.7038,43.944319],[-123.703628,43.937399],[-123.658767,43.936474],[-123.658909,43.921672],[-123.619012,43.921117],[-123.619574,43.891672],[-123.57958,43.891057],[-123.579689,43.868291],[-123.529005,43.86833],[-123.529153,43.830061],[-123.470251,43.831183],[-123.470371,43.810056],[-123.3482,43.809212],[-123.348246,43.78017],[-123.137319,43.77967],[-123.137211,43.605906],[-123.107318,43.605889],[-123.107475,43.540013],[-122.741845,43.544654],[-122.741716,43.437395],[-122.132034,43.440221],[-122.132883,43.436528],[-122.120581,43.435399],[-122.101598,43.425083],[-122.091581,43.42882],[-122.081246,43.414465],[-122.0571,43.399646],[-122.062769,43.394378],[-122.05949,43.386782],[-122.029958,43.364558],[-122.033694,43.35665],[-122.021803,43.362042],[-122.008208,43.337374],[-122.015941,43.324152],[-121.999293,43.308993],[-122.008467,43.30118],[-122.00765,43.288227],[-121.987774,43.277653],[-121.974199,43.261693],[-121.992743,43.251153],[-122.001997,43.234752],[-122.011983,43.234109],[-122.028174,43.219886],[-122.040658,43.218136],[-122.033634,43.206901],[-122.040977,43.197659],[-122.038962,43.191598],[-122.05417,43.172116],[-122.053544,43.157965],[-122.066281,43.152756],[-122.065175,43.135701],[-122.075297,43.126545],[-122.092132,43.086837],[-122.093776,43.076257],[-122.076261,43.067744],[-122.282585,43.067719],[-122.28273,42.996499],[-122.401025,42.996632],[-122.401077,42.983458],[-122.420844,42.983439],[-122.420863,42.968927],[-122.440535,42.968923],[-122.440505,42.95442],[-122.46021,42.954373],[-122.460224,42.939873],[-122.560273,42.939185],[-122.560299,42.92469],[-122.580049,42.924651],[-122.580094,42.9108],[-122.600202,42.911073],[-122.600251,42.895693],[-122.637812,42.89699],[-122.637695,42.881141],[-122.677181,42.88108],[-122.677198,42.866603],[-122.697017,42.866572],[-122.69701,42.852099],[-122.716657,42.85211],[-122.716699,42.837671],[-122.736329,42.837661],[-122.736367,42.823496],[-122.775223,42.8288],[-122.775044,42.806831],[-122.784914,42.806845],[-122.785493,42.792712],[-122.794811,42.792721],[-122.794776,42.778221],[-122.853707,42.781766],[-122.852943,42.774603],[-122.951199,42.774773],[-122.95119,42.767555],[-122.970829,42.768116],[-122.970492,42.760945],[-123.009744,42.75941],[-123.009765,42.752144],[-123.152233,42.755835],[-123.152023,42.737721],[-123.180512,42.737765],[-123.180551,42.731655],[-123.190456,42.731703],[-123.190504,42.724495],[-123.200419,42.724474],[-123.200424,42.717236],[-123.209912,42.717161],[-123.210392,42.709983],[-123.229635,42.709956],[-123.229619,42.70261],[-123.249209,42.702421],[-123.249328,42.724404],[-123.27426,42.724712],[-123.274283,42.73203],[-123.328626,42.728247],[-123.328588,42.73175],[-123.366666,42.732194],[-123.36665,42.739471],[-123.371581,42.739484],[-123.371999,42.724955],[-123.401297,42.724958],[-123.4014,42.710297],[-123.425721,42.714483],[-123.425687,42.711039],[-123.444922,42.711122],[-123.445456,42.703025],[-123.455213,42.702982],[-123.455304,42.699406],[-123.494304,42.702248],[-123.494414,42.70918],[-123.542539,42.709832],[-123.542433,42.717122],[-123.562168,42.717574],[-123.566777,42.735693],[-123.581862,42.732149],[-123.581699,42.73992],[-123.677275,42.739682],[-123.677206,42.750145],[-123.697,42.753907],[-123.696843,42.739593],[-123.716505,42.739658],[-123.716495,42.785376],[-123.732315,42.780131],[-123.743493,42.787971],[-123.783304,42.799426],[-123.803732,42.787536],[-123.811553,42.788837],[-123.811789,42.824101],[-123.820439,42.824112],[-123.821118,42.996291],[-123.761594,42.996318],[-123.761333,43.08316],[-123.707057,43.083457],[-123.702144,43.087083],[-123.704752,43.257741],[-123.764356,43.258054],[-123.761528,43.422294],[-123.764884,43.431548],[-123.817614,43.431306],[-123.816657,43.516449],[-123.875628,43.515947],[-123.875698,43.608407],[-124.218966377223,43.6109319633736],[-124.214477,43.627619]]]}},{"type":"Feature","properties":{"GEOID":"41047","NAME":"Marion","state":"OR","wildfire_risk_score":59.86,"wildfire_eal_total":75117.37,"risk_band":"Low","source":"FEMA National Risk Index v1.20 (December 2025)"},"geometry":{"type":"Polygon","coordinates":[[[-123.18078,44.857478],[-123.172598,44.864246],[-123.149402,44.861254],[-123.144973,44.877305],[-123.126415,44.907887],[-123.107112,44.920237],[-123.111472,44.930161],[-123.072813,44.927686],[-123.04148,44.948114],[-123.036985,44.967428],[-123.039058,44.986733],[-123.047081,44.991041],[-123.064261,44.989778],[-123.075577,45.014513],[-123.066104,45.066611],[-123.068392,45.077929],[-123.036121,45.097729],[-123.014574,45.101967],[-122.99643,45.118068],[-123.015037,45.136757],[-123.032638,45.14692],[-123.027677,45.161618],[-123.007346,45.159498],[-123.000766,45.164398],[-123.015382,45.177017],[-123.020521,45.199841],[-123.043892,45.199481],[-123.051144,45.21068],[-123.03645,45.222705],[-122.99926,45.224097],[-122.995372,45.236617],[-123.000788,45.259347],[-122.978412,45.27233],[-122.967228,45.285149],[-122.947317,45.267485],[-122.920969,45.268321],[-122.899416,45.25672],[-122.867179,45.252972],[-122.84674,45.261388],[-122.834576,45.274058],[-122.7849,45.274069],[-122.784756,45.259562],[-122.738988,45.259532],[-122.751948,45.242542],[-122.749821,45.231969],[-122.745299,45.232772],[-122.752533,45.228835],[-122.746712,45.225199],[-122.745399,45.215953],[-122.759494,45.203317],[-122.749815,45.194959],[-122.754437,45.196745],[-122.753163,45.19176],[-122.759871,45.194733],[-122.759434,45.189771],[-122.755088,45.191576],[-122.753184,45.187517],[-122.760134,45.182647],[-122.751894,45.182194],[-122.766605,45.163304],[-122.773688,45.163454],[-122.770026,45.159421],[-122.788505,45.130356],[-122.776187,45.123511],[-122.775889,45.118832],[-122.74984,45.10772],[-122.743301,45.096291],[-122.719677,45.079641],[-122.717097,45.069888],[-122.705237,45.05929],[-122.678492,45.046306],[-122.669637,45.046532],[-122.649252,45.032454],[-122.633939,45.033795],[-122.59552,45.01962],[-122.594954,44.99089],[-122.568801,44.983735],[-122.559757,44.965195],[-122.535472,44.936684],[-122.517542,44.932797],[-122.505316,44.918332],[-122.48619,44.922659],[-122.4585,44.915212],[-122.441487,44.903958],[-122.399554,44.904077],[-122.393227,44.891673],[-122.401021,44.88572],[-121.734223,44.88572],[-121.733528,44.882059],[-121.746221,44.875394],[-121.753182,44.86124],[-121.742406,44.853292],[-121.741864,44.847398],[-121.753589,44.828908],[-121.764831,44.820267],[-121.812221,44.811574],[-121.810174,44.806377],[-121.820278,44.800134],[-121.812542,44.781716],[-121.801658,44.779308],[-121.795963,44.772848],[-121.773183,44.775636],[-121.759958,44.762326],[-121.772321,44.759964],[-121.774175,44.752723],[-121.79161,44.746259],[-121.804597,44.729236],[-121.794385,44.725896],[-121.796107,44.714547],[-121.802975,44.709506],[-121.787179,44.689291],[-121.794599,44.683929],[-121.964437,44.683884],[-121.981681,44.693787],[-122.001009,44.687445],[-122.01847,44.690819],[-122.034171,44.685799],[-122.058813,44.697043],[-122.108719,44.707172],[-122.142852,44.726333],[-122.179739,44.707001],[-122.195696,44.703614],[-122.199334,44.69617],[-122.218413,44.693239],[-122.231438,44.698465],[-122.247582,44.720745],[-122.271886,44.734203],[-122.282872,44.750634],[-122.318858,44.759289],[-122.334685,44.755412],[-122.362732,44.757428],[-122.378629,44.752014],[-122.406298,44.755006],[-122.423287,44.751448],[-122.435041,44.756134],[-122.475835,44.752096],[-122.480122,44.755819],[-122.503151,44.749763],[-122.52038,44.753911],[-122.521912,44.764031],[-122.564402,44.768072],[-122.569953,44.774716],[-122.599469,44.778181],[-122.618014,44.788863],[-122.690864,44.775417],[-122.713778,44.780196],[-122.724795,44.792929],[-122.748027,44.787738],[-122.783465,44.794422],[-122.800709,44.791578],[-122.825426,44.771708],[-122.847178,44.774063],[-122.849696,44.76229],[-122.897648,44.744958],[-122.93408,44.71578],[-122.957256,44.721094],[-122.971694,44.709874],[-122.975862,44.697578],[-122.996175,44.695699],[-122.996297,44.689016],[-123.006847,44.686898],[-123.018514,44.698536],[-123.013824,44.712904],[-123.016667,44.72213],[-123.019999,44.725376],[-123.034095,44.720551],[-123.03941,44.723498],[-123.042756,44.728972],[-123.039988,44.735833],[-123.060106,44.737684],[-123.062154,44.748042],[-123.078903,44.743073],[-123.10009,44.74631],[-123.113025,44.759483],[-123.122329,44.751355],[-123.147833,44.751446],[-123.145812,44.770231],[-123.133628,44.778736],[-123.127318,44.79065],[-123.097713,44.799099],[-123.091553,44.811718],[-123.126252,44.826079],[-123.175153,44.831108],[-123.179442,44.835818],[-123.18078,44.857478]]]}},{"type":"Feature","properties":{"GEOID":"41043","NAME":"Linn","state":"OR","wildfire_risk_score":58.397,"wildfire_eal_total":74792.89,"risk_band":"Low","source":"FEMA National Risk Index v1.20 (December 2025)"},"geometry":{"type":"Polygon","coordinates":[[[-123.260791,44.557491],[-123.251209,44.574626],[-123.221793,44.584597],[-123.185375,44.587298],[-123.184161,44.594289],[-123.19701,44.59756],[-123.198028,44.602857],[-123.18392,44.609246],[-123.181816,44.619],[-123.171626,44.621011],[-123.171739,44.632428],[-123.164428,44.637507],[-123.105311,44.639202],[-123.073574,44.650495],[-123.074122,44.65836],[-123.088338,44.674243],[-123.116892,44.676966],[-123.121299,44.691353],[-123.145982,44.711407],[-123.150429,44.727611],[-123.132445,44.741157],[-123.143843,44.748914],[-123.122329,44.751355],[-123.113025,44.759483],[-123.10009,44.74631],[-123.078903,44.743073],[-123.062154,44.748042],[-123.060106,44.737684],[-123.039988,44.735833],[-123.042756,44.728972],[-123.03941,44.723498],[-123.018153,44.723642],[-123.013824,44.712904],[-123.018514,44.698536],[-123.006847,44.686898],[-123.000013,44.686916],[-122.996175,44.695699],[-122.990027,44.693479],[-122.974427,44.698606],[-122.971694,44.709874],[-122.957256,44.721094],[-122.93408,44.71578],[-122.897648,44.744958],[-122.849696,44.76229],[-122.847178,44.774063],[-122.825426,44.771708],[-122.800709,44.791578],[-122.783465,44.794422],[-122.748027,44.787738],[-122.724795,44.792929],[-122.713778,44.780196],[-122.690864,44.775417],[-122.618014,44.788863],[-122.599469,44.778181],[-122.569953,44.774716],[-122.564402,44.768072],[-122.521912,44.764031],[-122.52038,44.753911],[-122.503151,44.749763],[-122.480122,44.755819],[-122.475835,44.752096],[-122.435041,44.756134],[-122.423287,44.751448],[-122.406298,44.755006],[-122.378629,44.752014],[-122.362732,44.757428],[-122.334685,44.755412],[-122.318858,44.759289],[-122.282872,44.750634],[-122.271886,44.734203],[-122.247582,44.720745],[-122.231438,44.698465],[-122.218413,44.693239],[-122.199334,44.69617],[-122.195696,44.703614],[-122.179739,44.707001],[-122.142852,44.726333],[-122.108719,44.707172],[-122.058813,44.697043],[-122.034171,44.685799],[-122.01847,44.690819],[-122.001009,44.687445],[-121.981681,44.693787],[-121.964437,44.683884],[-121.799562,44.683915],[-121.797945,44.640313],[-121.808206,44.628211],[-121.811566,44.615767],[-121.802325,44.610439],[-121.793895,44.594056],[-121.803286,44.555321],[-121.816317,44.537376],[-121.809382,44.514425],[-121.823104,44.511203],[-121.84688,44.49109],[-121.84938,44.484523],[-121.843049,44.479035],[-121.849512,44.468364],[-121.841128,44.444912],[-121.847578,44.430542],[-121.841332,44.41103],[-121.846756,44.4022],[-121.841952,44.372889],[-121.845989,44.366867],[-121.836875,44.357319],[-121.8439,44.346432],[-121.837607,44.334022],[-121.841346,44.285652],[-121.824693,44.282624],[-121.819172,44.26195],[-121.799426,44.25828],[-122.32715,44.252841],[-122.332446,44.243382],[-122.325744,44.237579],[-122.327313,44.231189],[-122.340612,44.221577],[-122.352623,44.220742],[-122.361244,44.211748],[-122.379589,44.20944],[-122.38457,44.211013],[-122.384561,44.217063],[-122.404781,44.216938],[-122.404748,44.22058],[-122.434885,44.221306],[-122.448436,44.216748],[-122.465628,44.223039],[-122.479635,44.219132],[-122.503182,44.22167],[-122.513425,44.231535],[-122.529542,44.226715],[-122.535382,44.23486],[-122.577232,44.228044],[-122.5754,44.235358],[-122.593471,44.244427],[-122.639699,44.249263],[-122.64493,44.253458],[-122.646853,44.266384],[-122.657909,44.271093],[-122.668915,44.268902],[-122.700224,44.279938],[-122.721184,44.281778],[-122.731121,44.28823],[-122.749834,44.28473],[-122.762735,44.290537],[-122.776319,44.283816],[-122.807156,44.284171],[-122.823015,44.27432],[-122.830451,44.282166],[-122.865465,44.287317],[-122.865545,44.25898],[-122.903999,44.259129],[-122.905755,44.200736],[-123.165428,44.200071],[-123.15034,44.226627],[-123.178411,44.250918],[-123.175133,44.275152],[-123.179931,44.283431],[-123.193575,44.290742],[-123.18975,44.295892],[-123.193766,44.306974],[-123.216178,44.310808],[-123.220295,44.32943],[-123.245678,44.332099],[-123.228518,44.342591],[-123.235048,44.356979],[-123.219011,44.362497],[-123.245157,44.382254],[-123.223614,44.393452],[-123.229311,44.415073],[-123.220377,44.415712],[-123.21938,44.419436],[-123.228054,44.431889],[-123.209194,44.435239],[-123.205287,44.443038],[-123.216462,44.468473],[-123.214276,44.479649],[-123.221019,44.484751],[-123.214778,44.488627],[-123.212619,44.504978],[-123.238067,44.527969],[-123.251728,44.526486],[-123.242113,44.547324],[-123.260791,44.557491]]]}},{"type":"Feature","properties":{"GEOID":"41013","NAME":"Crook","state":"OR","wildfire_risk_score":95.102,"wildfire_eal_total":3243327.42,"risk_band":"High","source":"FEMA National Risk Index v1.20 (December 2025)"},"geometry":{"type":"Polygon","coordinates":[[[-121.108335,44.26204],[-121.107534,44.3906],[-120.988375,44.390265],[-120.988824,44.476484],[-120.826899,44.476499],[-120.827555,44.562793],[-120.386561,44.564009],[-120.386074,44.436083],[-120.021621,44.438793],[-120.020708,44.389687],[-119.899283,44.389575],[-119.899002,44.30662],[-119.655517,44.307045],[-119.657183,43.95892],[-119.775402,43.959086],[-119.777528,43.697957],[-120.257777,43.698762],[-120.258386,43.785297],[-120.378107,43.785429],[-120.37874,43.872362],[-120.747848,43.871331],[-120.748249,43.95731],[-120.986587,43.960852],[-120.987271,44.134026],[-121.102773,44.138125],[-121.102938,44.218487],[-121.108537,44.218519],[-121.108335,44.26204]]]}},{"type":"Feature","properties":{"GEOID":"41061","NAME":"Union","state":"OR","wildfire_risk_score":91.889,"wildfire_eal_total":1668192.72,"risk_band":"Moderate","source":"FEMA National Risk Index v1.20 (December 2025)"},"geometry":{"type":"Polygon","coordinates":[[[-118.697766,45.345647],[-118.613243,45.339884],[-118.613107,45.354951],[-118.428329,45.35519],[-118.428539,45.428951],[-118.404806,45.429013],[-118.404849,45.44255],[-118.38422,45.44258],[-118.384117,45.435246],[-118.366522,45.43531],[-118.366326,45.428951],[-118.197876,45.427204],[-118.197955,45.4704],[-118.116461,45.470732],[-118.117194,45.688607],[-118.066383,45.688395],[-118.066506,45.77346],[-118.045102,45.773538],[-118.045003,45.817073],[-117.972948,45.816896],[-117.97298,45.860595],[-117.747327,45.861072],[-117.74765,45.773625],[-117.788395,45.773515],[-117.787623,45.689567],[-117.766865,45.689605],[-117.767063,45.660227],[-117.746137,45.660736],[-117.745959,45.616635],[-117.727225,45.61699],[-117.727235,45.51478],[-117.683986,45.51523],[-117.68379,45.428365],[-117.664146,45.428344],[-117.663391,45.365749],[-117.643485,45.365322],[-117.643494,45.33687],[-117.582344,45.338096],[-117.582166,45.310184],[-117.562208,45.310219],[-117.561969,45.295879],[-117.542058,45.295956],[-117.542216,45.267424],[-117.522249,45.267731],[-117.520941,45.209768],[-117.476762,45.209973],[-117.476684,45.166539],[-117.266006,45.166539],[-117.266005,45.08057],[-117.563486,45.079446],[-117.564033,44.992866],[-117.777504,44.992161],[-117.784917,44.998322],[-117.77942,45.01143],[-117.795976,45.018489],[-117.793742,45.026119],[-117.803038,45.02718],[-117.805679,45.032832],[-117.812956,45.032055],[-117.810347,45.025607],[-117.818062,45.025909],[-117.840934,45.050658],[-117.83775,45.055138],[-117.853788,45.060443],[-117.862587,45.054395],[-117.873734,45.065639],[-117.873396,45.060713],[-117.888408,45.0571],[-117.886506,45.049436],[-117.906142,45.030232],[-117.968789,44.995881],[-118.00333,44.99484],[-118.037125,45.004007],[-118.06955,45.016873],[-118.09213,45.041238],[-118.109269,45.046964],[-118.130351,45.045024],[-118.137729,45.040018],[-118.142367,45.027725],[-118.161036,45.015711],[-118.184709,45.019389],[-118.214184,45.007421],[-118.213869,44.989174],[-118.231806,44.969921],[-118.232197,44.960686],[-118.274333,44.957348],[-118.286304,44.965046],[-118.299031,44.96063],[-118.308527,44.972016],[-118.318969,44.975929],[-118.329464,44.972329],[-118.359455,44.992301],[-118.380085,44.979488],[-118.387501,44.983786],[-118.389864,44.972402],[-118.404535,44.976476],[-118.425078,44.963809],[-118.4361,44.96242],[-118.439339,44.96625],[-118.436403,44.98298],[-118.446315,44.990024],[-118.464283,44.989822],[-118.468871,44.995176],[-118.518689,44.995877],[-118.518687,45.08069],[-118.547652,45.080753],[-118.546632,45.196898],[-118.655992,45.196928],[-118.656102,45.257729],[-118.696986,45.257715],[-118.697766,45.345647]]]}},{"type":"Feature","properties":{"GEOID":"41067","NAME":"Washington","state":"OR","wildfire_risk_score":50.891,"wildfire_eal_total":64956.63,"risk_band":"Low","source":"FEMA National Risk Index v1.20 (December 2025)"},"geometry":{"type":"Polygon","coordinates":[[[-123.485441,45.447136],[-123.463883,45.44726],[-123.461181,45.49156],[-123.441119,45.491273],[-123.442721,45.521115],[-123.421968,45.521408],[-123.421935,45.535376],[-123.402146,45.535646],[-123.40205,45.550068],[-123.361147,45.549902],[-123.361131,45.578779],[-123.319997,45.578684],[-123.320211,45.592984],[-123.299258,45.593017],[-123.299438,45.607247],[-123.340332,45.607455],[-123.340499,45.622201],[-123.380663,45.621985],[-123.380216,45.635752],[-123.423273,45.636176],[-123.423002,45.65062],[-123.443849,45.650678],[-123.443752,45.665126],[-123.464087,45.66514],[-123.464357,45.679274],[-123.485124,45.67925],[-123.484726,45.708764],[-123.361028,45.708696],[-123.361622,45.779579],[-123.030873,45.779159],[-123.031837,45.75142],[-122.990344,45.750835],[-122.990368,45.736459],[-122.928901,45.735688],[-122.929128,45.635313],[-122.909078,45.635228],[-122.908992,45.620763],[-122.887837,45.620466],[-122.887963,45.606352],[-122.867495,45.606226],[-122.867592,45.591878],[-122.846849,45.591836],[-122.846978,45.577516],[-122.826342,45.577521],[-122.826005,45.563041],[-122.805481,45.562911],[-122.805432,45.555687],[-122.796057,45.555695],[-122.795111,45.548433],[-122.784771,45.5484],[-122.784864,45.533994],[-122.764412,45.533822],[-122.764464,45.519562],[-122.743862,45.519509],[-122.743741,45.332067],[-122.80547,45.331772],[-122.807188,45.346276],[-122.846494,45.34595],[-122.846503,45.317192],[-122.908867,45.317476],[-122.908796,45.346185],[-122.970229,45.346454],[-122.9703,45.36077],[-122.991396,45.361096],[-122.991388,45.375468],[-123.011653,45.376348],[-123.01129,45.390905],[-123.032294,45.390891],[-123.032161,45.404962],[-123.114641,45.404383],[-123.114696,45.418957],[-123.134658,45.418937],[-123.135427,45.433459],[-123.48608,45.433199],[-123.485441,45.447136]]]}},{"type":"Feature","properties":{"GEOID":"41071","NAME":"Yamhill","state":"OR","wildfire_risk_score":52.131,"wildfire_eal_total":59173.15,"risk_band":"Low","source":"FEMA National Risk Index v1.20 (December 2025)"},"geometry":{"type":"Polygon","coordinates":[[[-123.785332,45.166922],[-123.78454,45.216294],[-123.463518,45.216312],[-123.46488,45.433332],[-123.135427,45.433459],[-123.134658,45.418937],[-123.114696,45.418957],[-123.114641,45.404383],[-123.032161,45.404962],[-123.032294,45.390891],[-123.01129,45.390905],[-123.011653,45.376348],[-122.991388,45.375468],[-122.991396,45.361096],[-122.9703,45.36077],[-122.970229,45.346454],[-122.908796,45.346185],[-122.908867,45.317476],[-122.867891,45.317345],[-122.868073,45.259695],[-122.849925,45.259697],[-122.86352,45.253084],[-122.899416,45.25672],[-122.914505,45.266903],[-122.949691,45.26826],[-122.967228,45.285149],[-122.978412,45.27233],[-122.996046,45.264811],[-123.001562,45.256605],[-122.995372,45.236617],[-122.99926,45.224097],[-123.03645,45.222705],[-123.051144,45.21068],[-123.043892,45.199481],[-123.020521,45.199841],[-123.015382,45.177017],[-123.001032,45.166408],[-123.007346,45.159498],[-123.027677,45.161618],[-123.033292,45.150825],[-123.030249,45.143084],[-123.015037,45.136757],[-122.996765,45.116954],[-123.014574,45.101967],[-123.036121,45.097729],[-123.065561,45.080574],[-123.068271,45.074864],[-123.784016,45.076657],[-123.785332,45.166922]]]}},{"type":"Feature","properties":{"GEOID":"41069","NAME":"Wheeler","state":"OR","wildfire_risk_score":88.74,"wildfire_eal_total":816139.15,"risk_band":"Moderate","source":"FEMA National Risk Index v1.20 (December 2025)"},"geometry":{"type":"Polygon","coordinates":[[[-120.49516,45.068279],[-119.790699,45.067823],[-119.791162,44.994755],[-119.672228,44.995117],[-119.671532,44.823343],[-119.652431,44.823299],[-119.655517,44.307045],[-119.899002,44.30662],[-119.899283,44.389575],[-120.020708,44.389687],[-120.021621,44.438793],[-120.386074,44.436083],[-120.385687,44.761175],[-120.387782,44.769866],[-120.398603,44.776973],[-120.394668,44.786038],[-120.404676,44.794719],[-120.395872,44.803969],[-120.393173,44.797013],[-120.385062,44.796406],[-120.379005,44.806314],[-120.386035,44.810985],[-120.377797,44.812034],[-120.380711,44.817938],[-120.371441,44.821769],[-120.400495,44.830109],[-120.410061,44.840381],[-120.41258,44.852174],[-120.427549,44.853686],[-120.43628,44.862316],[-120.455204,44.865607],[-120.454706,44.872612],[-120.459592,44.874285],[-120.458764,44.881199],[-120.440553,44.886701],[-120.436139,44.894064],[-120.450991,44.908663],[-120.458259,44.903736],[-120.473566,44.908162],[-120.468709,44.913847],[-120.470495,44.924502],[-120.476621,44.929493],[-120.472884,44.935458],[-120.479385,44.947337],[-120.489133,44.951299],[-120.485982,44.962749],[-120.476778,44.967456],[-120.483766,44.975432],[-120.477168,44.981876],[-120.487646,45.002949],[-120.479645,45.01525],[-120.488946,45.02705],[-120.481346,45.03705],[-120.489747,45.04715],[-120.482647,45.05635],[-120.495548,45.06355],[-120.49516,45.068279]]]}},{"type":"Feature","properties":{"GEOID":"41025","NAME":"Harney","state":"OR","wildfire_risk_score":95.738,"wildfire_eal_total":3488447.51,"risk_band":"High","source":"FEMA National Risk Index v1.20 (December 2025)"},"geometry":{"type":"Polygon","coordinates":[[[-119.943441,42.753671],[-119.943504,42.917079],[-119.931595,42.917005],[-119.932611,43.178963],[-119.896969,43.179017],[-119.897434,43.6982],[-119.777528,43.697957],[-119.775402,43.959086],[-118.816931,43.960733],[-118.81689,44.047828],[-118.587172,44.046995],[-118.587125,44.040266],[-118.227645,44.039862],[-118.232392,43.612266],[-118.228793,42.914625],[-118.216832,42.914703],[-118.214698,42.275891],[-118.195281,42.275813],[-118.197369215928,41.9969940811635],[-118.696409,41.991794],[-119.360121480893,41.9943837248054],[-119.365337,42.748958],[-119.943779,42.746371],[-119.943441,42.753671]]]}},{"type":"Feature","properties":{"GEOID":"41041","NAME":"Lincoln","state":"OR","wildfire_risk_score":50.795,"wildfire_eal_total":35527.86,"risk_band":"Low","source":"FEMA National Risk Index v1.20 (December 2025)"},"geometry":{"type":"Polygon","coordinates":[[[-124.1152,44.286486],[-124.109059,44.318391],[-124.100587,44.331926],[-124.086872,44.405185],[-124.083601,44.501123],[-124.06635,44.596162],[-124.067045,44.627851],[-124.058281,44.658866],[-124.063498,44.672442],[-124.079249,44.6772],[-124.068445,44.683094],[-124.057901,44.735163],[-124.06017,44.745076],[-124.064816,44.746081],[-124.066325,44.762671],[-124.075473,44.771403],[-124.074066,44.798107],[-124.063735,44.80531],[-124.063498,44.812224],[-124.067883,44.814069],[-124.066622,44.830563],[-124.054151,44.838233],[-124.032296,44.900809],[-124.009179,45.016721],[-124.011662,45.033485],[-124.005504,45.042931],[-124.008880714497,45.0449987048377],[-123.724663,45.044432],[-123.725001,44.739046],[-123.704578,44.73898],[-123.704467,44.721154],[-123.602609,44.721154],[-123.602817,44.651159],[-123.596929,44.651139],[-123.597677,44.433109],[-123.720071,44.433374],[-123.715538,44.360458],[-123.735153,44.36035],[-123.734996,44.345778],[-123.816709,44.344622],[-123.816525,44.315303],[-123.775789,44.316167],[-123.775598,44.283547],[-123.941075,44.282951],[-123.941072,44.277375],[-124.063303,44.275094],[-124.114043752426,44.2769899702691],[-124.111747,44.283236],[-124.1152,44.286486]]]}},{"type":"Feature","properties":{"GEOID":"41057","NAME":"Tillamook","state":"OR","wildfire_risk_score":43.575,"wildfire_eal_total":28081.59,"risk_band":"Low","source":"FEMA National Risk Index v1.20 (December 2025)"},"geometry":{"type":"Polygon","coordinates":[[[-124.015851,45.064759],[-124.006057,45.084736],[-123.989529,45.094045],[-123.970461,45.172728],[-123.968187,45.201217],[-123.976507,45.21933],[-123.971328,45.226849],[-123.964276,45.271444],[-123.958061,45.278013],[-123.962607,45.281073],[-123.964169,45.317026],[-123.972899,45.33689],[-124.007756,45.336813],[-123.979715,45.347724],[-123.973398,45.354791],[-123.965728,45.386242],[-123.962035,45.443207],[-123.974665,45.467333],[-123.970121,45.481634],[-123.97865,45.486854],[-123.962095,45.497175],[-123.957568,45.510399],[-123.94944,45.545389],[-123.949468,45.564829],[-123.956711,45.571303],[-123.937272,45.656384],[-123.943121,45.727031],[-123.962908,45.74362],[-123.967425,45.751041],[-123.964335,45.758296],[-123.970272,45.764141],[-123.981732,45.76251],[-123.978804,45.772913],[-123.969078621366,45.7830789476988],[-123.71984,45.783218],[-123.720001,45.77308],[-123.361622,45.779579],[-123.361028,45.708696],[-123.484726,45.708764],[-123.485124,45.67925],[-123.464357,45.679274],[-123.464087,45.66514],[-123.443752,45.665126],[-123.443849,45.650678],[-123.423002,45.65062],[-123.423273,45.636176],[-123.380216,45.635752],[-123.380663,45.621985],[-123.340499,45.622201],[-123.340332,45.607455],[-123.299438,45.607247],[-123.299258,45.593017],[-123.320211,45.592984],[-123.319997,45.578684],[-123.361131,45.578779],[-123.361147,45.549902],[-123.40205,45.550068],[-123.402146,45.535646],[-123.421935,45.535376],[-123.421968,45.521408],[-123.442721,45.521115],[-123.441119,45.491273],[-123.461181,45.49156],[-123.463883,45.44726],[-123.485441,45.447136],[-123.48608,45.433199],[-123.46488,45.433332],[-123.463518,45.216312],[-123.78454,45.216294],[-123.784016,45.076657],[-123.724362,45.076777],[-123.724663,45.044432],[-124.008880714497,45.0449987048377],[-124.017991,45.049808],[-124.015851,45.064759]]]}},{"type":"Feature","properties":{"GEOID":"41027","NAME":"Hood River","state":"OR","wildfire_risk_score":94.784,"wildfire_eal_total":4823088.02,"risk_band":"High","source":"FEMA National Risk Index v1.20 (December 2025)"},"geometry":{"type":"Polygon","coordinates":[[[-121.919685,45.547614],[-121.901879,45.55619],[-121.913911,45.571163],[-121.910547,45.581241],[-121.918386,45.585484],[-121.913115,45.601297],[-121.922051,45.610761],[-121.922028852172,45.6491618990508],[-121.908267,45.654399],[-121.900858,45.662009],[-121.901855,45.670716],[-121.867167,45.693277],[-121.811304,45.706761],[-121.735104,45.694039],[-121.707358,45.694809],[-121.668362,45.705082],[-121.631167,45.704657],[-121.533106,45.726541],[-121.499153,45.720846],[-121.462849,45.701367],[-121.441224595532,45.6973034385521],[-121.440646,45.519394],[-121.482168,45.519604],[-121.481888,45.258128],[-121.696479,45.25792],[-121.679081,45.297177],[-121.70326,45.331267],[-121.702141,45.363389],[-121.696925,45.373564],[-121.700473,45.378531],[-121.72419,45.393648],[-121.776304,45.402784],[-121.793187,45.415696],[-121.794887,45.425196],[-121.806952,45.435405],[-121.806845,45.454649],[-121.860323,45.489377],[-121.86337,45.492844],[-121.859828,45.499168],[-121.869342,45.514103],[-121.891749,45.512631],[-121.906688,45.520828],[-121.919685,45.547614]]]}},{"type":"Feature","properties":{"GEOID":"41063","NAME":"Wallowa","state":"OR","wildfire_risk_score":92.684,"wildfire_eal_total":1544628.66,"risk_band":"Moderate","source":"FEMA National Risk Index v1.20 (December 2025)"},"geometry":{"type":"Polygon","coordinates":[[[-117.977663335055,46.0007234754428],[-116.915989,45.995413],[-116.892861,45.976373],[-116.89091,45.96001],[-116.87598,45.95441],[-116.869655,45.923799],[-116.859795,45.907264],[-116.84355,45.892273],[-116.814142,45.877551],[-116.796051,45.858473],[-116.782676,45.825376],[-116.759787,45.816167],[-116.736268,45.826179],[-116.711822,45.826267],[-116.697192,45.820135],[-116.680139,45.79359],[-116.665344,45.781998],[-116.646342,45.779815],[-116.632032,45.784979],[-116.593004,45.778541],[-116.546643,45.750972],[-116.535698,45.734231],[-116.535396,45.691734],[-116.487894,45.649769],[-116.482806,45.633595],[-116.472346,45.629409],[-116.463504,45.615785],[-116.463635,45.602785],[-116.483105,45.58516],[-116.48297,45.577008],[-116.502756,45.566608],[-116.506967,45.558427],[-116.528558,45.551078],[-116.523638,45.54661],[-116.535482,45.525079],[-116.557587,45.503217],[-116.553171,45.495932],[-116.558804,45.481188],[-116.554829,45.46293],[-116.588195,45.44292],[-116.597447,45.41277],[-116.619057,45.39821],[-116.673793,45.321511],[-116.674493,45.276349],[-116.687027,45.267857],[-116.703181,45.2408],[-116.709536,45.203015],[-116.724205,45.171501],[-116.729607,45.142091],[-116.745535,45.133038],[-116.754643,45.113972],[-116.774847,45.105536],[-116.783537,45.093605],[-116.783771926572,45.078265731912],[-117.266005,45.08057],[-117.266006,45.166539],[-117.476684,45.166539],[-117.476762,45.209973],[-117.520941,45.209768],[-117.522249,45.267731],[-117.542216,45.267424],[-117.542058,45.295956],[-117.561969,45.295879],[-117.562208,45.310219],[-117.582166,45.310184],[-117.582344,45.338096],[-117.643494,45.33687],[-117.643485,45.365322],[-117.663391,45.365749],[-117.664146,45.428344],[-117.68379,45.428365],[-117.683986,45.51523],[-117.727235,45.51478],[-117.727225,45.61699],[-117.745959,45.616635],[-117.746137,45.660736],[-117.767063,45.660227],[-117.766865,45.689605],[-117.787623,45.689567],[-117.788395,45.773515],[-117.74765,45.773625],[-117.747327,45.861072],[-117.977639,45.860602],[-117.977663335055,46.0007234754428]]]}},{"type":"Feature","properties":{"GEOID":"41059","NAME":"Umatilla","state":"OR","wildfire_risk_score":96.151,"wildfire_eal_total":4289976.44,"risk_band":"High","source":"FEMA National Risk Index v1.20 (December 2025)"},"geometry":{"type":"Polygon","coordinates":[[[-119.434772,45.828536],[-119.432149953782,45.918250445405],[-119.364396,45.921605],[-119.322509,45.933183],[-119.25715,45.939926],[-119.19553,45.92787],[-119.12612,45.932859],[-119.027056,45.969134],[-119.008558,45.97927],[-118.987129,45.999855],[-117.977663335055,46.0007234754428],[-117.977639,45.860602],[-117.97298,45.860595],[-117.972948,45.816896],[-118.045003,45.817073],[-118.045102,45.773538],[-118.066506,45.77346],[-118.066383,45.688395],[-118.117194,45.688607],[-118.116461,45.470732],[-118.197955,45.4704],[-118.197876,45.427204],[-118.366326,45.428951],[-118.366522,45.43531],[-118.384117,45.435246],[-118.38422,45.44258],[-118.404849,45.44255],[-118.404806,45.429013],[-118.428539,45.428951],[-118.428329,45.35519],[-118.613107,45.354951],[-118.613243,45.339884],[-118.697766,45.345647],[-118.696986,45.257715],[-118.656102,45.257729],[-118.655992,45.196928],[-118.546632,45.196898],[-118.547652,45.080753],[-118.518687,45.08069],[-118.518689,44.995877],[-119.162966,44.996241],[-119.163037,45.082943],[-119.146424,45.08294],[-119.145144,45.515909],[-119.248214,45.516076],[-119.248547,45.601935],[-119.43464,45.602985],[-119.434772,45.828536]]]}},{"type":"Feature","properties":{"GEOID":"41029","NAME":"Jackson","state":"OR","wildfire_risk_score":99.046,"wildfire_eal_total":25011496.97,"risk_band":"High","source":"FEMA National Risk Index v1.20 (December 2025)"},"geometry":{"type":"Polygon","coordinates":[[[-123.231001,42.004931],[-123.229635,42.709956],[-123.210392,42.709983],[-123.209912,42.717161],[-123.200424,42.717236],[-123.200419,42.724474],[-123.190504,42.724495],[-123.190456,42.731703],[-123.180551,42.731655],[-123.180512,42.737765],[-123.152023,42.737721],[-123.152233,42.755835],[-123.009765,42.752144],[-123.009744,42.75941],[-122.970492,42.760945],[-122.970829,42.768116],[-122.95119,42.767555],[-122.951199,42.774773],[-122.852943,42.774603],[-122.853707,42.781766],[-122.794776,42.778221],[-122.794811,42.792721],[-122.785493,42.792712],[-122.784914,42.806845],[-122.775044,42.806831],[-122.775223,42.8288],[-122.736367,42.823496],[-122.736329,42.837661],[-122.716699,42.837671],[-122.716657,42.85211],[-122.69701,42.852099],[-122.697017,42.866572],[-122.677198,42.866603],[-122.677181,42.88108],[-122.637695,42.881141],[-122.637812,42.89699],[-122.600251,42.895693],[-122.600202,42.911073],[-122.580094,42.9108],[-122.580049,42.924651],[-122.560299,42.92469],[-122.560273,42.939185],[-122.460224,42.939873],[-122.46021,42.954373],[-122.440505,42.95442],[-122.440535,42.968923],[-122.420863,42.968927],[-122.420844,42.983439],[-122.401077,42.983458],[-122.401025,42.996632],[-122.28273,42.996499],[-122.289748006076,42.0081011637255],[-123.043997,42.003084],[-123.145735,42.008761],[-123.231001,42.004931]]]}},{"type":"Feature","properties":{"GEOID":"41049","NAME":"Morrow","state":"OR","wildfire_risk_score":91.953,"wildfire_eal_total":2002420.45,"risk_band":"Moderate","source":"FEMA National Risk Index v1.20 (December 2025)"},"geometry":{"type":"Polygon","coordinates":[[[-120.005565,45.350553],[-120.004783,45.517157],[-119.999242,45.517539],[-119.999501176112,45.8124817188485],[-119.965744,45.824365],[-119.907461,45.828135],[-119.802655,45.84753],[-119.772927,45.845578],[-119.669877,45.856867],[-119.623393,45.905639],[-119.600549,45.919581],[-119.571584,45.925456],[-119.524632,45.908605],[-119.487829,45.906307],[-119.432149953782,45.918250445405],[-119.43464,45.602985],[-119.248547,45.601935],[-119.248214,45.516076],[-119.145144,45.515909],[-119.146424,45.08294],[-119.163037,45.082943],[-119.162966,44.996241],[-119.791162,44.994755],[-119.790831,45.081253],[-119.760731,45.081278],[-119.759759,45.169211],[-119.883914,45.169152],[-119.882346,45.256916],[-120.006555,45.257706],[-120.005565,45.350553]]]}},{"type":"Feature","properties":{"GEOID":"41053","NAME":"Polk","state":"OR","wildfire_risk_score":43.448,"wildfire_eal_total":38374.05,"risk_band":"Low","source":"FEMA National Risk Index v1.20 (December 2025)"},"geometry":{"type":"Polygon","coordinates":[[[-123.725396,45.023601],[-123.724368,45.076226],[-123.068271,45.074864],[-123.068975,45.041493],[-123.075577,45.014513],[-123.064261,44.989778],[-123.040164,44.988153],[-123.036985,44.967428],[-123.043631,44.94495],[-123.071483,44.928197],[-123.111472,44.930161],[-123.107112,44.920237],[-123.126415,44.907887],[-123.144973,44.877305],[-123.149402,44.861254],[-123.172598,44.864246],[-123.18078,44.857478],[-123.179442,44.835818],[-123.175153,44.831108],[-123.126252,44.826079],[-123.091553,44.811718],[-123.097713,44.799099],[-123.124779,44.792666],[-123.133628,44.778736],[-123.145812,44.770231],[-123.147833,44.751446],[-123.132445,44.741157],[-123.150429,44.727611],[-123.149025,44.720225],[-123.704467,44.721154],[-123.704578,44.73898],[-123.725001,44.739046],[-123.725396,45.023601]]]}},{"type":"Feature","properties":{"GEOID":"41037","NAME":"Lake","state":"OR","wildfire_risk_score":89.218,"wildfire_eal_total":1038335.71,"risk_band":"Moderate","source":"FEMA National Risk Index v1.20 (December 2025)"},"geometry":{"type":"Polygon","coordinates":[[[-121.3513,42.919989],[-121.348471,43.356753],[-121.332413,43.356663],[-121.332969,43.616645],[-119.896581,43.611164],[-119.896969,43.179017],[-119.932611,43.178963],[-119.931595,42.917005],[-119.943504,42.917079],[-119.943779,42.746371],[-119.365337,42.748958],[-119.360121480893,41.9943837248054],[-119.872929,41.997641],[-120.326387,41.992586],[-120.879925977229,41.9937643415584],[-120.883327,42.744214],[-121.349679,42.746644],[-121.3513,42.919989]]]}},{"type":"Feature","properties":{"GEOID":"41009","NAME":"Columbia","state":"OR","wildfire_risk_score":30.503,"wildfire_eal_total":16932.9,"risk_band":"Low","source":"FEMA National Risk Index v1.20 (December 2025)"},"geometry":{"type":"Polygon","coordinates":[[[-123.366516,46.058442],[-123.363743140809,46.1463246103232],[-123.280166,46.144843],[-123.166414,46.188973],[-123.115904,46.185268],[-123.041297,46.146351],[-123.004233,46.133823],[-122.962681,46.104817],[-122.904119,46.083734],[-122.884478,46.06028],[-122.878092,46.031281],[-122.856158,46.014469],[-122.837638,45.98082],[-122.813998,45.960984],[-122.806193,45.932416],[-122.81151,45.912725],[-122.785026,45.867699],[-122.785696,45.844216],[-122.795963,45.825024],[-122.795605,45.81],[-122.769532,45.780583],[-122.761451,45.759163],[-122.762189526428,45.7285767375573],[-122.784663,45.72865],[-122.784735,45.720946],[-122.929146,45.721482],[-122.928901,45.735688],[-122.990368,45.736459],[-122.990344,45.750835],[-123.031837,45.75142],[-123.030873,45.779159],[-123.361622,45.779579],[-123.359614,46.039372],[-123.367438,46.039528],[-123.366516,46.058442]]]}},{"type":"Feature","properties":{"GEOID":"41011","NAME":"Coos","state":"OR","wildfire_risk_score":64.758,"wildfire_eal_total":96089.13,"risk_band":"Low","source":"FEMA National Risk Index v1.20 (December 2025)"},"geometry":{"type":"Polygon","coordinates":[[[-124.462619,42.99143],[-124.436198,43.071312],[-124.432236,43.097383],[-124.433641,43.111397],[-124.43785,43.114016],[-124.424113,43.126859],[-124.401726,43.184896],[-124.395302,43.211101],[-124.397382,43.219626],[-124.38246,43.270167],[-124.395536,43.30224],[-124.402814,43.305872],[-124.384603,43.332848],[-124.353332,43.342667],[-124.343247,43.351517],[-124.315012,43.388389],[-124.255609,43.502172],[-124.232025,43.562393],[-124.218966377223,43.6109319633736],[-123.875698,43.608407],[-123.875628,43.515947],[-123.816657,43.516449],[-123.817614,43.431306],[-123.764884,43.431548],[-123.761528,43.422294],[-123.764356,43.258054],[-123.704752,43.257741],[-123.702144,43.087083],[-123.707057,43.083457],[-123.761333,43.08316],[-123.761594,42.996318],[-123.821118,42.996291],[-123.820439,42.824112],[-123.811789,42.824101],[-123.811553,42.788837],[-123.849858,42.788994],[-123.84989,42.781821],[-123.868282,42.781921],[-123.868491,42.77484],[-123.925717,42.774514],[-123.925942,42.73971],[-123.937268,42.739666],[-123.937288,42.729097],[-123.957026,42.729051],[-123.956985,42.714569],[-123.976631,42.714558],[-123.976677,42.700118],[-123.996296,42.7001],[-123.996291,42.685651],[-124.089872,42.685454],[-124.089872,42.678208],[-124.1192,42.678339],[-124.119228,42.671129],[-124.132918,42.666697],[-124.132926,42.671119],[-124.138748,42.671115],[-124.138655,42.739956],[-124.159966,42.739947],[-124.164889,42.817825],[-124.160149,42.817761],[-124.160658,42.828288],[-124.141185,42.828475],[-124.141475,42.850586],[-124.146344,42.850511],[-124.146377,42.862081],[-124.162074,42.86973],[-124.161308,42.883499],[-124.180704,42.88245],[-124.189984,42.896696],[-124.214201,42.904006],[-124.209708,42.918227],[-124.219416,42.918156],[-124.219623,42.933782],[-124.239394,42.933751],[-124.239129,42.940948],[-124.253317,42.943809],[-124.258388,42.954946],[-124.479636362958,42.9543325389089],[-124.462619,42.99143]]]}}]}