{"type":"FeatureCollection","metadata":{"state":"PA","boundary_source":"U.S. Census Bureau 2024 Cartographic Boundary File (counties, 1:500,000)","risk_source":"FEMA National Risk Index v1.20 (December 2025)"},"features":[{"type":"Feature","properties":{"GEOID":"42071","NAME":"Lancaster","state":"PA","wildfire_risk_score":37.214,"wildfire_eal_total":21045.11,"risk_band":"High","source":"FEMA National Risk Index v1.20 (December 2025)"},"geometry":{"type":"Polygon","coordinates":[[[-76.72162,40.12007],[-76.715907,40.131479],[-76.706412,40.135266],[-76.710092,40.137084],[-76.696158,40.150117],[-76.697664,40.156342],[-76.690799,40.156252],[-76.690486,40.148362],[-76.683151,40.151795],[-76.677209,40.148886],[-76.666369,40.163024],[-76.63841,40.166738],[-76.606519,40.18999],[-76.586412,40.189484],[-76.580708,40.194687],[-76.567018,40.195554],[-76.435427,40.238217],[-76.307741,40.255044],[-76.151215,40.315971],[-75.873375,40.137107],[-75.942997,40.109266],[-75.936135,40.078535],[-75.93587,40.037466],[-75.994644,39.95225],[-75.980966,39.933479],[-75.981588,39.929538],[-75.997233,39.928599],[-75.995133,39.898916],[-75.986823,39.892192],[-75.992347,39.88216],[-75.987466,39.872478],[-75.991284,39.868738],[-76.001709,39.874698],[-76.007576,39.852349],[-76.018825,39.85408],[-76.022823,39.849844],[-76.016473,39.831481],[-76.022826,39.8308],[-76.027034,39.824153],[-76.037636,39.826917],[-76.029592,39.812998],[-76.035216,39.811835],[-76.039164,39.801165],[-76.049746,39.802428],[-76.041257,39.796947],[-76.064564,39.771189],[-76.062602,39.764501],[-76.066685,39.759969],[-76.081852,39.761351],[-76.088033,39.744932],[-76.100336,39.745722],[-76.10205,39.739884],[-76.092592,39.734187],[-76.096762,39.729087],[-76.105201,39.723981],[-76.111177,39.728521],[-76.108565,39.734836],[-76.119924,39.736364],[-76.119261,39.723435],[-76.134365,39.727058],[-76.1355844994615,39.7215558114903],[-76.2398049997953,39.7213049555332],[-76.242249,39.732868],[-76.267475,39.759358],[-76.278324,39.778494],[-76.315702,39.810037],[-76.338255,39.822062],[-76.350543,39.837756],[-76.35211,39.849032],[-76.377663,39.866664],[-76.379769,39.887913],[-76.39045,39.911751],[-76.477691,39.949833],[-76.495352,39.976128],[-76.500611,40.000624],[-76.529654,40.030945],[-76.533874,40.050818],[-76.571217,40.045669],[-76.663825,40.063227],[-76.693163,40.098762],[-76.72162,40.12007]]]}},{"type":"Feature","properties":{"GEOID":"42095","NAME":"Northampton","state":"PA","wildfire_risk_score":28.594,"wildfire_eal_total":13801.89,"risk_band":"Moderate","source":"FEMA National Risk Index v1.20 (December 2025)"},"geometry":{"type":"Polygon","coordinates":[[[-75.60805,40.78748],[-75.541549,40.806815],[-75.443267,40.818276],[-75.383266,40.831037],[-75.300594,40.859563],[-75.232502,40.899759],[-75.24113,40.909438],[-75.221821,40.919581],[-75.21819,40.927875],[-75.178073,40.94032],[-75.176836,40.945523],[-75.169463,40.948015],[-75.14513,40.951584],[-75.120232,40.968702],[-75.117764,40.953023],[-75.095526,40.924152],[-75.079279,40.91389],[-75.07534,40.894162],[-75.050839,40.868067],[-75.066014,40.847591],[-75.095784,40.847082],[-75.097006,40.839336],[-75.083929,40.824471],[-75.100277,40.807578],[-75.1008,40.799797],[-75.108505,40.791094],[-75.123088,40.786746],[-75.1344,40.773765],[-75.171587,40.777745],[-75.17904,40.761897],[-75.196533,40.751631],[-75.182084,40.731522],[-75.20392,40.691498],[-75.19692,40.681299],[-75.176803,40.675715],[-75.200452,40.649219],[-75.188579,40.624628],[-75.190691,40.619956],[-75.201812,40.617188],[-75.196803,40.60858],[-75.258151,40.582009],[-75.333048,40.536767],[-75.404412,40.581154],[-75.391275,40.596551],[-75.388559,40.614423],[-75.378125,40.615358],[-75.38304,40.617351],[-75.387464,40.633122],[-75.430122,40.668427],[-75.430404,40.674152],[-75.481469,40.655744],[-75.485027,40.671496],[-75.497979,40.679155],[-75.52218,40.712876],[-75.530149,40.736343],[-75.540312,40.736059],[-75.544316,40.725054],[-75.558165,40.720886],[-75.574019,40.734706],[-75.592558,40.736127],[-75.601694,40.749551],[-75.60805,40.78748]]]}},{"type":"Feature","properties":{"GEOID":"42051","NAME":"Fayette","state":"PA","wildfire_risk_score":45.229,"wildfire_eal_total":27158.43,"risk_band":"High","source":"FEMA National Risk Index v1.20 (December 2025)"},"geometry":{"type":"Polygon","coordinates":[[[-80.010735,39.971146],[-80.005855,39.980202],[-79.990894,39.986554],[-79.995726,40.005097],[-79.988232,40.011906],[-79.96935,40.013117],[-79.95462,39.995274],[-79.946732,39.99425],[-79.934523,39.999626],[-79.924844,40.016124],[-79.910034,40.022009],[-79.889954,40.022462],[-79.879992,40.028282],[-79.877048,40.036826],[-79.891913,40.048201],[-79.881097,40.057801],[-79.879773,40.065054],[-79.898489,40.071273],[-79.901434,40.076729],[-79.893033,40.080345],[-79.86367,40.075423],[-79.847815,40.080185],[-79.838999,40.090601],[-79.850088,40.11396],[-79.877864,40.126959],[-79.874993,40.129409],[-79.816113,40.128375],[-79.816594,40.132791],[-79.805804,40.127528],[-79.746056,40.128457],[-79.734851,40.121046],[-79.72438,40.123123],[-79.718766,40.117644],[-79.72237,40.112825],[-79.707003,40.107558],[-79.686137,40.11389],[-79.683794,40.10862],[-79.667579,40.104542],[-79.668495,40.097308],[-79.657254,40.096595],[-79.654083,40.089294],[-79.641098,40.088317],[-79.642371,40.083628],[-79.621958,40.094533],[-79.603674,40.090839],[-79.601772,40.082744],[-79.593021,40.082055],[-79.593442,40.090555],[-79.584576,40.097834],[-79.585377,40.102125],[-79.560602,40.105216],[-79.556069,40.112908],[-79.542347,40.111871],[-79.533991,40.128617],[-79.526977,40.123237],[-79.505188,40.140568],[-79.461522,40.144098],[-79.447478,40.133233],[-79.44772,40.12677],[-79.43775,40.11594],[-79.40163,40.10265],[-79.393518,40.09076],[-79.355528,40.074289],[-79.34123,40.04288],[-79.293884,40.040446],[-79.338466,39.982014],[-79.342585,39.982056],[-79.35412,39.958064],[-79.391562,39.919504],[-79.387624,39.915696],[-79.398755,39.900538],[-79.417558,39.853776],[-79.381473,39.836314],[-79.382068,39.827082],[-79.367286,39.822731],[-79.363957,39.806777],[-79.368257,39.795877],[-79.362557,39.788477],[-79.351257,39.786577],[-79.356757,39.781477],[-79.380058,39.790077],[-79.383058,39.782477],[-79.394958,39.783377],[-79.378658,39.768877],[-79.398558,39.758277],[-79.394058,39.743277],[-79.407959,39.741977],[-79.409959,39.734978],[-79.392659,39.732678],[-79.389459,39.727078],[-79.3924583826357,39.7214305460304],[-79.9161705658965,39.7208932213641],[-79.903438,39.743077],[-79.911779,39.750877],[-79.93008,39.757078],[-79.93468,39.764774],[-79.934411,39.781277],[-79.90866,39.793781],[-79.920643,39.813415],[-79.924376,39.838176],[-79.938577,39.845476],[-79.92465,39.855056],[-79.930276,39.869276],[-79.915278,39.8803],[-79.929406,39.905675],[-79.923069,39.920987],[-79.943757,39.944011],[-79.959166,39.953866],[-79.998816,39.95089],[-80.009344,39.958794],[-80.010735,39.971146]]]}},{"type":"Feature","properties":{"GEOID":"42129","NAME":"Westmoreland","state":"PA","wildfire_risk_score":54.008,"wildfire_eal_total":63929.56,"risk_band":"High","source":"FEMA National Risk Index v1.20 (December 2025)"},"geometry":{"type":"Polygon","coordinates":[[[-79.904874,40.154807],[-79.897226,40.163991],[-79.864153,40.161815],[-79.852867,40.169438],[-79.853271,40.189223],[-79.871425,40.197391],[-79.782588,40.227626],[-79.804386,40.231949],[-79.807431,40.236894],[-79.787741,40.261847],[-79.795796,40.281079],[-79.775823,40.285009],[-79.788648,40.297738],[-79.771082,40.375419],[-79.762068,40.392768],[-79.751262,40.388357],[-79.744634,40.396163],[-79.732523,40.399599],[-79.730431,40.408473],[-79.722397,40.408569],[-79.726826,40.414473],[-79.717231,40.413789],[-79.706939,40.422319],[-79.702142,40.489523],[-79.701624,40.525449],[-79.735714,40.549012],[-79.76509,40.549238],[-79.774131,40.568376],[-79.773361,40.582087],[-79.761999,40.594336],[-79.721339,40.608157],[-79.690278,40.640873],[-79.695822,40.661505],[-79.69293,40.669744],[-79.668426,40.680007],[-79.640009,40.666945],[-79.636056,40.654481],[-79.611032,40.642017],[-79.608133,40.62549],[-79.602103,40.624497],[-79.583735,40.636609],[-79.589575,40.616865],[-79.581607,40.602881],[-79.565078,40.607841],[-79.550608,40.603897],[-79.565932,40.593403],[-79.570678,40.584065],[-79.560726,40.563489],[-79.526249,40.542364],[-79.511912,40.542683],[-79.498925,40.532152],[-79.497092,40.525338],[-79.486542,40.527428],[-79.481872,40.536937],[-79.476918,40.535779],[-79.475739,40.529538],[-79.464289,40.53408],[-79.451497,40.531857],[-79.449126,40.528241],[-79.459738,40.516737],[-79.453935,40.505529],[-79.453765,40.48425],[-79.446694,40.480869],[-79.430628,40.489046],[-79.421315,40.470598],[-79.406631,40.474301],[-79.390768,40.454339],[-79.371175,40.455067],[-79.36707,40.47509],[-79.362056,40.478678],[-79.357319,40.475206],[-79.362307,40.463156],[-79.357901,40.452343],[-79.347185,40.452731],[-79.342093,40.470124],[-79.333272,40.464059],[-79.32863,40.452551],[-79.300351,40.46097],[-79.301284,40.435212],[-79.289409,40.436673],[-79.282848,40.442769],[-79.272605,40.439082],[-79.269351,40.428517],[-79.272856,40.418411],[-79.263281,40.416763],[-79.246189,40.432129],[-79.214783,40.424458],[-79.200202,40.410787],[-79.191197,40.415221],[-79.155789,40.411765],[-79.152698,40.399234],[-79.115994,40.393516],[-79.114906,40.389879],[-79.128677,40.385056],[-79.121634,40.370576],[-79.109309,40.373318],[-79.099589,40.368937],[-79.082965,40.389582],[-79.069885,40.380414],[-79.060271,40.379636],[-79.028422,40.40467],[-79.034262,40.409754],[-79.029308,40.419253],[-79.012357,40.419581],[-78.987905,40.411469],[-78.973814,40.395421],[-79.009933,40.340477],[-79.020019,40.335605],[-79.037295,40.313403],[-79.037558,40.306961],[-79.054807,40.289399],[-79.056646,40.278604],[-79.073523,40.266727],[-79.086343,40.242391],[-79.102215,40.232294],[-79.09835,40.227966],[-79.104502,40.224311],[-79.100286,40.222344],[-79.103003,40.218231],[-79.109072,40.218324],[-79.106781,40.214894],[-79.1146,40.205039],[-79.126157,40.200391],[-79.126744,40.183281],[-79.143022,40.18],[-79.140025,40.163899],[-79.160925,40.161141],[-79.162123,40.14331],[-79.174249,40.120604],[-79.190086,40.10951],[-79.196564,40.118454],[-79.20295,40.114926],[-79.213791,40.117991],[-79.220864,40.112737],[-79.226672,40.09825],[-79.256005,40.088463],[-79.278441,40.050159],[-79.293385,40.040347],[-79.312349,40.044363],[-79.3248,40.04057],[-79.34123,40.04288],[-79.355528,40.074289],[-79.393518,40.09076],[-79.40163,40.10265],[-79.43775,40.11594],[-79.44772,40.12677],[-79.447478,40.133233],[-79.461522,40.144098],[-79.505188,40.140568],[-79.526977,40.123237],[-79.533991,40.128617],[-79.542347,40.111871],[-79.556069,40.112908],[-79.560602,40.105216],[-79.585377,40.102125],[-79.584576,40.097834],[-79.593442,40.090555],[-79.593021,40.082055],[-79.601772,40.082744],[-79.603674,40.090839],[-79.621958,40.094533],[-79.638511,40.082868],[-79.644143,40.084694],[-79.643407,40.089344],[-79.654083,40.089294],[-79.657254,40.096595],[-79.668495,40.097308],[-79.667579,40.104542],[-79.683794,40.10862],[-79.686137,40.11389],[-79.707003,40.107558],[-79.72237,40.112825],[-79.718766,40.117644],[-79.72438,40.123123],[-79.734851,40.121046],[-79.744404,40.128168],[-79.805804,40.127528],[-79.816594,40.132791],[-79.816113,40.128375],[-79.877864,40.126959],[-79.887705,40.131128],[-79.904874,40.154807]]]}},{"type":"Feature","properties":{"GEOID":"42023","NAME":"Cameron","state":"PA","wildfire_risk_score":0.668,"wildfire_eal_total":208.86,"risk_band":"Low","source":"FEMA National Risk Index v1.20 (December 2025)"},"geometry":{"type":"Polygon","coordinates":[[[-78.420172,41.51529],[-78.420846,41.617284],[-78.20364,41.617599],[-78.050442,41.475462],[-77.989194,41.474822],[-77.988786,41.367453],[-78.093381,41.216931],[-78.236831,41.230187],[-78.234675,41.323413],[-78.254382,41.323584],[-78.253959,41.404721],[-78.420028,41.405046],[-78.420172,41.51529]]]}},{"type":"Feature","properties":{"GEOID":"42133","NAME":"York","state":"PA","wildfire_risk_score":40.967,"wildfire_eal_total":34479.61,"risk_band":"High","source":"FEMA National Risk Index v1.20 (December 2025)"},"geometry":{"type":"Polygon","coordinates":[[[-77.137425,40.069945],[-77.031548,40.146642],[-76.993033,40.154898],[-76.976912,40.15234],[-76.971338,40.1576],[-76.980675,40.160556],[-76.978024,40.164777],[-76.929107,40.161274],[-76.905678,40.165913],[-76.928303,40.183802],[-76.926548,40.18848],[-76.914181,40.182773],[-76.913589,40.188616],[-76.908351,40.190199],[-76.918612,40.198311],[-76.931511,40.199385],[-76.918544,40.210225],[-76.910537,40.205541],[-76.905952,40.217109],[-76.899978,40.212188],[-76.902886,40.224603],[-76.896961,40.224666],[-76.888641,40.213696],[-76.879784,40.217825],[-76.866719,40.216098],[-76.859023,40.226328],[-76.839468,40.221615],[-76.824696,40.202319],[-76.800585,40.200111],[-76.752683,40.175803],[-76.743537,40.13085],[-76.697187,40.102492],[-76.663825,40.063227],[-76.571217,40.045669],[-76.533874,40.050818],[-76.529654,40.030945],[-76.500611,40.000624],[-76.495352,39.976128],[-76.477691,39.949833],[-76.39045,39.911751],[-76.379769,39.887913],[-76.377663,39.866664],[-76.35211,39.849032],[-76.350543,39.837756],[-76.338255,39.822062],[-76.315702,39.810037],[-76.278324,39.778494],[-76.267475,39.759358],[-76.242249,39.732868],[-76.2398049997953,39.7213049555332],[-76.9993189823684,39.7198299495823],[-76.999679,39.83128],[-76.990663,39.834348],[-76.978571,39.847708],[-76.955051,39.856975],[-76.963616,39.873992],[-76.972536,39.872914],[-76.983738,39.893563],[-76.981433,39.90542],[-76.966983,39.916183],[-76.965003,39.921871],[-76.970009,39.921251],[-76.97258,39.934023],[-76.966202,39.935192],[-77.018648,40.013947],[-77.066978,40.028243],[-77.091975,40.053636],[-77.137425,40.069945]]]}},{"type":"Feature","properties":{"GEOID":"42017","NAME":"Bucks","state":"PA","wildfire_risk_score":55.534,"wildfire_eal_total":77847.0,"risk_band":"High","source":"FEMA National Risk Index v1.20 (December 2025)"},"geometry":{"type":"Polygon","coordinates":[[[-75.483858,40.418634],[-75.409733,40.487984],[-75.293528,40.561978],[-75.196803,40.60858],[-75.190146,40.590359],[-75.19487,40.578591],[-75.183151,40.567354],[-75.162871,40.564096],[-75.141906,40.575273],[-75.117292,40.573211],[-75.100325,40.567811],[-75.068615,40.542223],[-75.062625,40.48955],[-75.070568,40.455165],[-75.058848,40.418065],[-75.028315,40.403883],[-74.996378,40.410528],[-74.96813,40.399129],[-74.948722,40.364768],[-74.939711,40.338006],[-74.90831,40.316907],[-74.891609,40.313007],[-74.868209,40.295207],[-74.842308,40.250508],[-74.771719,40.215287],[-74.754305,40.185209],[-74.737205,40.177609],[-74.722304,40.160609],[-74.722189,40.14994],[-74.740555,40.135492],[-74.758882,40.134036],[-74.782106,40.12081],[-74.822531,40.126844],[-74.835108,40.10391],[-74.854609,40.09327],[-74.862106,40.083283],[-74.909011,40.07021],[-74.93258,40.06881],[-74.9739353371246,40.048038036367],[-74.985163,40.056932],[-74.971086,40.076007],[-74.963604,40.077105],[-74.958421,40.08392],[-74.955777,40.095103],[-74.961766,40.097752],[-74.964991,40.118635],[-74.982371,40.119942],[-74.994167,40.126094],[-74.993894,40.131883],[-74.997885,40.127816],[-75.483858,40.418634]]]}},{"type":"Feature","properties":{"GEOID":"42049","NAME":"Erie","state":"PA","wildfire_risk_score":36.927,"wildfire_eal_total":19571.95,"risk_band":"Moderate","source":"FEMA National Risk Index v1.20 (December 2025)"},"geometry":{"type":"Polygon","coordinates":[[[-80.519408,41.977164],[-80.330563,42.035604],[-80.267571,42.060406],[-80.236359,42.077977],[-80.188085,42.094257],[-80.158498,42.11052],[-80.135596,42.149347],[-80.104284,42.170078],[-80.066169,42.171882],[-80.080166,42.166056],[-80.073199,42.155794],[-80.078258,42.151587],[-80.074317,42.146698],[-80.06108,42.144857],[-79.873218,42.231984],[-79.844661,42.235486],[-79.761951,42.26986],[-79.761374,41.999067],[-79.6108357364534,41.9989893291311],[-79.612071,41.850328],[-80.519293557418,41.8495630308932],[-80.519408,41.977164]]]}},{"type":"Feature","properties":{"GEOID":"42127","NAME":"Wayne","state":"PA","wildfire_risk_score":20.134,"wildfire_eal_total":6922.78,"risk_band":"Low","source":"FEMA National Risk Index v1.20 (December 2025)"},"geometry":{"type":"Polygon","coordinates":[[[-75.505501,41.233107],[-75.496057,41.242948],[-75.477428,41.247114],[-75.470849,41.243267],[-75.456685,41.253938],[-75.440389,41.25813],[-75.4831401922548,41.9992587774738],[-75.359579,41.999445],[-75.341125,41.992772],[-75.337602,41.9867],[-75.342204,41.972872],[-75.329318,41.968232],[-75.312817,41.950182],[-75.301664,41.94838],[-75.300409,41.953871],[-75.293713,41.954593],[-75.289383,41.942891],[-75.279094,41.938917],[-75.276552,41.922208],[-75.267562,41.907054],[-75.272778,41.897112],[-75.271292,41.88736],[-75.260623,41.883783],[-75.257564,41.877108],[-75.263815,41.870757],[-75.260527,41.8638],[-75.251197,41.86204],[-75.241134,41.867118],[-75.223734,41.857456],[-75.21497,41.867449],[-75.204002,41.869867],[-75.185254,41.85993],[-75.176633,41.872371],[-75.170565,41.871608],[-75.168733,41.859258],[-75.161541,41.849836],[-75.140241,41.852078],[-75.130983,41.845145],[-75.115598,41.844638],[-75.113334,41.822782],[-75.089484,41.811576],[-75.072172,41.813732],[-75.076889,41.798509],[-75.092876,41.796386],[-75.101463,41.787941],[-75.10464,41.774203],[-75.095451,41.768366],[-75.075942,41.771518],[-75.060759,41.764638],[-75.053431,41.752538],[-75.049862,41.713309],[-75.06663,41.712588],[-75.06883,41.708161],[-75.052736,41.688393],[-75.051285,41.679961],[-75.059332,41.67232],[-75.04992,41.662556],[-75.044224,41.617978],[-75.060098,41.617482],[-75.059725,41.610801],[-75.074626,41.607905],[-75.0697121394208,41.6016900928416],[-75.178761,41.461752],[-75.188485,41.456899],[-75.186236,41.442836],[-75.218315,41.424117],[-75.229092,41.427228],[-75.233965,41.420405],[-75.250243,41.418366],[-75.24629,41.417115],[-75.251796,41.410461],[-75.246809,41.402435],[-75.254905,41.399127],[-75.253083,41.391294],[-75.261904,41.381954],[-75.262093,41.375036],[-75.298342,41.367402],[-75.309067,41.374679],[-75.323657,41.366045],[-75.337758,41.376252],[-75.348517,41.370561],[-75.351312,41.363721],[-75.336627,41.34513],[-75.344294,41.33743],[-75.330882,41.334912],[-75.32245,41.34004],[-75.310582,41.326442],[-75.315708,41.319589],[-75.313966,41.310608],[-75.327785,41.298739],[-75.324651,41.288806],[-75.333644,41.279447],[-75.334603,41.26972],[-75.347718,41.265308],[-75.350015,41.259356],[-75.341364,41.25445],[-75.345922,41.247779],[-75.35995,41.238707],[-75.505501,41.233107]]]}},{"type":"Feature","properties":{"GEOID":"42029","NAME":"Chester","state":"PA","wildfire_risk_score":30.693,"wildfire_eal_total":23199.83,"risk_band":"Moderate","source":"FEMA National Risk Index v1.20 (December 2025)"},"geometry":{"type":"MultiPolygon","coordinates":[[[[-75.591291,39.840445],[-75.586449,39.844343],[-75.5798996512343,39.8385220738603],[-75.5930817368867,39.8375002881084],[-75.591291,39.840445]]],[[[-76.136672,39.725268],[-76.12762,39.727562],[-76.119261,39.723435],[-76.120651,39.735128],[-76.113616,39.737125],[-76.108565,39.734836],[-76.111177,39.728521],[-76.105201,39.723981],[-76.096762,39.729087],[-76.092592,39.734187],[-76.10205,39.739884],[-76.100336,39.745722],[-76.088033,39.744932],[-76.081852,39.761351],[-76.066685,39.759969],[-76.062602,39.764501],[-76.064564,39.771189],[-76.041257,39.796947],[-76.049746,39.802428],[-76.039164,39.801165],[-76.035216,39.811835],[-76.029592,39.812998],[-76.037636,39.826917],[-76.027034,39.824153],[-76.022826,39.8308],[-76.016473,39.831481],[-76.022823,39.849844],[-76.018825,39.85408],[-76.007576,39.852349],[-76.001709,39.874698],[-75.991284,39.868738],[-75.986914,39.873499],[-75.992347,39.88216],[-75.986823,39.892192],[-75.995133,39.898916],[-75.997233,39.928599],[-75.981588,39.929538],[-75.980966,39.933479],[-75.994644,39.95225],[-75.93587,40.037466],[-75.936135,40.078535],[-75.942997,40.109266],[-75.873375,40.137107],[-75.696782,40.241863],[-75.688526,40.236193],[-75.670751,40.244687],[-75.650887,40.24202],[-75.619577,40.23008],[-75.612373,40.222997],[-75.603173,40.227006],[-75.606923,40.236132],[-75.597031,40.236844],[-75.587757,40.214449],[-75.573338,40.195303],[-75.562878,40.197361],[-75.564282,40.209101],[-75.55775,40.20798],[-75.540986,40.175951],[-75.52916,40.168683],[-75.526838,40.149552],[-75.521072,40.147075],[-75.513214,40.158296],[-75.503804,40.159726],[-75.500975,40.154479],[-75.510836,40.140531],[-75.505624,40.132634],[-75.492577,40.126141],[-75.47245,40.129298],[-75.462093,40.12527],[-75.471603,40.111853],[-75.461729,40.103035],[-75.462926,40.097253],[-75.456624,40.093854],[-75.456186,40.087776],[-75.420124,40.097201],[-75.392632,40.060974],[-75.366687,40.072355],[-75.361066,40.065543],[-75.414991,40.041787],[-75.404338,40.027364],[-75.45343,39.993454],[-75.437692,39.993894],[-75.436055,39.984948],[-75.523816,39.944124],[-75.519049,39.934165],[-75.530475,39.932049],[-75.523505,39.923142],[-75.530238,39.922123],[-75.536109,39.929926],[-75.542734,39.927181],[-75.542494,39.918417],[-75.550454,39.914931],[-75.546416,39.909731],[-75.561308,39.907429],[-75.559291,39.902984],[-75.573381,39.896397],[-75.571162,39.888136],[-75.587192,39.884207],[-75.584761,39.880978],[-75.597914,39.874464],[-75.593011,39.867035],[-75.601532,39.856433],[-75.591997,39.852535],[-75.597742,39.841147],[-75.5948458381425,39.8372862097586],[-75.641518,39.828363],[-75.701208,39.802606],[-75.744394,39.767855],[-75.773786,39.7222],[-76.1355844994615,39.7215558114903],[-76.136672,39.725268]]]]}},{"type":"Feature","properties":{"GEOID":"42089","NAME":"Monroe","state":"PA","wildfire_risk_score":51.559,"wildfire_eal_total":52848.67,"risk_band":"High","source":"FEMA National Risk Index v1.20 (December 2025)"},"geometry":{"type":"Polygon","coordinates":[[[-75.649042,41.125085],[-75.635027,41.123111],[-75.628068,41.128287],[-75.628385,41.136846],[-75.614173,41.145168],[-75.615577,41.150705],[-75.603298,41.151875],[-75.596335,41.165821],[-75.598536,41.171935],[-75.576653,41.177857],[-75.56974,41.198744],[-75.554723,41.20765],[-75.539846,41.225461],[-75.529356,41.226591],[-75.516491,41.21938],[-75.508345,41.232949],[-75.129721,41.252101],[-75.156507,41.150341],[-75.077151,41.141154],[-75.039216,41.088797],[-75.027957,41.079868],[-74.993652,41.093874],[-74.988263,41.088222],[-74.972036,41.095562],[-74.966759,41.093425],[-74.970987,41.085293],[-75.013099,41.066487],[-75.027102,41.039529],[-75.127196,40.993954],[-75.135526,40.973807],[-75.120232,40.968702],[-75.129232,40.95893],[-75.176836,40.945523],[-75.178073,40.94032],[-75.21819,40.927875],[-75.221821,40.919581],[-75.24113,40.909438],[-75.232502,40.899759],[-75.267224,40.882473],[-75.284039,40.86604],[-75.383266,40.831037],[-75.474193,40.814746],[-75.493581,40.846442],[-75.57459,40.951323],[-75.49599,40.987181],[-75.561397,41.048994],[-75.56977,41.050002],[-75.568886,41.056608],[-75.576484,41.067573],[-75.605348,41.084708],[-75.604113,41.093382],[-75.612694,41.094237],[-75.620037,41.108971],[-75.624818,41.111397],[-75.628242,41.106901],[-75.637587,41.113398],[-75.646417,41.113269],[-75.649042,41.125085]]]}},{"type":"Feature","properties":{"GEOID":"42091","NAME":"Montgomery","state":"PA","wildfire_risk_score":37.341,"wildfire_eal_total":25890.79,"risk_band":"High","source":"FEMA National Risk Index v1.20 (December 2025)"},"geometry":{"type":"Polygon","coordinates":[[[-75.695949,40.242365],[-75.529813,40.447092],[-75.015066,40.137992],[-75.086906,40.078648],[-75.096733,40.068989],[-75.087425,40.063599],[-75.109406,40.04584],[-75.176438,40.084649],[-75.188461,40.07275],[-75.22361,40.092907],[-75.264431,40.054094],[-75.205978,40.011723],[-75.276482,39.976959],[-75.311432,40.01981],[-75.320699,40.016216],[-75.366687,40.072355],[-75.392632,40.060974],[-75.420124,40.097201],[-75.456186,40.087776],[-75.456624,40.093854],[-75.462926,40.097253],[-75.461729,40.103035],[-75.471603,40.111853],[-75.462093,40.12527],[-75.47245,40.129298],[-75.492577,40.126141],[-75.505624,40.132634],[-75.510836,40.140531],[-75.500975,40.154479],[-75.503804,40.159726],[-75.513214,40.158296],[-75.521072,40.147075],[-75.526838,40.149552],[-75.52916,40.168683],[-75.540986,40.175951],[-75.55775,40.20798],[-75.564282,40.209101],[-75.562878,40.197361],[-75.573338,40.195303],[-75.587757,40.214449],[-75.597031,40.236844],[-75.606923,40.236132],[-75.603173,40.227006],[-75.612373,40.222997],[-75.619577,40.23008],[-75.650887,40.24202],[-75.670751,40.244687],[-75.688526,40.236193],[-75.695949,40.242365]]]}},{"type":"Feature","properties":{"GEOID":"42043","NAME":"Dauphin","state":"PA","wildfire_risk_score":38.868,"wildfire_eal_total":24580.86,"risk_band":"High","source":"FEMA National Risk Index v1.20 (December 2025)"},"geometry":{"type":"Polygon","coordinates":[[[-77.029341,40.388681],[-77.011887,40.405379],[-77.01627,40.425173],[-77.003235,40.4268],[-76.982133,40.446024],[-76.956617,40.458674],[-76.949589,40.468625],[-76.953046,40.490572],[-76.96909,40.497562],[-76.984389,40.514565],[-76.980546,40.538332],[-76.99299,40.564027],[-76.988161,40.574585],[-76.957444,40.594677],[-76.949148,40.628167],[-76.936962,40.612841],[-76.918672,40.603466],[-76.919859,40.610133],[-76.890039,40.610331],[-76.891462,40.614331],[-76.886411,40.617758],[-76.872717,40.616313],[-76.864254,40.627585],[-76.840104,40.625439],[-76.827405,40.633946],[-76.81114,40.633817],[-76.809065,40.64342],[-76.803382,40.647223],[-76.790388,40.640784],[-76.756232,40.648088],[-76.745894,40.654464],[-76.724788,40.653061],[-76.713574,40.659595],[-76.701624,40.658082],[-76.535414,40.555157],[-76.67804,40.474717],[-76.569417,40.195549],[-76.566339,40.196644],[-76.586412,40.189484],[-76.608092,40.189403],[-76.63841,40.166738],[-76.666369,40.163024],[-76.677209,40.148886],[-76.683151,40.151795],[-76.690486,40.148362],[-76.690799,40.156252],[-76.697664,40.156342],[-76.696158,40.150117],[-76.710092,40.137084],[-76.706412,40.135266],[-76.715907,40.131479],[-76.72162,40.12007],[-76.743537,40.13085],[-76.752683,40.175803],[-76.800585,40.200111],[-76.824696,40.202319],[-76.839468,40.221615],[-76.859023,40.226328],[-76.904577,40.260572],[-76.924291,40.289642],[-76.912129,40.325495],[-76.933589,40.356045],[-77.008191,40.358449],[-77.020799,40.36623],[-77.029341,40.388681]]]}},{"type":"Feature","properties":{"GEOID":"42027","NAME":"Centre","state":"PA","wildfire_risk_score":32.538,"wildfire_eal_total":15544.87,"risk_band":"Moderate","source":"FEMA National Risk Index v1.20 (December 2025)"},"geometry":{"type":"Polygon","coordinates":[[[-78.376031,40.754497],[-78.365256,40.764545],[-78.352053,40.768912],[-78.342809,40.781832],[-78.339491,40.797864],[-78.313886,40.808496],[-78.299383,40.82456],[-78.302254,40.83412],[-78.2906,40.84252],[-78.290761,40.848022],[-78.277729,40.850993],[-78.270666,40.846984],[-78.26057,40.854684],[-78.24922,40.855383],[-78.248975,40.869519],[-78.23571,40.873603],[-78.249342,40.876387],[-78.247761,40.879557],[-78.232938,40.878392],[-78.220641,40.890312],[-78.229136,40.899744],[-78.225942,40.9074],[-78.210351,40.917396],[-78.201637,40.915813],[-78.181829,40.922294],[-78.171279,40.936767],[-78.155639,40.941645],[-78.159369,40.954068],[-78.168206,40.952034],[-78.167605,40.961017],[-78.14715,40.956675],[-78.144284,40.948588],[-78.133693,40.967042],[-78.129964,40.961841],[-78.136376,40.956021],[-78.130621,40.951341],[-78.133862,40.946741],[-78.121786,40.947127],[-78.120718,40.942053],[-78.111334,40.945124],[-78.109828,40.949933],[-78.078105,40.956447],[-78.086162,40.969669],[-78.096778,40.972849],[-78.082089,40.984185],[-78.086105,40.994468],[-78.061923,40.995219],[-78.065138,41.003338],[-78.055705,41.00486],[-78.06012,41.012213],[-78.069136,41.013242],[-78.067889,41.019484],[-78.075599,41.022185],[-78.071255,41.026582],[-78.080312,41.030655],[-78.057149,41.037533],[-78.06408,41.045913],[-78.059385,41.050834],[-78.071396,41.049918],[-78.07556,41.059657],[-78.09036,41.058171],[-78.085098,41.068114],[-78.097184,41.072349],[-78.092671,41.079562],[-78.111239,41.115473],[-78.100345,41.121783],[-78.089202,41.116038],[-78.081907,41.126308],[-78.070417,41.121878],[-78.070351,41.13058],[-78.056026,41.131995],[-78.052733,41.145317],[-78.04344,41.146508],[-78.038171,41.153603],[-78.015729,41.1529],[-78.010732,41.143854],[-78.003569,41.144856],[-78.000753,41.16166],[-77.987926,41.162647],[-77.984187,41.170236],[-77.970778,41.174697],[-77.970841,41.20672],[-77.959438,41.217497],[-77.93709,41.210336],[-77.937909,41.224841],[-77.921801,41.227456],[-77.913787,41.240565],[-77.898262,41.252665],[-77.897667,41.176918],[-77.790009,41.177142],[-77.789563,41.142127],[-77.777996,41.146612],[-77.746675,41.106261],[-77.728079,41.111323],[-77.717759,41.104954],[-77.706619,41.113887],[-77.691867,41.106376],[-77.664073,41.109002],[-77.659206,41.10107],[-77.621759,41.091185],[-77.582477,41.067366],[-77.573565,41.068682],[-77.561842,41.057787],[-77.580194,41.04727],[-77.508596,40.962938],[-77.339925,40.987167],[-77.143804,41.042855],[-77.204027,40.99271],[-77.279236,40.90971],[-77.36418,40.846937],[-77.429604,40.827541],[-77.593355,40.761247],[-77.652574,40.744921],[-77.710548,40.714564],[-77.718677,40.727372],[-77.768549,40.719466],[-77.824903,40.743534],[-77.94425,40.691557],[-78.131834,40.743017],[-78.362986,40.733157],[-78.376031,40.754497]]]}},{"type":"Feature","properties":{"GEOID":"42033","NAME":"Clearfield","state":"PA","wildfire_risk_score":34.256,"wildfire_eal_total":15679.5,"risk_band":"Moderate","source":"FEMA National Risk Index v1.20 (December 2025)"},"geometry":{"type":"Polygon","coordinates":[[[-78.806474,40.810574],[-78.8045,41.132252],[-78.766377,41.202759],[-78.710248,41.201859],[-78.647947,41.21746],[-78.646666,41.253778],[-78.236817,41.230475],[-78.093381,41.216931],[-78.061007,41.174539],[-78.038171,41.153603],[-78.04344,41.146508],[-78.052733,41.145317],[-78.056026,41.131995],[-78.070351,41.13058],[-78.070417,41.121878],[-78.084138,41.125945],[-78.089202,41.116038],[-78.100345,41.121783],[-78.11225,41.11364],[-78.092671,41.079562],[-78.097184,41.072349],[-78.085098,41.068114],[-78.09036,41.058171],[-78.07556,41.059657],[-78.071396,41.049918],[-78.059385,41.050834],[-78.06408,41.045913],[-78.057149,41.037533],[-78.080312,41.030655],[-78.071255,41.026582],[-78.075599,41.022185],[-78.067889,41.019484],[-78.069136,41.013242],[-78.06012,41.012213],[-78.055705,41.00486],[-78.065138,41.003338],[-78.061923,40.995219],[-78.086105,40.994468],[-78.082089,40.984185],[-78.096778,40.972849],[-78.086162,40.969669],[-78.078105,40.956447],[-78.109828,40.949933],[-78.111334,40.945124],[-78.120718,40.942053],[-78.121786,40.947127],[-78.133862,40.946741],[-78.130621,40.951341],[-78.136376,40.956021],[-78.129964,40.961841],[-78.133693,40.967042],[-78.144284,40.948588],[-78.14715,40.956675],[-78.168712,40.960228],[-78.168206,40.952034],[-78.159369,40.954068],[-78.155639,40.941645],[-78.171279,40.936767],[-78.181829,40.922294],[-78.201637,40.915813],[-78.210351,40.917396],[-78.225942,40.9074],[-78.229136,40.899744],[-78.220641,40.890312],[-78.232938,40.878392],[-78.247761,40.879557],[-78.249342,40.876387],[-78.23571,40.873603],[-78.248975,40.869519],[-78.24922,40.855383],[-78.26057,40.854684],[-78.270666,40.846984],[-78.277729,40.850993],[-78.290761,40.848022],[-78.2906,40.84252],[-78.302254,40.83412],[-78.299383,40.82456],[-78.313886,40.808496],[-78.339491,40.797864],[-78.342809,40.781832],[-78.352053,40.768912],[-78.365256,40.764545],[-78.376031,40.754497],[-78.366426,40.736097],[-78.348668,40.723443],[-78.801726,40.724618],[-78.806274,40.729742],[-78.806474,40.810574]]]}},{"type":"Feature","properties":{"GEOID":"42063","NAME":"Indiana","state":"PA","wildfire_risk_score":37.945,"wildfire_eal_total":17895.1,"risk_band":"High","source":"FEMA National Risk Index v1.20 (December 2025)"},"geometry":{"type":"Polygon","coordinates":[[[-79.459265,40.51982],[-79.215235,40.776016],[-79.21531,40.911346],[-78.805167,40.90598],[-78.806274,40.729742],[-78.799226,40.7171],[-78.808922,40.720952],[-78.89666,40.532965],[-78.973814,40.395421],[-78.987905,40.411469],[-79.012357,40.419581],[-79.029308,40.419253],[-79.034262,40.409754],[-79.028422,40.40467],[-79.060271,40.379636],[-79.069885,40.380414],[-79.082965,40.389582],[-79.099589,40.368937],[-79.109309,40.373318],[-79.121634,40.370576],[-79.128677,40.385056],[-79.114906,40.389879],[-79.115994,40.393516],[-79.152698,40.399234],[-79.155789,40.411765],[-79.191197,40.415221],[-79.200202,40.410787],[-79.214783,40.424458],[-79.246189,40.432129],[-79.263281,40.416763],[-79.272856,40.418411],[-79.269351,40.428517],[-79.272605,40.439082],[-79.282848,40.442769],[-79.289409,40.436673],[-79.301284,40.435212],[-79.300351,40.46097],[-79.32863,40.452551],[-79.333272,40.464059],[-79.342093,40.470124],[-79.347185,40.452731],[-79.357901,40.452343],[-79.362307,40.463156],[-79.357319,40.475206],[-79.362056,40.478678],[-79.36707,40.47509],[-79.371175,40.455067],[-79.394504,40.45598],[-79.406631,40.474301],[-79.421315,40.470598],[-79.430628,40.489046],[-79.446694,40.480869],[-79.453765,40.48425],[-79.453935,40.505529],[-79.459265,40.51982]]]}},{"type":"Feature","properties":{"GEOID":"42031","NAME":"Clarion","state":"PA","wildfire_risk_score":16.317,"wildfire_eal_total":5019.54,"risk_band":"Low","source":"FEMA National Risk Index v1.20 (December 2025)"},"geometry":{"type":"Polygon","coordinates":[[[-79.700142,41.176189],[-79.697242,41.184614],[-79.670125,41.183116],[-79.665368,41.189024],[-79.670614,41.193166],[-79.666323,41.197136],[-79.668892,41.199075],[-79.649628,41.217912],[-79.650394,41.253709],[-79.632875,41.253599],[-79.627561,41.277183],[-79.60461,41.277072],[-79.604161,41.321478],[-79.541474,41.321008],[-79.54143,41.335951],[-79.47814,41.335708],[-79.477822,41.386479],[-79.400439,41.386579],[-79.399923,41.436154],[-79.207196,41.430922],[-79.21132,41.078737],[-79.214494,41.078775],[-79.215214,41.050515],[-79.261137,41.028977],[-79.282498,41.009824],[-79.302571,41.013531],[-79.319163,41.001797],[-79.334331,40.999091],[-79.337621,41.002485],[-79.345876,40.997729],[-79.362432,41.003492],[-79.371015,40.990165],[-79.369315,40.975809],[-79.378522,40.968334],[-79.381998,40.977269],[-79.374654,40.984459],[-79.386625,40.987905],[-79.378091,40.994347],[-79.394714,40.99475],[-79.404814,40.988615],[-79.404881,40.998026],[-79.415035,41.000706],[-79.410066,41.005298],[-79.412319,41.008471],[-79.421238,41.002676],[-79.427454,40.985952],[-79.442741,40.987264],[-79.451718,40.98167],[-79.46223,40.983112],[-79.45598,40.990711],[-79.487474,40.99554],[-79.494785,40.986181],[-79.493658,40.977901],[-79.505148,40.976848],[-79.514012,40.986809],[-79.517836,40.983965],[-79.514685,40.979025],[-79.522428,40.974958],[-79.539427,40.984288],[-79.552624,40.97978],[-79.566194,40.985799],[-79.574323,40.984685],[-79.59306,40.968984],[-79.618352,40.974142],[-79.624481,40.981836],[-79.619067,40.98896],[-79.600934,40.994776],[-79.584896,40.991557],[-79.581774,40.997982],[-79.609785,41.008654],[-79.600772,41.025252],[-79.601373,41.036958],[-79.619575,41.033396],[-79.66595,41.049347],[-79.66713,41.055948],[-79.655496,41.068265],[-79.676167,41.084608],[-79.680057,41.09371],[-79.678687,41.132579],[-79.686688,41.144658],[-79.679585,41.15953],[-79.700142,41.176189]]]}},{"type":"Feature","properties":{"GEOID":"42035","NAME":"Clinton","state":"PA","wildfire_risk_score":15.204,"wildfire_eal_total":4194.28,"risk_band":"Low","source":"FEMA National Risk Index v1.20 (December 2025)"},"geometry":{"type":"Polygon","coordinates":[[[-78.093381,41.216931],[-77.988786,41.367453],[-77.989194,41.474822],[-77.598129,41.478576],[-77.597282,41.441056],[-77.584671,41.441301],[-77.575209,41.420498],[-77.550449,41.395826],[-77.537654,41.365011],[-77.526537,41.358528],[-77.499931,41.353953],[-77.477013,41.338998],[-77.471451,41.313486],[-77.455122,41.303422],[-77.444732,41.287439],[-77.4294,41.28214],[-77.424945,41.273103],[-77.370088,41.23268],[-77.350022,41.228976],[-77.351356,41.220176],[-77.320891,41.218932],[-77.291378,41.19628],[-77.292256,41.185304],[-77.275589,41.179105],[-77.164278,41.068708],[-77.144111,41.06884],[-77.143712,41.045116],[-77.339925,40.987167],[-77.508596,40.962938],[-77.580194,41.04727],[-77.561842,41.057787],[-77.573565,41.068682],[-77.582477,41.067366],[-77.621759,41.091185],[-77.659206,41.10107],[-77.664073,41.109002],[-77.691867,41.106376],[-77.706619,41.113887],[-77.717759,41.104954],[-77.728079,41.111323],[-77.746675,41.106261],[-77.777996,41.146612],[-77.789563,41.142127],[-77.790009,41.177142],[-77.897667,41.176918],[-77.898262,41.252665],[-77.913787,41.240565],[-77.921801,41.227456],[-77.937909,41.224841],[-77.93709,41.210336],[-77.959438,41.217497],[-77.970841,41.20672],[-77.970778,41.174697],[-77.984187,41.170236],[-77.987926,41.162647],[-78.000753,41.16166],[-78.000988,41.147773],[-78.005941,41.143601],[-78.012021,41.145071],[-78.015729,41.1529],[-78.038171,41.153603],[-78.061007,41.174539],[-78.093381,41.216931]]]}},{"type":"Feature","properties":{"GEOID":"42061","NAME":"Huntingdon","state":"PA","wildfire_risk_score":22.933,"wildfire_eal_total":8953.18,"risk_band":"Moderate","source":"FEMA National Risk Index v1.20 (December 2025)"},"geometry":{"type":"Polygon","coordinates":[[[-78.2567,40.298734],[-78.235694,40.333849],[-78.214216,40.356277],[-78.156881,40.436382],[-78.129498,40.485721],[-78.133911,40.498321],[-78.148898,40.487629],[-78.1539,40.492165],[-78.147328,40.533251],[-78.128638,40.567953],[-78.136162,40.569171],[-78.149955,40.541366],[-78.166677,40.531528],[-78.176818,40.534471],[-78.197083,40.558444],[-78.17828,40.583786],[-78.179295,40.592725],[-78.184212,40.595295],[-78.166408,40.618143],[-78.17305,40.62803],[-78.178722,40.626909],[-78.196808,40.638674],[-78.198238,40.64773],[-78.22197,40.674539],[-78.204871,40.695874],[-78.170042,40.712596],[-78.15659,40.71297],[-78.155867,40.717745],[-78.115856,40.739283],[-77.94425,40.691557],[-77.824903,40.743534],[-77.768549,40.719466],[-77.718677,40.727372],[-77.710548,40.714564],[-77.681334,40.729758],[-77.676611,40.716452],[-77.70117,40.704982],[-77.700474,40.694852],[-77.708356,40.690488],[-77.703787,40.679936],[-77.682708,40.682717],[-77.75162,40.6323],[-77.77248,40.625932],[-77.821,40.57964],[-77.841827,40.550035],[-77.815976,40.499785],[-77.835874,40.484232],[-77.89683,40.417388],[-77.912185,40.408748],[-77.913844,40.398679],[-77.889073,40.398559],[-77.887717,40.391358],[-77.870289,40.392261],[-77.872089,40.380375],[-77.854447,40.364739],[-77.838343,40.36903],[-77.818636,40.360542],[-77.810393,40.368591],[-77.76172,40.368733],[-77.75212,40.378545],[-77.70296,40.26387],[-77.724197,40.250124],[-77.768325,40.204129],[-77.861409,40.062952],[-77.92556,40.103977],[-78.078353,40.133244],[-78.236195,40.224505],[-78.2567,40.298734]]]}},{"type":"Feature","properties":{"GEOID":"42113","NAME":"Sullivan","state":"PA","wildfire_risk_score":5.98,"wildfire_eal_total":1539.71,"risk_band":"Low","source":"FEMA National Risk Index v1.20 (December 2025)"},"geometry":{"type":"Polygon","coordinates":[[[-76.813731,41.590034],[-76.792686,41.587821],[-76.220073,41.541278],[-76.228131,41.511137],[-76.310261,41.310198],[-76.407934,41.308418],[-76.447597,41.275629],[-76.592532,41.304332],[-76.749497,41.405572],[-76.813731,41.590034]]]}},{"type":"Feature","properties":{"GEOID":"42125","NAME":"Washington","state":"PA","wildfire_risk_score":46.12,"wildfire_eal_total":42561.46,"risk_band":"High","source":"FEMA National Risk Index v1.20 (December 2025)"},"geometry":{"type":"Polygon","coordinates":[[[-80.519218,39.962424],[-80.5189953454551,40.4773632987013],[-80.360801,40.477591],[-80.184603,40.333139],[-79.914461,40.252443],[-79.930754,40.242973],[-79.962593,40.238768],[-79.970916,40.226893],[-79.95794,40.214259],[-79.929289,40.207081],[-79.910783,40.196977],[-79.867673,40.197287],[-79.853271,40.189223],[-79.851085,40.172878],[-79.859464,40.163143],[-79.893306,40.164983],[-79.903146,40.160183],[-79.90489,40.154231],[-79.886073,40.129832],[-79.850088,40.11396],[-79.839863,40.087865],[-79.847815,40.080185],[-79.86367,40.075423],[-79.893033,40.080345],[-79.901434,40.076729],[-79.898489,40.071273],[-79.879773,40.065054],[-79.881097,40.057801],[-79.891913,40.048201],[-79.877048,40.036826],[-79.877166,40.031708],[-79.889954,40.022462],[-79.910034,40.022009],[-79.924844,40.016124],[-79.934523,39.999626],[-79.943419,39.995066],[-79.95462,39.995274],[-79.96935,40.013117],[-79.985167,40.013101],[-79.995726,40.005097],[-79.992318,39.984522],[-80.006927,39.984699],[-80.018017,39.977489],[-80.033028,39.983909],[-80.031937,39.977691],[-80.039778,39.9741],[-80.048292,39.978527],[-80.044959,39.985063],[-80.050666,39.989645],[-80.038927,39.996467],[-80.049632,40.006626],[-80.058385,40.003618],[-80.058814,40.009339],[-80.086402,39.990361],[-80.12951,39.988406],[-80.175319,40.007979],[-80.190264,40.001837],[-80.240138,40.009476],[-80.273107,40.002418],[-80.273255,40.01328],[-80.28465,40.012413],[-80.287421,40.019206],[-80.301396,40.020559],[-80.310213,40.017654],[-80.308831,40.007036],[-80.312568,40.003293],[-80.329808,40.005457],[-80.356317,39.996836],[-80.372275,39.996572],[-80.391202,39.987955],[-80.396475,39.97789],[-80.425003,39.971993],[-80.434787,39.977505],[-80.445132,39.975758],[-80.448265,39.966662],[-80.453551,39.973352],[-80.461294,39.967381],[-80.460246,39.962314],[-80.4697,39.961766],[-80.466874,39.954642],[-80.475277,39.952065],[-80.490082,39.954499],[-80.487995,39.961443],[-80.500943,39.953784],[-80.519218,39.962424]]]}},{"type":"Feature","properties":{"GEOID":"42003","NAME":"Allegheny","state":"PA","wildfire_risk_score":60.401,"wildfire_eal_total":90813.97,"risk_band":"High","source":"FEMA National Risk Index v1.20 (December 2025)"},"geometry":{"type":"Polygon","coordinates":[[[-80.360802,40.477739],[-80.218977,40.581995],[-80.211832,40.582484],[-80.194986,40.59672],[-80.18454,40.596834],[-80.18848,40.600046],[-80.180755,40.609107],[-80.165784,40.60603],[-80.14511,40.613447],[-80.148497,40.673769],[-79.692878,40.669611],[-79.695822,40.661505],[-79.688975,40.645435],[-79.694353,40.635127],[-79.723154,40.606989],[-79.764043,40.59287],[-79.771623,40.585629],[-79.774802,40.572804],[-79.76509,40.549238],[-79.735714,40.549012],[-79.701624,40.525449],[-79.704783,40.426324],[-79.717231,40.413789],[-79.726826,40.414473],[-79.722397,40.408569],[-79.730431,40.408473],[-79.738648,40.395545],[-79.744634,40.396163],[-79.751262,40.388357],[-79.762068,40.392768],[-79.771082,40.375419],[-79.788648,40.297738],[-79.775823,40.285009],[-79.795796,40.281079],[-79.787741,40.261847],[-79.807431,40.236894],[-79.804386,40.231949],[-79.782588,40.227626],[-79.871425,40.197391],[-79.910783,40.196977],[-79.929289,40.207081],[-79.95794,40.214259],[-79.970916,40.226893],[-79.962593,40.238768],[-79.930754,40.242973],[-79.914461,40.252443],[-80.184603,40.333139],[-80.360802,40.477739]]]}},{"type":"Feature","properties":{"GEOID":"42041","NAME":"Cumberland","state":"PA","wildfire_risk_score":47.551,"wildfire_eal_total":47357.51,"risk_band":"High","source":"FEMA National Risk Index v1.20 (December 2025)"},"geometry":{"type":"Polygon","coordinates":[[[-77.625032,40.18999],[-77.614665,40.198549],[-77.605448,40.185362],[-77.558085,40.218638],[-77.536868,40.219072],[-77.473596,40.254216],[-77.419492,40.290834],[-77.360082,40.314075],[-77.361236,40.305193],[-77.402893,40.280128],[-77.419795,40.26407],[-77.421517,40.25584],[-77.385114,40.262712],[-77.328561,40.292311],[-77.323191,40.292472],[-77.330491,40.275596],[-77.312235,40.26774],[-77.239163,40.284102],[-76.976861,40.309857],[-76.91497,40.328484],[-76.9118,40.322634],[-76.923196,40.300196],[-76.922063,40.285482],[-76.904577,40.260572],[-76.858992,40.225956],[-76.866719,40.216098],[-76.879784,40.217825],[-76.888641,40.213696],[-76.896961,40.224666],[-76.902886,40.224603],[-76.899978,40.212188],[-76.905952,40.217109],[-76.910537,40.205541],[-76.918544,40.210225],[-76.931511,40.199385],[-76.918612,40.198311],[-76.908351,40.190199],[-76.913589,40.188616],[-76.914181,40.182773],[-76.926548,40.18848],[-76.928303,40.183802],[-76.905678,40.165913],[-76.929107,40.161274],[-76.978024,40.164777],[-76.980675,40.160556],[-76.971338,40.1576],[-76.976912,40.15234],[-76.993033,40.154898],[-77.031548,40.146642],[-77.155585,40.056708],[-77.18563,40.029501],[-77.403493,39.994499],[-77.471085,39.944077],[-77.454109,39.972432],[-77.495403,40.005145],[-77.509137,40.024885],[-77.50782,40.028968],[-77.518703,40.0382],[-77.517107,40.044359],[-77.532481,40.048749],[-77.532265,40.067169],[-77.541897,40.06982],[-77.540285,40.076765],[-77.545635,40.078429],[-77.541003,40.079685],[-77.546688,40.08593],[-77.542955,40.089597],[-77.553883,40.095883],[-77.560417,40.094256],[-77.557914,40.103097],[-77.564638,40.121734],[-77.581745,40.134106],[-77.592952,40.135393],[-77.59322,40.142249],[-77.608261,40.152738],[-77.625032,40.18999]]]}},{"type":"Feature","properties":{"GEOID":"42067","NAME":"Juniata","state":"PA","wildfire_risk_score":16.476,"wildfire_eal_total":4206.35,"risk_band":"Low","source":"FEMA National Risk Index v1.20 (December 2025)"},"geometry":{"type":"Polygon","coordinates":[[[-77.746766,40.384661],[-77.710745,40.417593],[-77.612459,40.490919],[-77.612509,40.514187],[-77.497506,40.58174],[-77.49776,40.609484],[-77.407438,40.652204],[-77.323053,40.683082],[-77.287941,40.693595],[-77.150516,40.677074],[-77.109597,40.691578],[-77.100191,40.687922],[-77.093891,40.676192],[-77.060451,40.679854],[-77.045769,40.675637],[-77.038444,40.679724],[-77.034409,40.659928],[-77.029501,40.655562],[-77.022514,40.660886],[-77.010152,40.661234],[-77.006054,40.642615],[-76.996995,40.635778],[-76.986631,40.644025],[-76.967495,40.641255],[-76.965528,40.647149],[-76.944828,40.650209],[-76.940656,40.646175],[-76.939883,40.638142],[-76.949148,40.628167],[-77.023304,40.60426],[-77.18293,40.58214],[-77.167561,40.559509],[-77.198462,40.552287],[-77.289592,40.518457],[-77.47838,40.432011],[-77.540141,40.399221],[-77.532265,40.376006],[-77.565665,40.367363],[-77.599428,40.348147],[-77.639749,40.319832],[-77.70303,40.263576],[-77.75212,40.378545],[-77.746766,40.384661]]]}},{"type":"Feature","properties":{"GEOID":"42111","NAME":"Somerset","state":"PA","wildfire_risk_score":40.776,"wildfire_eal_total":25487.35,"risk_band":"High","source":"FEMA National Risk Index v1.20 (December 2025)"},"geometry":{"type":"Polygon","coordinates":[[[-79.417285,39.854451],[-79.398755,39.900538],[-79.387624,39.915696],[-79.391562,39.919504],[-79.35412,39.958064],[-79.342585,39.982056],[-79.338466,39.982014],[-79.293884,40.040446],[-79.278441,40.050159],[-79.278766,40.055537],[-79.267362,40.065717],[-79.264387,40.078668],[-79.25233,40.090699],[-79.226672,40.09825],[-79.220864,40.112737],[-79.213791,40.117991],[-79.20295,40.114926],[-79.196564,40.118454],[-79.191602,40.109996],[-79.182927,40.111436],[-79.167988,40.128164],[-79.160925,40.161141],[-79.140025,40.163899],[-79.143022,40.18],[-79.126744,40.183281],[-79.126157,40.200391],[-79.1146,40.205039],[-79.106781,40.214894],[-79.109072,40.218324],[-79.103003,40.218231],[-79.100286,40.222344],[-79.104502,40.224311],[-79.09835,40.227966],[-79.102215,40.232294],[-79.086343,40.242391],[-79.073523,40.266727],[-79.059378,40.275767],[-79.056053,40.284861],[-78.927109,40.284733],[-78.924794,40.278488],[-78.897163,40.27227],[-78.891144,40.250197],[-78.884733,40.244644],[-78.868772,40.248973],[-78.858565,40.242525],[-78.851167,40.245988],[-78.658305,40.243235],[-78.66141,40.231104],[-78.676956,40.211207],[-78.739847,40.069571],[-78.752016,40.074917],[-78.763202,40.056745],[-78.757241,39.823484],[-78.767041,39.795384],[-78.8083746995419,39.7229334937347],[-79.3924583826357,39.7214305460304],[-79.389459,39.727078],[-79.392659,39.732678],[-79.409959,39.734978],[-79.407959,39.741977],[-79.394058,39.743277],[-79.398558,39.758277],[-79.378658,39.768877],[-79.394958,39.783377],[-79.383058,39.782477],[-79.380058,39.790077],[-79.356757,39.781477],[-79.351257,39.786577],[-79.362557,39.788477],[-79.368257,39.795877],[-79.363957,39.806777],[-79.367286,39.822731],[-79.382068,39.827082],[-79.381473,39.836314],[-79.417285,39.854451]]]}},{"type":"Feature","properties":{"GEOID":"42045","NAME":"Delaware","state":"PA","wildfire_risk_score":27.672,"wildfire_eal_total":13011.32,"risk_band":"Moderate","source":"FEMA National Risk Index v1.20 (December 2025)"},"geometry":{"type":"Polygon","coordinates":[[[-75.601532,39.856433],[-75.593011,39.867035],[-75.597914,39.874464],[-75.584761,39.880978],[-75.587192,39.884207],[-75.571162,39.888136],[-75.573381,39.896397],[-75.559291,39.902984],[-75.561308,39.907429],[-75.546416,39.909731],[-75.550454,39.914931],[-75.542494,39.918417],[-75.542734,39.927181],[-75.536109,39.929926],[-75.530238,39.922123],[-75.523505,39.923142],[-75.530475,39.932049],[-75.519049,39.934165],[-75.523816,39.944124],[-75.436055,39.984948],[-75.437692,39.993894],[-75.45343,39.993454],[-75.404338,40.027364],[-75.414991,40.041787],[-75.360069,40.066196],[-75.320699,40.016216],[-75.311432,40.01981],[-75.276482,39.976959],[-75.280266,39.974964],[-75.27754,39.971127],[-75.248056,39.964074],[-75.250118,39.94697],[-75.23492,39.936333],[-75.243369,39.931908],[-75.251288,39.904403],[-75.264878,39.887927],[-75.262528,39.876561],[-75.24047,39.872381],[-75.234122,39.877181],[-75.215722,39.876087],[-75.2116900572609,39.8669542235479],[-75.235026,39.856613],[-75.272141,39.84909],[-75.341765,39.846082],[-75.415062,39.801919],[-75.45374,39.820312],[-75.498843,39.833312],[-75.5798996512343,39.8385220738603],[-75.586449,39.844343],[-75.5948458381425,39.8372862097586],[-75.597742,39.841147],[-75.591997,39.852535],[-75.601532,39.856433]]]}},{"type":"Feature","properties":{"GEOID":"42103","NAME":"Pike","state":"PA","wildfire_risk_score":71.915,"wildfire_eal_total":194552.06,"risk_band":"High","source":"FEMA National Risk Index v1.20 (December 2025)"},"geometry":{"type":"Polygon","coordinates":[[[-75.355638,41.241125],[-75.34239,41.252408],[-75.350015,41.259356],[-75.347718,41.265308],[-75.334603,41.26972],[-75.333644,41.279447],[-75.324651,41.288806],[-75.327785,41.298739],[-75.313966,41.310608],[-75.315708,41.319589],[-75.310582,41.326442],[-75.32245,41.34004],[-75.330882,41.334912],[-75.344294,41.33743],[-75.336627,41.34513],[-75.351312,41.363721],[-75.348517,41.370561],[-75.337758,41.376252],[-75.323657,41.366045],[-75.309067,41.374679],[-75.298342,41.367402],[-75.262093,41.375036],[-75.261904,41.381954],[-75.253083,41.391294],[-75.254905,41.399127],[-75.246809,41.402435],[-75.251796,41.410461],[-75.24629,41.417115],[-75.250243,41.418366],[-75.233965,41.420405],[-75.229092,41.427228],[-75.218315,41.424117],[-75.186236,41.442836],[-75.188485,41.456899],[-75.178761,41.461752],[-75.0697121394208,41.6016900928416],[-75.018524,41.551802],[-75.016144,41.544246],[-75.024798,41.539801],[-75.024757,41.535099],[-75.00385,41.524052],[-75.003151,41.508101],[-74.984372,41.506611],[-74.983341,41.480894],[-74.95826,41.476396],[-74.941798,41.483542],[-74.912517,41.475605],[-74.906887,41.461131],[-74.890358,41.455324],[-74.896399,41.442179],[-74.893913,41.43893],[-74.858578,41.444427],[-74.830671,41.430503],[-74.807582,41.442847],[-74.790417,41.42166],[-74.773239,41.426352],[-74.758587,41.423287],[-74.738455,41.430641],[-74.734731,41.422699],[-74.741717,41.40788],[-74.738554,41.401191],[-74.715979,41.392584],[-74.708458,41.378901],[-74.689516,41.363843],[-74.694914,41.357423],[-74.720923,41.347384],[-74.753239,41.346122],[-74.771588,41.325079],[-74.79504,41.320407],[-74.792558,41.310628],[-74.821884,41.293838],[-74.838366,41.277286],[-74.846319,41.263077],[-74.845883,41.254945],[-74.857151,41.248975],[-74.866182,41.232132],[-74.860398,41.217454],[-74.882139,41.180836],[-74.899701,41.166181],[-74.905256,41.155668],[-74.923169,41.138146],[-74.945067,41.129052],[-74.964294,41.114237],[-74.979873,41.110423],[-74.991718,41.092284],[-75.002964,41.091759],[-75.027205,41.079869],[-75.039216,41.088797],[-75.077151,41.141154],[-75.156507,41.150341],[-75.129721,41.252101],[-75.359184,41.239206],[-75.355638,41.241125]]]}},{"type":"Feature","properties":{"GEOID":"42099","NAME":"Perry","state":"PA","wildfire_risk_score":24.968,"wildfire_eal_total":11126.82,"risk_band":"Moderate","source":"FEMA National Risk Index v1.20 (December 2025)"},"geometry":{"type":"Polygon","coordinates":[[[-77.669248,40.292698],[-77.599428,40.348147],[-77.565665,40.367363],[-77.532265,40.376006],[-77.540141,40.399221],[-77.517085,40.411608],[-77.289592,40.518457],[-77.198462,40.552287],[-77.167561,40.559509],[-77.18293,40.58214],[-77.023304,40.60426],[-76.949148,40.628167],[-76.957444,40.594677],[-76.988161,40.574585],[-76.99299,40.564027],[-76.980546,40.538332],[-76.984389,40.514565],[-76.96909,40.497562],[-76.953046,40.490572],[-76.949589,40.468625],[-76.956617,40.458674],[-76.982133,40.446024],[-77.003235,40.4268],[-77.01627,40.425173],[-77.011887,40.405379],[-77.029199,40.38688],[-77.020799,40.36623],[-77.008191,40.358449],[-76.933589,40.356045],[-76.91497,40.328484],[-76.976861,40.309857],[-77.239163,40.284102],[-77.312235,40.26774],[-77.330491,40.275596],[-77.323191,40.292472],[-77.328561,40.292311],[-77.385114,40.262712],[-77.421517,40.25584],[-77.419795,40.26407],[-77.402893,40.280128],[-77.361236,40.305193],[-77.357635,40.312476],[-77.366018,40.313569],[-77.419492,40.290834],[-77.473596,40.254216],[-77.536868,40.219072],[-77.558085,40.218638],[-77.605448,40.185362],[-77.614665,40.198549],[-77.604768,40.206033],[-77.602717,40.2282],[-77.612967,40.233236],[-77.639893,40.217678],[-77.647642,40.222477],[-77.650158,40.228713],[-77.645402,40.238928],[-77.64999,40.247957],[-77.645698,40.256031],[-77.667711,40.252001],[-77.671155,40.257569],[-77.656416,40.270393],[-77.671761,40.289825],[-77.669248,40.292698]]]}},{"type":"Feature","properties":{"GEOID":"42005","NAME":"Armstrong","state":"PA","wildfire_risk_score":21.978,"wildfire_eal_total":8580.39,"risk_band":"Low","source":"FEMA National Risk Index v1.20 (December 2025)"},"geometry":{"type":"Polygon","coordinates":[[[-79.692863,40.773263],[-79.689332,41.169471],[-79.679585,41.15953],[-79.686688,41.144658],[-79.678687,41.132579],[-79.679365,41.091321],[-79.655496,41.068265],[-79.66713,41.055948],[-79.66595,41.049347],[-79.619575,41.033396],[-79.601373,41.036958],[-79.600772,41.025252],[-79.609785,41.008654],[-79.581774,40.997982],[-79.584896,40.991557],[-79.60587,40.994397],[-79.623491,40.98456],[-79.622759,40.976374],[-79.601217,40.969284],[-79.590091,40.969945],[-79.570195,40.985648],[-79.552624,40.97978],[-79.539427,40.984288],[-79.522428,40.974958],[-79.514685,40.979025],[-79.517836,40.983965],[-79.514012,40.986809],[-79.505148,40.976848],[-79.493658,40.977901],[-79.494785,40.986181],[-79.487474,40.99554],[-79.45598,40.990711],[-79.462296,40.984671],[-79.459339,40.982102],[-79.442741,40.987264],[-79.427454,40.985952],[-79.421238,41.002676],[-79.412319,41.008471],[-79.410066,41.005298],[-79.415035,41.000706],[-79.404881,40.998026],[-79.404814,40.988615],[-79.394714,40.99475],[-79.378091,40.994347],[-79.386625,40.987905],[-79.374654,40.984459],[-79.380974,40.979881],[-79.382191,40.971185],[-79.374249,40.968889],[-79.369315,40.975809],[-79.371015,40.990165],[-79.362432,41.003492],[-79.345876,40.997729],[-79.337621,41.002485],[-79.334331,40.999091],[-79.319163,41.001797],[-79.302571,41.013531],[-79.282498,41.009824],[-79.261137,41.028977],[-79.242046,41.035343],[-79.230423,41.045851],[-79.210197,41.049091],[-79.215706,40.94005],[-79.215235,40.776016],[-79.450176,40.530149],[-79.460561,40.534294],[-79.475739,40.529538],[-79.476918,40.535779],[-79.481872,40.536937],[-79.486542,40.527428],[-79.497092,40.525338],[-79.498925,40.532152],[-79.511912,40.542683],[-79.526249,40.542364],[-79.560726,40.563489],[-79.570678,40.584065],[-79.565932,40.593403],[-79.550608,40.603897],[-79.565078,40.607841],[-79.576102,40.601745],[-79.582087,40.603265],[-79.589575,40.616865],[-79.583735,40.636609],[-79.602103,40.624497],[-79.608133,40.62549],[-79.611032,40.642017],[-79.636056,40.654481],[-79.640009,40.666945],[-79.668426,40.680007],[-79.69293,40.669744],[-79.692863,40.773263]]]}},{"type":"Feature","properties":{"GEOID":"42101","NAME":"Philadelphia","state":"PA","wildfire_risk_score":28.69,"wildfire_eal_total":8804.64,"risk_band":"Moderate","source":"FEMA National Risk Index v1.20 (December 2025)"},"geometry":{"type":"Polygon","coordinates":[[[-75.280266,39.974964],[-75.205978,40.011723],[-75.264431,40.054094],[-75.22361,40.092907],[-75.188461,40.07275],[-75.176438,40.084649],[-75.109406,40.04584],[-75.087425,40.063599],[-75.096733,40.068989],[-75.086906,40.078648],[-75.015066,40.137992],[-74.997885,40.127816],[-74.993894,40.131883],[-74.994167,40.126094],[-74.982371,40.119942],[-74.963174,40.116675],[-74.965431,40.107886],[-74.961766,40.097752],[-74.955777,40.095103],[-74.958421,40.08392],[-74.963604,40.077105],[-74.971086,40.076007],[-74.985163,40.056932],[-74.9739353371246,40.048038036367],[-75.012214,40.020698],[-75.04709,40.009941],[-75.064175,39.986027],[-75.075605,39.978041],[-75.102287,39.972377],[-75.133855,39.954217],[-75.13612,39.933912],[-75.12792,39.911813],[-75.13082,39.900213],[-75.143746,39.884998],[-75.189323,39.880713],[-75.2116900572609,39.8669542235479],[-75.215722,39.876087],[-75.234122,39.877181],[-75.24047,39.872381],[-75.262528,39.876561],[-75.264878,39.887927],[-75.251288,39.904403],[-75.243369,39.931908],[-75.234868,39.937456],[-75.250118,39.94697],[-75.248056,39.964074],[-75.265448,39.965257],[-75.280266,39.974964]]]}},{"type":"Feature","properties":{"GEOID":"42055","NAME":"Franklin","state":"PA","wildfire_risk_score":51.336,"wildfire_eal_total":53662.42,"risk_band":"High","source":"FEMA National Risk Index v1.20 (December 2025)"},"geometry":{"type":"Polygon","coordinates":[[[-78.0991400639512,39.7223221403225],[-78.069297,39.748298],[-78.036499,39.791999],[-78.0027,39.826599],[-77.975135,39.871788],[-77.956446,39.915026],[-77.955511,39.928861],[-77.937789,39.948944],[-77.932274,39.972618],[-77.921508,39.988246],[-77.920952,40.00045],[-77.914329,40.010303],[-77.881703,40.050201],[-77.859356,40.065207],[-77.796386,40.166814],[-77.768325,40.204129],[-77.724197,40.250124],[-77.671761,40.289825],[-77.656416,40.270393],[-77.670288,40.259416],[-77.667711,40.252001],[-77.645698,40.256031],[-77.64999,40.247957],[-77.645402,40.238928],[-77.650158,40.228713],[-77.642831,40.21814],[-77.616167,40.232616],[-77.602717,40.2282],[-77.604768,40.206033],[-77.627509,40.1886],[-77.613642,40.170161],[-77.608943,40.153601],[-77.59322,40.142249],[-77.592952,40.135393],[-77.581745,40.134106],[-77.564638,40.121734],[-77.557914,40.103097],[-77.560417,40.094256],[-77.553883,40.095883],[-77.542955,40.089597],[-77.546688,40.08593],[-77.540987,40.080566],[-77.545635,40.078429],[-77.540285,40.076765],[-77.541897,40.06982],[-77.532265,40.067169],[-77.532481,40.048749],[-77.517107,40.044359],[-77.518703,40.0382],[-77.50782,40.028968],[-77.509137,40.024885],[-77.495403,40.005145],[-77.454109,39.972432],[-77.471085,39.944077],[-77.4591346074925,39.7200171134891],[-78.0991400639512,39.7223221403225]]]}},{"type":"Feature","properties":{"GEOID":"42097","NAME":"Northumberland","state":"PA","wildfire_risk_score":31.33,"wildfire_eal_total":14187.6,"risk_band":"Moderate","source":"FEMA National Risk Index v1.20 (December 2025)"},"geometry":{"type":"Polygon","coordinates":[[[-76.948601,40.628461],[-76.927625,40.645707],[-76.912015,40.667642],[-76.87985,40.687192],[-76.863396,40.70765],[-76.855361,40.728558],[-76.858646,40.781784],[-76.849329,40.809666],[-76.813022,40.847058],[-76.798718,40.878325],[-76.803513,40.884633],[-76.824587,40.890718],[-76.854106,40.915426],[-76.882174,40.968678],[-76.868576,40.994918],[-76.856424,41.047412],[-76.858758,41.073706],[-76.884383,41.093753],[-76.895882,41.119978],[-76.897522,41.135962],[-76.889338,41.151988],[-76.880963,41.158044],[-76.790807,41.175732],[-76.732672,41.17204],[-76.735058,41.091058],[-76.756503,41.050503],[-76.764505,41.029611],[-76.761963,41.025932],[-76.774692,41.01231],[-76.785447,40.958907],[-76.791506,40.955549],[-76.792878,40.946583],[-76.661348,40.967996],[-76.652451,40.961643],[-76.632036,40.963682],[-76.601436,40.942186],[-76.556977,40.938609],[-76.568111,40.915454],[-76.557323,40.888824],[-76.550514,40.882584],[-76.504151,40.880897],[-76.509739,40.870502],[-76.498006,40.854075],[-76.508093,40.846637],[-76.501598,40.824765],[-76.411487,40.83349],[-76.380334,40.775445],[-76.700546,40.663114],[-76.702361,40.65574],[-76.713574,40.659595],[-76.72203,40.653401],[-76.745894,40.654464],[-76.756232,40.648088],[-76.790388,40.640784],[-76.803382,40.647223],[-76.809065,40.64342],[-76.81114,40.633817],[-76.827405,40.633946],[-76.840104,40.625439],[-76.864254,40.627585],[-76.872717,40.616313],[-76.886411,40.617758],[-76.891462,40.614331],[-76.890039,40.610331],[-76.919859,40.610133],[-76.918672,40.603466],[-76.936962,40.612841],[-76.948601,40.628461]]]}},{"type":"Feature","properties":{"GEOID":"42059","NAME":"Greene","state":"PA","wildfire_risk_score":23.378,"wildfire_eal_total":8947.9,"risk_band":"Moderate","source":"FEMA National Risk Index v1.20 (December 2025)"},"geometry":{"type":"Polygon","coordinates":[[[-80.519423,39.806181],[-80.518002,39.963515],[-80.500943,39.953784],[-80.487995,39.961443],[-80.490082,39.954499],[-80.475277,39.952065],[-80.466874,39.954642],[-80.4697,39.961766],[-80.460246,39.962314],[-80.461294,39.967381],[-80.453551,39.973352],[-80.448265,39.966662],[-80.445132,39.975758],[-80.434787,39.977505],[-80.425003,39.971993],[-80.396475,39.97789],[-80.391202,39.987955],[-80.372275,39.996572],[-80.356317,39.996836],[-80.329808,40.005457],[-80.312568,40.003293],[-80.308831,40.007036],[-80.310213,40.017654],[-80.301396,40.020559],[-80.287421,40.019206],[-80.28465,40.012413],[-80.273255,40.01328],[-80.273107,40.002418],[-80.240138,40.009476],[-80.190264,40.001837],[-80.175319,40.007979],[-80.12951,39.988406],[-80.086402,39.990361],[-80.058814,40.009339],[-80.058385,40.003618],[-80.049632,40.006626],[-80.038927,39.996467],[-80.050666,39.989645],[-80.044959,39.985063],[-80.048292,39.978527],[-80.039778,39.9741],[-80.031937,39.977691],[-80.033028,39.983909],[-80.018017,39.977489],[-79.999296,39.984473],[-80.010463,39.973962],[-80.007584,39.956666],[-79.995072,39.949514],[-79.959166,39.953866],[-79.943757,39.944011],[-79.923069,39.920987],[-79.929406,39.905675],[-79.915278,39.8803],[-79.930276,39.869276],[-79.92465,39.855056],[-79.938477,39.843976],[-79.924376,39.838176],[-79.920643,39.813415],[-79.908678,39.792577],[-79.932475,39.784881],[-79.93468,39.764774],[-79.93008,39.757078],[-79.907179,39.747478],[-79.903919,39.737809],[-79.9161705658965,39.7208932213641],[-80.519342,39.721403],[-80.519423,39.806181]]]}},{"type":"Feature","properties":{"GEOID":"42019","NAME":"Butler","state":"PA","wildfire_risk_score":38.995,"wildfire_eal_total":28420.12,"risk_band":"High","source":"FEMA National Risk Index v1.20 (December 2025)"},"geometry":{"type":"Polygon","coordinates":[[[-80.166472,41.000928],[-79.999779,41.171861],[-79.692195,41.171932],[-79.688778,41.133429],[-79.692878,40.669611],[-80.148677,40.673848],[-80.166472,41.000928]]]}},{"type":"Feature","properties":{"GEOID":"42025","NAME":"Carbon","state":"PA","wildfire_risk_score":41.349,"wildfire_eal_total":29634.74,"risk_band":"High","source":"FEMA National Risk Index v1.20 (December 2025)"},"geometry":{"type":"Polygon","coordinates":[[[-75.997636,40.913259],[-75.848024,40.966357],[-75.848539,40.972185],[-75.819237,40.982578],[-75.801201,40.983424],[-75.732183,41.008124],[-75.740245,41.029895],[-75.757734,41.031625],[-75.770275,41.050094],[-75.771989,41.076806],[-75.765666,41.08439],[-75.766767,41.093601],[-75.75535,41.094253],[-75.753561,41.103365],[-75.7326,41.103268],[-75.716747,41.11813],[-75.707996,41.116095],[-75.709668,41.121986],[-75.696898,41.129663],[-75.667495,41.13398],[-75.656424,41.122931],[-75.657252,41.116446],[-75.649412,41.122304],[-75.646417,41.113269],[-75.637587,41.113398],[-75.628242,41.106901],[-75.624818,41.111397],[-75.620037,41.108971],[-75.612694,41.094237],[-75.604113,41.093382],[-75.605348,41.084708],[-75.576484,41.067573],[-75.568886,41.056608],[-75.56977,41.050002],[-75.561397,41.048994],[-75.49599,40.987181],[-75.57459,40.951323],[-75.493581,40.846442],[-75.474193,40.814746],[-75.541549,40.806815],[-75.577488,40.799414],[-75.602608,40.788043],[-75.688105,40.772116],[-75.757807,40.735414],[-75.886037,40.816267],[-75.997636,40.913259]]]}},{"type":"Feature","properties":{"GEOID":"42079","NAME":"Luzerne","state":"PA","wildfire_risk_score":53.721,"wildfire_eal_total":48181.34,"risk_band":"High","source":"FEMA National Risk Index v1.20 (December 2025)"},"geometry":{"type":"Polygon","coordinates":[[[-76.31927,41.222497],[-76.310848,41.308949],[-76.282799,41.377244],[-76.00507,41.384551],[-75.834512,41.426965],[-75.832631,41.399934],[-75.826803,41.391703],[-75.79951,41.382639],[-75.741916,41.348311],[-75.688606,41.339446],[-75.687841,41.317836],[-75.694959,41.317577],[-75.69412,41.30411],[-75.690824,41.304335],[-75.689661,41.287785],[-75.679344,41.28796],[-75.679304,41.264301],[-75.652273,41.257383],[-75.649233,41.187173],[-75.636651,41.171359],[-75.616558,41.172678],[-75.611717,41.164187],[-75.60084,41.159991],[-75.603298,41.151875],[-75.615577,41.150705],[-75.614173,41.145168],[-75.628385,41.136846],[-75.625989,41.130389],[-75.634162,41.123246],[-75.649042,41.125085],[-75.656037,41.115962],[-75.658398,41.126255],[-75.667495,41.13398],[-75.691912,41.13121],[-75.709668,41.121986],[-75.707996,41.116095],[-75.716747,41.11813],[-75.7326,41.103268],[-75.753561,41.103365],[-75.75535,41.094253],[-75.766767,41.093601],[-75.765666,41.08439],[-75.771989,41.076806],[-75.770275,41.050094],[-75.757734,41.031625],[-75.740245,41.029895],[-75.732183,41.008124],[-75.801201,40.983424],[-75.819237,40.982578],[-75.848539,40.972185],[-75.848024,40.966357],[-76.028006,40.902313],[-76.207827,40.94974],[-76.231222,41.050262],[-76.228144,41.051947],[-76.228975,41.138466],[-76.27739,41.131795],[-76.319236,41.208092],[-76.31927,41.222497]]]}},{"type":"Feature","properties":{"GEOID":"42087","NAME":"Mifflin","state":"PA","wildfire_risk_score":26.59,"wildfire_eal_total":7655.35,"risk_band":"Moderate","source":"FEMA National Risk Index v1.20 (December 2025)"},"geometry":{"type":"Polygon","coordinates":[[[-77.913929,40.400115],[-77.90805,40.414018],[-77.89683,40.417388],[-77.835874,40.484232],[-77.815976,40.499785],[-77.841827,40.550035],[-77.830114,40.566902],[-77.77248,40.625932],[-77.75162,40.6323],[-77.720737,40.657968],[-77.68708,40.67675],[-77.682275,40.685122],[-77.703787,40.679936],[-77.708356,40.690488],[-77.700474,40.694852],[-77.70117,40.704982],[-77.676611,40.716452],[-77.681334,40.729758],[-77.652574,40.744921],[-77.593355,40.761247],[-77.429604,40.827541],[-77.374708,40.845295],[-77.357113,40.844484],[-77.354097,40.701667],[-77.287941,40.693595],[-77.384058,40.661635],[-77.493681,40.612304],[-77.49776,40.609484],[-77.497506,40.58174],[-77.612509,40.514187],[-77.612459,40.490919],[-77.720636,40.409618],[-77.76172,40.368733],[-77.810393,40.368591],[-77.818636,40.360542],[-77.838343,40.36903],[-77.854447,40.364739],[-77.872089,40.380375],[-77.870289,40.392261],[-77.887717,40.391358],[-77.889073,40.398559],[-77.913929,40.400115]]]}},{"type":"Feature","properties":{"GEOID":"42053","NAME":"Forest","state":"PA","wildfire_risk_score":4.771,"wildfire_eal_total":1014.26,"risk_band":"Low","source":"FEMA National Risk Index v1.20 (December 2025)"},"geometry":{"type":"Polygon","coordinates":[[[-79.522024,41.465219],[-79.512276,41.46524],[-79.51207,41.624559],[-78.956138,41.623334],[-78.958957,41.437061],[-78.976657,41.436963],[-78.976658,41.451761],[-79.06352,41.453207],[-79.065154,41.423194],[-79.093588,41.423286],[-79.095096,41.340658],[-79.104977,41.341526],[-79.106743,41.3261],[-79.11525,41.325766],[-79.138521,41.341575],[-79.157123,41.328635],[-79.163096,41.333404],[-79.160612,41.34183],[-79.166411,41.343865],[-79.166906,41.330478],[-79.17172,41.32591],[-79.179638,41.339168],[-79.187005,41.33731],[-79.18618,41.328523],[-79.1925,41.324188],[-79.208878,41.331861],[-79.207196,41.430922],[-79.399923,41.436154],[-79.400439,41.386579],[-79.477822,41.386479],[-79.478163,41.440134],[-79.521599,41.440554],[-79.522024,41.465219]]]}},{"type":"Feature","properties":{"GEOID":"42117","NAME":"Tioga","state":"PA","wildfire_risk_score":20.802,"wildfire_eal_total":7020.79,"risk_band":"Low","source":"FEMA National Risk Index v1.20 (December 2025)"},"geometry":{"type":"Polygon","coordinates":[[[-77.6100277930756,41.9995186246449],[-76.927059,42.001674],[-76.874714,41.596919],[-76.887048,41.58686],[-76.922171,41.581037],[-76.92657,41.571091],[-76.947461,41.567987],[-76.962568,41.556834],[-76.960481,41.551517],[-77.599278,41.542271],[-77.6100277930756,41.9995186246449]]]}},{"type":"Feature","properties":{"GEOID":"42123","NAME":"Warren","state":"PA","wildfire_risk_score":11.927,"wildfire_eal_total":3669.43,"risk_band":"Low","source":"FEMA National Risk Index v1.20 (December 2025)"},"geometry":{"type":"Polygon","coordinates":[[[-79.612551,41.63043],[-79.6108357364534,41.9989893291311],[-78.9188959171755,41.9981254535194],[-78.915642,41.840896],[-78.921544,41.840882],[-78.921408,41.830919],[-78.948612,41.830481],[-78.956138,41.623334],[-79.613147,41.623863],[-79.612551,41.63043]]]}},{"type":"Feature","properties":{"GEOID":"42039","NAME":"Crawford","state":"PA","wildfire_risk_score":36.005,"wildfire_eal_total":15292.4,"risk_band":"Moderate","source":"FEMA National Risk Index v1.20 (December 2025)"},"geometry":{"type":"Polygon","coordinates":[[[-80.5194231195653,41.671750132285],[-80.519293557418,41.8495630308932],[-79.612071,41.850328],[-79.613173,41.616868],[-79.829111,41.62207],[-79.829722,41.601953],[-79.849609,41.597764],[-79.850054,41.587056],[-79.873002,41.581152],[-79.870031,41.574255],[-79.892732,41.574138],[-79.892757,41.562168],[-79.908606,41.562174],[-79.909471,41.550149],[-79.925369,41.550208],[-79.92334,41.537596],[-79.943296,41.537837],[-79.942227,41.525348],[-79.959188,41.52544],[-79.95816,41.513624],[-79.981536,41.512887],[-79.98228,41.50014],[-79.998488,41.500948],[-79.999779,41.490049],[-80.125596,41.486278],[-80.125369,41.480396],[-80.431147,41.486958],[-80.432089,41.492089],[-80.444896,41.492269],[-80.445001,41.487118],[-80.519208784418,41.4891108128749],[-80.5194231195653,41.671750132285]]]}},{"type":"Feature","properties":{"GEOID":"42015","NAME":"Bradford","state":"PA","wildfire_risk_score":21.692,"wildfire_eal_total":8624.65,"risk_band":"Low","source":"FEMA National Risk Index v1.20 (December 2025)"},"geometry":{"type":"Polygon","coordinates":[[[-76.927059,42.001674],[-76.1455192032297,41.9989130371419],[-76.115172,41.651825],[-76.197998,41.647823],[-76.220073,41.541278],[-76.874714,41.596919],[-76.927059,42.001674]]]}},{"type":"Feature","properties":{"GEOID":"42105","NAME":"Potter","state":"PA","wildfire_risk_score":3.308,"wildfire_eal_total":956.44,"risk_band":"Low","source":"FEMA National Risk Index v1.20 (December 2025)"},"geometry":{"type":"Polygon","coordinates":[[[-78.206174,41.913022],[-78.2063810815651,41.9996247528091],[-77.6100277930756,41.9995186246449],[-77.598129,41.478576],[-78.050442,41.475462],[-78.20364,41.617599],[-78.206174,41.913022]]]}},{"type":"Feature","properties":{"GEOID":"42085","NAME":"Mercer","state":"PA","wildfire_risk_score":36.355,"wildfire_eal_total":18688.34,"risk_band":"Moderate","source":"FEMA National Risk Index v1.20 (December 2025)"},"geometry":{"type":"Polygon","coordinates":[[[-80.519345,41.34074],[-80.519208784418,41.4891108128749],[-80.445001,41.487118],[-80.444896,41.492269],[-80.432089,41.492089],[-80.431147,41.486958],[-80.125369,41.480396],[-80.125596,41.486278],[-79.999779,41.490049],[-79.999779,41.171861],[-80.096861,41.069804],[-80.147303,41.113917],[-80.257946,41.117339],[-80.257933,41.128106],[-80.519012,41.1250929473499],[-80.519345,41.34074]]]}},{"type":"Feature","properties":{"GEOID":"42077","NAME":"Lehigh","state":"PA","wildfire_risk_score":30.312,"wildfire_eal_total":12672.39,"risk_band":"Moderate","source":"FEMA National Risk Index v1.20 (December 2025)"},"geometry":{"type":"Polygon","coordinates":[[[-75.889207,40.678343],[-75.808285,40.707299],[-75.77769,40.729534],[-75.744863,40.740309],[-75.7286,40.753915],[-75.702418,40.76224],[-75.694621,40.770186],[-75.609068,40.787523],[-75.601694,40.749551],[-75.592558,40.736127],[-75.574019,40.734706],[-75.558165,40.720886],[-75.544316,40.725054],[-75.540312,40.736059],[-75.530149,40.736343],[-75.52218,40.712876],[-75.497979,40.679155],[-75.485027,40.671496],[-75.481469,40.655744],[-75.430404,40.674152],[-75.430122,40.668427],[-75.387464,40.633122],[-75.38304,40.617351],[-75.378125,40.615358],[-75.388559,40.614423],[-75.391275,40.596551],[-75.404412,40.581154],[-75.333514,40.537057],[-75.409733,40.487984],[-75.483858,40.418634],[-75.889207,40.678343]]]}},{"type":"Feature","properties":{"GEOID":"42069","NAME":"Lackawanna","state":"PA","wildfire_risk_score":41.444,"wildfire_eal_total":25043.08,"risk_band":"High","source":"FEMA National Risk Index v1.20 (December 2025)"},"geometry":{"type":"Polygon","coordinates":[[[-75.834512,41.426965],[-75.771626,41.505793],[-75.80323,41.524227],[-75.769422,41.568301],[-75.77429,41.574048],[-75.728576,41.635634],[-75.718507,41.636658],[-75.719887,41.642263],[-75.462411,41.641587],[-75.440389,41.25813],[-75.456685,41.253938],[-75.470849,41.243267],[-75.477428,41.247114],[-75.496057,41.242948],[-75.516491,41.21938],[-75.529356,41.226591],[-75.543886,41.223596],[-75.554723,41.20765],[-75.56974,41.198744],[-75.576653,41.177857],[-75.598536,41.171935],[-75.597265,41.163204],[-75.611717,41.164187],[-75.616558,41.172678],[-75.631843,41.169669],[-75.644075,41.177067],[-75.649233,41.187173],[-75.652273,41.257383],[-75.679304,41.264301],[-75.679344,41.28796],[-75.689661,41.287785],[-75.694959,41.317577],[-75.687841,41.317836],[-75.688606,41.339446],[-75.741916,41.348311],[-75.79951,41.382639],[-75.826803,41.391703],[-75.832631,41.399934],[-75.834512,41.426965]]]}},{"type":"Feature","properties":{"GEOID":"42093","NAME":"Montour","state":"PA","wildfire_risk_score":4.644,"wildfire_eal_total":1334.02,"risk_band":"Low","source":"FEMA National Risk Index v1.20 (December 2025)"},"geometry":{"type":"Polygon","coordinates":[[[-76.793245,40.95014],[-76.785447,40.958907],[-76.774692,41.01231],[-76.761963,41.025932],[-76.764505,41.029611],[-76.756503,41.050503],[-76.735058,41.091058],[-76.732672,41.17204],[-76.678776,41.154172],[-76.640767,41.155718],[-76.620458,41.08484],[-76.615353,41.079359],[-76.618971,41.063759],[-76.569915,41.053761],[-76.562263,41.034214],[-76.565246,40.999865],[-76.521815,40.967064],[-76.512421,40.946102],[-76.529395,40.940143],[-76.520138,40.926634],[-76.528213,40.919121],[-76.524862,40.915936],[-76.528024,40.882613],[-76.550514,40.882584],[-76.557323,40.888824],[-76.568111,40.915454],[-76.556977,40.938609],[-76.601436,40.942186],[-76.632036,40.963682],[-76.652451,40.961643],[-76.661348,40.967996],[-76.767376,40.949784],[-76.792878,40.946583],[-76.793245,40.95014]]]}},{"type":"Feature","properties":{"GEOID":"42083","NAME":"McKean","state":"PA","wildfire_risk_score":10.21,"wildfire_eal_total":2753.38,"risk_band":"Low","source":"FEMA National Risk Index v1.20 (December 2025)"},"geometry":{"type":"Polygon","coordinates":[[[-78.955489,41.640215],[-78.948612,41.830481],[-78.921408,41.830919],[-78.921544,41.840882],[-78.915642,41.840896],[-78.9188959171755,41.9981254535194],[-78.2063810815651,41.9996247528091],[-78.20364,41.617599],[-78.420846,41.617284],[-78.420498,41.601874],[-78.482909,41.60233],[-78.483815,41.631481],[-78.676016,41.624973],[-78.956138,41.623334],[-78.955489,41.640215]]]}},{"type":"Feature","properties":{"GEOID":"42115","NAME":"Susquehanna","state":"PA","wildfire_risk_score":21.215,"wildfire_eal_total":8347.69,"risk_band":"Low","source":"FEMA National Risk Index v1.20 (December 2025)"},"geometry":{"type":"Polygon","coordinates":[[[-76.1455192032297,41.9989130371419],[-75.4831401922548,41.9992587774738],[-75.462238,41.641583],[-76.114224,41.643385],[-76.1455192032297,41.9989130371419]]]}},{"type":"Feature","properties":{"GEOID":"42075","NAME":"Lebanon","state":"PA","wildfire_risk_score":22.487,"wildfire_eal_total":9441.59,"risk_band":"Low","source":"FEMA National Risk Index v1.20 (December 2025)"},"geometry":{"type":"Polygon","coordinates":[[[-76.67804,40.474717],[-76.535414,40.555157],[-76.231916,40.366292],[-76.205528,40.360661],[-76.151215,40.315971],[-76.307741,40.255044],[-76.435427,40.238217],[-76.569417,40.195549],[-76.67804,40.474717]]]}},{"type":"Feature","properties":{"GEOID":"42021","NAME":"Cambria","state":"PA","wildfire_risk_score":41.031,"wildfire_eal_total":24918.27,"risk_band":"High","source":"FEMA National Risk Index v1.20 (December 2025)"},"geometry":{"type":"Polygon","coordinates":[[[-79.054807,40.289399],[-79.037558,40.306961],[-79.037295,40.313403],[-79.020019,40.335605],[-79.009933,40.340477],[-79.006078,40.351203],[-78.998171,40.356169],[-78.922514,40.482491],[-78.866648,40.592793],[-78.808922,40.720952],[-78.799226,40.7171],[-78.802286,40.724618],[-78.348668,40.723443],[-78.408801,40.644371],[-78.432457,40.647756],[-78.43966,40.644806],[-78.446323,40.624164],[-78.441208,40.597239],[-78.479051,40.547307],[-78.518211,40.528802],[-78.539819,40.506293],[-78.54457,40.48777],[-78.542006,40.469653],[-78.557721,40.441563],[-78.552889,40.434783],[-78.561466,40.36967],[-78.602236,40.353629],[-78.625221,40.314302],[-78.636404,40.305506],[-78.642707,40.283071],[-78.651743,40.281524],[-78.643816,40.25914],[-78.658305,40.243235],[-78.851167,40.245988],[-78.858565,40.242525],[-78.868772,40.248973],[-78.884733,40.244644],[-78.891144,40.250197],[-78.897163,40.27227],[-78.924794,40.278488],[-78.927109,40.284733],[-79.056053,40.284861],[-79.054807,40.289399]]]}},{"type":"Feature","properties":{"GEOID":"42081","NAME":"Lycoming","state":"PA","wildfire_risk_score":26.877,"wildfire_eal_total":11839.85,"risk_band":"Moderate","source":"FEMA National Risk Index v1.20 (December 2025)"},"geometry":{"type":"Polygon","coordinates":[[[-77.599278,41.542271],[-76.9641,41.551262],[-76.947461,41.567987],[-76.92657,41.571091],[-76.922171,41.581037],[-76.887048,41.58686],[-76.874714,41.596919],[-76.813731,41.590034],[-76.749497,41.405572],[-76.592532,41.304332],[-76.447597,41.275629],[-76.592525,41.157828],[-76.678776,41.154172],[-76.729997,41.171881],[-76.790807,41.175732],[-76.884245,41.157099],[-76.896114,41.13907],[-76.960229,41.148801],[-76.977939,41.087883],[-77.068236,41.085231],[-77.113839,41.069032],[-77.164278,41.068708],[-77.275589,41.179105],[-77.292256,41.185304],[-77.291378,41.19628],[-77.320891,41.218932],[-77.351356,41.220176],[-77.350022,41.228976],[-77.370088,41.23268],[-77.424945,41.273103],[-77.4294,41.28214],[-77.444732,41.287439],[-77.455122,41.303422],[-77.471451,41.313486],[-77.477013,41.338998],[-77.499931,41.353953],[-77.526537,41.358528],[-77.537654,41.365011],[-77.550449,41.395826],[-77.575209,41.420498],[-77.584671,41.441301],[-77.597282,41.441056],[-77.599278,41.542271]]]}},{"type":"Feature","properties":{"GEOID":"42065","NAME":"Jefferson","state":"PA","wildfire_risk_score":16.444,"wildfire_eal_total":4085.28,"risk_band":"Low","source":"FEMA National Risk Index v1.20 (December 2025)"},"geometry":{"type":"Polygon","coordinates":[[[-79.215706,40.94005],[-79.210197,41.049091],[-79.215214,41.050515],[-79.214494,41.078775],[-79.21132,41.078737],[-79.208878,41.331861],[-79.1925,41.324188],[-79.18618,41.328523],[-79.187005,41.33731],[-79.179638,41.339168],[-79.17172,41.32591],[-79.166906,41.330478],[-79.166411,41.343865],[-79.160612,41.34183],[-79.163096,41.333404],[-79.157123,41.328635],[-79.138521,41.341575],[-79.111898,41.325016],[-79.105885,41.326703],[-79.104977,41.341526],[-79.091606,41.340953],[-79.078446,41.353806],[-79.063025,41.350151],[-79.028136,41.357429],[-79.017811,41.350044],[-79.01299,41.358225],[-79.00227,41.359654],[-78.992688,41.368616],[-78.981548,41.367753],[-78.971904,41.376565],[-78.964224,41.369818],[-78.95946,41.371487],[-78.959257,41.362161],[-78.73528,41.262915],[-78.738214,41.230672],[-78.710059,41.230243],[-78.710248,41.201859],[-78.766377,41.202759],[-78.8045,41.132252],[-78.805167,40.90598],[-79.21531,40.911346],[-79.215706,40.94005]]]}},{"type":"Feature","properties":{"GEOID":"42009","NAME":"Bedford","state":"PA","wildfire_risk_score":29.23,"wildfire_eal_total":11949.89,"risk_band":"Moderate","source":"FEMA National Risk Index v1.20 (December 2025)"},"geometry":{"type":"Polygon","coordinates":[[[-78.803854,39.730677],[-78.767041,39.795384],[-78.757241,39.823484],[-78.763202,40.056745],[-78.752016,40.074917],[-78.739847,40.069571],[-78.676956,40.211207],[-78.643816,40.25914],[-78.651743,40.281524],[-78.642707,40.283071],[-78.636404,40.305506],[-78.618889,40.326471],[-78.5057,40.287308],[-78.447895,40.244395],[-78.434288,40.302301],[-78.288764,40.242107],[-78.257305,40.297883],[-78.236195,40.224505],[-78.134863,40.165131],[-78.158287,40.122207],[-78.206706,40.086427],[-78.203733,40.069886],[-78.190739,40.066536],[-78.181465,40.058189],[-78.187896,40.047054],[-78.204202,40.04203],[-78.20101,40.012988],[-78.219811,39.993288],[-78.267502,39.903501],[-78.299003,39.8255],[-78.343823,39.76161],[-78.3805989500625,39.7225160701616],[-78.8083746995419,39.7229334937347],[-78.803854,39.730677]]]}},{"type":"Feature","properties":{"GEOID":"42109","NAME":"Snyder","state":"PA","wildfire_risk_score":17.684,"wildfire_eal_total":5191.07,"risk_band":"Low","source":"FEMA National Risk Index v1.20 (December 2025)"},"geometry":{"type":"Polygon","coordinates":[[[-77.356628,40.807334],[-77.074058,40.868333],[-77.052027,40.869387],[-77.023367,40.857455],[-77.004828,40.872129],[-76.941788,40.88806],[-76.912749,40.884536],[-76.891241,40.888661],[-76.87815,40.884499],[-76.834269,40.889567],[-76.807974,40.878585],[-76.799542,40.878552],[-76.800242,40.881994],[-76.798718,40.878325],[-76.813022,40.847058],[-76.849329,40.809666],[-76.858646,40.781784],[-76.855361,40.728558],[-76.863396,40.70765],[-76.87985,40.687192],[-76.907987,40.670978],[-76.927625,40.645707],[-76.939883,40.638142],[-76.944828,40.650209],[-76.965528,40.647149],[-76.967495,40.641255],[-76.986631,40.644025],[-76.996995,40.635778],[-77.006054,40.642615],[-77.010152,40.661234],[-77.022514,40.660886],[-77.029501,40.655562],[-77.034409,40.659928],[-77.038444,40.679724],[-77.045769,40.675637],[-77.060451,40.679854],[-77.093891,40.676192],[-77.100191,40.687922],[-77.109597,40.691578],[-77.150516,40.677074],[-77.354097,40.701667],[-77.356628,40.807334]]]}},{"type":"Feature","properties":{"GEOID":"42131","NAME":"Wyoming","state":"PA","wildfire_risk_score":21.947,"wildfire_eal_total":8335.6,"risk_band":"Low","source":"FEMA National Risk Index v1.20 (December 2025)"},"geometry":{"type":"Polygon","coordinates":[[[-76.282799,41.377244],[-76.223866,41.524544],[-76.197998,41.647823],[-76.115172,41.651825],[-76.114224,41.643385],[-75.719887,41.642263],[-75.718507,41.636658],[-75.728576,41.635634],[-75.77429,41.574048],[-75.769422,41.568301],[-75.80323,41.524227],[-75.771626,41.505793],[-75.839287,41.424633],[-76.00507,41.384551],[-76.282799,41.377244]]]}},{"type":"Feature","properties":{"GEOID":"42119","NAME":"Union","state":"PA","wildfire_risk_score":10.369,"wildfire_eal_total":2573.98,"risk_band":"Low","source":"FEMA National Risk Index v1.20 (December 2025)"},"geometry":{"type":"Polygon","coordinates":[[[-77.36418,40.846937],[-77.279236,40.90971],[-77.204027,40.99271],[-77.143804,41.042855],[-77.144111,41.06884],[-77.113839,41.069032],[-77.068236,41.085231],[-76.977939,41.087883],[-76.960229,41.148801],[-76.896114,41.13907],[-76.889657,41.100935],[-76.860045,41.075729],[-76.857,41.066601],[-76.856424,41.047412],[-76.867584,40.998468],[-76.882359,40.97138],[-76.876221,40.951089],[-76.851469,40.912846],[-76.824587,40.890718],[-76.803513,40.884633],[-76.799542,40.878552],[-76.834269,40.889567],[-76.87815,40.884499],[-76.891241,40.888661],[-76.912749,40.884536],[-76.941788,40.88806],[-77.004828,40.872129],[-77.023367,40.857455],[-77.052027,40.869387],[-77.074058,40.868333],[-77.356628,40.807334],[-77.357113,40.844484],[-77.36418,40.846937]]]}},{"type":"Feature","properties":{"GEOID":"42047","NAME":"Elk","state":"PA","wildfire_risk_score":5.852,"wildfire_eal_total":2007.82,"risk_band":"Low","source":"FEMA National Risk Index v1.20 (December 2025)"},"geometry":{"type":"Polygon","coordinates":[[[-79.094804,41.356937],[-79.093588,41.423286],[-79.065154,41.423194],[-79.06352,41.453207],[-78.976658,41.451761],[-78.976657,41.436963],[-78.958957,41.437061],[-78.956138,41.623334],[-78.676016,41.624973],[-78.483815,41.631481],[-78.482909,41.60233],[-78.420498,41.601874],[-78.420028,41.405046],[-78.253959,41.404721],[-78.254382,41.323584],[-78.234675,41.323413],[-78.236817,41.230475],[-78.646666,41.253778],[-78.647947,41.21746],[-78.710248,41.201859],[-78.710059,41.230243],[-78.738214,41.230672],[-78.73528,41.262915],[-78.959257,41.362161],[-78.95946,41.371487],[-78.964224,41.369818],[-78.969807,41.375896],[-78.981548,41.367753],[-78.992688,41.368616],[-79.00227,41.359654],[-79.01299,41.358225],[-79.017811,41.350044],[-79.028136,41.357429],[-79.063025,41.350151],[-79.07543,41.354343],[-79.093556,41.340315],[-79.094804,41.356937]]]}},{"type":"Feature","properties":{"GEOID":"42107","NAME":"Schuylkill","state":"PA","wildfire_risk_score":55.63,"wildfire_eal_total":56403.64,"risk_band":"High","source":"FEMA National Risk Index v1.20 (December 2025)"},"geometry":{"type":"Polygon","coordinates":[[[-76.700546,40.663114],[-76.30717,40.801809],[-76.284611,40.883588],[-76.207827,40.94974],[-76.028006,40.902313],[-75.997636,40.913259],[-75.886037,40.816267],[-75.757807,40.735414],[-75.77769,40.729534],[-75.808285,40.707299],[-75.993212,40.639712],[-76.012226,40.577713],[-76.018562,40.573826],[-76.045004,40.583793],[-76.050942,40.575168],[-76.065339,40.579678],[-76.079566,40.566077],[-76.134745,40.553482],[-76.171624,40.534947],[-76.219407,40.528699],[-76.256008,40.517067],[-76.338228,40.515536],[-76.4186,40.495615],[-76.440181,40.495952],[-76.701624,40.658082],[-76.700546,40.663114]]]}},{"type":"Feature","properties":{"GEOID":"42007","NAME":"Beaver","state":"PA","wildfire_risk_score":34.892,"wildfire_eal_total":19495.13,"risk_band":"Moderate","source":"FEMA National Risk Index v1.20 (December 2025)"},"geometry":{"type":"Polygon","coordinates":[[[-80.519086,40.592271],[-80.5190191701796,40.8513393981028],[-80.15853,40.855096],[-80.14511,40.613447],[-80.165784,40.60603],[-80.180755,40.609107],[-80.18848,40.600046],[-80.18454,40.596834],[-80.194986,40.59672],[-80.211832,40.582484],[-80.218977,40.581995],[-80.360801,40.477591],[-80.5189953454551,40.4773632987013],[-80.519086,40.592271]]]}},{"type":"Feature","properties":{"GEOID":"42073","NAME":"Lawrence","state":"PA","wildfire_risk_score":27.29,"wildfire_eal_total":11763.86,"risk_band":"Moderate","source":"FEMA National Risk Index v1.20 (December 2025)"},"geometry":{"type":"Polygon","coordinates":[[[-80.519891,40.906661],[-80.519012,41.1250929473499],[-80.257933,41.128106],[-80.257946,41.117339],[-80.147303,41.113917],[-80.098294,41.071054],[-80.166472,41.000928],[-80.15853,40.855096],[-80.5190191701796,40.8513393981028],[-80.519891,40.906661]]]}},{"type":"Feature","properties":{"GEOID":"42037","NAME":"Columbia","state":"PA","wildfire_risk_score":27.545,"wildfire_eal_total":13317.6,"risk_band":"Moderate","source":"FEMA National Risk Index v1.20 (December 2025)"},"geometry":{"type":"Polygon","coordinates":[[[-76.640767,41.155718],[-76.592525,41.157828],[-76.407934,41.308418],[-76.310261,41.310198],[-76.319236,41.208092],[-76.27739,41.131795],[-76.228975,41.138466],[-76.228144,41.051947],[-76.231222,41.050262],[-76.207827,40.94974],[-76.284611,40.883588],[-76.30717,40.801809],[-76.380334,40.775445],[-76.411487,40.83349],[-76.501598,40.824765],[-76.508093,40.846637],[-76.498006,40.854075],[-76.509739,40.870502],[-76.504151,40.880897],[-76.528024,40.882613],[-76.524862,40.915936],[-76.528213,40.919121],[-76.520138,40.926634],[-76.529395,40.940143],[-76.512421,40.946102],[-76.515034,40.959048],[-76.565246,40.999865],[-76.562263,41.034214],[-76.569915,41.053761],[-76.618971,41.063759],[-76.615353,41.079359],[-76.620458,41.08484],[-76.640767,41.155718]]]}},{"type":"Feature","properties":{"GEOID":"42013","NAME":"Blair","state":"PA","wildfire_risk_score":31.997,"wildfire_eal_total":14474.9,"risk_band":"Moderate","source":"FEMA National Risk Index v1.20 (December 2025)"},"geometry":{"type":"Polygon","coordinates":[[[-78.615941,40.330131],[-78.602236,40.353629],[-78.561466,40.36967],[-78.552889,40.434783],[-78.557721,40.441563],[-78.542006,40.469653],[-78.54457,40.48777],[-78.539819,40.506293],[-78.518211,40.528802],[-78.479051,40.547307],[-78.441208,40.597239],[-78.446323,40.624164],[-78.440977,40.631784],[-78.442148,40.641088],[-78.432457,40.647756],[-78.408801,40.644371],[-78.348668,40.723443],[-78.360619,40.733181],[-78.131834,40.743017],[-78.116521,40.739127],[-78.155867,40.717745],[-78.15659,40.71297],[-78.170042,40.712596],[-78.195243,40.697294],[-78.201971,40.697983],[-78.22197,40.674539],[-78.198238,40.64773],[-78.196808,40.638674],[-78.178722,40.626909],[-78.17305,40.62803],[-78.166408,40.618143],[-78.184212,40.595295],[-78.179295,40.592725],[-78.17828,40.583786],[-78.197083,40.558444],[-78.185595,40.543703],[-78.176818,40.534471],[-78.166677,40.531528],[-78.149955,40.541366],[-78.136162,40.569171],[-78.128638,40.567953],[-78.147328,40.533251],[-78.1539,40.492165],[-78.148898,40.487629],[-78.133911,40.498321],[-78.129498,40.485721],[-78.156881,40.436382],[-78.250091,40.312291],[-78.288764,40.242107],[-78.434288,40.302301],[-78.447895,40.244395],[-78.5057,40.287308],[-78.618889,40.326471],[-78.615941,40.330131]]]}},{"type":"Feature","properties":{"GEOID":"42121","NAME":"Venango","state":"PA","wildfire_risk_score":12.627,"wildfire_eal_total":3594.07,"risk_band":"Low","source":"FEMA National Risk Index v1.20 (December 2025)"},"geometry":{"type":"Polygon","coordinates":[[[-79.999779,41.490049],[-79.998488,41.500948],[-79.98228,41.50014],[-79.981536,41.512887],[-79.95816,41.513624],[-79.959188,41.52544],[-79.942227,41.525348],[-79.943296,41.537837],[-79.92334,41.537596],[-79.925369,41.550208],[-79.909471,41.550149],[-79.908606,41.562174],[-79.892757,41.562168],[-79.892732,41.574138],[-79.870031,41.574255],[-79.873002,41.581152],[-79.850054,41.587056],[-79.849609,41.597764],[-79.829722,41.601953],[-79.829111,41.62207],[-79.613173,41.616868],[-79.613147,41.623863],[-79.51207,41.624559],[-79.512276,41.46524],[-79.522024,41.465219],[-79.521599,41.440554],[-79.478163,41.440134],[-79.47814,41.335708],[-79.54143,41.335951],[-79.541474,41.321008],[-79.604161,41.321478],[-79.60461,41.277072],[-79.627561,41.277183],[-79.632875,41.253599],[-79.650394,41.253709],[-79.649628,41.217912],[-79.668892,41.199075],[-79.666323,41.197136],[-79.670614,41.193166],[-79.665368,41.189024],[-79.670125,41.183116],[-79.697242,41.184614],[-79.700581,41.175059],[-79.694984,41.172865],[-79.999779,41.171861],[-79.999779,41.490049]]]}},{"type":"Feature","properties":{"GEOID":"42001","NAME":"Adams","state":"PA","wildfire_risk_score":44.179,"wildfire_eal_total":34061.41,"risk_band":"High","source":"FEMA National Risk Index v1.20 (December 2025)"},"geometry":{"type":"Polygon","coordinates":[[[-77.471085,39.944077],[-77.403493,39.994499],[-77.18563,40.029501],[-77.137425,40.069945],[-77.127631,40.068616],[-77.091975,40.053636],[-77.069543,40.02949],[-77.018648,40.013947],[-76.966202,39.935192],[-76.97258,39.934023],[-76.970009,39.921251],[-76.965003,39.921871],[-76.966983,39.916183],[-76.981433,39.90542],[-76.983738,39.893563],[-76.972536,39.872914],[-76.963616,39.873992],[-76.955051,39.856975],[-76.978571,39.847708],[-76.990663,39.834348],[-76.999679,39.83128],[-76.9993189823684,39.7198299495823],[-77.4591346074925,39.7200171134891],[-77.471085,39.944077]]]}},{"type":"Feature","properties":{"GEOID":"42057","NAME":"Fulton","state":"PA","wildfire_risk_score":22.774,"wildfire_eal_total":9269.26,"risk_band":"Moderate","source":"FEMA National Risk Index v1.20 (December 2025)"},"geometry":{"type":"Polygon","coordinates":[[[-78.374697,39.727688],[-78.343823,39.76161],[-78.299003,39.8255],[-78.267502,39.903501],[-78.219811,39.993288],[-78.20101,40.012988],[-78.204202,40.04203],[-78.187896,40.047054],[-78.181465,40.058189],[-78.190739,40.066536],[-78.203733,40.069886],[-78.206706,40.086427],[-78.158287,40.122207],[-78.134863,40.165131],[-78.078353,40.133244],[-77.92556,40.103977],[-77.864489,40.061568],[-77.881703,40.050201],[-77.919502,40.003417],[-77.919792,39.992652],[-77.932274,39.972618],[-77.937789,39.948944],[-77.955511,39.928861],[-77.956446,39.915026],[-77.975135,39.871788],[-78.0027,39.826599],[-78.036499,39.791999],[-78.069297,39.748298],[-78.0991400639512,39.7223221403225],[-78.3805989500625,39.7225160701616],[-78.374697,39.727688]]]}},{"type":"Feature","properties":{"GEOID":"42011","NAME":"Berks","state":"PA","wildfire_risk_score":37.977,"wildfire_eal_total":21272.02,"risk_band":"High","source":"FEMA National Risk Index v1.20 (December 2025)"},"geometry":{"type":"Polygon","coordinates":[[[-76.436605,40.496229],[-76.415912,40.496022],[-76.338228,40.515536],[-76.256008,40.517067],[-76.219407,40.528699],[-76.171624,40.534947],[-76.134745,40.553482],[-76.079566,40.566077],[-76.065339,40.579678],[-76.050942,40.575168],[-76.045004,40.583793],[-76.018562,40.573826],[-76.012226,40.577713],[-75.993212,40.639712],[-75.891473,40.67727],[-75.529813,40.447092],[-75.695949,40.242365],[-75.873375,40.137107],[-76.149761,40.314738],[-76.205528,40.360661],[-76.231916,40.366292],[-76.440181,40.495952],[-76.436605,40.496229]]]}}]}