{"type":"FeatureCollection","metadata":{"state":"RI","boundary_source":"U.S. Census Bureau 2024 Cartographic Boundary File (counties, 1:500,000)","risk_source":"FEMA National Risk Index v1.20 (December 2025)"},"features":[{"type":"Feature","properties":{"GEOID":"44007","NAME":"Providence","state":"RI","wildfire_risk_score":31.711,"wildfire_eal_total":14387.45,"risk_band":"High","source":"FEMA National Risk Index v1.20 (December 2025)"},"geometry":{"type":"Polygon","coordinates":[[[-71.799242,42.008065],[-71.381401,42.018798],[-71.3817,41.893199],[-71.338698,41.898399],[-71.340798,41.8816],[-71.333997,41.8623],[-71.342198,41.8448],[-71.335197,41.8355],[-71.347197,41.8231],[-71.338897,41.8083],[-71.340697,41.7983],[-71.332196,41.7923],[-71.327896,41.780501],[-71.3179242335629,41.7761572941963],[-71.359896,41.745061],[-71.361798,41.760664],[-71.369641,41.764565],[-71.365125,41.777505],[-71.371542,41.783354],[-71.390557,41.783708],[-71.384733,41.757602],[-71.399577,41.768321],[-71.433775,41.761441],[-71.446538,41.748887],[-71.444684,41.740155],[-71.451278,41.739704],[-71.455342,41.732365],[-71.7896921119938,41.7251983396573],[-71.799242,42.008065]]]}},{"type":"Feature","properties":{"GEOID":"44009","NAME":"Washington","state":"RI","wildfire_risk_score":23.06,"wildfire_eal_total":12652.62,"risk_band":"High","source":"FEMA National Risk Index v1.20 (December 2025)"},"geometry":{"type":"MultiPolygon","coordinates":[[[[-71.613133,41.160281],[-71.605565,41.182139],[-71.594994,41.188392],[-71.592944,41.198911],[-71.58955,41.196557],[-71.580634,41.203374],[-71.577691,41.231232],[-71.562546,41.224217],[-71.554067,41.212957],[-71.566345,41.184277],[-71.561299,41.175765],[-71.544446,41.164912],[-71.547051,41.153684],[-71.599993,41.146932],[-71.611567,41.153905],[-71.613133,41.160281]]],[[[-71.8626677422346,41.310863612697],[-71.860513,41.320248],[-71.829384,41.342413],[-71.837873,41.360145],[-71.830637,41.378772],[-71.832655,41.387156],[-71.842131,41.395359],[-71.842563,41.409855],[-71.816904,41.419927],[-71.797683,41.416709],[-71.7893586727423,41.5968521603427],[-71.484427,41.602591],[-71.488039,41.616048],[-71.469666,41.634536],[-71.459123,41.637946],[-71.451366,41.629455],[-71.439301,41.648023],[-71.4088799626671,41.6538406570683],[-71.407525,41.633326],[-71.403154,41.627468],[-71.408621,41.62196],[-71.402441,41.615563],[-71.416939,41.604901],[-71.403613,41.602959],[-71.40377,41.589321],[-71.439519,41.577348],[-71.440945,41.584993],[-71.44705,41.578429],[-71.438093,41.570591],[-71.443831,41.566068],[-71.428407,41.557085],[-71.431045,41.550103],[-71.423357,41.548182],[-71.426671,41.543563],[-71.415513,41.529858],[-71.414937,41.516303],[-71.421425,41.498629],[-71.418404,41.472652],[-71.430744,41.470636],[-71.425817,41.456002],[-71.43833,41.439585],[-71.442788,41.441398],[-71.455845,41.432986],[-71.452974,41.409676],[-71.484203,41.371842],[-71.480875,41.360248],[-71.502926,41.3742],[-71.551566,41.374423],[-71.624158,41.36121],[-71.696688,41.340978],[-71.716036,41.331089],[-71.751656,41.325402],[-71.773702,41.327977],[-71.833755,41.315631],[-71.857432,41.306318],[-71.8626677422346,41.310863612697]]]]}},{"type":"Feature","properties":{"GEOID":"44005","NAME":"Newport","state":"RI","wildfire_risk_score":13.677,"wildfire_eal_total":5531.31,"risk_band":"Moderate","source":"FEMA National Risk Index v1.20 (December 2025)"},"geometry":{"type":"MultiPolygon","coordinates":[[[[-71.288017,41.645575],[-71.278171,41.647309],[-71.272129,41.637064],[-71.285346,41.636853],[-71.288017,41.645575]]],[[[-71.301515,41.585658],[-71.298562,41.584922],[-71.297156,41.579768],[-71.300812,41.58061],[-71.301515,41.585658]]],[[[-71.327568,41.452868],[-71.326348,41.45471],[-71.324296,41.453924],[-71.325649,41.452106],[-71.327568,41.452868]]],[[[-71.328827,41.492334],[-71.325365,41.487601],[-71.327822,41.482985],[-71.329002,41.48713],[-71.328827,41.492334]]],[[[-71.343126,41.497292],[-71.341267,41.500494],[-71.338665,41.494926],[-71.343126,41.494926],[-71.343126,41.497292]]],[[[-71.346285,41.534168],[-71.344984,41.537923],[-71.342568,41.52902],[-71.345913,41.529577],[-71.346285,41.534168]]],[[[-71.353819,41.647466],[-71.343274,41.653769],[-71.35157,41.658602],[-71.344821,41.667005],[-71.332448,41.643789],[-71.336525,41.641897],[-71.337088,41.64673],[-71.343666,41.6399],[-71.308123,41.626239],[-71.30264,41.605531],[-71.3167,41.583134],[-71.326103,41.578583],[-71.335949,41.585898],[-71.337048,41.594688],[-71.325558,41.624137],[-71.350726,41.633911],[-71.353819,41.647466]]],[[[-71.362911,41.461746],[-71.336442,41.481985],[-71.335992,41.469647],[-71.316519,41.47756],[-71.323125,41.503088],[-71.330694,41.507699],[-71.328031,41.518848],[-71.311251,41.522621],[-71.314151,41.531446],[-71.308082,41.539377],[-71.310533,41.54692],[-71.294363,41.571416],[-71.285142,41.577127],[-71.289073,41.582706],[-71.273445,41.60699],[-71.271862,41.623986],[-71.261021,41.627379],[-71.251082,41.63878],[-71.233234,41.64023],[-71.220331,41.655572],[-71.216575,41.639103],[-71.211822,41.639103],[-71.19564,41.67509],[-71.132888,41.660102],[-71.14091,41.607405],[-71.131312,41.592308],[-71.12057,41.497448],[-71.136867,41.493942],[-71.141093,41.489937],[-71.139087,41.483445],[-71.167345,41.471405],[-71.168648,41.461452],[-71.193979,41.456396],[-71.196607,41.464756],[-71.192354,41.466564],[-71.190167,41.484285],[-71.206382,41.499215],[-71.200788,41.514371],[-71.208257,41.52888],[-71.204929,41.5408],[-71.215995,41.547178],[-71.213778,41.556795],[-71.220998,41.560877],[-71.209823,41.558709],[-71.208352,41.581172],[-71.214674,41.585971],[-71.203741,41.596103],[-71.212656,41.610072],[-71.211837,41.623529],[-71.219336,41.625482],[-71.240709,41.619225],[-71.2436,41.587508],[-71.234877,41.576548],[-71.236642,41.535852],[-71.227989,41.528297],[-71.247992,41.49029],[-71.237437,41.485711],[-71.240428,41.476147],[-71.247366,41.472996],[-71.245859,41.481637],[-71.258192,41.487921],[-71.26764,41.488214],[-71.274861,41.479846],[-71.285486,41.489004],[-71.296918,41.485521],[-71.296851,41.469131],[-71.310168,41.451124],[-71.312558,41.456498],[-71.323751,41.460129],[-71.334764,41.449516],[-71.344177,41.454028],[-71.353609,41.449751],[-71.362911,41.461746]]],[[[-71.367036,41.660703],[-71.360709,41.661123],[-71.353398,41.657866],[-71.360006,41.649882],[-71.367036,41.660703]]],[[[-71.372238,41.599854],[-71.367317,41.605952],[-71.36338,41.606688],[-71.364786,41.601431],[-71.372238,41.599854]]],[[[-71.40056,41.46094],[-71.394417,41.46722],[-71.399435,41.492977],[-71.38401,41.493812],[-71.378914,41.504948],[-71.391005,41.514578],[-71.392137,41.524468],[-71.384478,41.556736],[-71.370194,41.573963],[-71.36356,41.57086],[-71.359868,41.556308],[-71.365612,41.513993],[-71.357621,41.508705],[-71.366541,41.494787],[-71.354315,41.478891],[-71.37509,41.473764],[-71.380665,41.488801],[-71.38624,41.487687],[-71.381594,41.468055],[-71.389028,41.465549],[-71.390275,41.455043],[-71.399568,41.448596],[-71.40056,41.46094]]],[[[-71.405096,41.498214],[-71.403626,41.504566],[-71.397391,41.5062],[-71.396276,41.503695],[-71.405096,41.498214]]]]}},{"type":"Feature","properties":{"GEOID":"44001","NAME":"Bristol","state":"RI","wildfire_risk_score":3.721,"wildfire_eal_total":1695.05,"risk_band":"Low","source":"FEMA National Risk Index v1.20 (December 2025)"},"geometry":{"type":"Polygon","coordinates":[[[-71.353897,41.751301],[-71.3179242335629,41.7761572941963],[-71.261392,41.752301],[-71.225791,41.711701],[-71.227875,41.705498],[-71.24581,41.697162],[-71.235352,41.672134],[-71.238442,41.665565],[-71.244384,41.669116],[-71.250326,41.665032],[-71.25956,41.642595],[-71.267055,41.644945],[-71.267676,41.657397],[-71.277659,41.666275],[-71.278847,41.678347],[-71.285502,41.68243],[-71.290546,41.662395],[-71.301396,41.649978],[-71.306095,41.672575],[-71.302627,41.681747],[-71.293119,41.688347],[-71.291217,41.702666],[-71.2988,41.711008],[-71.301446,41.706441],[-71.305468,41.708519],[-71.307131,41.721648],[-71.339456,41.724841],[-71.341119,41.734774],[-71.355818,41.745061],[-71.353897,41.751301]]]}},{"type":"Feature","properties":{"GEOID":"44003","NAME":"Kent","state":"RI","wildfire_risk_score":21.12,"wildfire_eal_total":9235.95,"risk_band":"Moderate","source":"FEMA National Risk Index v1.20 (December 2025)"},"geometry":{"type":"Polygon","coordinates":[[[-71.7896921119938,41.7251983396573],[-71.455342,41.732365],[-71.451278,41.739704],[-71.444684,41.740155],[-71.446538,41.748887],[-71.440619,41.752153],[-71.440574,41.757912],[-71.399577,41.768321],[-71.38105,41.7557],[-71.380574,41.745947],[-71.376058,41.744174],[-71.380812,41.738853],[-71.38105,41.727324],[-71.376534,41.721648],[-71.357282,41.716592],[-71.365717,41.711615],[-71.362748,41.691926],[-71.371542,41.685359],[-71.37791,41.666646],[-71.38988,41.671903],[-71.390551,41.684096],[-71.441336,41.686446],[-71.445923,41.691144],[-71.450198,41.686459],[-71.444801,41.663801],[-71.424285,41.670275],[-71.408621,41.663168],[-71.4088799626671,41.6538406570683],[-71.439301,41.648023],[-71.451366,41.629455],[-71.459123,41.637946],[-71.469666,41.634536],[-71.488039,41.616048],[-71.484427,41.602591],[-71.7893586727423,41.5968521603427],[-71.7896921119938,41.7251983396573]]]}}]}