{"type":"FeatureCollection","metadata":{"state":"SD","boundary_source":"U.S. Census Bureau 2024 Cartographic Boundary File (counties, 1:500,000)","risk_source":"FEMA National Risk Index v1.20 (December 2025)"},"features":[{"type":"Feature","properties":{"GEOID":"46023","NAME":"Charles Mix","state":"SD","wildfire_risk_score":76.94,"wildfire_eal_total":261682.7,"risk_band":"Moderate","source":"FEMA National Risk Index v1.20 (December 2025)"},"geometry":{"type":"Polygon","coordinates":[[[-99.310686,43.473962],[-99.297882,43.499856],[-98.705782,43.499319],[-98.706855,43.370075],[-98.680688,43.373157],[-98.069044,43.184887],[-98.089817,43.152543],[-98.092823,43.119066],[-98.103001,43.112682],[-98.107764,43.101978],[-98.109342,43.081279],[-98.105751,43.077369],[-98.110333,43.073433],[-98.103272,43.056535],[-98.102792,43.037117],[-98.094868,43.029846],[-98.110108,43.022979],[-98.108044,43.013855],[-98.114178,43.006534],[-98.092782,42.973921],[-98.107653,42.947637],[-98.103724,42.937918],[-98.113994,42.936976],[-98.108732,42.933365],[-98.113273,42.928788],[-98.106642,42.926252],[-98.11429,42.917146],[-98.111051,42.913489],[-98.123215,42.91083],[-98.111876,42.894482],[-98.113606,42.879202],[-98.118855,42.87444],[-98.116457,42.870369],[-98.139472,42.864744],[-98.138951,42.856281],[-98.147723,42.849516],[-98.154869,42.854961],[-98.160746,42.851966],[-98.162954,42.849817],[-98.153447,42.845822],[-98.1530790534164,42.8390654481446],[-98.171113,42.837114],[-98.219826,42.853157],[-98.25181,42.872824],[-98.325864,42.8865],[-98.34623,42.902747],[-98.42074,42.931924],[-98.444145,42.929242],[-98.448309,42.936428],[-98.467356,42.947556],[-98.490483,42.977948],[-98.502099,43.012277],[-98.529555,43.042867],[-98.557477,43.058965],[-98.615767,43.073994],[-98.653002,43.071279],[-98.69046,43.076556],[-98.714573,43.088914],[-98.750362,43.129534],[-98.773406,43.145919],[-98.860074,43.156419],[-98.868762,43.162009],[-98.87759,43.179981],[-98.877733,43.22664],[-98.887817,43.243205],[-98.902555,43.247622],[-98.950363,43.248847],[-98.981253,43.258945],[-99.020249,43.290614],[-99.069285,43.320688],[-99.105898,43.370945],[-99.126383,43.380622],[-99.148467,43.422077],[-99.158339,43.430683],[-99.177715,43.437916],[-99.251382,43.436521],[-99.275704,43.442476],[-99.306876,43.4624],[-99.310686,43.473962]]]}},{"type":"Feature","properties":{"GEOID":"46079","NAME":"Lake","state":"SD","wildfire_risk_score":53.88,"wildfire_eal_total":65498.05,"risk_band":"Low","source":"FEMA National Risk Index v1.20 (December 2025)"},"geometry":{"type":"Polygon","coordinates":[[[-97.370297,44.120393],[-97.370115,44.194971],[-96.889216,44.195705],[-96.888664,43.848385],[-97.369463,43.848526],[-97.370297,44.120393]]]}},{"type":"Feature","properties":{"GEOID":"46103","NAME":"Pennington","state":"SD","wildfire_risk_score":97.201,"wildfire_eal_total":8266555.79,"risk_band":"High","source":"FEMA National Risk Index v1.20 (December 2025)"},"geometry":{"type":"Polygon","coordinates":[[[-104.055002,43.937658],[-104.054661466311,44.1410806657577],[-102.388045,44.140183],[-102.399363,44.151302],[-102.397721,44.156239],[-102.40398,44.15793],[-102.401652,44.161479],[-102.388224,44.160039],[-102.387162,44.174828],[-102.393955,44.177984],[-102.399899,44.171908],[-102.401612,44.175587],[-102.393522,44.202966],[-102.372578,44.209414],[-102.372528,44.221772],[-102.356992,44.230555],[-102.365854,44.242365],[-102.358665,44.248944],[-102.367453,44.262757],[-102.358837,44.265663],[-102.367753,44.277499],[-102.366965,44.285613],[-102.359054,44.300746],[-102.348745,44.303653],[-102.350929,44.309743],[-102.344584,44.321115],[-102.347834,44.326349],[-102.342187,44.328957],[-102.342905,44.340246],[-102.336648,44.343965],[-102.341635,44.348772],[-102.324997,44.357863],[-102.326381,44.366852],[-102.311694,44.363835],[-102.298284,44.376915],[-102.30252,44.38336],[-102.298184,44.388889],[-102.305355,44.392136],[-102.30312,44.420637],[-102.310932,44.424386],[-102.306223,44.434085],[-102.293377,44.431984],[-102.280027,44.450286],[-102.254603,44.446764],[-102.226112,44.452514],[-102.220326,44.451354],[-102.222417,44.443713],[-102.189438,44.427194],[-102.160156,44.428825],[-102.154081,44.437822],[-102.159278,44.443679],[-102.153758,44.445233],[-102.108034,44.436586],[-102.099034,44.451686],[-102.083934,44.454286],[-102.083941,44.460671],[-102.073234,44.465586],[-102.075934,44.475086],[-102.055433,44.481286],[-102.054433,44.490286],[-102.046033,44.499886],[-102.001068,44.510926],[-102.000964,44.343832],[-102.00723,44.343785],[-102.007336,43.99453],[-102.019147,43.994492],[-102.019707,43.971639],[-102.018887,43.708618],[-102.024455,43.713408],[-102.034241,43.702629],[-102.036403,43.68827],[-102.043649,43.695676],[-102.055572,43.688795],[-102.095811,43.695313],[-102.097734,43.685697],[-102.108474,43.685836],[-102.112294,43.69232],[-102.107435,43.701853],[-102.116297,43.712826],[-102.122475,43.704406],[-102.140199,43.700637],[-102.153253,43.706182],[-102.156101,43.697703],[-102.168386,43.69687],[-102.166499,43.691776],[-102.178723,43.687296],[-102.809398,43.68756],[-102.81688,43.691207],[-102.800957,43.698766],[-102.803315,43.71023],[-102.795183,43.713292],[-102.791407,43.721843],[-102.778474,43.72051],[-102.77724,43.726846],[-102.771185,43.728418],[-102.769854,43.738935],[-102.758593,43.741137],[-102.747542,43.756413],[-102.733594,43.764192],[-102.737833,43.771736],[-102.713697,43.78472],[-102.705026,43.797621],[-102.695526,43.79815],[-102.700865,43.811976],[-102.688647,43.83955],[-102.693703,43.847918],[-102.687191,43.855599],[-104.055423945188,43.8534762658297],[-104.055002,43.937658]]]}},{"type":"Feature","properties":{"GEOID":"46089","NAME":"McPherson","state":"SD","wildfire_risk_score":70.356,"wildfire_eal_total":127248.92,"risk_band":"Moderate","source":"FEMA National Risk Index v1.20 (December 2025)"},"geometry":{"type":"Polygon","coordinates":[[[-99.718073,45.940907],[-98.7243745348833,45.9386863487943],[-98.725002,45.591252],[-99.717466,45.593428],[-99.718073,45.940907]]]}},{"type":"Feature","properties":{"GEOID":"46093","NAME":"Meade","state":"SD","wildfire_risk_score":96.024,"wildfire_eal_total":6605015.33,"risk_band":"High","source":"FEMA National Risk Index v1.20 (December 2025)"},"geometry":{"type":"Polygon","coordinates":[[[-103.574291,44.344195],[-103.569417,44.344246],[-103.567653,44.604098],[-102.964125,44.604287],[-102.963646,44.690613],[-102.95865,44.690617],[-102.958779,45.039564],[-101.999994,45.038274],[-102.000432,44.511663],[-102.011823,44.50529],[-102.046033,44.499886],[-102.054433,44.490286],[-102.055433,44.481286],[-102.075934,44.475086],[-102.073234,44.465586],[-102.083941,44.460671],[-102.083934,44.454286],[-102.099034,44.451686],[-102.108034,44.436586],[-102.153758,44.445233],[-102.159278,44.443679],[-102.154081,44.437822],[-102.160156,44.428825],[-102.189438,44.427194],[-102.222417,44.443713],[-102.220326,44.451354],[-102.226112,44.452514],[-102.254603,44.446764],[-102.280027,44.450286],[-102.293377,44.431984],[-102.306223,44.434085],[-102.310932,44.424386],[-102.30312,44.420637],[-102.305355,44.392136],[-102.298184,44.388889],[-102.30252,44.38336],[-102.298284,44.376915],[-102.311694,44.363835],[-102.326381,44.366852],[-102.324997,44.357863],[-102.341635,44.348772],[-102.336648,44.343965],[-102.342905,44.340246],[-102.342187,44.328957],[-102.347834,44.326349],[-102.344584,44.321115],[-102.350929,44.309743],[-102.348745,44.303653],[-102.359054,44.300746],[-102.366965,44.285613],[-102.367753,44.277499],[-102.358837,44.265663],[-102.367453,44.262757],[-102.358665,44.248944],[-102.365854,44.242365],[-102.356992,44.230555],[-102.372528,44.221772],[-102.372578,44.209414],[-102.393522,44.202966],[-102.401612,44.175587],[-102.399899,44.171908],[-102.393955,44.177984],[-102.387162,44.174828],[-102.388224,44.160039],[-102.401652,44.161479],[-102.40398,44.15793],[-102.397721,44.156239],[-102.399363,44.151302],[-102.388045,44.140183],[-103.452453,44.140772],[-103.453016,44.256609],[-103.574396,44.256077],[-103.574291,44.344195]]]}},{"type":"Feature","properties":{"GEOID":"46073","NAME":"Jerauld","state":"SD","wildfire_risk_score":72.71,"wildfire_eal_total":197929.26,"risk_band":"Moderate","source":"FEMA National Risk Index v1.20 (December 2025)"},"geometry":{"type":"Polygon","coordinates":[[[-98.927034,43.992744],[-98.925953,44.196575],[-98.33191,44.196687],[-98.331508,43.937708],[-98.926997,43.935143],[-98.927034,43.992744]]]}},{"type":"Feature","properties":{"GEOID":"46117","NAME":"Stanley","state":"SD","wildfire_risk_score":60.496,"wildfire_eal_total":119884.14,"risk_band":"Low","source":"FEMA National Risk Index v1.20 (December 2025)"},"geometry":{"type":"Polygon","coordinates":[[[-101.166874,44.211773],[-101.166805,44.343113],[-101.155188,44.343147],[-101.154516,44.689947],[-101.137163,44.689962],[-101.136838,44.747126],[-101.092739,44.739012],[-101.06292,44.742505],[-101.022611,44.724153],[-101.006393,44.728752],[-100.996916,44.739449],[-100.98771,44.731961],[-100.976019,44.75103],[-100.955107,44.754381],[-100.958261,44.761243],[-100.955185,44.765517],[-100.939844,44.762518],[-100.917193,44.769624],[-100.909001,44.7837],[-100.888048,44.769728],[-100.85366,44.780719],[-100.845302,44.776703],[-100.834444,44.78308],[-100.82297,44.7819],[-100.817108,44.779368],[-100.812011,44.768021],[-100.797816,44.769942],[-100.797964,44.763505],[-100.773405,44.771651],[-100.771067,44.767455],[-100.776073,44.761231],[-100.769686,44.75818],[-100.752142,44.761511],[-100.752029,44.774037],[-100.73922,44.77582],[-100.736369,44.763737],[-100.717644,44.77093],[-100.691381,44.759659],[-100.68031,44.747382],[-100.630103,44.737213],[-100.613805,44.707135],[-100.61253,44.693459],[-100.624806,44.651552],[-100.643145,44.620323],[-100.645552,44.597955],[-100.640061,44.583723],[-100.610073,44.561451],[-100.52941,44.550149],[-100.516682,44.534449],[-100.529293,44.51648],[-100.559292,44.506185],[-100.574209,44.494773],[-100.58084,44.46567],[-100.566541,44.450867],[-100.539196,44.444431],[-100.470125,44.460945],[-100.407619,44.457182],[-100.384519,44.436229],[-100.373774,44.380114],[-100.36539,44.355524],[-100.358156,44.349216],[-100.242529,44.3267],[-100.165704,44.324633],[-100.098267,44.311795],[-100.04454,44.28781],[-99.984421,44.268338],[-99.921059,44.26586],[-99.903449,44.25827],[-99.892101,44.241881],[-99.906162,44.225614],[-99.934803,44.206095],[-99.938217,44.195195],[-100.367247,44.194621],[-100.367207,44.168694],[-100.37066,44.168523],[-101.166753,44.168085],[-101.166874,44.211773]]]}},{"type":"Feature","properties":{"GEOID":"46127","NAME":"Union","state":"SD","wildfire_risk_score":77.576,"wildfire_eal_total":447485.03,"risk_band":"High","source":"FEMA National Risk Index v1.20 (December 2025)"},"geometry":{"type":"Polygon","coordinates":[[[-96.806522,42.764533],[-96.805682,43.08367],[-96.4541882587124,43.083379189414],[-96.46085,43.064033],[-96.476905,43.062383],[-96.490365,43.050789],[-96.510256,43.049917],[-96.518431,43.042068],[-96.509145,43.037297],[-96.510995,43.024701],[-96.49167,43.009707],[-96.496699,42.998807],[-96.509986,42.995126],[-96.512237,42.985937],[-96.520773,42.980385],[-96.515922,42.972886],[-96.505028,42.970844],[-96.500308,42.959391],[-96.509472,42.945151],[-96.519994,42.93976],[-96.516888,42.932512],[-96.525536,42.935511],[-96.541689,42.922576],[-96.536564,42.905656],[-96.542847,42.903737],[-96.528886,42.89795],[-96.526357,42.891852],[-96.540116,42.889678],[-96.537851,42.878475],[-96.549659,42.870281],[-96.550439,42.863171],[-96.546556,42.857273],[-96.54146,42.857682],[-96.545502,42.849956],[-96.554709,42.846142],[-96.551285,42.836606],[-96.560572,42.839373],[-96.565605,42.830434],[-96.571353,42.837155],[-96.581604,42.837521],[-96.577937,42.827645],[-96.585699,42.818041],[-96.596008,42.815044],[-96.590997,42.806578],[-96.594512,42.798046],[-96.598727,42.797819],[-96.597036,42.791888],[-96.605229,42.791163],[-96.604559,42.783034],[-96.61949,42.784034],[-96.626418,42.772462],[-96.634934,42.770735],[-96.635139,42.763227],[-96.619494,42.754792],[-96.630485,42.750378],[-96.635148,42.74024],[-96.631295,42.737195],[-96.638621,42.734921],[-96.630432,42.729919],[-96.63352,42.724188],[-96.624704,42.725497],[-96.62453,42.715617],[-96.630617,42.70588],[-96.623413,42.707009],[-96.614953,42.69904],[-96.605596,42.70202],[-96.611795,42.69513],[-96.600313,42.698024],[-96.595352,42.693997],[-96.598076,42.686637],[-96.590427,42.691076],[-96.585443,42.683089],[-96.575295,42.682823],[-96.578479,42.678137],[-96.571912,42.677681],[-96.576538,42.670771],[-96.566684,42.675942],[-96.556305,42.664836],[-96.559962,42.658543],[-96.541754,42.660378],[-96.537881,42.646446],[-96.516338,42.630435],[-96.518535,42.620165],[-96.530896,42.617129],[-96.529894,42.610432],[-96.517039,42.615955],[-96.509468,42.61273],[-96.501037,42.589247],[-96.491492,42.586103],[-96.495002,42.578853],[-96.485796,42.575001],[-96.498544,42.558116],[-96.476952,42.556079],[-96.479909,42.524195],[-96.49297,42.517282],[-96.473339,42.503537],[-96.477901,42.494346],[-96.475413,42.489621],[-96.445508,42.49063],[-96.475565,42.480036],[-96.501321,42.482749],[-96.515891,42.49427],[-96.528753,42.513273],[-96.548791,42.520547],[-96.567896,42.517877],[-96.595992,42.504621],[-96.608883,42.505218],[-96.625958,42.513576],[-96.638033,42.55196],[-96.658754,42.566426],[-96.681369,42.574486],[-96.7093,42.603753],[-96.709485,42.621932],[-96.689083,42.644081],[-96.687669,42.653126],[-96.728024,42.666882],[-96.76406,42.661985],[-96.800986,42.669758],[-96.800485,42.692466],[-96.806223,42.704154],[-96.806522,42.764533]]]}},{"type":"Feature","properties":{"GEOID":"46137","NAME":"Ziebach","state":"SD","wildfire_risk_score":76.559,"wildfire_eal_total":160370.55,"risk_band":"Moderate","source":"FEMA National Risk Index v1.20 (December 2025)"},"geometry":{"type":"Polygon","coordinates":[[[-102.000438,44.863638],[-101.99979,45.472414],[-101.47019,45.472416],[-101.471065,45.385581],[-101.486348,45.38559],[-101.486593,45.038374],[-101.500979,45.038336],[-101.500988,44.993649],[-101.136162,44.994074],[-101.136838,44.747126],[-101.148227,44.744117],[-101.153674,44.728832],[-101.16117,44.722075],[-101.235139,44.690574],[-101.239841,44.698487],[-101.249389,44.698852],[-101.275184,44.685163],[-101.296912,44.689668],[-101.319174,44.68052],[-101.324661,44.681458],[-101.328245,44.690956],[-101.339285,44.683472],[-101.359893,44.689019],[-101.358859,44.672924],[-101.373975,44.670972],[-101.364756,44.656422],[-101.397417,44.656784],[-101.415718,44.64211],[-101.440778,44.64363],[-101.445847,44.638245],[-101.454861,44.638029],[-101.455642,44.628729],[-101.466785,44.619275],[-101.455797,44.610228],[-101.469087,44.6118],[-101.476662,44.601837],[-101.496216,44.600331],[-101.494007,44.583965],[-101.501155,44.58124],[-101.512048,44.585446],[-101.514073,44.575993],[-101.531035,44.567875],[-101.537007,44.574066],[-101.552832,44.575743],[-101.558497,44.569207],[-101.576897,44.578207],[-101.623015,44.572898],[-101.628738,44.575038],[-101.626911,44.581485],[-101.633289,44.586853],[-101.640373,44.579428],[-101.646031,44.585189],[-101.65523,44.582304],[-101.66115,44.587985],[-101.685729,44.570358],[-101.712393,44.5802],[-101.716023,44.572678],[-101.728852,44.566083],[-101.748323,44.566974],[-101.743469,44.556043],[-101.765762,44.547994],[-101.780733,44.536436],[-101.793997,44.543328],[-101.800198,44.541518],[-101.805234,44.525492],[-101.811198,44.522373],[-101.81653,44.531292],[-101.827744,44.531728],[-101.836447,44.521676],[-101.847503,44.5294],[-101.855565,44.526603],[-101.887834,44.538581],[-101.925352,44.529982],[-101.939562,44.535103],[-101.946404,44.528659],[-101.986806,44.524748],[-102.000432,44.511663],[-102.000438,44.863638]]]}},{"type":"Feature","properties":{"GEOID":"46095","NAME":"Mellette","state":"SD","wildfire_risk_score":83.206,"wildfire_eal_total":347852.58,"risk_band":"High","source":"FEMA National Risk Index v1.20 (December 2025)"},"geometry":{"type":"Polygon","coordinates":[[[-101.228333,43.476378],[-101.228241,43.795629],[-101.216615,43.798818],[-101.216701,43.80435],[-101.20355,43.812783],[-101.191138,43.80267],[-101.182694,43.805366],[-101.18126,43.811323],[-101.174752,43.812074],[-101.181183,43.813729],[-101.178505,43.818834],[-101.171728,43.816229],[-101.175521,43.807459],[-101.171723,43.807236],[-101.169756,43.822439],[-101.163187,43.825451],[-101.16582,43.83023],[-101.153473,43.824377],[-101.161428,43.818058],[-101.142356,43.819994],[-101.134552,43.827924],[-101.142639,43.834661],[-101.13794,43.841321],[-101.127655,43.840524],[-101.124837,43.844332],[-101.107095,43.836743],[-101.1031,43.840296],[-101.1069,43.847079],[-101.096584,43.844059],[-101.085504,43.849417],[-101.086715,43.841813],[-101.068859,43.845323],[-101.068716,43.840209],[-101.0586,43.84535],[-101.058581,43.85383],[-101.039924,43.851071],[-101.029708,43.857748],[-101.024941,43.852342],[-101.03145,43.843012],[-101.01123,43.841243],[-100.992185,43.850121],[-100.985407,43.847047],[-100.982242,43.833334],[-100.969846,43.831115],[-100.96072,43.836163],[-100.962138,43.827093],[-100.973763,43.826821],[-100.970109,43.817611],[-100.954006,43.817291],[-100.957747,43.810083],[-100.944839,43.816274],[-100.940567,43.830902],[-100.929937,43.830902],[-100.918216,43.822002],[-100.916578,43.814319],[-100.897786,43.812021],[-100.900087,43.804921],[-100.912094,43.808985],[-100.90806,43.800908],[-100.893851,43.800602],[-100.892894,43.797423],[-100.901621,43.794094],[-100.885054,43.791867],[-100.883972,43.801324],[-100.874704,43.800261],[-100.871998,43.78907],[-100.877276,43.785243],[-100.875509,43.780787],[-100.8676,43.781419],[-100.861403,43.788794],[-100.839854,43.766478],[-100.839809,43.759227],[-100.834312,43.762567],[-100.834218,43.768964],[-100.807523,43.766096],[-100.805068,43.755587],[-100.794578,43.751215],[-100.798955,43.74696],[-100.804257,43.749237],[-100.804082,43.743323],[-100.789903,43.742431],[-100.786462,43.737307],[-100.794811,43.733724],[-100.775311,43.729274],[-100.789681,43.729204],[-100.790019,43.725606],[-100.776569,43.724582],[-100.767717,43.731751],[-100.756561,43.731912],[-100.760998,43.739219],[-100.750151,43.734198],[-100.745344,43.738857],[-100.743229,43.728232],[-100.753787,43.722917],[-100.744081,43.719271],[-100.735003,43.707621],[-100.72738,43.714003],[-100.738854,43.717301],[-100.73797,43.720691],[-100.727023,43.721483],[-100.723277,43.711415],[-100.716076,43.72039],[-100.704033,43.719327],[-100.702278,43.727094],[-100.695916,43.72399],[-100.697554,43.716359],[-100.67985,43.711636],[-100.677477,43.722706],[-100.653044,43.731733],[-100.656938,43.73579],[-100.668847,43.734399],[-100.658511,43.746913],[-100.639538,43.747858],[-100.636976,43.742086],[-100.644774,43.741351],[-100.642498,43.738137],[-100.618473,43.743336],[-100.61108,43.747997],[-100.611129,43.758616],[-100.587903,43.769285],[-100.577625,43.763788],[-100.572915,43.753046],[-100.552107,43.754815],[-100.551085,43.742324],[-100.561837,43.743165],[-100.554687,43.737247],[-100.541503,43.736782],[-100.522096,43.746271],[-100.515103,43.740716],[-100.516728,43.730722],[-100.504639,43.728804],[-100.489477,43.738209],[-100.475297,43.727158],[-100.47126,43.736815],[-100.465155,43.729676],[-100.473895,43.721234],[-100.45214,43.722496],[-100.445078,43.732433],[-100.419494,43.718033],[-100.413042,43.726176],[-100.418328,43.735361],[-100.381334,43.726093],[-100.369989,43.739212],[-100.347443,43.72767],[-100.34309,43.717808],[-100.327276,43.715899],[-100.305204,43.723313],[-100.287013,43.697143],[-100.280028,43.696795],[-100.265561,43.709162],[-100.253807,43.7029],[-100.230845,43.713856],[-100.230991,43.477981],[-100.214433,43.477332],[-100.21406,43.390449],[-101.228234,43.389185],[-101.228333,43.476378]]]}},{"type":"Feature","properties":{"GEOID":"46041","NAME":"Dewey","state":"SD","wildfire_risk_score":82.983,"wildfire_eal_total":317632.62,"risk_band":"High","source":"FEMA National Risk Index v1.20 (December 2025)"},"geometry":{"type":"Polygon","coordinates":[[[-101.501037,45.008258],[-101.500979,45.038336],[-101.486593,45.038374],[-101.486348,45.38559],[-101.471065,45.385581],[-101.47019,45.472416],[-100.341924,45.472904],[-100.33032,45.44221],[-100.304542,45.420935],[-100.274176,45.381845],[-100.282324,45.355322],[-100.308234,45.332076],[-100.316659,45.317904],[-100.307384,45.291909],[-100.268054,45.26111],[-100.2582,45.232828],[-100.274993,45.198281],[-100.279,45.158894],[-100.290717,45.138377],[-100.324174,45.101619],[-100.32659,45.090864],[-100.316506,45.059289],[-100.281577,45.033404],[-100.279384,45.020069],[-100.289539,45.014459],[-100.312235,45.0152],[-100.377649,45.030102],[-100.390011,45.027166],[-100.408379,45.011815],[-100.42342,44.992053],[-100.423776,44.973109],[-100.41354,44.915608],[-100.393465,44.868686],[-100.418682,44.843366],[-100.475132,44.816432],[-100.514862,44.783654],[-100.526863,44.768277],[-100.543484,44.761087],[-100.610971,44.770102],[-100.641741,44.791844],[-100.66682,44.816914],[-100.697974,44.828861],[-100.71336,44.822877],[-100.724227,44.80763],[-100.728824,44.783704],[-100.717644,44.77093],[-100.729975,44.764405],[-100.739366,44.765758],[-100.736264,44.774396],[-100.745306,44.775876],[-100.753049,44.772718],[-100.752142,44.761511],[-100.77339,44.758495],[-100.776073,44.761231],[-100.771067,44.767455],[-100.775082,44.772384],[-100.797964,44.763505],[-100.797816,44.769942],[-100.812011,44.768021],[-100.81826,44.780454],[-100.831184,44.783343],[-100.843421,44.776971],[-100.85366,44.780719],[-100.888048,44.769728],[-100.909001,44.7837],[-100.917193,44.769624],[-100.939844,44.762518],[-100.955185,44.765517],[-100.958261,44.761243],[-100.955107,44.754381],[-100.976019,44.75103],[-100.98771,44.731961],[-100.996916,44.739449],[-101.006393,44.728752],[-101.022611,44.724153],[-101.06292,44.742505],[-101.092739,44.739012],[-101.136838,44.747126],[-101.136162,44.994074],[-101.500988,44.993649],[-101.501037,45.008258]]]}},{"type":"Feature","properties":{"GEOID":"46069","NAME":"Hyde","state":"SD","wildfire_risk_score":83.715,"wildfire_eal_total":470560.85,"risk_band":"High","source":"FEMA National Risk Index v1.20 (December 2025)"},"geometry":{"type":"Polygon","coordinates":[[[-99.675621,44.634864],[-99.674252,44.897503],[-99.311754,44.897227],[-99.312483,44.547485],[-99.300495,44.54738],[-99.30018,44.19483],[-99.576571,44.192421],[-99.613136,44.21037],[-99.663508,44.217517],[-99.66367,44.548089],[-99.676398,44.548111],[-99.675621,44.634864]]]}},{"type":"Feature","properties":{"GEOID":"46123","NAME":"Tripp","state":"SD","wildfire_risk_score":79.103,"wildfire_eal_total":266882.17,"risk_band":"High","source":"FEMA National Risk Index v1.20 (December 2025)"},"geometry":{"type":"Polygon","coordinates":[[[-100.230908,43.499895],[-100.230845,43.713856],[-100.224305,43.712146],[-100.224426,43.697359],[-100.209867,43.683311],[-100.196852,43.704443],[-100.189919,43.706161],[-100.161903,43.704393],[-100.140362,43.694516],[-100.144809,43.703273],[-100.132596,43.703182],[-100.115169,43.685434],[-100.105772,43.69436],[-100.087167,43.685186],[-100.077543,43.69203],[-100.047767,43.69318],[-100.04709,43.703063],[-100.043208,43.704424],[-100.0311,43.697544],[-100.013329,43.707841],[-100.00693,43.704733],[-100.009994,43.693763],[-100.0004,43.693778],[-99.998038,43.701972],[-99.981349,43.687126],[-99.973773,43.693151],[-99.961952,43.688608],[-99.954975,43.698173],[-99.935493,43.695872],[-99.930342,43.686495],[-99.925409,43.686765],[-99.898224,43.700812],[-99.885093,43.685868],[-99.889304,43.678183],[-99.870644,43.670745],[-99.86205,43.682865],[-99.87312,43.68909],[-99.861979,43.691956],[-99.851627,43.688183],[-99.859706,43.701228],[-99.837825,43.689071],[-99.802096,43.700588],[-99.798603,43.711643],[-99.745421,43.710868],[-99.76311,43.729847],[-99.76207,43.73959],[-99.75061,43.747678],[-99.740307,43.747051],[-99.736156,43.731992],[-99.740041,43.723298],[-99.729978,43.718827],[-99.710861,43.733097],[-99.706608,43.749935],[-99.695964,43.759309],[-99.686351,43.758283],[-99.680977,43.749353],[-99.689471,43.73083],[-99.675405,43.727922],[-99.662152,43.736082],[-99.66744,43.763456],[-99.659032,43.766564],[-99.645237,43.760137],[-99.641497,43.735681],[-99.623587,43.742414],[-99.623578,43.499859],[-99.534481,43.499801],[-99.5340492772214,42.9980405812359],[-100.198412591428,42.9985420505752],[-100.19851,43.12865],[-100.213846,43.128654],[-100.214433,43.477332],[-100.230991,43.477981],[-100.230908,43.499895]]]}},{"type":"Feature","properties":{"GEOID":"46085","NAME":"Lyman","state":"SD","wildfire_risk_score":69.529,"wildfire_eal_total":114564.76,"risk_band":"Moderate","source":"FEMA National Risk Index v1.20 (December 2025)"},"geometry":{"type":"Polygon","coordinates":[[[-100.367247,44.194621],[-99.938217,44.195195],[-99.89907,44.141193],[-99.875395,44.126403],[-99.84811,44.124218],[-99.763054,44.135237],[-99.632524,44.097895],[-99.612249,44.103694],[-99.601679,44.114489],[-99.598767,44.123778],[-99.607176,44.145254],[-99.645,44.1655],[-99.695752,44.172375],[-99.710694,44.184581],[-99.710264,44.193197],[-99.684033,44.21446],[-99.666121,44.217345],[-99.63235,44.215661],[-99.593941,44.204045],[-99.540747,44.15851],[-99.540641,44.150137],[-99.562325,44.103572],[-99.558435,44.091971],[-99.539514,44.07333],[-99.511334,44.05499],[-99.427668,44.042796],[-99.360134,43.999991],[-99.347377,43.98465],[-99.346229,43.962309],[-99.36318,43.914776],[-99.361852,43.903099],[-99.352226,43.892312],[-99.31709,43.874994],[-99.308524,43.858868],[-99.366244,43.792432],[-99.41015,43.774619],[-99.419004,43.744826],[-99.407712,43.728466],[-99.407856,43.703109],[-99.450566,43.689797],[-99.469097,43.672803],[-99.460934,43.657264],[-99.449862,43.652982],[-99.383127,43.658206],[-99.360377,43.647646],[-99.343456,43.615965],[-99.336851,43.574909],[-99.283342,43.531147],[-99.285144,43.513919],[-99.297998,43.499669],[-99.623578,43.499859],[-99.623587,43.742414],[-99.641497,43.735681],[-99.64375,43.758848],[-99.659032,43.766564],[-99.66744,43.763456],[-99.662152,43.736082],[-99.668239,43.729896],[-99.689471,43.73083],[-99.680977,43.749353],[-99.691869,43.760422],[-99.706608,43.749935],[-99.710861,43.733097],[-99.729978,43.718827],[-99.740041,43.723298],[-99.736156,43.731992],[-99.740307,43.747051],[-99.75061,43.747678],[-99.76207,43.73959],[-99.76311,43.729847],[-99.745421,43.710868],[-99.798603,43.711643],[-99.802096,43.700588],[-99.837825,43.689071],[-99.859706,43.701228],[-99.851627,43.688183],[-99.861979,43.691956],[-99.87312,43.68909],[-99.86205,43.682865],[-99.870644,43.670745],[-99.889304,43.678183],[-99.885093,43.685868],[-99.898224,43.700812],[-99.925409,43.686765],[-99.930342,43.686495],[-99.935493,43.695872],[-99.954975,43.698173],[-99.961952,43.688608],[-99.973773,43.693151],[-99.981349,43.687126],[-99.998038,43.701972],[-100.0004,43.693778],[-100.009994,43.693763],[-100.00693,43.704733],[-100.013329,43.707841],[-100.0311,43.697544],[-100.035092,43.702754],[-100.04709,43.703063],[-100.046113,43.694443],[-100.050182,43.69221],[-100.077543,43.69203],[-100.087167,43.685186],[-100.105772,43.69436],[-100.115169,43.685434],[-100.132596,43.703182],[-100.144809,43.703273],[-100.140362,43.694516],[-100.161903,43.704393],[-100.189919,43.706161],[-100.196852,43.704443],[-100.209867,43.683311],[-100.224426,43.697359],[-100.22611,43.714531],[-100.253807,43.7029],[-100.265561,43.709162],[-100.280028,43.696795],[-100.290686,43.698734],[-100.305204,43.723313],[-100.327276,43.715899],[-100.33897,43.716942],[-100.339397,43.847061],[-100.366174,43.846978],[-100.367247,44.194621]]]}},{"type":"Feature","properties":{"GEOID":"46055","NAME":"Haakon","state":"SD","wildfire_risk_score":68.511,"wildfire_eal_total":144902.83,"risk_band":"Moderate","source":"FEMA National Risk Index v1.20 (December 2025)"},"geometry":{"type":"Polygon","coordinates":[[[-102.007486,44.16992],[-102.00723,44.343785],[-102.000964,44.343832],[-102.001068,44.510926],[-101.994783,44.519992],[-101.986806,44.524748],[-101.946404,44.528659],[-101.939562,44.535103],[-101.925352,44.529982],[-101.887834,44.538581],[-101.855565,44.526603],[-101.847503,44.5294],[-101.836447,44.521676],[-101.827744,44.531728],[-101.81653,44.531292],[-101.811198,44.522373],[-101.805234,44.525492],[-101.805668,44.533978],[-101.796944,44.543165],[-101.784658,44.540785],[-101.782423,44.536057],[-101.765762,44.547994],[-101.745348,44.554697],[-101.746984,44.567788],[-101.728852,44.566083],[-101.716023,44.572678],[-101.712393,44.5802],[-101.682039,44.571057],[-101.676038,44.580355],[-101.66115,44.587985],[-101.65523,44.582304],[-101.646031,44.585189],[-101.640373,44.579428],[-101.630522,44.586455],[-101.628738,44.575038],[-101.623015,44.572898],[-101.576897,44.578207],[-101.558497,44.569207],[-101.552832,44.575743],[-101.537007,44.574066],[-101.531035,44.567875],[-101.514073,44.575993],[-101.512048,44.585446],[-101.501155,44.58124],[-101.494007,44.583965],[-101.496216,44.600331],[-101.476662,44.601837],[-101.469087,44.6118],[-101.455797,44.610228],[-101.466785,44.619275],[-101.455642,44.628729],[-101.454861,44.638029],[-101.445847,44.638245],[-101.440778,44.64363],[-101.415718,44.64211],[-101.397417,44.656784],[-101.364756,44.656422],[-101.373975,44.670972],[-101.358859,44.672924],[-101.359893,44.689019],[-101.339285,44.683472],[-101.328245,44.690956],[-101.324661,44.681458],[-101.319174,44.68052],[-101.296912,44.689668],[-101.275184,44.685163],[-101.249389,44.698852],[-101.239841,44.698487],[-101.235139,44.690574],[-101.16117,44.722075],[-101.153674,44.728832],[-101.148227,44.744117],[-101.136838,44.747126],[-101.137163,44.689962],[-101.154516,44.689947],[-101.155188,44.343147],[-101.166805,44.343113],[-101.166753,44.168085],[-101.046916,44.168484],[-101.046786,43.99497],[-102.007336,43.99453],[-102.007486,44.16992]]]}},{"type":"Feature","properties":{"GEOID":"46075","NAME":"Jones","state":"SD","wildfire_risk_score":70.738,"wildfire_eal_total":246669.23,"risk_band":"Moderate","source":"FEMA National Risk Index v1.20 (December 2025)"},"geometry":{"type":"Polygon","coordinates":[[[-101.064245,43.93755],[-101.064068,43.994929],[-101.046786,43.99497],[-101.046916,44.168484],[-100.367207,44.168694],[-100.366174,43.846978],[-100.339397,43.847061],[-100.33897,43.716942],[-100.345363,43.720025],[-100.347443,43.72767],[-100.369989,43.739212],[-100.381334,43.726093],[-100.418328,43.735361],[-100.413042,43.726176],[-100.419494,43.718033],[-100.445078,43.732433],[-100.45214,43.722496],[-100.473895,43.721234],[-100.465155,43.729676],[-100.47126,43.736815],[-100.475297,43.727158],[-100.489477,43.738209],[-100.498634,43.730859],[-100.512228,43.729269],[-100.517696,43.733203],[-100.515103,43.740716],[-100.522096,43.746271],[-100.541503,43.736782],[-100.554687,43.737247],[-100.561837,43.743165],[-100.551085,43.742324],[-100.552107,43.754815],[-100.572915,43.753046],[-100.577625,43.763788],[-100.587903,43.769285],[-100.611129,43.758616],[-100.61108,43.747997],[-100.618473,43.743336],[-100.642498,43.738137],[-100.644774,43.741351],[-100.636976,43.742086],[-100.639538,43.747858],[-100.658511,43.746913],[-100.668847,43.734399],[-100.656938,43.73579],[-100.653044,43.731733],[-100.677477,43.722706],[-100.67985,43.711636],[-100.697554,43.716359],[-100.695916,43.72399],[-100.702278,43.727094],[-100.704033,43.719327],[-100.716076,43.72039],[-100.723277,43.711415],[-100.727023,43.721483],[-100.73797,43.720691],[-100.738854,43.717301],[-100.72738,43.714003],[-100.735003,43.707621],[-100.744081,43.719271],[-100.753787,43.722917],[-100.743229,43.728232],[-100.745344,43.738857],[-100.750151,43.734198],[-100.760998,43.739219],[-100.756561,43.731912],[-100.767717,43.731751],[-100.776569,43.724582],[-100.790019,43.725606],[-100.789681,43.729204],[-100.775311,43.729274],[-100.794811,43.733724],[-100.786462,43.737307],[-100.789903,43.742431],[-100.804082,43.743323],[-100.804257,43.749237],[-100.798955,43.74696],[-100.794578,43.751215],[-100.805068,43.755587],[-100.807523,43.766096],[-100.834218,43.768964],[-100.834312,43.762567],[-100.839809,43.759227],[-100.839854,43.766478],[-100.861403,43.788794],[-100.8676,43.781419],[-100.875509,43.780787],[-100.877276,43.785243],[-100.871998,43.78907],[-100.874704,43.800261],[-100.883972,43.801324],[-100.885054,43.791867],[-100.901621,43.794094],[-100.892894,43.797423],[-100.893851,43.800602],[-100.90806,43.800908],[-100.912094,43.808985],[-100.900087,43.804921],[-100.897786,43.812021],[-100.916578,43.814319],[-100.918216,43.822002],[-100.929937,43.830902],[-100.940567,43.830902],[-100.944839,43.816274],[-100.957747,43.810083],[-100.954006,43.817291],[-100.970109,43.817611],[-100.973763,43.826821],[-100.962138,43.827093],[-100.96072,43.836163],[-100.969846,43.831115],[-100.982242,43.833334],[-100.987027,43.849132],[-100.995554,43.84979],[-101.01123,43.841243],[-101.03145,43.843012],[-101.024941,43.852342],[-101.031377,43.857896],[-101.039924,43.851071],[-101.058581,43.85383],[-101.0586,43.84535],[-101.064326,43.84109],[-101.064245,43.93755]]]}},{"type":"Feature","properties":{"GEOID":"46083","NAME":"Lincoln","state":"SD","wildfire_risk_score":65.108,"wildfire_eal_total":218901.3,"risk_band":"Low","source":"FEMA National Risk Index v1.20 (December 2025)"},"geometry":{"type":"Polygon","coordinates":[[[-96.924895,43.475664],[-96.924841,43.500007],[-96.599328,43.500456],[-96.598396,43.495074],[-96.586274,43.491099],[-96.587213,43.484915],[-96.580997,43.481384],[-96.586743,43.477389],[-96.582475,43.467051],[-96.600039,43.45708],[-96.602608,43.449649],[-96.594254,43.434153],[-96.575181,43.431756],[-96.569628,43.427527],[-96.573579,43.419228],[-96.557586,43.406792],[-96.537116,43.395063],[-96.525453,43.396317],[-96.521297,43.375947],[-96.527345,43.368109],[-96.524289,43.347214],[-96.534913,43.336473],[-96.525564,43.312467],[-96.530392,43.300034],[-96.553087,43.29286],[-96.573556,43.29917],[-96.588492,43.296339],[-96.587014,43.291807],[-96.579582,43.293446],[-96.577819,43.279938],[-96.586317,43.274319],[-96.58522,43.268878],[-96.553217,43.259141],[-96.552963,43.247281],[-96.571194,43.238961],[-96.56044,43.224219],[-96.535741,43.22764],[-96.519273,43.21769],[-96.496454,43.223652],[-96.475571,43.221054],[-96.470626,43.207225],[-96.473834,43.189804],[-96.464896,43.182034],[-96.466537,43.150281],[-96.459978,43.143516],[-96.450361,43.142237],[-96.436589,43.120842],[-96.462855,43.091419],[-96.4541882587124,43.083379189414],[-96.924142,43.083733],[-96.924895,43.475664]]]}},{"type":"Feature","properties":{"GEOID":"46099","NAME":"Minnehaha","state":"SD","wildfire_risk_score":71.31,"wildfire_eal_total":242596.46,"risk_band":"Moderate","source":"FEMA National Risk Index v1.20 (December 2025)"},"geometry":{"type":"Polygon","coordinates":[[[-97.129509,43.746274],[-97.129089,43.847973],[-96.4532635931212,43.8495011683367],[-96.45326,43.50039],[-97.129478,43.499683],[-97.129509,43.746274]]]}},{"type":"Feature","properties":{"GEOID":"46091","NAME":"Marshall","state":"SD","wildfire_risk_score":76.622,"wildfire_eal_total":309126.66,"risk_band":"Moderate","source":"FEMA National Risk Index v1.20 (December 2025)"},"geometry":{"type":"Polygon","coordinates":[[[-97.979573,45.617484],[-97.9787777817296,45.9359370935895],[-97.2283038853974,45.9351410314234],[-97.227089,45.558158],[-97.36464,45.558728],[-97.373366,45.587634],[-97.979592,45.588483],[-97.979573,45.617484]]]}},{"type":"Feature","properties":{"GEOID":"46065","NAME":"Hughes","state":"SD","wildfire_risk_score":77.004,"wildfire_eal_total":485386.25,"risk_band":"Moderate","source":"FEMA National Risk Index v1.20 (December 2025)"},"geometry":{"type":"Polygon","coordinates":[[[-100.580801,44.474492],[-100.568459,44.500497],[-100.529293,44.51648],[-100.517612,44.528773],[-100.516682,44.534449],[-100.526498,44.547422],[-99.66367,44.548089],[-99.663508,44.217517],[-99.684033,44.21446],[-99.701366,44.203364],[-99.710264,44.193197],[-99.710694,44.184581],[-99.695752,44.172375],[-99.657972,44.168646],[-99.622967,44.156502],[-99.602866,44.139282],[-99.599835,44.118283],[-99.612249,44.103694],[-99.632524,44.097895],[-99.763054,44.135237],[-99.860349,44.123638],[-99.884485,44.129582],[-99.910322,44.154638],[-99.938217,44.195195],[-99.934803,44.206095],[-99.892596,44.239234],[-99.899902,44.25516],[-99.910632,44.261928],[-99.92303,44.266291],[-99.955552,44.264324],[-99.984421,44.268338],[-100.04454,44.28781],[-100.08533,44.308451],[-100.150261,44.322031],[-100.242529,44.3267],[-100.352067,44.347178],[-100.36539,44.355524],[-100.384519,44.436229],[-100.40481,44.455869],[-100.470125,44.460945],[-100.544506,44.444676],[-100.573957,44.455475],[-100.580034,44.461842],[-100.580801,44.474492]]]}},{"type":"Feature","properties":{"GEOID":"46049","NAME":"Faulk","state":"SD","wildfire_risk_score":67.525,"wildfire_eal_total":95521.97,"risk_band":"Low","source":"FEMA National Risk Index v1.20 (December 2025)"},"geometry":{"type":"Polygon","coordinates":[[[-99.573694,45.226617],[-99.57333,45.245364],[-98.717759,45.243732],[-98.716498,44.896925],[-99.572699,44.897263],[-99.573694,45.226617]]]}},{"type":"Feature","properties":{"GEOID":"46125","NAME":"Turner","state":"SD","wildfire_risk_score":45.961,"wildfire_eal_total":47578.0,"risk_band":"Low","source":"FEMA National Risk Index v1.20 (December 2025)"},"geometry":{"type":"Polygon","coordinates":[[[-97.40145,43.499783],[-96.924841,43.500007],[-96.924142,43.083733],[-97.160543,43.083145],[-97.160544,43.169978],[-97.399191,43.169419],[-97.40145,43.499783]]]}},{"type":"Feature","properties":{"GEOID":"46111","NAME":"Sanborn","state":"SD","wildfire_risk_score":66.985,"wildfire_eal_total":203551.7,"risk_band":"Low","source":"FEMA National Risk Index v1.20 (December 2025)"},"geometry":{"type":"Polygon","coordinates":[[[-98.331932,44.177315],[-98.33191,44.196687],[-97.849492,44.195235],[-97.85111,43.849857],[-98.331484,43.850988],[-98.331932,44.177315]]]}},{"type":"Feature","properties":{"GEOID":"46071","NAME":"Jackson","state":"SD","wildfire_risk_score":85.528,"wildfire_eal_total":385078.61,"risk_band":"High","source":"FEMA National Risk Index v1.20 (December 2025)"},"geometry":{"type":"Polygon","coordinates":[[[-102.139217,43.478882],[-102.139158,43.700948],[-102.122475,43.704406],[-102.116297,43.712826],[-102.107435,43.701853],[-102.112294,43.69232],[-102.108474,43.685836],[-102.097734,43.685697],[-102.095811,43.695313],[-102.055572,43.688795],[-102.043649,43.695676],[-102.036403,43.68827],[-102.034241,43.702629],[-102.024455,43.713408],[-102.019036,43.707878],[-102.019147,43.994492],[-101.064068,43.994929],[-101.064326,43.84109],[-101.070834,43.841634],[-101.068859,43.845323],[-101.086715,43.841813],[-101.085504,43.849417],[-101.096584,43.844059],[-101.1069,43.847079],[-101.1031,43.840296],[-101.107095,43.836743],[-101.124837,43.844332],[-101.127655,43.840524],[-101.13794,43.841321],[-101.142639,43.834661],[-101.134552,43.827924],[-101.142356,43.819994],[-101.161428,43.818058],[-101.153473,43.824377],[-101.16582,43.83023],[-101.163187,43.825451],[-101.169756,43.822439],[-101.171723,43.807236],[-101.175521,43.807459],[-101.171728,43.816229],[-101.178505,43.818834],[-101.181183,43.813729],[-101.176111,43.815067],[-101.174752,43.812074],[-101.18126,43.811323],[-101.182694,43.805366],[-101.191138,43.80267],[-101.20355,43.812783],[-101.216701,43.80435],[-101.216615,43.798818],[-101.228241,43.795629],[-101.228234,43.389185],[-102.110819,43.389902],[-102.111131,43.476834],[-102.139217,43.478882]]]}},{"type":"Feature","properties":{"GEOID":"46063","NAME":"Harding","state":"SD","wildfire_risk_score":82.602,"wildfire_eal_total":760031.27,"risk_band":"High","source":"FEMA National Risk Index v1.20 (December 2025)"},"geometry":{"type":"Polygon","coordinates":[[[-104.045443,45.94531],[-102.942069771231,45.9450917983927],[-102.942448,45.732864],[-102.950323,45.731149],[-102.950571,45.386331],[-102.95687,45.386364],[-102.957281,45.212851],[-104.040135756493,45.2128907620416],[-104.045443,45.94531]]]}},{"type":"Feature","properties":{"GEOID":"46101","NAME":"Moody","state":"SD","wildfire_risk_score":54.039,"wildfire_eal_total":58617.14,"risk_band":"Low","source":"FEMA National Risk Index v1.20 (December 2025)"},"geometry":{"type":"Polygon","coordinates":[[[-96.889216,44.195705],[-96.4527742996177,44.196779980888],[-96.4532635931212,43.8495011683367],[-96.888664,43.848385],[-96.889216,44.195705]]]}},{"type":"Feature","properties":{"GEOID":"46135","NAME":"Yankton","state":"SD","wildfire_risk_score":75.604,"wildfire_eal_total":229584.38,"risk_band":"Moderate","source":"FEMA National Risk Index v1.20 (December 2025)"},"geometry":{"type":"Polygon","coordinates":[[[-97.637496,43.16877],[-97.160544,43.169978],[-97.160351504817,42.7997334187348],[-97.210126,42.809296],[-97.218269,42.829561],[-97.218825,42.845848],[-97.248556,42.855386],[-97.289859,42.855499],[-97.306677,42.867604],[-97.336156,42.856802],[-97.359569,42.854816],[-97.376695,42.865195],[-97.408315,42.868334],[-97.442279,42.846224],[-97.49149,42.851625],[-97.504847,42.858477],[-97.547473,42.848028],[-97.574551,42.849653],[-97.603762,42.858329],[-97.6354116902609,42.8514487858569],[-97.637496,43.16877]]]}},{"type":"Feature","properties":{"GEOID":"46053","NAME":"Gregory","state":"SD","wildfire_risk_score":70.006,"wildfire_eal_total":208299.65,"risk_band":"Moderate","source":"FEMA National Risk Index v1.20 (December 2025)"},"geometry":{"type":"Polygon","coordinates":[[[-99.534481,43.499801],[-99.297998,43.499669],[-99.310658,43.469898],[-99.306876,43.4624],[-99.280798,43.444797],[-99.251382,43.436521],[-99.177715,43.437916],[-99.164783,43.434113],[-99.148467,43.422077],[-99.126383,43.380622],[-99.105898,43.370945],[-99.069285,43.320688],[-99.020249,43.290614],[-98.981253,43.258945],[-98.950363,43.248847],[-98.902555,43.247622],[-98.887817,43.243205],[-98.877733,43.22664],[-98.87759,43.179981],[-98.865627,43.159554],[-98.853591,43.154623],[-98.773406,43.145919],[-98.750362,43.129534],[-98.714573,43.088914],[-98.69046,43.076556],[-98.653002,43.071279],[-98.615767,43.073994],[-98.557477,43.058965],[-98.514793,43.029406],[-98.502099,43.012277],[-98.49855,42.99856],[-99.5340492772214,42.9980405812359],[-99.534481,43.499801]]]}},{"type":"Feature","properties":{"GEOID":"46121","NAME":"Todd","state":"SD","wildfire_risk_score":94.084,"wildfire_eal_total":1505379.72,"risk_band":"High","source":"FEMA National Risk Index v1.20 (December 2025)"},"geometry":{"type":"Polygon","coordinates":[[[-101.228234,43.389185],[-100.21406,43.390449],[-100.213846,43.128654],[-100.19851,43.12865],[-100.198412591428,42.9985420505752],[-101.228008341598,42.9978753513416],[-101.228234,43.389185]]]}},{"type":"Feature","properties":{"GEOID":"46039","NAME":"Deuel","state":"SD","wildfire_risk_score":69.943,"wildfire_eal_total":256391.07,"risk_band":"Moderate","source":"FEMA National Risk Index v1.20 (December 2025)"},"geometry":{"type":"Polygon","coordinates":[[[-96.885177,44.630608],[-96.882345,44.97687],[-96.4520920423924,44.977493581617],[-96.4519902127759,44.5436387679114],[-96.885504,44.543773],[-96.885177,44.630608]]]}},{"type":"Feature","properties":{"GEOID":"46011","NAME":"Brookings","state":"SD","wildfire_risk_score":64.249,"wildfire_eal_total":168295.46,"risk_band":"Low","source":"FEMA National Risk Index v1.20 (December 2025)"},"geometry":{"type":"Polygon","coordinates":[[[-97.129083,44.268232],[-97.128024,44.543126],[-96.4519902127759,44.5436387679114],[-96.4527742996177,44.196779980888],[-97.129671,44.195933],[-97.129083,44.268232]]]}},{"type":"Feature","properties":{"GEOID":"46081","NAME":"Lawrence","state":"SD","wildfire_risk_score":93.225,"wildfire_eal_total":2393576.66,"risk_band":"High","source":"FEMA National Risk Index v1.20 (December 2025)"},"geometry":{"type":"Polygon","coordinates":[[[-104.055899024284,44.5176200086807],[-104.055832605852,44.5710095756679],[-104.034638,44.580958],[-104.029227,44.577237],[-104.024977,44.582765],[-104.022433,44.578066],[-104.015553,44.579982],[-104.00333,44.573542],[-103.998995,44.578139],[-103.986632,44.575988],[-103.980154,44.581602],[-103.970082,44.577102],[-103.968487,44.581671],[-103.963289,44.577567],[-103.94831,44.57766],[-103.940488,44.582731],[-103.933044,44.579682],[-103.931166,44.585286],[-103.920515,44.584107],[-103.916033,44.590005],[-103.907539,44.587075],[-103.904437,44.590297],[-103.907392,44.592772],[-103.888412,44.598959],[-103.874099,44.59644],[-103.863384,44.586513],[-103.86365,44.589711],[-103.852923,44.588481],[-103.852171,44.592303],[-103.842925,44.587534],[-103.833905,44.589983],[-103.836209,44.594121],[-103.827001,44.592828],[-103.828364,44.601126],[-103.820517,44.604777],[-103.567653,44.604098],[-103.569417,44.344246],[-103.574291,44.344195],[-103.574396,44.256077],[-103.453016,44.256609],[-103.452453,44.140772],[-104.054661466311,44.1410806657577],[-104.055899024284,44.5176200086807]]]}},{"type":"Feature","properties":{"GEOID":"46031","NAME":"Corson","state":"SD","wildfire_risk_score":77.258,"wildfire_eal_total":188156.29,"risk_band":"High","source":"FEMA National Risk Index v1.20 (December 2025)"},"geometry":{"type":"Polygon","coordinates":[[[-102.000623,45.818919],[-102.000425,45.944581],[-100.499353928538,45.9436316399083],[-100.488683,45.93028],[-100.462424,45.919574],[-100.417516,45.884006],[-100.387036,45.869142],[-100.380638,45.858178],[-100.379045,45.82342],[-100.309013,45.707842],[-100.308849,45.689634],[-100.317783,45.673462],[-100.337288,45.663182],[-100.387388,45.659443],[-100.406438,45.650011],[-100.419767,45.624817],[-100.423831,45.624801],[-100.434152,45.585713],[-100.475414,45.559445],[-100.48597,45.545308],[-100.484486,45.532651],[-100.472068,45.519874],[-100.443961,45.509858],[-100.382131,45.510645],[-100.365258,45.500109],[-100.341924,45.472904],[-101.99979,45.472414],[-102.000623,45.818919]]]}},{"type":"Feature","properties":{"GEOID":"46017","NAME":"Buffalo","state":"SD","wildfire_risk_score":76.368,"wildfire_eal_total":220572.41,"risk_band":"Moderate","source":"FEMA National Risk Index v1.20 (December 2025)"},"geometry":{"type":"Polygon","coordinates":[[[-99.57644,44.192549],[-98.925953,44.196575],[-98.926997,43.935143],[-99.354742,43.933616],[-99.345868,43.969561],[-99.345995,43.981446],[-99.35372,43.995329],[-99.427668,44.042796],[-99.511334,44.05499],[-99.558435,44.091971],[-99.560891,44.109711],[-99.540641,44.150137],[-99.540747,44.15851],[-99.57644,44.192549]]]}},{"type":"Feature","properties":{"GEOID":"46087","NAME":"McCook","state":"SD","wildfire_risk_score":62.309,"wildfire_eal_total":153625.19,"risk_band":"Low","source":"FEMA National Risk Index v1.20 (December 2025)"},"geometry":{"type":"Polygon","coordinates":[[[-97.608729,43.818393],[-97.608517,43.849059],[-97.129089,43.847973],[-97.129478,43.499683],[-97.607012,43.499826],[-97.608729,43.818393]]]}},{"type":"Feature","properties":{"GEOID":"46067","NAME":"Hutchinson","state":"SD","wildfire_risk_score":68.957,"wildfire_eal_total":201071.99,"risk_band":"Moderate","source":"FEMA National Risk Index v1.20 (December 2025)"},"geometry":{"type":"Polygon","coordinates":[[[-98.113268,43.498295],[-97.40145,43.499783],[-97.399191,43.169419],[-98.077108,43.16833],[-98.069044,43.184887],[-98.109492,43.196838],[-98.113268,43.498295]]]}},{"type":"Feature","properties":{"GEOID":"46033","NAME":"Custer","state":"SD","wildfire_risk_score":94.243,"wildfire_eal_total":3953964.15,"risk_band":"High","source":"FEMA National Risk Index v1.20 (December 2025)"},"geometry":{"type":"Polygon","coordinates":[[[-104.055423945188,43.8534762658297],[-103.07963,43.856747],[-102.686782,43.852603],[-102.693703,43.847918],[-102.688647,43.83955],[-102.700865,43.811976],[-102.695526,43.79815],[-102.705026,43.797621],[-102.713697,43.78472],[-102.737833,43.771736],[-102.733594,43.764192],[-102.747542,43.756413],[-102.758593,43.741137],[-102.769854,43.738935],[-102.771185,43.728418],[-102.77724,43.726846],[-102.778474,43.72051],[-102.791407,43.721843],[-102.795183,43.713292],[-102.803315,43.71023],[-102.800957,43.698766],[-102.81688,43.691207],[-102.808064,43.685689],[-102.816099,43.673521],[-102.813752,43.667592],[-102.823997,43.664119],[-102.827856,43.657439],[-102.846772,43.665352],[-102.855261,43.658205],[-102.862054,43.659651],[-102.863415,43.668865],[-102.910913,43.673849],[-102.908645,43.666235],[-102.919549,43.661217],[-102.91809,43.656603],[-102.924192,43.650681],[-102.920727,43.643442],[-102.932725,43.630919],[-102.926864,43.626139],[-102.932566,43.618706],[-102.958788,43.61355],[-102.976785,43.618525],[-102.98147,43.611288],[-103.001017,43.605816],[-103.000913,43.476848],[-103.152402,43.47694],[-104.054798171432,43.4778150220861],[-104.055423945188,43.8534762658297]]]}},{"type":"Feature","properties":{"GEOID":"46105","NAME":"Perkins","state":"SD","wildfire_risk_score":68.798,"wildfire_eal_total":216362.82,"risk_band":"Moderate","source":"FEMA National Risk Index v1.20 (December 2025)"},"geometry":{"type":"Polygon","coordinates":[[[-102.957443,45.250063],[-102.95687,45.386364],[-102.950571,45.386331],[-102.950323,45.731149],[-102.942448,45.732864],[-102.942069771231,45.9450917983927],[-102.000678897073,45.9445150406475],[-101.999994,45.038274],[-102.957371,45.039569],[-102.957443,45.250063]]]}},{"type":"Feature","properties":{"GEOID":"46043","NAME":"Douglas","state":"SD","wildfire_risk_score":53.849,"wildfire_eal_total":71363.0,"risk_band":"Low","source":"FEMA National Risk Index v1.20 (December 2025)"},"geometry":{"type":"Polygon","coordinates":[[[-98.707242,43.427809],[-98.705782,43.499319],[-98.114758,43.498297],[-98.109492,43.196838],[-98.680688,43.373157],[-98.706855,43.370075],[-98.707242,43.427809]]]}},{"type":"Feature","properties":{"GEOID":"46009","NAME":"Bon Homme","state":"SD","wildfire_risk_score":53.499,"wildfire_eal_total":83072.27,"risk_band":"Low","source":"FEMA National Risk Index v1.20 (December 2025)"},"geometry":{"type":"Polygon","coordinates":[[[-98.161337,42.850617],[-98.154869,42.854961],[-98.147723,42.849516],[-98.138951,42.856281],[-98.139472,42.864744],[-98.122957,42.87151],[-98.117047,42.869386],[-98.118855,42.87444],[-98.113606,42.879202],[-98.111876,42.894482],[-98.123215,42.91083],[-98.111051,42.913489],[-98.11429,42.917146],[-98.106642,42.926252],[-98.113273,42.928788],[-98.108732,42.933365],[-98.113994,42.936976],[-98.103724,42.937918],[-98.107653,42.947637],[-98.092782,42.973921],[-98.114178,43.006534],[-98.108044,43.013855],[-98.110108,43.022979],[-98.094868,43.029846],[-98.102792,43.037117],[-98.103272,43.056535],[-98.110333,43.073433],[-98.105751,43.077369],[-98.109342,43.081279],[-98.107764,43.101978],[-98.103001,43.112682],[-98.092823,43.119066],[-98.089817,43.152543],[-98.077108,43.16833],[-97.637496,43.16877],[-97.6354116902609,42.8514487858569],[-97.686506,42.842435],[-97.774456,42.849774],[-97.828496,42.868797],[-97.857957,42.865093],[-97.875345,42.858724],[-97.888562,42.817251],[-97.908983,42.794909],[-97.932962,42.778203],[-97.950147,42.769619],[-97.977588,42.769923],[-98.013046,42.762299],[-98.056625,42.770781],[-98.067388,42.784759],[-98.127489,42.820127],[-98.146933,42.839823],[-98.1530790534164,42.8390654481446],[-98.154159,42.84691],[-98.161337,42.850617]]]}},{"type":"Feature","properties":{"GEOID":"46107","NAME":"Potter","state":"SD","wildfire_risk_score":56.616,"wildfire_eal_total":77186.42,"risk_band":"Low","source":"FEMA National Risk Index v1.20 (December 2025)"},"geometry":{"type":"Polygon","coordinates":[[[-100.423918,44.990006],[-100.408379,45.011815],[-100.38211,45.029701],[-100.363178,45.029104],[-100.312235,45.0152],[-100.289539,45.014459],[-100.280344,45.018409],[-100.279384,45.031085],[-100.316506,45.059289],[-100.32659,45.090864],[-100.324174,45.101619],[-100.290717,45.138377],[-100.279,45.158894],[-100.274993,45.198281],[-100.2582,45.232828],[-100.260223,45.24681],[-99.57333,45.245364],[-99.572699,44.897263],[-100.404753,44.897695],[-100.41573,44.923545],[-100.423918,44.990006]]]}},{"type":"Feature","properties":{"GEOID":"46037","NAME":"Day","state":"SD","wildfire_risk_score":77.863,"wildfire_eal_total":259025.17,"risk_band":"High","source":"FEMA National Risk Index v1.20 (December 2025)"},"geometry":{"type":"Polygon","coordinates":[[[-97.981641,45.170965],[-97.979592,45.588483],[-97.373366,45.587634],[-97.36464,45.558728],[-97.227089,45.558158],[-97.226281,45.151826],[-97.981792,45.153295],[-97.981641,45.170965]]]}},{"type":"Feature","properties":{"GEOID":"46035","NAME":"Davison","state":"SD","wildfire_risk_score":68.384,"wildfire_eal_total":169253.61,"risk_band":"Moderate","source":"FEMA National Risk Index v1.20 (December 2025)"},"geometry":{"type":"Polygon","coordinates":[[[-98.326028,43.666939],[-98.325242,43.851058],[-97.967279,43.850686],[-97.964586,43.499041],[-98.320595,43.498651],[-98.326028,43.666939]]]}},{"type":"Feature","properties":{"GEOID":"46077","NAME":"Kingsbury","state":"SD","wildfire_risk_score":54.707,"wildfire_eal_total":99743.36,"risk_band":"Low","source":"FEMA National Risk Index v1.20 (December 2025)"},"geometry":{"type":"Polygon","coordinates":[[[-97.853614,44.281835],[-97.853028,44.544398],[-97.128024,44.543126],[-97.129671,44.195933],[-97.85366,44.195233],[-97.853614,44.281835]]]}},{"type":"Feature","properties":{"GEOID":"46057","NAME":"Hamlin","state":"SD","wildfire_risk_score":47.392,"wildfire_eal_total":59828.56,"risk_band":"Low","source":"FEMA National Risk Index v1.20 (December 2025)"},"geometry":{"type":"Polygon","coordinates":[[[-97.492189,44.630638],[-97.491346,44.804035],[-96.88457,44.804436],[-96.885504,44.543773],[-97.492266,44.543884],[-97.492189,44.630638]]]}},{"type":"Feature","properties":{"GEOID":"46007","NAME":"Bennett","state":"SD","wildfire_risk_score":87.118,"wildfire_eal_total":514339.47,"risk_band":"High","source":"FEMA National Risk Index v1.20 (December 2025)"},"geometry":{"type":"Polygon","coordinates":[[[-102.110819,43.389902],[-101.228234,43.389185],[-101.228008341598,42.9978753513416],[-102.082486038791,42.9993559930387],[-102.081427,43.12918],[-102.108892,43.129258],[-102.110819,43.389902]]]}},{"type":"Feature","properties":{"GEOID":"46019","NAME":"Butte","state":"SD","wildfire_risk_score":86.896,"wildfire_eal_total":864971.94,"risk_band":"High","source":"FEMA National Risk Index v1.20 (December 2025)"},"geometry":{"type":"Polygon","coordinates":[[[-104.057879,44.997605],[-104.039694,44.99807],[-104.040135756493,45.2128907620416],[-102.957281,45.212851],[-102.95865,44.690617],[-102.963646,44.690613],[-102.964125,44.604287],[-103.820517,44.604777],[-103.828364,44.601126],[-103.827001,44.592828],[-103.836209,44.594121],[-103.833905,44.589983],[-103.842925,44.587534],[-103.852171,44.592303],[-103.852923,44.588481],[-103.86365,44.589711],[-103.863384,44.586513],[-103.874099,44.59644],[-103.888412,44.598959],[-103.907392,44.592772],[-103.904437,44.590297],[-103.907539,44.587075],[-103.916033,44.590005],[-103.920515,44.584107],[-103.931166,44.585286],[-103.934523,44.579369],[-103.940488,44.582731],[-103.959532,44.577267],[-103.968487,44.581671],[-103.970082,44.577102],[-103.980154,44.581602],[-103.986632,44.575988],[-103.998995,44.578139],[-104.00333,44.573542],[-104.015553,44.579982],[-104.022433,44.578066],[-104.024977,44.582765],[-104.029227,44.577237],[-104.034638,44.580958],[-104.055832605852,44.5710095756679],[-104.057879,44.997605]]]}},{"type":"Feature","properties":{"GEOID":"46102","NAME":"Oglala Lakota","state":"SD","wildfire_risk_score":96.883,"wildfire_eal_total":3666642.18,"risk_band":"High","source":"FEMA National Risk Index v1.20 (December 2025)"},"geometry":{"type":"Polygon","coordinates":[[[-103.001017,43.605816],[-102.98147,43.611288],[-102.976785,43.618525],[-102.958788,43.61355],[-102.932566,43.618706],[-102.926864,43.626139],[-102.932725,43.630919],[-102.920727,43.643442],[-102.924192,43.650681],[-102.91809,43.656603],[-102.919549,43.661217],[-102.908645,43.666235],[-102.910913,43.673849],[-102.863415,43.668865],[-102.8605,43.658803],[-102.852466,43.658337],[-102.846772,43.665352],[-102.827856,43.657439],[-102.823997,43.664119],[-102.813752,43.667592],[-102.816099,43.673521],[-102.809398,43.68756],[-102.178723,43.687296],[-102.166499,43.691776],[-102.168386,43.69687],[-102.156101,43.697703],[-102.153253,43.706182],[-102.139158,43.700948],[-102.139051,43.476676],[-102.111131,43.476834],[-102.108892,43.129258],[-102.081427,43.12918],[-102.082486038791,42.9993559930387],[-103.000609657376,43.0004729626795],[-103.001017,43.605816]]]}},{"type":"Feature","properties":{"GEOID":"46047","NAME":"Fall River","state":"SD","wildfire_risk_score":93.766,"wildfire_eal_total":1724166.72,"risk_band":"High","source":"FEMA National Risk Index v1.20 (December 2025)"},"geometry":{"type":"Polygon","coordinates":[[[-104.054798171432,43.4778150220861],[-103.000913,43.476848],[-103.000609657376,43.0004729626795],[-104.053028,43.000587],[-104.054798171432,43.4778150220861]]]}},{"type":"Feature","properties":{"GEOID":"46061","NAME":"Hanson","state":"SD","wildfire_risk_score":54.835,"wildfire_eal_total":44372.76,"risk_band":"Low","source":"FEMA National Risk Index v1.20 (December 2025)"},"geometry":{"type":"Polygon","coordinates":[[[-97.968428,43.819077],[-97.967279,43.850686],[-97.608517,43.849059],[-97.607012,43.499826],[-97.964586,43.499041],[-97.968428,43.819077]]]}},{"type":"Feature","properties":{"GEOID":"46045","NAME":"Edmunds","state":"SD","wildfire_risk_score":69.179,"wildfire_eal_total":236460.81,"risk_band":"Moderate","source":"FEMA National Risk Index v1.20 (December 2025)"},"geometry":{"type":"Polygon","coordinates":[[[-99.708373,45.332348],[-99.707705,45.593391],[-98.722174,45.591242],[-98.722481,45.243764],[-99.708987,45.245866],[-99.708373,45.332348]]]}},{"type":"Feature","properties":{"GEOID":"46029","NAME":"Codington","state":"SD","wildfire_risk_score":71.024,"wildfire_eal_total":205268.69,"risk_band":"Moderate","source":"FEMA National Risk Index v1.20 (December 2025)"},"geometry":{"type":"Polygon","coordinates":[[[-97.494419,44.96367],[-97.494254,45.151631],[-96.883948,45.150224],[-96.88457,44.804436],[-97.491346,44.804035],[-97.494419,44.96367]]]}},{"type":"Feature","properties":{"GEOID":"46115","NAME":"Spink","state":"SD","wildfire_risk_score":66.539,"wildfire_eal_total":192094.89,"risk_band":"Low","source":"FEMA National Risk Index v1.20 (December 2025)"},"geometry":{"type":"Polygon","coordinates":[[[-98.717759,45.243732],[-97.981457,45.240415],[-97.982964,44.906759],[-97.982823,44.892297],[-97.977194,44.892274],[-97.977791,44.631602],[-98.705762,44.634159],[-98.705357,44.89687],[-98.716498,44.896925],[-98.717759,45.243732]]]}},{"type":"Feature","properties":{"GEOID":"46059","NAME":"Hand","state":"SD","wildfire_risk_score":77.481,"wildfire_eal_total":397912.72,"risk_band":"High","source":"FEMA National Risk Index v1.20 (December 2025)"},"geometry":{"type":"Polygon","coordinates":[[[-99.312579,44.634207],[-99.311754,44.897227],[-98.705357,44.89687],[-98.700453,44.196727],[-99.30018,44.19483],[-99.300495,44.54738],[-99.312483,44.547485],[-99.312579,44.634207]]]}},{"type":"Feature","properties":{"GEOID":"46025","NAME":"Clark","state":"SD","wildfire_risk_score":51.304,"wildfire_eal_total":73826.57,"risk_band":"Low","source":"FEMA National Risk Index v1.20 (December 2025)"},"geometry":{"type":"Polygon","coordinates":[[[-97.982907,44.921211],[-97.981792,45.153295],[-97.494254,45.151631],[-97.492266,44.543884],[-97.856271,44.544406],[-97.856226,44.631178],[-97.977791,44.631602],[-97.977194,44.892274],[-97.982823,44.892297],[-97.982907,44.921211]]]}},{"type":"Feature","properties":{"GEOID":"46097","NAME":"Miner","state":"SD","wildfire_risk_score":40.267,"wildfire_eal_total":48252.13,"risk_band":"Low","source":"FEMA National Risk Index v1.20 (December 2025)"},"geometry":{"type":"Polygon","coordinates":[[[-97.851132,43.874461],[-97.849492,44.195235],[-97.370115,44.194971],[-97.369463,43.848526],[-97.85111,43.849857],[-97.851132,43.874461]]]}},{"type":"Feature","properties":{"GEOID":"46021","NAME":"Campbell","state":"SD","wildfire_risk_score":77.513,"wildfire_eal_total":473205.62,"risk_band":"High","source":"FEMA National Risk Index v1.20 (December 2025)"},"geometry":{"type":"Polygon","coordinates":[[[-100.499353928538,45.9436316399083],[-99.718073,45.940907],[-99.717466,45.593428],[-100.430079,45.594823],[-100.423831,45.624801],[-100.419767,45.624817],[-100.406438,45.650011],[-100.387388,45.659443],[-100.344965,45.661498],[-100.320347,45.671416],[-100.308849,45.689634],[-100.309013,45.707842],[-100.375541,45.815951],[-100.382369,45.838614],[-100.380638,45.858178],[-100.387036,45.869142],[-100.417516,45.884006],[-100.462424,45.919574],[-100.488683,45.93028],[-100.499353928538,45.9436316399083]]]}},{"type":"Feature","properties":{"GEOID":"46129","NAME":"Walworth","state":"SD","wildfire_risk_score":80.693,"wildfire_eal_total":360646.43,"risk_band":"High","source":"FEMA National Risk Index v1.20 (December 2025)"},"geometry":{"type":"Polygon","coordinates":[[[-100.486579,45.541215],[-100.477542,45.557511],[-100.44082,45.578955],[-100.430079,45.594823],[-99.707705,45.593391],[-99.708987,45.245866],[-100.260223,45.24681],[-100.268054,45.26111],[-100.307384,45.291909],[-100.316659,45.317904],[-100.308234,45.332076],[-100.282324,45.355322],[-100.274176,45.381845],[-100.304542,45.420935],[-100.33032,45.44221],[-100.347551,45.481309],[-100.382131,45.510645],[-100.440307,45.509678],[-100.460094,45.514167],[-100.479153,45.525103],[-100.486579,45.541215]]]}},{"type":"Feature","properties":{"GEOID":"46015","NAME":"Brule","state":"SD","wildfire_risk_score":73.632,"wildfire_eal_total":216301.5,"risk_band":"Moderate","source":"FEMA National Risk Index v1.20 (December 2025)"},"geometry":{"type":"Polygon","coordinates":[[[-99.469164,43.673325],[-99.450566,43.689797],[-99.407856,43.703109],[-99.407712,43.728466],[-99.419004,43.744826],[-99.41015,43.774619],[-99.366244,43.792432],[-99.308524,43.858868],[-99.31709,43.874994],[-99.352226,43.892312],[-99.361852,43.903099],[-99.36318,43.914776],[-99.355864,43.934371],[-98.807771,43.935223],[-98.806788,43.848487],[-98.796965,43.848575],[-98.794588,43.499187],[-99.297882,43.499856],[-99.282777,43.518315],[-99.282496,43.529664],[-99.336851,43.574909],[-99.343456,43.615965],[-99.360377,43.647646],[-99.383127,43.658206],[-99.449862,43.652982],[-99.460934,43.657264],[-99.469164,43.673325]]]}},{"type":"Feature","properties":{"GEOID":"46051","NAME":"Grant","state":"SD","wildfire_risk_score":54.612,"wildfire_eal_total":94039.96,"risk_band":"Low","source":"FEMA National Risk Index v1.20 (December 2025)"},"geometry":{"type":"Polygon","coordinates":[[[-97.226418,45.181612],[-97.226244,45.297647],[-97.007543,45.296866],[-96.992946,45.32688],[-96.470386775791,45.3266054662554],[-96.453067,45.298115],[-96.4520920423924,44.977493581617],[-96.882345,44.97687],[-96.883948,45.150224],[-97.226281,45.151826],[-97.226418,45.181612]]]}},{"type":"Feature","properties":{"GEOID":"46003","NAME":"Aurora","state":"SD","wildfire_risk_score":65.394,"wildfire_eal_total":139391.45,"risk_band":"Low","source":"FEMA National Risk Index v1.20 (December 2025)"},"geometry":{"type":"Polygon","coordinates":[[[-98.807771,43.935223],[-98.331508,43.937708],[-98.331484,43.850988],[-98.325242,43.851058],[-98.325224,43.586537],[-98.320595,43.498651],[-98.794588,43.499187],[-98.796965,43.848575],[-98.806788,43.848487],[-98.807771,43.935223]]]}},{"type":"Feature","properties":{"GEOID":"46027","NAME":"Clay","state":"SD","wildfire_risk_score":41.698,"wildfire_eal_total":45956.53,"risk_band":"Low","source":"FEMA National Risk Index v1.20 (December 2025)"},"geometry":{"type":"Polygon","coordinates":[[[-97.160704,42.924035],[-97.160543,43.083145],[-96.805682,43.08367],[-96.806223,42.704154],[-96.906797,42.7338],[-96.918282,42.731852],[-96.937589,42.719597],[-96.963531,42.720643],[-96.965833,42.727096],[-96.96123,42.740623],[-96.96888,42.754278],[-96.97912,42.76009],[-97.02485,42.76243],[-97.065592,42.772189],[-97.131331,42.771929],[-97.144595,42.790113],[-97.160351504817,42.7997334187348],[-97.160704,42.924035]]]}},{"type":"Feature","properties":{"GEOID":"46109","NAME":"Roberts","state":"SD","wildfire_risk_score":74.046,"wildfire_eal_total":174383.79,"risk_band":"Moderate","source":"FEMA National Risk Index v1.20 (December 2025)"},"geometry":{"type":"Polygon","coordinates":[[[-97.2282906022523,45.9351410532602],[-96.563672,45.935239],[-96.564002,45.91956],[-96.570186,45.912039],[-96.56442,45.909415],[-96.574667,45.866816],[-96.574517,45.843098],[-96.583085,45.820024],[-96.627778,45.786239],[-96.641941,45.759871],[-96.662595,45.738682],[-96.745086,45.701576],[-96.760866,45.687518],[-96.835769,45.649648],[-96.844211,45.639583],[-96.857751,45.605962],[-96.76528,45.521414],[-96.732739,45.458737],[-96.692541,45.417338],[-96.680454,45.410499],[-96.617726,45.408092],[-96.562142,45.38609],[-96.521787,45.375645],[-96.489065,45.357071],[-96.470386775791,45.3266054662554],[-96.992946,45.32688],[-97.007543,45.296866],[-97.226244,45.297647],[-97.2282906022523,45.9351410532602]]]}},{"type":"Feature","properties":{"GEOID":"46013","NAME":"Brown","state":"SD","wildfire_risk_score":77.067,"wildfire_eal_total":352806.94,"risk_band":"High","source":"FEMA National Risk Index v1.20 (December 2025)"},"geometry":{"type":"Polygon","coordinates":[[[-98.725014,45.721695],[-98.7243745348833,45.9386863487943],[-97.9787777817296,45.9359370935895],[-97.981457,45.240415],[-98.722481,45.243764],[-98.725014,45.721695]]]}},{"type":"Feature","properties":{"GEOID":"46119","NAME":"Sully","state":"SD","wildfire_risk_score":70.579,"wildfire_eal_total":270182.81,"risk_band":"Moderate","source":"FEMA National Risk Index v1.20 (December 2025)"},"geometry":{"type":"Polygon","coordinates":[[[-100.729183,44.791406],[-100.714808,44.821622],[-100.693323,44.828292],[-100.66682,44.816914],[-100.641741,44.791844],[-100.610971,44.770102],[-100.543484,44.761087],[-100.526863,44.768277],[-100.514862,44.783654],[-100.475132,44.816432],[-100.418682,44.843366],[-100.402721,44.856843],[-100.393004,44.874983],[-100.404753,44.897695],[-99.674252,44.897503],[-99.676398,44.548111],[-100.526498,44.547422],[-100.537016,44.552603],[-100.593032,44.556576],[-100.617015,44.564561],[-100.632444,44.575573],[-100.645552,44.597955],[-100.643145,44.620323],[-100.624806,44.651552],[-100.61253,44.693459],[-100.613805,44.707135],[-100.630103,44.737213],[-100.68031,44.747382],[-100.691381,44.759659],[-100.724019,44.77531],[-100.729183,44.791406]]]}},{"type":"Feature","properties":{"GEOID":"46005","NAME":"Beadle","state":"SD","wildfire_risk_score":74.746,"wildfire_eal_total":283014.93,"risk_band":"Moderate","source":"FEMA National Risk Index v1.20 (December 2025)"},"geometry":{"type":"Polygon","coordinates":[[[-98.705762,44.634159],[-97.856226,44.631178],[-97.85366,44.195233],[-98.700453,44.196727],[-98.701331,44.547292],[-98.705714,44.547283],[-98.705762,44.634159]]]}}]}