{"type":"FeatureCollection","metadata":{"state":"UT","boundary_source":"U.S. Census Bureau 2024 Cartographic Boundary File (counties, 1:500,000)","risk_source":"FEMA National Risk Index v1.20 (December 2025)"},"features":[{"type":"Feature","properties":{"GEOID":"49037","NAME":"San Juan","state":"UT","wildfire_risk_score":82.347,"wildfire_eal_total":298075.17,"risk_band":"Moderate","source":"FEMA National Risk Index v1.20 (December 2025)"},"geometry":{"type":"Polygon","coordinates":[[[-111.413013987341,37.0014775769675],[-111.403482,37.005194],[-111.368153,37.002037],[-111.345143,37.00874],[-111.327043,37.021168],[-111.315084,37.012344],[-111.306239,37.012552],[-111.306211,37.026628],[-111.281756,37.04122],[-111.302383,37.046047],[-111.305838,37.056858],[-111.299758,37.066755],[-111.268179,37.054073],[-111.248409,37.022607],[-111.239488,37.022256],[-111.229927,37.039317],[-111.247623,37.048666],[-111.239463,37.068674],[-111.233892,37.069484],[-111.226007,37.057934],[-111.218216,37.056678],[-111.175948,37.103271],[-111.166528,37.105664],[-111.151333,37.091329],[-111.139159,37.088613],[-111.122183,37.107904],[-111.077963,37.102655],[-111.065402,37.107873],[-111.05264,37.098914],[-111.04247,37.10764],[-111.013372,37.115705],[-110.987347,37.112343],[-110.981753,37.117237],[-110.984588,37.124634],[-110.981267,37.127377],[-110.956624,37.125771],[-110.950653,37.133895],[-110.955696,37.143993],[-110.953698,37.151921],[-110.937001,37.147982],[-110.925577,37.159627],[-110.92508,37.17779],[-110.902945,37.172348],[-110.90295,37.183415],[-110.89044,37.193069],[-110.889008,37.201483],[-110.897508,37.215881],[-110.875163,37.229886],[-110.888562,37.247941],[-110.860741,37.260116],[-110.873267,37.277726],[-110.873048,37.286904],[-110.84941,37.291917],[-110.838907,37.299561],[-110.840791,37.318376],[-110.868159,37.328654],[-110.87326,37.34593],[-110.856675,37.348529],[-110.804506,37.320931],[-110.777044,37.323],[-110.769044,37.33135],[-110.760535,37.332491],[-110.751189,37.352983],[-110.743058,37.345232],[-110.73619,37.345978],[-110.735745,37.358574],[-110.722818,37.373151],[-110.743254,37.386935],[-110.753591,37.403732],[-110.745454,37.40768],[-110.723212,37.39945],[-110.716958,37.401378],[-110.707748,37.410378],[-110.699833,37.433348],[-110.71015,37.437474],[-110.726086,37.435733],[-110.747583,37.458486],[-110.726527,37.459147],[-110.725779,37.47181],[-110.718813,37.481294],[-110.667608,37.477659],[-110.640198,37.48602],[-110.645838,37.492694],[-110.667233,37.495631],[-110.663924,37.518368],[-110.637253,37.552973],[-110.622198,37.562773],[-110.599707,37.568696],[-110.603788,37.602115],[-110.567389,37.613745],[-110.560654,37.641455],[-110.538987,37.633138],[-110.513167,37.657078],[-110.497992,37.652093],[-110.484534,37.681806],[-110.483551,37.695159],[-110.488351,37.702323],[-110.475926,37.70764],[-110.469124,37.714843],[-110.468312,37.724574],[-110.450217,37.73477],[-110.445699,37.759924],[-110.426481,37.774369],[-110.428731,37.779288],[-110.461565,37.77092],[-110.470153,37.779819],[-110.476961,37.800017],[-110.471058,37.808788],[-110.436562,37.808281],[-110.431476,37.836813],[-110.403076,37.85154],[-110.404221,37.880946],[-110.362729,37.892495],[-110.307976,37.891005],[-110.2951,37.886419],[-110.291093,37.869089],[-110.284149,37.86588],[-110.277265,37.870542],[-110.278505,37.88502],[-110.269488,37.897551],[-110.208795,37.894071],[-110.198407,37.915925],[-110.205779,37.934451],[-110.201849,37.946877],[-110.168663,37.964464],[-110.161226,37.9821],[-110.14557,37.990638],[-110.136293,38.005153],[-110.113567,38.008215],[-110.093116,37.994688],[-110.078387,37.998174],[-110.074012,38.00777],[-110.076801,38.021586],[-110.0653,38.041728],[-110.045556,38.050514],[-110.04288,38.05823],[-110.047165,38.070134],[-110.026283,38.096978],[-110.0101,38.109685],[-109.98655,38.100656],[-109.978552,38.109879],[-109.963999,38.114236],[-109.955868,38.130481],[-109.929292,38.140352],[-109.927266,38.149223],[-109.932573,38.157245],[-109.90354,38.178368],[-109.886678,38.183536],[-109.885926,38.189404],[-109.903942,38.18998],[-109.887739,38.207649],[-109.910362,38.211295],[-109.920466,38.220882],[-109.916276,38.227274],[-109.888554,38.228781],[-109.899263,38.242905],[-109.912143,38.238582],[-109.918257,38.242771],[-109.901791,38.256807],[-109.904978,38.267565],[-109.911254,38.27059],[-109.926399,38.260013],[-109.934606,38.261755],[-109.928896,38.281661],[-109.949101,38.290193],[-109.946379,38.309198],[-109.963349,38.319492],[-109.964999,38.331804],[-109.948737,38.337593],[-109.94094,38.353294],[-109.952145,38.355211],[-109.95514,38.344297],[-109.9644,38.339743],[-109.983714,38.352037],[-109.986996,38.360041],[-109.973002,38.375916],[-109.976682,38.388993],[-109.984718,38.388319],[-110.011771,38.364168],[-110.015815,38.364735],[-110.010249,38.377605],[-110.032662,38.385985],[-110.031037,38.392621],[-110.003217,38.413617],[-110.026588,38.447432],[-110.044318,38.449011],[-110.043449,38.456664],[-110.035991,38.459929],[-110.018553,38.446293],[-110.010662,38.449741],[-110.001977,38.481678],[-110.025285,38.499982],[-109.059962121448,38.500028459545],[-109.060062,38.275489],[-109.041762,38.16469],[-109.045223,36.999084],[-110.47019,36.997997],[-110.50069,37.00426],[-111.413013987341,37.0014775769675]]]}},{"type":"Feature","properties":{"GEOID":"49019","NAME":"Grand","state":"UT","wildfire_risk_score":58.556,"wildfire_eal_total":80737.69,"risk_band":"Low","source":"FEMA National Risk Index v1.20 (December 2025)"},"geometry":{"type":"Polygon","coordinates":[[[-110.179296,38.908097],[-110.173316,38.927037],[-110.135396,38.926532],[-110.13868,38.94165],[-110.152475,38.95029],[-110.136354,38.961151],[-110.149282,38.971886],[-110.147882,38.97975],[-110.1057,38.983385],[-110.105688,38.979796],[-110.069114,38.978983],[-110.069134,38.964448],[-110.050505,38.964452],[-110.05051,38.957188],[-110.041199,38.957192],[-110.041198,38.949932],[-110.003984,38.949911],[-110.003977,38.964446],[-110.022587,38.964451],[-110.022559,38.978971],[-110.041184,38.978975],[-110.041176,38.993516],[-110.059811,38.993544],[-110.059807,38.986248],[-110.096336,38.986257],[-110.09632,39.001676],[-110.133899,39.001736],[-110.13387,38.994377],[-110.150178,38.997237],[-110.150252,39.002149],[-110.142847,39.000951],[-110.137966,39.005385],[-110.153396,39.016411],[-110.139942,39.02481],[-110.156792,39.034408],[-110.148465,39.040854],[-110.139268,39.059403],[-110.139617,39.070116],[-110.145482,39.07461],[-110.139705,39.082376],[-110.142757,39.087237],[-110.118261,39.095174],[-110.109304,39.112758],[-110.115039,39.122105],[-110.112405,39.128776],[-110.099615,39.136495],[-110.116318,39.153577],[-110.099049,39.167718],[-110.104532,39.182182],[-110.089989,39.19349],[-110.080269,39.192995],[-110.073212,39.201247],[-110.076229,39.227704],[-110.062357,39.223304],[-110.053837,39.229317],[-110.063324,39.249461],[-110.060513,39.264284],[-110.077562,39.276859],[-110.069618,39.292366],[-110.049063,39.301409],[-110.061957,39.309885],[-110.055685,39.31871],[-110.058675,39.329731],[-110.047646,39.326393],[-110.031812,39.35106],[-110.021576,39.353124],[-110.023821,39.358188],[-110.018646,39.362713],[-110.025693,39.376698],[-110.018819,39.378888],[-110.020996,39.390944],[-110.00992,39.410903],[-110.012485,39.418868],[-110.023542,39.423178],[-110.023568,39.445421],[-110.015669,39.454693],[-110.024327,39.463484],[-110.023975,39.469268],[-109.953349,39.46927],[-109.953349,39.461801],[-109.106908,39.4621],[-109.104297,39.469372],[-109.096039,39.471228],[-109.087318,39.492334],[-109.076753,39.489191],[-109.072853,39.499875],[-109.068751,39.495586],[-109.062963,39.499616],[-109.051362941959,39.4977032760106],[-109.052436,38.999985],[-109.059962121448,38.500028459545],[-110.025285,38.499982],[-110.036538,38.503618],[-110.044333,38.507377],[-110.044195,38.516031],[-110.035591,38.518692],[-110.01821,38.513],[-110.012726,38.52448],[-110.000187,38.522008],[-109.993846,38.525514],[-110.00577,38.542305],[-109.987992,38.563807],[-109.998087,38.56877],[-110.014313,38.561163],[-110.023651,38.57721],[-110.036905,38.571124],[-110.044493,38.578468],[-110.058723,38.581998],[-110.033604,38.604589],[-110.015919,38.588112],[-109.999293,38.589832],[-109.995586,38.598803],[-109.997968,38.614508],[-110.014752,38.623991],[-110.02453,38.608934],[-110.056295,38.605247],[-110.067499,38.610911],[-110.065185,38.619737],[-110.042437,38.617043],[-110.049312,38.634402],[-110.035826,38.65399],[-110.045121,38.659731],[-110.048717,38.648108],[-110.054048,38.645935],[-110.060023,38.650475],[-110.056478,38.661418],[-110.068179,38.656817],[-110.074218,38.659154],[-110.068609,38.667558],[-110.071353,38.672779],[-110.094192,38.6661],[-110.08665,38.677122],[-110.101102,38.69354],[-110.086568,38.706147],[-110.087864,38.713686],[-110.099365,38.714222],[-110.115347,38.705823],[-110.123117,38.708081],[-110.107443,38.714356],[-110.11362,38.730655],[-110.101871,38.746908],[-110.081552,38.754824],[-110.091139,38.770588],[-110.108847,38.77847],[-110.121511,38.791258],[-110.105527,38.800167],[-110.106275,38.810774],[-110.112369,38.818611],[-110.124675,38.821169],[-110.120725,38.832263],[-110.145579,38.839278],[-110.137129,38.856766],[-110.137974,38.867883],[-110.162327,38.863713],[-110.159825,38.891247],[-110.179296,38.908097]]]}},{"type":"Feature","properties":{"GEOID":"49049","NAME":"Utah","state":"UT","wildfire_risk_score":98.855,"wildfire_eal_total":35012801.63,"risk_band":"High","source":"FEMA National Risk Index v1.20 (December 2025)"},"geometry":{"type":"Polygon","coordinates":[[[-112.213227,40.455108],[-112.212219,40.459282],[-112.195686,40.462259],[-112.19027,40.468518],[-112.159967,40.461041],[-112.153642,40.468357],[-112.143098,40.470382],[-112.114781,40.450696],[-112.1119,40.438951],[-112.093295,40.447845],[-112.066561,40.446509],[-112.03817,40.464623],[-112.033231,40.462709],[-112.031508,40.450601],[-112.020572,40.447378],[-112.024534,40.445092],[-112.021339,40.438793],[-112.006624,40.435215],[-112.006146,40.426431],[-111.992573,40.424018],[-111.982136,40.414217],[-111.960041,40.418393],[-111.931153,40.433611],[-111.901033,40.46331],[-111.892379,40.464085],[-111.873749,40.476821],[-111.858392,40.469307],[-111.845798,40.476661],[-111.836245,40.47505],[-111.834767,40.481811],[-111.826322,40.48272],[-111.826318,40.486352],[-111.789943,40.497684],[-111.787972,40.513668],[-111.762587,40.529173],[-111.744226,40.522552],[-111.735106,40.532691],[-111.720567,40.525149],[-111.713141,40.532695],[-111.698113,40.535728],[-111.678451,40.53175],[-111.664099,40.541219],[-111.661805,40.549715],[-111.650309,40.551164],[-111.638091,40.567764],[-111.605677,40.564454],[-111.602239,40.575328],[-111.593879,40.577063],[-111.567882,40.547482],[-111.572609,40.537575],[-111.56973,40.526617],[-111.579126,40.500356],[-111.57481,40.486866],[-111.595075,40.467636],[-111.609449,40.466321],[-111.620952,40.449777],[-111.612463,40.431899],[-111.599564,40.434772],[-111.583803,40.420211],[-111.583675,40.412845],[-111.574268,40.412907],[-111.574209,40.391373],[-111.560097,40.38777],[-111.560195,40.369837],[-111.555459,40.369898],[-111.555235,40.362696],[-111.480337,40.362169],[-111.480536,40.354957],[-111.471578,40.347584],[-111.462281,40.347484],[-111.462464,40.340339],[-111.453153,40.340284],[-111.453295,40.334267],[-111.438023,40.321843],[-111.457316,40.300714],[-111.444256,40.29039],[-111.434059,40.291901],[-111.426646,40.28702],[-111.412872,40.289407],[-111.410513,40.295105],[-111.396937,40.292445],[-111.377558,40.297483],[-111.360176,40.288557],[-111.336712,40.288294],[-111.32813,40.282229],[-111.321996,40.287245],[-111.307893,40.283904],[-111.307968,40.274603],[-111.294212,40.270531],[-111.29374,40.265546],[-111.279015,40.258902],[-111.264839,40.242271],[-111.273617,40.236215],[-111.273375,40.221913],[-111.261849,40.210735],[-111.264781,40.209495],[-111.258293,40.198267],[-111.247814,40.193636],[-111.225433,40.167022],[-111.231328,40.147627],[-111.224856,40.142512],[-111.221464,40.124918],[-111.241909,40.090148],[-111.238007,40.080551],[-111.240564,40.073278],[-111.236031,40.069998],[-111.249227,40.055595],[-111.238231,40.038734],[-111.226705,40.035693],[-111.203919,40.04927],[-111.197708,40.031179],[-111.171665,40.010657],[-111.167879,39.990936],[-111.159558,39.991794],[-111.152196,39.985059],[-111.143043,39.986955],[-111.129009,39.970344],[-111.119271,39.968156],[-111.120145,39.957267],[-111.131073,39.947326],[-111.083061,39.943198],[-111.083102,39.900059],[-110.857647,39.899707],[-110.85778,39.813285],[-111.766398,39.810769],[-111.748734,39.833205],[-111.746458,39.850121],[-111.737618,39.851388],[-111.734582,39.856471],[-111.738065,39.864179],[-111.75735,39.875952],[-111.761,39.883888],[-111.757889,39.890413],[-111.780846,39.900824],[-111.789097,39.915328],[-111.788862,39.926026],[-111.823919,39.947696],[-111.832711,39.936691],[-111.833809,39.923972],[-111.858429,39.915373],[-111.858494,39.910366],[-111.865956,39.905882],[-111.881551,39.907404],[-111.891132,39.898353],[-111.909464,39.894571],[-111.927884,39.865164],[-111.948279,39.84899],[-111.950665,39.834299],[-111.957705,39.83671],[-111.964823,39.825054],[-111.962715,39.815958],[-111.969467,39.807108],[-111.989439,39.811735],[-111.990755,39.804921],[-112.004682,39.795499],[-112.030335,39.781217],[-112.041561,39.783427],[-112.047184,39.776849],[-112.06095,39.782153],[-112.068502,39.777349],[-112.089843,39.781928],[-112.076756,39.800126],[-112.07788,39.808494],[-112.065415,39.830039],[-112.075215,39.839693],[-112.08122,39.865081],[-112.059147,39.88038],[-112.059556,39.88717],[-112.053511,39.893397],[-112.062552,39.90468],[-112.081256,39.913147],[-112.085248,39.925494],[-112.093026,39.930042],[-112.10359,39.928767],[-112.106259,39.939305],[-112.094135,39.954474],[-112.102139,39.95867],[-112.110139,39.973835],[-112.132729,39.977471],[-112.160026,40.006758],[-112.1798,40.011656],[-112.171981,40.039484],[-112.183594,40.059655],[-112.180199,40.067042],[-112.172175,40.068273],[-112.174548,40.081834],[-112.157946,40.089107],[-112.150892,40.107298],[-112.176101,40.130806],[-112.167769,40.146666],[-112.173993,40.154288],[-112.158685,40.163387],[-112.155899,40.170168],[-112.144383,40.173249],[-112.153373,40.182158],[-112.146838,40.189655],[-112.148561,40.195355],[-112.160399,40.198849],[-112.158581,40.206629],[-112.149486,40.212174],[-112.153848,40.218217],[-112.168698,40.219307],[-112.176688,40.227717],[-112.179326,40.249365],[-112.183911,40.249963],[-112.183843,40.258132],[-112.192196,40.2645],[-112.186495,40.286858],[-112.19208,40.3041],[-112.198605,40.306915],[-112.192682,40.322891],[-112.196276,40.325836],[-112.175533,40.335837],[-112.194504,40.361198],[-112.188734,40.372487],[-112.201585,40.388154],[-112.19467,40.421062],[-112.209485,40.433068],[-112.213227,40.455108]]]}},{"type":"Feature","properties":{"GEOID":"49023","NAME":"Juab","state":"UT","wildfire_risk_score":91.031,"wildfire_eal_total":2342118.07,"risk_band":"Moderate","source":"FEMA National Risk Index v1.20 (December 2025)"},"geometry":{"type":"Polygon","coordinates":[[[-114.047783,39.79416],[-114.047133613292,39.9060976857443],[-112.341988,39.904458],[-112.343083,39.910847],[-112.335335,39.923673],[-112.33978,39.943681],[-112.332296,39.952789],[-112.323233,39.944471],[-112.309355,39.948394],[-112.302039,39.936643],[-112.28692,39.941131],[-112.270295,39.939017],[-112.236319,39.960523],[-112.224492,39.988541],[-112.1798,40.011656],[-112.160026,40.006758],[-112.132729,39.977471],[-112.110139,39.973835],[-112.102139,39.95867],[-112.094135,39.954474],[-112.106259,39.939305],[-112.10359,39.928767],[-112.093026,39.930042],[-112.085248,39.925494],[-112.081256,39.913147],[-112.062552,39.90468],[-112.053511,39.893397],[-112.059556,39.88717],[-112.059147,39.88038],[-112.08122,39.865081],[-112.075215,39.839693],[-112.065415,39.830039],[-112.07788,39.808494],[-112.076756,39.800126],[-112.089843,39.781928],[-112.068502,39.777349],[-112.06095,39.782153],[-112.047184,39.776849],[-112.041561,39.783427],[-112.030335,39.781217],[-112.004682,39.795499],[-111.990755,39.804921],[-111.989439,39.811735],[-111.969467,39.807108],[-111.962715,39.815958],[-111.964823,39.825054],[-111.957705,39.83671],[-111.950665,39.834299],[-111.948279,39.84899],[-111.927884,39.865164],[-111.909464,39.894571],[-111.891132,39.898353],[-111.881551,39.907404],[-111.865956,39.905882],[-111.858494,39.910366],[-111.858429,39.915373],[-111.833809,39.923972],[-111.832711,39.936691],[-111.823919,39.947696],[-111.788862,39.926026],[-111.789097,39.915328],[-111.780846,39.900824],[-111.757889,39.890413],[-111.761,39.883888],[-111.75735,39.875952],[-111.738065,39.864179],[-111.734582,39.856471],[-111.737618,39.851388],[-111.746458,39.850121],[-111.748734,39.833205],[-111.766398,39.810769],[-111.641944,39.812869],[-111.642057,39.798314],[-111.622123,39.798483],[-111.622514,39.783816],[-111.584858,39.784235],[-111.584754,39.740141],[-111.642519,39.739693],[-111.642619,39.725162],[-111.661349,39.725058],[-111.661362,39.717655],[-111.680359,39.717465],[-111.680269,39.710196],[-111.689596,39.71036],[-111.689481,39.695231],[-111.717482,39.69456],[-111.713144,39.460295],[-111.747736,39.460077],[-111.747044,39.38275],[-111.922389,39.381591],[-111.921698,39.366862],[-111.958773,39.366133],[-111.958104,39.336773],[-112.015812,39.336863],[-112.016003,39.314561],[-112.053421,39.314483],[-112.072218,39.314923],[-112.072108,39.329695],[-112.188922,39.329392],[-112.188907,39.373089],[-112.193596,39.37309],[-112.193277,39.489834],[-112.202626,39.489858],[-112.202633,39.504323],[-112.211961,39.511579],[-112.211973,39.526042],[-112.193242,39.526023],[-112.193292,39.540451],[-112.202666,39.540434],[-112.212029,39.54773],[-112.212045,39.553987],[-113.815743,39.552644],[-113.815766,39.54409],[-114.047728,39.542742],[-114.047783,39.79416]]]}},{"type":"Feature","properties":{"GEOID":"49011","NAME":"Davis","state":"UT","wildfire_risk_score":90.585,"wildfire_eal_total":2741919.85,"risk_band":"Moderate","source":"FEMA National Risk Index v1.20 (December 2025)"},"geometry":{"type":"Polygon","coordinates":[[[-112.451621,41.087334],[-112.18654,41.153027],[-111.987803,41.154384],[-111.962322,41.149402],[-111.949489,41.138073],[-111.920334,41.138551],[-111.910755,41.134575],[-111.856247,41.139083],[-111.849006,41.133758],[-111.844551,41.121788],[-111.856115,41.111911],[-111.856504,41.102882],[-111.851762,41.097688],[-111.855127,41.092718],[-111.84836,41.075739],[-111.851796,41.066651],[-111.844485,41.058857],[-111.839515,41.040665],[-111.833688,41.037012],[-111.839398,41.031372],[-111.838388,41.023484],[-111.825699,41.018499],[-111.820014,41.00652],[-111.806126,41.001685],[-111.775105,40.959203],[-111.815298,40.957179],[-111.792508,40.930155],[-111.793748,40.915965],[-111.783059,40.912844],[-111.779219,40.906428],[-111.776081,40.900496],[-111.781372,40.895542],[-111.762308,40.887845],[-111.768689,40.872279],[-111.746376,40.870904],[-111.738912,40.861174],[-111.778016,40.844724],[-111.789225,40.845554],[-111.804888,40.837882],[-111.812006,40.839985],[-111.870503,40.821741],[-111.945863,40.821791],[-111.944287,40.834154],[-111.955872,40.849112],[-111.963003,40.84817],[-111.958898,40.849245],[-111.965876,40.854626],[-111.962892,40.870004],[-111.971069,40.876645],[-111.966147,40.891653],[-111.959266,40.896327],[-111.958672,40.921822],[-112.006566,40.921846],[-112.148271,40.846133],[-112.260216,40.769093],[-112.493515,41.076888],[-112.451621,41.087334]]]}},{"type":"Feature","properties":{"GEOID":"49015","NAME":"Emery","state":"UT","wildfire_risk_score":59.288,"wildfire_eal_total":76697.54,"risk_band":"Low","source":"FEMA National Risk Index v1.20 (December 2025)"},"geometry":{"type":"Polygon","coordinates":[[[-111.307011,38.672331],[-111.299138,38.672329],[-111.298432,38.751804],[-111.300905,39.467237],[-111.247748,39.467199],[-111.24746,39.704373],[-111.237396,39.703141],[-111.230064,39.699514],[-111.229212,39.693307],[-111.222155,39.692505],[-111.22164,39.675329],[-111.201311,39.657121],[-111.201982,39.64555],[-111.192693,39.641322],[-111.186239,39.619495],[-111.176088,39.61433],[-111.170492,39.603387],[-111.157057,39.596013],[-111.148226,39.600275],[-111.148763,39.606247],[-111.140381,39.608651],[-111.137744,39.615217],[-111.132248,39.613876],[-111.120299,39.57244],[-111.113552,39.568775],[-111.118752,39.562747],[-111.116335,39.551882],[-111.106492,39.546522],[-111.107438,39.538064],[-111.098208,39.536018],[-111.08553,39.521846],[-111.081571,39.498034],[-111.074689,39.491141],[-111.081333,39.467455],[-110.023975,39.469268],[-110.024327,39.463484],[-110.015862,39.456245],[-110.023568,39.445421],[-110.023542,39.423178],[-110.012485,39.418868],[-110.00992,39.410903],[-110.020996,39.390944],[-110.018819,39.378888],[-110.025693,39.376698],[-110.018646,39.362713],[-110.023821,39.358188],[-110.021576,39.353124],[-110.031812,39.35106],[-110.047646,39.326393],[-110.058675,39.329731],[-110.055685,39.31871],[-110.061957,39.309885],[-110.049063,39.301409],[-110.069618,39.292366],[-110.077219,39.279105],[-110.074404,39.271459],[-110.060513,39.264284],[-110.063324,39.249461],[-110.053837,39.229317],[-110.062357,39.223304],[-110.076229,39.227704],[-110.073212,39.201247],[-110.080269,39.192995],[-110.089989,39.19349],[-110.104532,39.182182],[-110.099049,39.167718],[-110.116318,39.153577],[-110.099615,39.136495],[-110.112405,39.128776],[-110.115039,39.122105],[-110.109304,39.112758],[-110.118261,39.095174],[-110.142757,39.087237],[-110.139705,39.082376],[-110.145482,39.07461],[-110.139617,39.070116],[-110.139268,39.059403],[-110.148465,39.040854],[-110.156792,39.034408],[-110.139942,39.02481],[-110.153396,39.016411],[-110.137966,39.005385],[-110.142847,39.000951],[-110.150252,39.002149],[-110.150178,38.997237],[-110.13387,38.994377],[-110.133899,39.001736],[-110.09632,39.001676],[-110.096336,38.986257],[-110.059807,38.986248],[-110.059811,38.993544],[-110.041176,38.993516],[-110.041184,38.978975],[-110.022559,38.978971],[-110.022587,38.964451],[-110.003977,38.964446],[-110.003984,38.949911],[-110.041198,38.949932],[-110.041199,38.957192],[-110.05051,38.957188],[-110.050505,38.964452],[-110.069134,38.964448],[-110.069114,38.978983],[-110.105688,38.979796],[-110.1057,38.983385],[-110.147882,38.97975],[-110.149282,38.971886],[-110.136354,38.961151],[-110.152475,38.95029],[-110.13868,38.94165],[-110.135396,38.926532],[-110.173316,38.927037],[-110.179296,38.908097],[-110.159825,38.891247],[-110.162327,38.863713],[-110.137974,38.867883],[-110.137129,38.856766],[-110.145579,38.839278],[-110.120725,38.832263],[-110.124675,38.821169],[-110.112369,38.818611],[-110.106275,38.810774],[-110.105527,38.800167],[-110.121511,38.791258],[-110.108847,38.77847],[-110.091139,38.770588],[-110.081552,38.754824],[-110.101871,38.746908],[-110.11362,38.730655],[-110.107443,38.714356],[-110.123117,38.708081],[-110.115347,38.705823],[-110.099365,38.714222],[-110.087864,38.713686],[-110.086568,38.706147],[-110.101102,38.69354],[-110.08665,38.677122],[-110.094192,38.6661],[-110.071353,38.672779],[-110.068609,38.667558],[-110.074218,38.659154],[-110.068179,38.656817],[-110.056478,38.661418],[-110.060023,38.650475],[-110.054048,38.645935],[-110.048717,38.648108],[-110.045121,38.659731],[-110.035826,38.65399],[-110.049312,38.634402],[-110.042437,38.617043],[-110.065185,38.619737],[-110.067499,38.610911],[-110.056295,38.605247],[-110.02453,38.608934],[-110.014752,38.623991],[-109.997968,38.614508],[-109.995586,38.598803],[-109.999293,38.589832],[-110.015919,38.588112],[-110.033604,38.604589],[-110.058723,38.581998],[-110.044493,38.578468],[-110.036905,38.571124],[-110.023651,38.57721],[-110.014313,38.561163],[-109.998087,38.56877],[-109.987992,38.563807],[-110.00577,38.542305],[-109.994901,38.524306],[-110.012726,38.52448],[-110.01821,38.513],[-110.035591,38.518692],[-110.045387,38.514365],[-110.044333,38.507377],[-110.025285,38.499982],[-111.305701,38.499998],[-111.307011,38.672331]]]}},{"type":"Feature","properties":{"GEOID":"49051","NAME":"Wasatch","state":"UT","wildfire_risk_score":94.211,"wildfire_eal_total":4405575.15,"risk_band":"High","source":"FEMA National Risk Index v1.20 (December 2025)"},"geometry":{"type":"Polygon","coordinates":[[[-111.620725,40.451322],[-111.609449,40.466321],[-111.595075,40.467636],[-111.57481,40.486866],[-111.579126,40.500356],[-111.56973,40.526617],[-111.572609,40.537575],[-111.567882,40.547482],[-111.593879,40.577063],[-111.564402,40.584694],[-111.554213,40.608489],[-111.540267,40.613175],[-111.500494,40.606092],[-111.489794,40.599332],[-111.485611,40.601828],[-111.482625,40.609038],[-111.486884,40.620844],[-111.47416,40.632451],[-111.473691,40.643095],[-111.430372,40.665092],[-111.436636,40.685976],[-111.412192,40.681151],[-111.393613,40.69036],[-111.390198,40.660643],[-111.376386,40.642613],[-111.375004,40.632683],[-111.32621,40.622932],[-111.302889,40.60594],[-111.294198,40.608165],[-111.285434,40.597313],[-111.25272,40.581843],[-111.212303,40.573942],[-111.15153,40.548332],[-111.137461,40.558276],[-111.133313,40.574984],[-111.12087,40.590457],[-111.079106,40.594551],[-111.055594,40.581876],[-111.031169,40.575962],[-111.010498,40.592071],[-110.975761,40.593143],[-110.96256,40.604932],[-110.960699,40.624206],[-110.945038,40.64648],[-110.948823,40.661331],[-110.944431,40.672604],[-110.933525,40.680336],[-110.90195,40.682187],[-110.902928,40.431287],[-110.896604,40.431286],[-110.891655,39.899654],[-111.083102,39.900059],[-111.083061,39.943198],[-111.131073,39.947326],[-111.120145,39.957267],[-111.119271,39.968156],[-111.129009,39.970344],[-111.143043,39.986955],[-111.152196,39.985059],[-111.159558,39.991794],[-111.167879,39.990936],[-111.171665,40.010657],[-111.197708,40.031179],[-111.203919,40.04927],[-111.226705,40.035693],[-111.238231,40.038734],[-111.246207,40.047466],[-111.249227,40.055595],[-111.236031,40.069998],[-111.240564,40.073278],[-111.241415,40.091896],[-111.221464,40.124918],[-111.224856,40.142512],[-111.231328,40.147627],[-111.225433,40.167022],[-111.247814,40.193636],[-111.258293,40.198267],[-111.264781,40.209495],[-111.261849,40.210735],[-111.272017,40.219433],[-111.273617,40.236215],[-111.264839,40.242271],[-111.279015,40.258902],[-111.29374,40.265546],[-111.29791,40.27308],[-111.307968,40.274603],[-111.307078,40.282649],[-111.315246,40.287605],[-111.32813,40.282229],[-111.336712,40.288294],[-111.360176,40.288557],[-111.377558,40.297483],[-111.396937,40.292445],[-111.410513,40.295105],[-111.412872,40.289407],[-111.426646,40.28702],[-111.451741,40.293415],[-111.457316,40.300714],[-111.438023,40.321843],[-111.453295,40.334267],[-111.453153,40.340284],[-111.462464,40.340339],[-111.462281,40.347484],[-111.471578,40.347584],[-111.480536,40.354957],[-111.480337,40.362169],[-111.555235,40.362696],[-111.555459,40.369898],[-111.560195,40.369837],[-111.560097,40.38777],[-111.574209,40.391373],[-111.574268,40.412907],[-111.583675,40.412845],[-111.583803,40.420211],[-111.599564,40.434772],[-111.612463,40.431899],[-111.620725,40.451322]]]}},{"type":"Feature","properties":{"GEOID":"49007","NAME":"Carbon","state":"UT","wildfire_risk_score":66.826,"wildfire_eal_total":140278.5,"risk_band":"Low","source":"FEMA National Risk Index v1.20 (December 2025)"},"geometry":{"type":"Polygon","coordinates":[[[-111.247496,39.813028],[-109.88308,39.806236],[-109.892919,39.799486],[-109.8783,39.793735],[-109.874021,39.785762],[-109.919012,39.786123],[-109.92163,39.799364],[-109.928027,39.797967],[-109.920974,39.773413],[-109.930947,39.748414],[-109.945076,39.749952],[-109.954016,39.73413],[-109.950159,39.719582],[-109.961781,39.725705],[-109.960954,39.738402],[-109.965326,39.742234],[-109.992662,39.737679],[-109.99315,39.731023],[-109.970529,39.709861],[-109.977636,39.704128],[-109.993845,39.703233],[-109.994268,39.69331],[-110.005105,39.687175],[-110.002771,39.682425],[-109.987651,39.683722],[-109.984332,39.664677],[-109.996019,39.646191],[-110.010234,39.646829],[-110.011569,39.637599],[-109.99727,39.626934],[-110.011303,39.624962],[-110.017902,39.609402],[-110.028978,39.600651],[-110.02828,39.59449],[-110.01861,39.586525],[-110.038035,39.567018],[-110.036655,39.559887],[-110.029106,39.554915],[-110.029445,39.541033],[-110.04823,39.53315],[-110.039736,39.524985],[-110.025429,39.521146],[-110.022335,39.499536],[-110.014676,39.490902],[-110.024592,39.477018],[-110.023963,39.469268],[-111.081333,39.467455],[-111.074689,39.491141],[-111.081571,39.498034],[-111.08553,39.521846],[-111.098208,39.536018],[-111.107438,39.538064],[-111.106492,39.546522],[-111.116335,39.551882],[-111.118752,39.562747],[-111.113552,39.568775],[-111.120299,39.57244],[-111.132248,39.613876],[-111.137744,39.615217],[-111.140381,39.608651],[-111.148763,39.606247],[-111.148226,39.600275],[-111.157057,39.596013],[-111.170492,39.603387],[-111.176088,39.61433],[-111.186239,39.619495],[-111.192693,39.641322],[-111.201982,39.64555],[-111.201311,39.657121],[-111.22164,39.675329],[-111.222155,39.692505],[-111.229212,39.693307],[-111.230064,39.699514],[-111.237396,39.703141],[-111.24746,39.704373],[-111.247496,39.813028]]]}},{"type":"Feature","properties":{"GEOID":"49013","NAME":"Duchesne","state":"UT","wildfire_risk_score":80.439,"wildfire_eal_total":576846.61,"risk_band":"Moderate","source":"FEMA National Risk Index v1.20 (December 2025)"},"geometry":{"type":"Polygon","coordinates":[[[-110.905004,40.694629],[-110.902999,40.706365],[-110.885154,40.716329],[-110.894455,40.723567],[-110.89239,40.726959],[-110.875259,40.728323],[-110.862547,40.721619],[-110.847477,40.725267],[-110.823406,40.710476],[-110.806712,40.711571],[-110.783217,40.730963],[-110.774615,40.731359],[-110.76522,40.737034],[-110.766349,40.741387],[-110.750556,40.747557],[-110.721656,40.745473],[-110.71296,40.752829],[-110.690528,40.741516],[-110.656482,40.740275],[-110.63374,40.765433],[-110.623828,40.76963],[-110.607022,40.757265],[-110.583176,40.762717],[-110.575887,40.756476],[-110.562017,40.757902],[-110.547031,40.773733],[-110.533516,40.771081],[-110.523512,40.761504],[-110.497808,40.768647],[-110.487114,40.780289],[-110.472616,40.771845],[-110.461609,40.776087],[-110.457195,40.78321],[-110.432312,40.77851],[-110.423966,40.791902],[-110.411001,40.784299],[-110.373845,40.788162],[-110.352252,40.803276],[-110.351122,40.815751],[-110.342479,40.823453],[-110.320321,40.82051],[-110.292692,40.833343],[-110.282525,40.828118],[-110.260967,40.834824],[-110.238205,40.82819],[-110.229387,40.830807],[-110.202661,40.821802],[-110.187809,40.826139],[-110.1759,40.817699],[-110.158795,40.821016],[-110.139501,40.810993],[-110.126514,40.814935],[-110.102622,40.807901],[-110.05203,40.812293],[-110.042697,40.820671],[-110.025162,40.820497],[-110.012984,40.813678],[-109.993528,40.815133],[-109.987862,40.807618],[-109.976402,40.809686],[-109.976756,39.80623],[-110.518198,39.806719],[-110.518195,39.811641],[-110.85778,39.813285],[-110.857647,39.899707],[-110.891655,39.899654],[-110.896604,40.431286],[-110.902928,40.431287],[-110.900659,40.68354],[-110.905004,40.694629]]]}},{"type":"Feature","properties":{"GEOID":"49055","NAME":"Wayne","state":"UT","wildfire_risk_score":53.69,"wildfire_eal_total":54437.91,"risk_band":"Low","source":"FEMA National Risk Index v1.20 (December 2025)"},"geometry":{"type":"Polygon","coordinates":[[[-111.848761,38.424933],[-111.837567,38.428501],[-111.823569,38.457218],[-111.756302,38.510147],[-111.305665,38.510169],[-111.305701,38.499998],[-110.025285,38.499982],[-110.001977,38.481678],[-110.010662,38.449741],[-110.018553,38.446293],[-110.035991,38.459929],[-110.043449,38.456664],[-110.044318,38.449011],[-110.026588,38.447432],[-110.003217,38.413617],[-110.031037,38.392621],[-110.032662,38.385985],[-110.010249,38.377605],[-110.015815,38.364735],[-110.011771,38.364168],[-109.984718,38.388319],[-109.976682,38.388993],[-109.973002,38.375916],[-109.986996,38.360041],[-109.983714,38.352037],[-109.9644,38.339743],[-109.95514,38.344297],[-109.952145,38.355211],[-109.94094,38.353294],[-109.948737,38.337593],[-109.964999,38.331804],[-109.963349,38.319492],[-109.946379,38.309198],[-109.949101,38.290193],[-109.928896,38.281661],[-109.934606,38.261755],[-109.926399,38.260013],[-109.911254,38.27059],[-109.904978,38.267565],[-109.901791,38.256807],[-109.918257,38.242771],[-109.912143,38.238582],[-109.899263,38.242905],[-109.888554,38.228781],[-109.916276,38.227274],[-109.920466,38.220882],[-109.910362,38.211295],[-109.887739,38.207649],[-109.903942,38.18998],[-109.885106,38.18818],[-109.889969,38.181111],[-109.90354,38.178368],[-109.932573,38.157245],[-109.927974,38.151751],[-111.843215,38.151233],[-111.848761,38.424933]]]}},{"type":"Feature","properties":{"GEOID":"49043","NAME":"Summit","state":"UT","wildfire_risk_score":96.533,"wildfire_eal_total":10689197.79,"risk_band":"High","source":"FEMA National Risk Index v1.20 (December 2025)"},"geometry":{"type":"Polygon","coordinates":[[[-111.647979,40.7763],[-111.643041,40.785943],[-111.648743,40.792245],[-111.646484,40.79757],[-111.613228,40.811135],[-111.594217,40.805001],[-111.581463,40.789269],[-111.559286,40.784693],[-111.557838,40.78069],[-111.527465,40.785752],[-111.519425,40.791689],[-111.511607,40.807902],[-111.516922,40.819386],[-111.50006,40.832022],[-111.48784,40.854318],[-111.481015,40.854552],[-111.483953,40.869994],[-111.509768,40.897781],[-111.508456,40.909422],[-111.514908,40.916888],[-111.528796,40.919104],[-111.52483,40.953418],[-111.534265,40.958152],[-111.549246,40.954027],[-111.562451,40.960176],[-111.57739,40.958422],[-111.587878,40.965654],[-111.592981,40.993015],[-111.566632,41.000484],[-111.56873,41.002884],[-111.554444,41.016628],[-111.55507,41.032202],[-111.541049,41.045279],[-111.50751,41.063234],[-111.490544,41.061085],[-111.472085,41.065058],[-111.447573,41.081875],[-111.424059,41.080058],[-111.413183,41.073998],[-111.380653,41.086993],[-111.381628,41.096859],[-111.367555,41.119631],[-111.366915,41.129943],[-111.34636,41.128671],[-111.332389,41.138101],[-111.307005,41.130931],[-111.290594,41.143202],[-111.232824,41.142881],[-111.20618,41.162267],[-111.175765,41.170291],[-111.141074,41.187076],[-111.1295,41.197562],[-111.133157,41.206858],[-111.110303,41.21469],[-111.101536,41.207712],[-111.075837,41.243275],[-111.061612,41.251077],[-111.046551060424,41.251626854311],[-111.046723,40.997959],[-110.000708,40.997352],[-110.000711,40.813678],[-110.042697,40.820671],[-110.05203,40.812293],[-110.102622,40.807901],[-110.126514,40.814935],[-110.139501,40.810993],[-110.158795,40.821016],[-110.1759,40.817699],[-110.187809,40.826139],[-110.202661,40.821802],[-110.229387,40.830807],[-110.238205,40.82819],[-110.260967,40.834824],[-110.282525,40.828118],[-110.292692,40.833343],[-110.320321,40.82051],[-110.342479,40.823453],[-110.351122,40.815751],[-110.352252,40.803276],[-110.373845,40.788162],[-110.411001,40.784299],[-110.423966,40.791902],[-110.432312,40.77851],[-110.457195,40.78321],[-110.461609,40.776087],[-110.472616,40.771845],[-110.487114,40.780289],[-110.497808,40.768647],[-110.523512,40.761504],[-110.533516,40.771081],[-110.547031,40.773733],[-110.562017,40.757902],[-110.575887,40.756476],[-110.583176,40.762717],[-110.607022,40.757265],[-110.623828,40.76963],[-110.63374,40.765433],[-110.656482,40.740275],[-110.690528,40.741516],[-110.71296,40.752829],[-110.721656,40.745473],[-110.750556,40.747557],[-110.766349,40.741387],[-110.76522,40.737034],[-110.774615,40.731359],[-110.783217,40.730963],[-110.806712,40.711571],[-110.823406,40.710476],[-110.847477,40.725267],[-110.862547,40.721619],[-110.875259,40.728323],[-110.89239,40.726959],[-110.894455,40.723567],[-110.885154,40.716329],[-110.902999,40.706365],[-110.904953,40.693206],[-110.900659,40.68354],[-110.933525,40.680336],[-110.944431,40.672604],[-110.948823,40.661331],[-110.945038,40.64648],[-110.960699,40.624206],[-110.96256,40.604932],[-110.975761,40.593143],[-111.010498,40.592071],[-111.031169,40.575962],[-111.055594,40.581876],[-111.079106,40.594551],[-111.12087,40.590457],[-111.133313,40.574984],[-111.137461,40.558276],[-111.15153,40.548332],[-111.212303,40.573942],[-111.25272,40.581843],[-111.285434,40.597313],[-111.294198,40.608165],[-111.302889,40.60594],[-111.32621,40.622932],[-111.375004,40.632683],[-111.376386,40.642613],[-111.390198,40.660643],[-111.393613,40.69036],[-111.412192,40.681151],[-111.436636,40.685976],[-111.430372,40.665092],[-111.473691,40.643095],[-111.47416,40.632451],[-111.486884,40.620844],[-111.482625,40.609038],[-111.489794,40.599332],[-111.500494,40.606092],[-111.527942,40.612051],[-111.553266,40.609313],[-111.559025,40.614202],[-111.557585,40.619598],[-111.576051,40.632778],[-111.579488,40.645301],[-111.593872,40.651656],[-111.604535,40.666574],[-111.593961,40.702778],[-111.614638,40.719384],[-111.61334,40.727939],[-111.623469,40.731739],[-111.624184,40.741604],[-111.61745,40.746418],[-111.623483,40.75347],[-111.621334,40.758219],[-111.63741,40.763897],[-111.647979,40.7763]]]}},{"type":"Feature","properties":{"GEOID":"49025","NAME":"Kane","state":"UT","wildfire_risk_score":88.041,"wildfire_eal_total":1135471.67,"risk_band":"Moderate","source":"FEMA National Risk Index v1.20 (December 2025)"},"geometry":{"type":"Polygon","coordinates":[[[-112.900474,37.434892],[-112.901162,37.543486],[-112.361167,37.542805],[-112.36117,37.536859],[-112.164918,37.535904],[-110.646731,37.540566],[-110.660506,37.5261],[-110.668115,37.497027],[-110.639432,37.488559],[-110.665803,37.477803],[-110.718813,37.481294],[-110.725779,37.47181],[-110.726527,37.459147],[-110.747583,37.458486],[-110.726086,37.435733],[-110.71015,37.437474],[-110.699833,37.433348],[-110.707748,37.410378],[-110.716958,37.401378],[-110.723212,37.39945],[-110.745454,37.40768],[-110.753591,37.403732],[-110.743254,37.386935],[-110.722818,37.373151],[-110.735745,37.358574],[-110.73619,37.345978],[-110.743058,37.345232],[-110.751189,37.352983],[-110.760535,37.332491],[-110.769044,37.33135],[-110.777044,37.323],[-110.804506,37.320931],[-110.856675,37.348529],[-110.87326,37.34593],[-110.868159,37.328654],[-110.840791,37.318376],[-110.838907,37.299561],[-110.84941,37.291917],[-110.873048,37.286904],[-110.873267,37.277726],[-110.860741,37.260116],[-110.888562,37.247941],[-110.875163,37.229886],[-110.897508,37.215881],[-110.889008,37.201483],[-110.89044,37.193069],[-110.90295,37.183415],[-110.902945,37.172348],[-110.92508,37.17779],[-110.925577,37.159627],[-110.937001,37.147982],[-110.953698,37.151921],[-110.955696,37.143993],[-110.950653,37.133895],[-110.956624,37.125771],[-110.981267,37.127377],[-110.984588,37.124634],[-110.981753,37.117237],[-110.987347,37.112343],[-111.013372,37.115705],[-111.04247,37.10764],[-111.05264,37.098914],[-111.065402,37.107873],[-111.077963,37.102655],[-111.122183,37.107904],[-111.139159,37.088613],[-111.151333,37.091329],[-111.166528,37.105664],[-111.175948,37.103271],[-111.218216,37.056678],[-111.226007,37.057934],[-111.233892,37.069484],[-111.239463,37.068674],[-111.247623,37.048666],[-111.229927,37.039317],[-111.243183,37.021239],[-111.250988,37.02559],[-111.268179,37.054073],[-111.30177,37.066347],[-111.305838,37.056858],[-111.302383,37.046047],[-111.281756,37.04122],[-111.306211,37.026628],[-111.306239,37.012552],[-111.312861,37.01157],[-111.330476,37.020708],[-111.345143,37.00874],[-111.371438,37.001589],[-111.403482,37.005194],[-111.413013987341,37.0014775769675],[-112.899190902278,37.0003197266157],[-112.900474,37.434892]]]}},{"type":"Feature","properties":{"GEOID":"49005","NAME":"Cache","state":"UT","wildfire_risk_score":85.337,"wildfire_eal_total":1068003.52,"risk_band":"Moderate","source":"FEMA National Risk Index v1.20 (December 2025)"},"geometry":{"type":"Polygon","coordinates":[[[-112.165818,41.995694],[-111.50780068982,41.9995408086528],[-111.507955,41.988009],[-111.484651,41.975673],[-111.483409,41.96391],[-111.476083,41.958126],[-111.473248,41.946997],[-111.476715,41.935256],[-111.471501,41.928234],[-111.478333,41.912769],[-111.50365,41.913701],[-111.511545,41.908606],[-111.500394,41.898174],[-111.503153,41.88802],[-111.492179,41.8837],[-111.494412,41.873678],[-111.50924,41.868734],[-111.501977,41.860932],[-111.507789,41.852559],[-111.461103,41.818262],[-111.450845,41.792539],[-111.454656,41.77957],[-111.449539,41.771941],[-111.443467,41.771581],[-111.44199,41.73609],[-111.417537,41.72037],[-111.419968,41.696735],[-111.426876,41.694526],[-111.426826,41.677858],[-111.415268,41.675983],[-111.413995,41.666619],[-111.406666,41.666473],[-111.401634,41.654076],[-111.416501,41.638873],[-111.411956,41.625639],[-111.42984,41.618191],[-111.42757,41.578736],[-111.433462,41.552962],[-111.444853,41.544807],[-111.442464,41.532264],[-111.458585,41.532003],[-111.456429,41.521122],[-111.478186,41.503755],[-111.475589,41.488599],[-111.481487,41.477036],[-111.490559,41.472208],[-111.489898,41.466331],[-111.500757,41.464449],[-111.503538,41.459411],[-111.505991,41.443779],[-111.500761,41.437624],[-111.510815,41.423138],[-111.531444,41.414639],[-111.541523,41.405063],[-111.55137,41.413724],[-111.55425,41.423848],[-111.564356,41.423155],[-111.575034,41.428917],[-111.583766,41.418495],[-111.618433,41.422386],[-111.640107,41.414517],[-111.647502,41.405436],[-111.666368,41.428614],[-111.678877,41.427274],[-111.695982,41.417069],[-111.707952,41.425344],[-111.721141,41.427238],[-111.718573,41.416855],[-111.706781,41.413077],[-111.706543,41.404855],[-111.726726,41.384957],[-111.725798,41.376276],[-111.746299,41.369785],[-111.766545,41.370023],[-111.789225,41.384577],[-111.792709,41.391323],[-111.813606,41.387997],[-111.827511,41.392712],[-111.836528,41.38795],[-111.868588,41.398665],[-111.88005,41.414373],[-111.872602,41.421996],[-111.885532,41.426343],[-111.881548,41.441174],[-111.892637,41.442497],[-111.900502,41.448351],[-111.900109,41.453691],[-111.916588,41.460375],[-111.912888,41.469781],[-111.878337,41.474228],[-111.875559,41.489689],[-111.884156,41.496023],[-111.905169,41.49685],[-111.909117,41.507097],[-111.905817,41.514973],[-111.9119,41.518518],[-111.916352,41.538406],[-111.926703,41.536972],[-111.940593,41.552474],[-111.972553,41.543569],[-111.977803,41.535154],[-111.983896,41.535921],[-111.996606,41.557572],[-111.994107,41.566125],[-112.006348,41.592504],[-112.004638,41.629624],[-112.01552,41.641809],[-112.015874,41.658275],[-112.030904,41.681839],[-112.045072,41.68685],[-112.051869,41.699906],[-112.042792,41.710433],[-112.043992,41.734848],[-112.033869,41.749653],[-112.033171,41.766824],[-112.026371,41.776412],[-112.014573,41.78066],[-112.008626,41.794637],[-112.018188,41.804568],[-112.029718,41.8085],[-112.028355,41.819731],[-112.046154,41.842036],[-112.052863,41.866231],[-112.063982,41.867952],[-112.063697,41.875061],[-112.085494,41.903311],[-112.10515,41.910861],[-112.118222,41.923122],[-112.134179,41.958981],[-112.150877,41.970564],[-112.153841,41.985012],[-112.165818,41.995694]]]}},{"type":"Feature","properties":{"GEOID":"49003","NAME":"Box Elder","state":"UT","wildfire_risk_score":95.356,"wildfire_eal_total":6485433.03,"risk_band":"High","source":"FEMA National Risk Index v1.20 (December 2025)"},"geometry":{"type":"Polygon","coordinates":[[[-114.042553,41.210923],[-114.041477,41.993873],[-113.867726,41.988209],[-112.775055,41.999806],[-112.173148,42.001515],[-112.159177687464,41.9984104056753],[-112.165818,41.995694],[-112.153841,41.985012],[-112.150877,41.970564],[-112.134179,41.958981],[-112.118222,41.923122],[-112.10515,41.910861],[-112.085494,41.903311],[-112.063697,41.875061],[-112.063982,41.867952],[-112.052863,41.866231],[-112.046154,41.842036],[-112.028355,41.819731],[-112.029718,41.8085],[-112.018188,41.804568],[-112.008626,41.794637],[-112.014573,41.78066],[-112.026371,41.776412],[-112.033171,41.766824],[-112.033869,41.749653],[-112.043992,41.734848],[-112.042792,41.710433],[-112.051869,41.699906],[-112.045072,41.68685],[-112.030904,41.681839],[-112.015874,41.658275],[-112.013197,41.63607],[-112.004638,41.629624],[-112.007707,41.623522],[-112.003712,41.609375],[-112.007721,41.59977],[-111.994107,41.566125],[-111.996606,41.557572],[-111.981833,41.534102],[-111.972553,41.543569],[-111.961955,41.543601],[-111.946089,41.553029],[-111.936724,41.550709],[-111.928323,41.537937],[-111.916352,41.538406],[-111.9119,41.518518],[-111.905817,41.514973],[-111.909117,41.507097],[-111.905169,41.49685],[-111.884156,41.496023],[-111.873314,41.485743],[-111.878337,41.474228],[-111.896221,41.46952],[-111.906387,41.472066],[-111.916801,41.464458],[-111.916588,41.460375],[-111.900109,41.453691],[-111.897457,41.44542],[-111.881548,41.441174],[-111.88368,41.427913],[-111.893012,41.418095],[-111.927172,41.412776],[-111.938109,41.41579],[-111.958286,41.433873],[-111.972365,41.42009],[-111.967451,41.395663],[-111.975759,41.384158],[-111.974405,41.376565],[-111.963247,41.365489],[-112.008386,41.343848],[-112.020301,41.344225],[-112.028672,41.336512],[-112.238164,41.336551],[-112.493515,41.076888],[-112.799359,40.999939],[-114.042145133139,40.9998965245684],[-114.042553,41.210923]]]}},{"type":"Feature","properties":{"GEOID":"49057","NAME":"Weber","state":"UT","wildfire_risk_score":94.116,"wildfire_eal_total":4465747.62,"risk_band":"High","source":"FEMA National Risk Index v1.20 (December 2025)"},"geometry":{"type":"Polygon","coordinates":[[[-112.493515,41.076888],[-112.238164,41.336551],[-112.028285,41.336636],[-112.023266,41.343104],[-112.008386,41.343848],[-111.963247,41.365489],[-111.974405,41.376565],[-111.975759,41.384158],[-111.967451,41.395663],[-111.972365,41.42009],[-111.958286,41.433873],[-111.938109,41.41579],[-111.927172,41.412776],[-111.893012,41.418095],[-111.885532,41.426343],[-111.875676,41.423661],[-111.872602,41.421996],[-111.88005,41.414373],[-111.868588,41.398665],[-111.836528,41.38795],[-111.827511,41.392712],[-111.813606,41.387997],[-111.792709,41.391323],[-111.780728,41.378618],[-111.76059,41.368818],[-111.725798,41.376276],[-111.726726,41.384957],[-111.710509,41.396994],[-111.706781,41.413077],[-111.718573,41.416855],[-111.721141,41.427238],[-111.707952,41.425344],[-111.695982,41.417069],[-111.678877,41.427274],[-111.666368,41.428614],[-111.647502,41.405436],[-111.640107,41.414517],[-111.618433,41.422386],[-111.583766,41.418495],[-111.575034,41.428917],[-111.564356,41.423155],[-111.55425,41.423848],[-111.55137,41.413724],[-111.541523,41.405063],[-111.531444,41.414639],[-111.510815,41.423138],[-111.508028,41.41406],[-111.49902,41.408122],[-111.475449,41.399836],[-111.477618,41.384348],[-111.463119,41.379781],[-111.459296,41.373558],[-111.447833,41.372865],[-111.445868,41.366931],[-111.432127,41.361997],[-111.423807,41.365083],[-111.420728,41.361308],[-111.426827,41.342685],[-111.437976,41.337935],[-111.437684,41.323258],[-111.44941,41.315707],[-111.43907,41.294755],[-111.44601,41.285271],[-111.445121,41.278057],[-111.458074,41.273286],[-111.458144,41.267874],[-111.46646,41.262479],[-111.464435,41.258111],[-111.478181,41.250488],[-111.477557,41.245204],[-111.494614,41.240988],[-111.491242,41.237611],[-111.497182,41.226905],[-111.506059,41.230927],[-111.526123,41.228752],[-111.534975,41.235928],[-111.55961,41.240069],[-111.591835,41.240558],[-111.608965,41.229432],[-111.611712,41.209866],[-111.622761,41.205794],[-111.624959,41.199977],[-111.640364,41.198947],[-111.656872,41.186142],[-111.666606,41.187587],[-111.684765,41.180606],[-111.717404,41.186642],[-111.727487,41.19692],[-111.745519,41.203763],[-111.749082,41.214541],[-111.764929,41.208029],[-111.774481,41.218145],[-111.799956,41.217199],[-111.81754,41.204753],[-111.858208,41.197596],[-111.872951,41.187774],[-111.868828,41.181065],[-111.876596,41.169744],[-111.870118,41.160769],[-111.85483,41.154723],[-111.856247,41.139083],[-111.861255,41.137511],[-111.910755,41.134575],[-111.920334,41.138551],[-111.949489,41.138073],[-111.962322,41.149402],[-111.987803,41.154384],[-112.18654,41.153027],[-112.493515,41.076888]]]}},{"type":"Feature","properties":{"GEOID":"49047","NAME":"Uintah","state":"UT","wildfire_risk_score":71.374,"wildfire_eal_total":260370.31,"risk_band":"Low","source":"FEMA National Risk Index v1.20 (December 2025)"},"geometry":{"type":"Polygon","coordinates":[[[-110.047609,39.534384],[-110.029445,39.541033],[-110.029106,39.554915],[-110.036655,39.559887],[-110.038035,39.567018],[-110.01861,39.586525],[-110.02828,39.59449],[-110.028978,39.600651],[-110.017902,39.609402],[-110.011303,39.624962],[-109.99727,39.626934],[-110.011569,39.637599],[-110.010234,39.646829],[-109.996019,39.646191],[-109.984332,39.664677],[-109.987651,39.683722],[-110.002771,39.682425],[-110.005105,39.687175],[-109.994268,39.69331],[-109.993845,39.703233],[-109.977636,39.704128],[-109.970529,39.709861],[-109.99315,39.731023],[-109.992662,39.737679],[-109.965326,39.742234],[-109.960954,39.738402],[-109.961781,39.725705],[-109.950159,39.719582],[-109.954016,39.73413],[-109.945076,39.749952],[-109.930947,39.748414],[-109.920974,39.773413],[-109.928027,39.797967],[-109.92163,39.799364],[-109.919012,39.786123],[-109.874021,39.785762],[-109.8783,39.793735],[-109.892919,39.799486],[-109.88308,39.806236],[-109.976756,39.80623],[-109.976402,40.809686],[-109.969602,40.810534],[-109.962918,40.803401],[-109.941422,40.795014],[-109.932179,40.796691],[-109.918353,40.790751],[-109.913914,40.782447],[-109.897014,40.782091],[-109.893541,40.77318],[-109.883131,40.774967],[-109.867324,40.764075],[-109.834146,40.768415],[-109.831706,40.775809],[-109.817188,40.779246],[-109.764632,40.782668],[-109.752603,40.802947],[-109.731856,40.794609],[-109.720262,40.801795],[-109.703441,40.803562],[-109.675862,40.795173],[-109.653317,40.799565],[-109.631972,40.815835],[-109.619943,40.812675],[-109.614695,40.818155],[-109.599658,40.815447],[-109.581151,40.825359],[-109.571592,40.819359],[-109.571801,40.813736],[-109.529546,40.827623],[-109.513328,40.8107],[-109.512096,40.792051],[-109.518804,40.782463],[-109.514537,40.77135],[-109.516302,40.754843],[-109.484213,40.740466],[-109.474228,40.743884],[-109.467479,40.75592],[-109.436537,40.757698],[-109.44115,40.765323],[-109.4342,40.777258],[-109.394465,40.791032],[-109.394491,40.858166],[-109.202158,40.858412],[-109.201412,40.785747],[-109.163425,40.785955],[-109.161063,40.683765],[-109.123457,40.684128],[-109.123348,40.662385],[-109.048372974241,40.662608858969],[-109.051362941959,39.4977032760106],[-109.062963,39.499616],[-109.068751,39.495586],[-109.072853,39.499875],[-109.076753,39.489191],[-109.087318,39.492334],[-109.096039,39.471228],[-109.104297,39.469372],[-109.106908,39.4621],[-109.953349,39.461801],[-109.953349,39.46927],[-110.023963,39.469268],[-110.024592,39.477018],[-110.014676,39.490902],[-110.022335,39.499536],[-110.025429,39.521146],[-110.039736,39.524985],[-110.047609,39.534384]]]}},{"type":"Feature","properties":{"GEOID":"49029","NAME":"Morgan","state":"UT","wildfire_risk_score":84.097,"wildfire_eal_total":1232821.3,"risk_band":"Moderate","source":"FEMA National Risk Index v1.20 (December 2025)"},"geometry":{"type":"Polygon","coordinates":[[[-111.874631,41.173454],[-111.868828,41.181065],[-111.872951,41.187774],[-111.858208,41.197596],[-111.81754,41.204753],[-111.799956,41.217199],[-111.774481,41.218145],[-111.764929,41.208029],[-111.749082,41.214541],[-111.745519,41.203763],[-111.727487,41.19692],[-111.717404,41.186642],[-111.684765,41.180606],[-111.666606,41.187587],[-111.656872,41.186142],[-111.640364,41.198947],[-111.624959,41.199977],[-111.622761,41.205794],[-111.611712,41.209866],[-111.608965,41.229432],[-111.591835,41.240558],[-111.55961,41.240069],[-111.534975,41.235928],[-111.526123,41.228752],[-111.506059,41.230927],[-111.497182,41.226905],[-111.491242,41.237611],[-111.494614,41.240988],[-111.477557,41.245204],[-111.478181,41.250488],[-111.464435,41.258111],[-111.46646,41.262479],[-111.458144,41.267874],[-111.458074,41.273286],[-111.445121,41.278057],[-111.44601,41.285271],[-111.43907,41.294755],[-111.44941,41.315707],[-111.437684,41.323258],[-111.437976,41.337935],[-111.426827,41.342685],[-111.420728,41.361308],[-111.404759,41.362169],[-111.40407,41.368757],[-111.39613,41.373314],[-111.384146,41.373958],[-111.367148,41.361661],[-111.331944,41.357472],[-111.3271,41.34549],[-111.295356,41.33043],[-111.293487,41.320545],[-111.296828,41.318496],[-111.292371,41.309409],[-111.284462,41.309446],[-111.286023,41.30561],[-111.261803,41.296681],[-111.25945,41.290795],[-111.277278,41.277383],[-111.274246,41.26439],[-111.280909,41.261404],[-111.276636,41.256865],[-111.277192,41.244909],[-111.269431,41.237263],[-111.281196,41.23037],[-111.281692,41.225163],[-111.254114,41.229056],[-111.256472,41.217829],[-111.252314,41.214678],[-111.233648,41.218271],[-111.221478,41.212723],[-111.231676,41.202651],[-111.225669,41.191264],[-111.235277,41.184218],[-111.234705,41.174714],[-111.260979,41.146314],[-111.290594,41.143202],[-111.307005,41.130931],[-111.332389,41.138101],[-111.34636,41.128671],[-111.366915,41.129943],[-111.367555,41.119631],[-111.381628,41.096859],[-111.380653,41.086993],[-111.413183,41.073998],[-111.424059,41.080058],[-111.446506,41.082133],[-111.474322,41.064292],[-111.50751,41.063234],[-111.523642,41.056231],[-111.55507,41.032202],[-111.554444,41.016628],[-111.56873,41.002884],[-111.566632,41.000484],[-111.592981,40.993015],[-111.587878,40.965654],[-111.583224,40.961163],[-111.562451,40.960176],[-111.551726,40.95407],[-111.534265,40.958152],[-111.52483,40.953418],[-111.528796,40.919104],[-111.510579,40.912095],[-111.509768,40.897781],[-111.486159,40.873124],[-111.479793,40.85987],[-111.481015,40.854552],[-111.491932,40.850097],[-111.505732,40.825381],[-111.516922,40.819386],[-111.516166,40.812786],[-111.510838,40.810384],[-111.519425,40.791689],[-111.531222,40.78432],[-111.554534,40.780039],[-111.581463,40.789269],[-111.594217,40.805001],[-111.611034,40.811057],[-111.641052,40.798925],[-111.64227,40.818454],[-111.656734,40.830496],[-111.665691,40.830658],[-111.660483,40.845079],[-111.669932,40.853591],[-111.695911,40.861784],[-111.712361,40.85168],[-111.738912,40.861174],[-111.746376,40.870904],[-111.768689,40.872279],[-111.762308,40.887845],[-111.781372,40.895542],[-111.776081,40.900496],[-111.779219,40.906428],[-111.783059,40.912844],[-111.793748,40.915965],[-111.792508,40.930155],[-111.8154,40.957718],[-111.790965,40.960942],[-111.782533,40.956798],[-111.775618,40.961361],[-111.806126,41.001685],[-111.820014,41.00652],[-111.825699,41.018499],[-111.838388,41.023484],[-111.839398,41.031372],[-111.833688,41.037012],[-111.839515,41.040665],[-111.844485,41.058857],[-111.851796,41.066651],[-111.84836,41.075739],[-111.855127,41.092718],[-111.851762,41.097688],[-111.856504,41.102882],[-111.856115,41.111911],[-111.844937,41.123979],[-111.849006,41.133758],[-111.857029,41.136897],[-111.85483,41.154723],[-111.870118,41.160769],[-111.876596,41.169744],[-111.874631,41.173454]]]}},{"type":"Feature","properties":{"GEOID":"49017","NAME":"Garfield","state":"UT","wildfire_risk_score":78.276,"wildfire_eal_total":300367.92,"risk_band":"Low","source":"FEMA National Risk Index v1.20 (December 2025)"},"geometry":{"type":"Polygon","coordinates":[[[-112.689297,37.80559],[-112.57855,37.80454],[-112.57847,37.882147],[-112.58856,37.882152],[-112.588517,37.890367],[-112.4683,37.890463],[-112.467021,37.97773],[-112.478965,37.977731],[-112.478822,38.147419],[-112.473446,38.148858],[-112.156305,38.150251],[-112.005299,38.145798],[-111.951281,38.146087],[-111.951247,38.151231],[-111.414163,38.150061],[-111.41411,38.153786],[-109.927266,38.149223],[-109.931442,38.138097],[-109.955868,38.130481],[-109.963999,38.114236],[-109.978552,38.109879],[-109.98655,38.100656],[-110.0101,38.109685],[-110.026283,38.096978],[-110.047165,38.070134],[-110.04288,38.05823],[-110.045556,38.050514],[-110.0653,38.041728],[-110.076801,38.021586],[-110.074012,38.00777],[-110.078387,37.998174],[-110.093116,37.994688],[-110.113567,38.008215],[-110.136293,38.005153],[-110.14557,37.990638],[-110.161226,37.9821],[-110.168663,37.964464],[-110.201849,37.946877],[-110.205779,37.934451],[-110.198407,37.915925],[-110.208795,37.894071],[-110.269488,37.897551],[-110.278505,37.88502],[-110.277265,37.870542],[-110.284149,37.86588],[-110.291093,37.869089],[-110.2951,37.886419],[-110.307976,37.891005],[-110.362729,37.892495],[-110.404221,37.880946],[-110.403076,37.85154],[-110.431476,37.836813],[-110.436562,37.808281],[-110.471058,37.808788],[-110.476961,37.800017],[-110.470153,37.779819],[-110.461565,37.77092],[-110.428731,37.779288],[-110.426481,37.774369],[-110.445699,37.759924],[-110.450217,37.73477],[-110.468312,37.724574],[-110.469124,37.714843],[-110.475926,37.70764],[-110.488351,37.702323],[-110.483551,37.695159],[-110.484534,37.681806],[-110.497992,37.652093],[-110.513167,37.657078],[-110.538987,37.633138],[-110.560654,37.641455],[-110.567389,37.613745],[-110.603788,37.602115],[-110.598218,37.575132],[-110.600546,37.567564],[-110.622198,37.562773],[-110.646731,37.540566],[-112.164918,37.535904],[-112.36117,37.536859],[-112.361167,37.542805],[-112.68375,37.543692],[-112.689297,37.80559]]]}},{"type":"Feature","properties":{"GEOID":"49033","NAME":"Rich","state":"UT","wildfire_risk_score":75.891,"wildfire_eal_total":390206.33,"risk_band":"Low","source":"FEMA National Risk Index v1.20 (December 2025)"},"geometry":{"type":"Polygon","coordinates":[[[-111.511545,41.908606],[-111.50365,41.913701],[-111.478333,41.912769],[-111.471501,41.928234],[-111.476715,41.935256],[-111.473248,41.946997],[-111.476083,41.958126],[-111.483409,41.96391],[-111.484651,41.975673],[-111.507955,41.988009],[-111.50780068982,41.9995408086528],[-111.046714,42.001702],[-111.046551060424,41.251626854311],[-111.073368,41.245279],[-111.101536,41.207712],[-111.110303,41.21469],[-111.133157,41.206858],[-111.1295,41.197562],[-111.141074,41.187076],[-111.175765,41.170291],[-111.20618,41.162267],[-111.232824,41.142881],[-111.264974,41.144044],[-111.234705,41.174714],[-111.235277,41.184218],[-111.225669,41.191264],[-111.231676,41.202651],[-111.22157,41.213868],[-111.233648,41.218271],[-111.252314,41.214678],[-111.256472,41.217829],[-111.254114,41.229056],[-111.281692,41.225163],[-111.281196,41.23037],[-111.269431,41.237263],[-111.277192,41.244909],[-111.276636,41.256865],[-111.280909,41.261404],[-111.274246,41.26439],[-111.277278,41.277383],[-111.25945,41.290795],[-111.261803,41.296681],[-111.286023,41.30561],[-111.284462,41.309446],[-111.292371,41.309409],[-111.296828,41.318496],[-111.293487,41.320545],[-111.295356,41.33043],[-111.3271,41.34549],[-111.331944,41.357472],[-111.367148,41.361661],[-111.384146,41.373958],[-111.402899,41.369522],[-111.404759,41.362169],[-111.420728,41.361308],[-111.423807,41.365083],[-111.432127,41.361997],[-111.445868,41.366931],[-111.447833,41.372865],[-111.459296,41.373558],[-111.463119,41.379781],[-111.477618,41.384348],[-111.475449,41.399836],[-111.49902,41.408122],[-111.510749,41.420857],[-111.510506,41.42805],[-111.500761,41.437624],[-111.505991,41.443779],[-111.503538,41.459411],[-111.500757,41.464449],[-111.489898,41.466331],[-111.490559,41.472208],[-111.481487,41.477036],[-111.475589,41.488599],[-111.478186,41.503755],[-111.456429,41.521122],[-111.458585,41.532003],[-111.442464,41.532264],[-111.444853,41.544807],[-111.433462,41.552962],[-111.42757,41.578736],[-111.42984,41.618191],[-111.411956,41.625639],[-111.416501,41.638873],[-111.401634,41.654076],[-111.406666,41.666473],[-111.413995,41.666619],[-111.415268,41.675983],[-111.426826,41.677858],[-111.426876,41.694526],[-111.419968,41.696735],[-111.417537,41.72037],[-111.44199,41.73609],[-111.443467,41.771581],[-111.449539,41.771941],[-111.454656,41.77957],[-111.450845,41.792539],[-111.461103,41.818262],[-111.507789,41.852559],[-111.501977,41.860932],[-111.50924,41.868734],[-111.494412,41.873678],[-111.492179,41.8837],[-111.503153,41.88802],[-111.500394,41.898174],[-111.511545,41.908606]]]}},{"type":"Feature","properties":{"GEOID":"49045","NAME":"Tooele","state":"UT","wildfire_risk_score":97.265,"wildfire_eal_total":13776437.35,"risk_band":"High","source":"FEMA National Risk Index v1.20 (December 2025)"},"geometry":{"type":"Polygon","coordinates":[[[-114.046658941853,39.9805874893942],[-114.042145133139,40.9998965245684],[-112.799359,40.999939],[-112.493515,41.076888],[-112.227452,40.725306],[-112.207676,40.715721],[-112.200405,40.702979],[-112.19864,40.693193],[-112.204365,40.678646],[-112.202891,40.65419],[-112.19415,40.635607],[-112.197674,40.625462],[-112.175337,40.603981],[-112.174936,40.585401],[-112.183613,40.573036],[-112.178312,40.556415],[-112.182789,40.54098],[-112.178761,40.522017],[-112.187541,40.514098],[-112.175845,40.500142],[-112.181433,40.493918],[-112.171567,40.471182],[-112.172862,40.467065],[-112.19027,40.468518],[-112.195686,40.462259],[-112.212219,40.459282],[-112.214178,40.45231],[-112.209485,40.433068],[-112.19467,40.421062],[-112.201585,40.388154],[-112.188734,40.372487],[-112.194504,40.361198],[-112.175533,40.335837],[-112.196276,40.325836],[-112.192682,40.322891],[-112.198605,40.306915],[-112.19208,40.3041],[-112.186495,40.286858],[-112.192196,40.2645],[-112.183843,40.258132],[-112.183911,40.249963],[-112.179326,40.249365],[-112.176688,40.227717],[-112.168698,40.219307],[-112.153848,40.218217],[-112.149486,40.212174],[-112.158581,40.206629],[-112.160399,40.198849],[-112.148561,40.195355],[-112.146838,40.189655],[-112.153373,40.182158],[-112.144751,40.171716],[-112.155899,40.170168],[-112.158685,40.163387],[-112.173343,40.155403],[-112.167769,40.146666],[-112.176101,40.130806],[-112.163614,40.123189],[-112.151124,40.105242],[-112.157946,40.089107],[-112.172621,40.084571],[-112.175961,40.077716],[-112.172175,40.068273],[-112.180199,40.067042],[-112.183594,40.059655],[-112.171981,40.039484],[-112.1798,40.011656],[-112.224492,39.988541],[-112.236319,39.960523],[-112.270295,39.939017],[-112.28692,39.941131],[-112.302039,39.936643],[-112.309355,39.948394],[-112.323233,39.944471],[-112.332296,39.952789],[-112.33978,39.943681],[-112.335335,39.923673],[-112.343083,39.910847],[-112.341988,39.904458],[-114.047133613292,39.9060976857443],[-114.046658941853,39.9805874893942]]]}},{"type":"Feature","properties":{"GEOID":"49035","NAME":"Salt Lake","state":"UT","wildfire_risk_score":98.346,"wildfire_eal_total":25182532.99,"risk_band":"High","source":"FEMA National Risk Index v1.20 (December 2025)"},"geometry":{"type":"Polygon","coordinates":[[[-112.260216,40.769093],[-112.148271,40.846133],[-112.006566,40.921846],[-111.958672,40.921822],[-111.959266,40.896327],[-111.966147,40.891653],[-111.971069,40.876645],[-111.962892,40.870004],[-111.965876,40.854626],[-111.958898,40.849245],[-111.963003,40.84817],[-111.955872,40.849112],[-111.944287,40.834154],[-111.945863,40.821791],[-111.870503,40.821741],[-111.812006,40.839985],[-111.804888,40.837882],[-111.789225,40.845554],[-111.778016,40.844724],[-111.738912,40.861174],[-111.712361,40.85168],[-111.695911,40.861784],[-111.663996,40.850194],[-111.660483,40.845079],[-111.665691,40.830658],[-111.64565,40.824061],[-111.639046,40.809286],[-111.641052,40.798925],[-111.648743,40.792245],[-111.643041,40.785943],[-111.649129,40.773443],[-111.621334,40.758219],[-111.623483,40.75347],[-111.61745,40.746418],[-111.624184,40.741604],[-111.623469,40.731739],[-111.61334,40.727939],[-111.614638,40.719384],[-111.592726,40.69912],[-111.601107,40.687283],[-111.604535,40.666574],[-111.593872,40.651656],[-111.579488,40.645301],[-111.576051,40.632778],[-111.557585,40.619598],[-111.559025,40.614202],[-111.553266,40.609313],[-111.564402,40.584694],[-111.599457,40.577426],[-111.605677,40.564454],[-111.638091,40.567764],[-111.650309,40.551164],[-111.661805,40.549715],[-111.664099,40.541219],[-111.678451,40.53175],[-111.698113,40.535728],[-111.713141,40.532695],[-111.720567,40.525149],[-111.735106,40.532691],[-111.744226,40.522552],[-111.762587,40.529173],[-111.787972,40.513668],[-111.789943,40.497684],[-111.826318,40.486352],[-111.826322,40.48272],[-111.834767,40.481811],[-111.836245,40.47505],[-111.845798,40.476661],[-111.858392,40.469307],[-111.873749,40.476821],[-111.892379,40.464085],[-111.901033,40.46331],[-111.931153,40.433611],[-111.960041,40.418393],[-111.982136,40.414217],[-111.992573,40.424018],[-112.006146,40.426431],[-112.006624,40.435215],[-112.021339,40.438793],[-112.024534,40.445092],[-112.020572,40.447378],[-112.031508,40.450601],[-112.033231,40.462709],[-112.03817,40.464623],[-112.066561,40.446509],[-112.093295,40.447845],[-112.1119,40.438951],[-112.114781,40.450696],[-112.138795,40.46847],[-112.153642,40.468357],[-112.159967,40.461041],[-112.172862,40.467065],[-112.181433,40.493918],[-112.175845,40.500142],[-112.187541,40.514098],[-112.178761,40.522017],[-112.182789,40.54098],[-112.178312,40.556415],[-112.183613,40.573036],[-112.174936,40.585401],[-112.175337,40.603981],[-112.197674,40.625462],[-112.19415,40.635607],[-112.202891,40.65419],[-112.204365,40.678646],[-112.198777,40.697515],[-112.207676,40.715721],[-112.227452,40.725306],[-112.260216,40.769093]]]}},{"type":"Feature","properties":{"GEOID":"49041","NAME":"Sevier","state":"UT","wildfire_risk_score":78.594,"wildfire_eal_total":452150.21,"risk_band":"Moderate","source":"FEMA National Risk Index v1.20 (December 2025)"},"geometry":{"type":"Polygon","coordinates":[[[-112.522539,38.521344],[-112.515803,38.530617],[-112.518421,38.567702],[-112.515394,38.572845],[-112.503148,38.571377],[-112.503074,38.600568],[-112.484788,38.600632],[-112.484444,38.644647],[-112.475185,38.644675],[-112.475341,38.659257],[-112.466156,38.659267],[-112.466001,38.673917],[-112.447667,38.673923],[-112.447517,38.68127],[-112.365964,38.684218],[-112.356539,38.683855],[-112.356637,38.67674],[-112.309953,38.67629],[-112.30994,38.68341],[-112.28226,38.686874],[-112.28235,38.701527],[-112.255438,38.705047],[-112.255359,38.712306],[-112.24147,38.712524],[-112.23664,38.727104],[-112.218356,38.727361],[-112.219118,38.763987],[-112.228381,38.763987],[-112.224461,38.864803],[-112.188541,38.864787],[-112.18847,38.879447],[-112.171554,38.878616],[-112.169351,38.906132],[-112.15076,38.906509],[-112.151928,38.935473],[-112.134031,38.935453],[-112.133862,38.959302],[-112.065162,38.959302],[-112.065661,38.98843],[-112.056402,38.988368],[-112.056387,38.99568],[-112.018906,38.995902],[-112.014083,39.045518],[-111.849886,39.045577],[-111.846861,39.041936],[-111.853225,39.040646],[-111.853402,39.033368],[-111.299363,39.032311],[-111.299138,38.672329],[-111.307011,38.672331],[-111.305665,38.510169],[-111.756302,38.510147],[-111.766393,38.502243],[-112.061965,38.50209],[-112.062155,38.510476],[-112.518495,38.510413],[-112.522539,38.521344]]]}},{"type":"Feature","properties":{"GEOID":"49053","NAME":"Washington","state":"UT","wildfire_risk_score":99.841,"wildfire_eal_total":67561248.92,"risk_band":"High","source":"FEMA National Risk Index v1.20 (December 2025)"},"geometry":{"type":"Polygon","coordinates":[[[-114.052962,37.592783],[-114.052472,37.604776],[-113.587797,37.604611],[-113.587773,37.618223],[-113.474485,37.618289],[-113.474029,37.529085],[-113.25334,37.528983],[-113.25349,37.482167],[-113.14611,37.481028],[-113.146084,37.474298],[-113.037048,37.474474],[-113.037088,37.499748],[-112.900924,37.500022],[-112.899190902278,37.0003197266157],[-114.0506,37.000396],[-114.052962,37.592783]]]}},{"type":"Feature","properties":{"GEOID":"49021","NAME":"Iron","state":"UT","wildfire_risk_score":97.742,"wildfire_eal_total":14725896.48,"risk_band":"High","source":"FEMA National Risk Index v1.20 (December 2025)"},"geometry":{"type":"Polygon","coordinates":[[[-114.051843685201,37.7240384250769],[-114.049903375658,38.1487630266706],[-112.478822,38.147419],[-112.478965,37.977731],[-112.467021,37.97773],[-112.4683,37.890463],[-112.588517,37.890367],[-112.58856,37.882152],[-112.57847,37.882147],[-112.57855,37.80454],[-112.689297,37.80559],[-112.68375,37.543692],[-112.901162,37.543486],[-112.900924,37.500022],[-113.037088,37.499748],[-113.037048,37.474474],[-113.146084,37.474298],[-113.14611,37.481028],[-113.25349,37.482167],[-113.25334,37.528983],[-113.474029,37.529085],[-113.474485,37.618289],[-113.587773,37.618223],[-113.587797,37.604611],[-114.052472,37.604776],[-114.051843685201,37.7240384250769]]]}},{"type":"Feature","properties":{"GEOID":"49027","NAME":"Millard","state":"UT","wildfire_risk_score":91.221,"wildfire_eal_total":1468836.17,"risk_band":"High","source":"FEMA National Risk Index v1.20 (December 2025)"},"geometry":{"type":"Polygon","coordinates":[[[-114.049883347847,38.677365],[-114.047728,39.542742],[-113.815766,39.54409],[-113.815743,39.552644],[-112.212045,39.553987],[-112.212029,39.54773],[-112.202666,39.540434],[-112.193292,39.540451],[-112.193242,39.526023],[-112.211973,39.526042],[-112.211961,39.511579],[-112.202633,39.504323],[-112.202626,39.489858],[-112.193277,39.489834],[-112.193596,39.37309],[-112.188907,39.373089],[-112.188922,39.329392],[-112.072108,39.329695],[-112.072218,39.314923],[-112.016003,39.314561],[-112.014017,39.024282],[-112.019034,39.024207],[-112.018906,38.995902],[-112.056387,38.99568],[-112.056402,38.988368],[-112.065661,38.98843],[-112.065162,38.959302],[-112.133862,38.959302],[-112.134031,38.935453],[-112.151928,38.935473],[-112.15076,38.906509],[-112.169351,38.906132],[-112.171554,38.878616],[-112.18847,38.879447],[-112.188541,38.864787],[-112.224461,38.864803],[-112.228381,38.763987],[-112.219118,38.763987],[-112.218356,38.727361],[-112.23664,38.727104],[-112.24147,38.712524],[-112.255359,38.712306],[-112.255438,38.705047],[-112.28235,38.701527],[-112.28226,38.686874],[-112.30994,38.68341],[-112.309953,38.67629],[-112.356637,38.67674],[-112.356539,38.683855],[-112.365964,38.684218],[-112.447517,38.68127],[-112.447667,38.673923],[-112.466001,38.673917],[-112.466156,38.659267],[-112.475341,38.659257],[-112.475185,38.644675],[-112.484444,38.644647],[-112.484788,38.600632],[-112.503074,38.600568],[-112.503148,38.571377],[-114.05015385888,38.5729744583009],[-114.049883347847,38.677365]]]}},{"type":"Feature","properties":{"GEOID":"49001","NAME":"Beaver","state":"UT","wildfire_risk_score":85.305,"wildfire_eal_total":683804.12,"risk_band":"Moderate","source":"FEMA National Risk Index v1.20 (December 2025)"},"geometry":{"type":"Polygon","coordinates":[[[-114.050485,38.499955],[-114.05015385888,38.5729744583009],[-112.515394,38.572845],[-112.515803,38.530617],[-112.522539,38.521344],[-112.514339,38.50253],[-112.518822,38.500029],[-112.510107,38.488775],[-112.519142,38.478709],[-112.50992,38.467735],[-112.501142,38.465361],[-112.493381,38.451625],[-112.479229,38.448049],[-112.453011,38.429232],[-112.444433,38.406048],[-112.433645,38.401981],[-112.416787,38.419569],[-112.403034,38.415601],[-112.397656,38.404876],[-112.403863,38.400453],[-112.403795,38.394757],[-112.39807,38.386541],[-112.39139,38.380633],[-112.37436,38.377273],[-112.362637,38.356814],[-112.343485,38.347267],[-112.335442,38.333038],[-112.340821,38.325523],[-112.338821,38.312006],[-112.349087,38.302859],[-112.350698,38.281798],[-112.380833,38.250617],[-112.37144,38.234818],[-112.357205,38.225051],[-112.36493,38.215121],[-112.395054,38.205984],[-112.410527,38.188569],[-112.422741,38.183199],[-112.422454,38.170824],[-112.43491,38.163594],[-112.432897,38.154048],[-112.444214,38.150001],[-114.049903375658,38.1487630266706],[-114.050485,38.499955]]]}},{"type":"Feature","properties":{"GEOID":"49009","NAME":"Daggett","state":"UT","wildfire_risk_score":77.735,"wildfire_eal_total":304481.01,"risk_band":"Low","source":"FEMA National Risk Index v1.20 (December 2025)"},"geometry":{"type":"Polygon","coordinates":[[[-110.000708,40.997352],[-109.050076,41.000659],[-109.048372974241,40.662608858969],[-109.123348,40.662385],[-109.123457,40.684128],[-109.161063,40.683765],[-109.163425,40.785955],[-109.201412,40.785747],[-109.202158,40.858412],[-109.394491,40.858166],[-109.394465,40.791032],[-109.4342,40.777258],[-109.44115,40.765323],[-109.436537,40.757698],[-109.467479,40.75592],[-109.474228,40.743884],[-109.484213,40.740466],[-109.516302,40.754843],[-109.514537,40.77135],[-109.518804,40.782463],[-109.512096,40.792051],[-109.513328,40.8107],[-109.529546,40.827623],[-109.571801,40.813736],[-109.571592,40.819359],[-109.581151,40.825359],[-109.599658,40.815447],[-109.614695,40.818155],[-109.619943,40.812675],[-109.631972,40.815835],[-109.653317,40.799565],[-109.675862,40.795173],[-109.703441,40.803562],[-109.720262,40.801795],[-109.731856,40.794609],[-109.752603,40.802947],[-109.764632,40.782668],[-109.817188,40.779246],[-109.831706,40.775809],[-109.834146,40.768415],[-109.869985,40.764002],[-109.883131,40.774967],[-109.893541,40.77318],[-109.897014,40.782091],[-109.913914,40.782447],[-109.918353,40.790751],[-109.932179,40.796691],[-109.950381,40.798162],[-109.969602,40.810534],[-109.987862,40.807618],[-109.993528,40.815133],[-110.000711,40.813678],[-110.000708,40.997352]]]}},{"type":"Feature","properties":{"GEOID":"49039","NAME":"Sanpete","state":"UT","wildfire_risk_score":89.027,"wildfire_eal_total":1188848.61,"risk_band":"Moderate","source":"FEMA National Risk Index v1.20 (December 2025)"},"geometry":{"type":"Polygon","coordinates":[[[-112.015812,39.336863],[-111.958104,39.336773],[-111.958773,39.366133],[-111.921698,39.366862],[-111.922389,39.381591],[-111.747044,39.38275],[-111.747736,39.460077],[-111.713144,39.460295],[-111.717482,39.69456],[-111.689481,39.695231],[-111.689596,39.71036],[-111.680269,39.710196],[-111.680359,39.717465],[-111.661362,39.717655],[-111.661349,39.725058],[-111.642619,39.725162],[-111.642519,39.739693],[-111.584754,39.740141],[-111.584858,39.784235],[-111.622514,39.783816],[-111.622123,39.798483],[-111.642057,39.798314],[-111.641944,39.812869],[-111.247496,39.813028],[-111.247748,39.467199],[-111.300905,39.467237],[-111.299363,39.032311],[-111.853402,39.033368],[-111.853225,39.040646],[-111.846861,39.041936],[-111.849886,39.045577],[-112.014083,39.045518],[-112.015812,39.336863]]]}},{"type":"Feature","properties":{"GEOID":"49031","NAME":"Piute","state":"UT","wildfire_risk_score":58.715,"wildfire_eal_total":80368.37,"risk_band":"Low","source":"FEMA National Risk Index v1.20 (December 2025)"},"geometry":{"type":"Polygon","coordinates":[[[-112.518982,38.481248],[-112.510107,38.488775],[-112.518822,38.500029],[-112.514339,38.50253],[-112.518495,38.510413],[-112.062155,38.510476],[-112.061965,38.50209],[-111.766393,38.502243],[-111.823569,38.457218],[-111.837567,38.428501],[-111.848761,38.424933],[-111.843215,38.151233],[-111.951247,38.151231],[-111.951281,38.146087],[-112.444214,38.150001],[-112.432897,38.154048],[-112.43491,38.163594],[-112.422454,38.170824],[-112.422741,38.183199],[-112.410527,38.188569],[-112.395054,38.205984],[-112.36493,38.215121],[-112.357205,38.225051],[-112.37144,38.234818],[-112.380833,38.250617],[-112.350698,38.281798],[-112.349087,38.302859],[-112.338821,38.312006],[-112.340821,38.325523],[-112.335442,38.333038],[-112.343485,38.347267],[-112.362637,38.356814],[-112.37436,38.377273],[-112.39139,38.380633],[-112.39807,38.386541],[-112.403795,38.394757],[-112.403863,38.400453],[-112.397656,38.404876],[-112.403034,38.415601],[-112.416787,38.419569],[-112.433645,38.401981],[-112.444433,38.406048],[-112.453011,38.429232],[-112.479229,38.448049],[-112.493381,38.451625],[-112.501142,38.465361],[-112.50992,38.467735],[-112.518982,38.481248]]]}}]}