{"type":"FeatureCollection","metadata":{"state":"VT","boundary_source":"U.S. Census Bureau 2024 Cartographic Boundary File (counties, 1:500,000)","risk_source":"FEMA National Risk Index v1.20 (December 2025)"},"features":[{"type":"Feature","properties":{"GEOID":"50027","NAME":"Windsor","state":"VT","wildfire_risk_score":26.94,"wildfire_eal_total":13490.16,"risk_band":"High","source":"FEMA National Risk Index v1.20 (December 2025)"},"geometry":{"type":"Polygon","coordinates":[[[-72.98015,43.882924],[-72.953189,43.874858],[-72.876556,43.902765],[-72.875344,43.867696],[-72.865283,43.861656],[-72.81633,43.937805],[-72.809996,43.936089],[-72.791043,43.962244],[-72.787016,43.960847],[-72.791775,43.953967],[-72.78522,43.952191],[-72.789959,43.945315],[-72.771078,43.939064],[-72.775144,43.933657],[-72.768901,43.931613],[-72.773501,43.924538],[-72.712284,43.907963],[-72.709306,43.911243],[-72.461565,43.836851],[-72.339337,43.810456],[-72.2051385200612,43.7712598130241],[-72.218099,43.765729],[-72.234178,43.745965],[-72.271776,43.733407],[-72.299564,43.706277],[-72.305133,43.695321],[-72.304322,43.669507],[-72.31402,43.656158],[-72.314083,43.64281],[-72.329126,43.635563],[-72.327236,43.630534],[-72.334401,43.61925],[-72.328514,43.600805],[-72.380146,43.573624],[-72.380383,43.54088],[-72.394218,43.5274],[-72.398563,43.513435],[-72.380894,43.493394],[-72.381723,43.480091],[-72.3925,43.467364],[-72.390567,43.451225],[-72.403811,43.391935],[-72.415978,43.376531],[-72.413377,43.362741],[-72.390103,43.356926],[-72.410353,43.331675],[-72.395462,43.312994],[-72.41545,43.271374],[-72.438693,43.252905],[-72.433785292783,43.2330390564128],[-72.549143,43.235897],[-72.68544,43.22258],[-72.819619,43.256006],[-72.819895,43.299372],[-72.868647,43.300529],[-72.864972,43.348699],[-72.8547,43.349277],[-72.852384,43.376279],[-72.821982,43.37571],[-72.821933,43.380611],[-72.75849,43.353307],[-72.762356,43.371414],[-72.738403,43.417036],[-72.722563,43.460076],[-72.727367,43.461062],[-72.724223,43.468174],[-72.771371,43.4788],[-72.76914,43.491511],[-72.78993,43.494546],[-72.7715,43.59109],[-72.757948,43.587424],[-72.699795,43.684577],[-72.819985,43.716697],[-72.803928,43.740973],[-72.819262,43.746313],[-72.782856,43.804007],[-72.788697,43.807299],[-72.784402,43.813832],[-72.792117,43.816501],[-72.791065,43.824097],[-72.796924,43.829158],[-72.830665,43.83912],[-72.838341,43.829254],[-72.873871,43.839628],[-72.874498,43.85806],[-72.959744,43.826077],[-72.972894,43.866768],[-72.98023,43.863966],[-72.98015,43.882924]]]}},{"type":"Feature","properties":{"GEOID":"50009","NAME":"Essex","state":"VT","wildfire_risk_score":3.817,"wildfire_eal_total":1612.08,"risk_band":"Low","source":"FEMA National Risk Index v1.20 (December 2025)"},"geometry":{"type":"Polygon","coordinates":[[[-71.974825,44.787232],[-71.877857,44.878762],[-71.920145,44.901525],[-71.8993192187926,45.0081786803017],[-71.464555,45.013637],[-71.476676,45.009179],[-71.480552,45.002334],[-71.508129,45.007937],[-71.536188,44.994592],[-71.532749,44.991066],[-71.54086,44.983788],[-71.523117,44.966852],[-71.518947,44.967869],[-71.523376,44.96396],[-71.516246,44.964089],[-71.514843,44.958741],[-71.518987,44.950115],[-71.516183,44.939862],[-71.523048,44.939258],[-71.499945,44.911174],[-71.493363,44.911612],[-71.49491,44.904299],[-71.501088,44.904433],[-71.528751,44.873494],[-71.549741,44.861458],[-71.548358,44.854686],[-71.555656,44.849118],[-71.551114,44.836965],[-71.562353,44.823282],[-71.573456,44.820644],[-71.576865,44.815197],[-71.568672,44.807457],[-71.571315,44.793339],[-71.57972,44.784725],[-71.592486,44.782669],[-71.616669,44.756299],[-71.631883,44.752463],[-71.625148,44.74275],[-71.626248,44.72904],[-71.617038,44.72825],[-71.618732,44.722471],[-71.6001,44.705999],[-71.600496,44.698737],[-71.594136,44.696932],[-71.597955,44.691767],[-71.596089,44.677637],[-71.581463,44.673204],[-71.586965,44.67047],[-71.587365,44.659715],[-71.57449,44.654832],[-71.57881,44.650982],[-71.562806,44.652356],[-71.557866,44.641218],[-71.563279,44.636648],[-71.547226,44.630355],[-71.55735,44.628448],[-71.545978,44.623118],[-71.55415,44.625419],[-71.55386,44.605598],[-71.5622,44.601592],[-71.550331,44.600896],[-71.555402,44.593842],[-71.546087,44.597377],[-71.547424,44.591831],[-71.538274,44.593524],[-71.540051,44.588524],[-71.535397,44.587113],[-71.546533,44.577819],[-71.554444,44.581336],[-71.547726,44.571381],[-71.557838,44.570268],[-71.559049,44.564446],[-71.587664,44.565798],[-71.596137,44.560898],[-71.597135,44.553849],[-71.572004,44.538224],[-71.582948,44.523352],[-71.594259,44.52168],[-71.576765,44.502618],[-71.587782,44.506745],[-71.585881,44.500057],[-71.593885,44.501031],[-71.599333,44.486283],[-71.617843,44.485841],[-71.626952,44.474267],[-71.634871,44.477441],[-71.625548,44.48346],[-71.632795,44.48389],[-71.647373,44.472127],[-71.638986,44.464411],[-71.652553,44.460518],[-71.659707,44.441465],[-71.679282,44.434337],[-71.676967,44.426848],[-71.682701,44.42734],[-71.702186,44.413828],[-71.736624,44.409445],[-71.742317,44.40141],[-71.761966,44.407027],[-71.778613,44.399799],[-71.793924,44.399271],[-71.803488,44.39189],[-71.800316,44.384276],[-71.814388,44.381932],[-71.814351,44.354541],[-71.8377648534913,44.3477199339021],[-71.933222,44.441138],[-71.903264,44.454742],[-71.856691,44.496275],[-71.908938,44.547917],[-71.842372,44.610867],[-71.910198,44.646831],[-71.837067,44.716376],[-71.974825,44.787232]]]}},{"type":"Feature","properties":{"GEOID":"50015","NAME":"Lamoille","state":"VT","wildfire_risk_score":13.963,"wildfire_eal_total":7270.45,"risk_band":"Low","source":"FEMA National Risk Index v1.20 (December 2025)"},"geometry":{"type":"Polygon","coordinates":[[[-72.926669,44.647538],[-72.902971,44.646355],[-72.891862,44.65566],[-72.850793,44.711124],[-72.79322,44.690669],[-72.779389,44.743832],[-72.774394,44.74317],[-72.768592,44.764996],[-72.75855,44.763641],[-72.755047,44.777033],[-72.745789,44.775903],[-72.74685,44.790089],[-72.729097,44.804039],[-72.613597,44.800417],[-72.616729,44.795844],[-72.597899,44.787055],[-72.594404,44.790299],[-72.579075,44.780896],[-72.417315,44.722893],[-72.482793,44.634103],[-72.368385,44.592846],[-72.493561,44.423977],[-72.597285,44.479385],[-72.65434,44.398297],[-72.765559,44.442806],[-72.838296,44.459293],[-72.803636,44.506284],[-72.830756,44.51643],[-72.809956,44.546714],[-72.827042,44.550692],[-72.909961,44.631197],[-72.926414,44.635125],[-72.926669,44.647538]]]}},{"type":"Feature","properties":{"GEOID":"50005","NAME":"Caledonia","state":"VT","wildfire_risk_score":17.78,"wildfire_eal_total":6912.19,"risk_band":"Moderate","source":"FEMA National Risk Index v1.20 (December 2025)"},"geometry":{"type":"Polygon","coordinates":[[[-72.434116,44.506019],[-72.37386,44.584162],[-72.262875,44.542489],[-72.145957,44.704498],[-72.089296,44.685081],[-72.11436,44.749812],[-72.011454,44.698833],[-71.939292,44.769441],[-71.837067,44.716376],[-71.910198,44.646831],[-71.842372,44.610867],[-71.908938,44.547917],[-71.856691,44.496275],[-71.903264,44.454742],[-71.933222,44.441138],[-71.8377648534913,44.3477199339021],[-71.872472,44.336628],[-71.909416,44.348398],[-71.935395,44.33577],[-71.98112,44.3375],[-71.988306,44.329768],[-72.003881,44.32409],[-72.032816,44.320446],[-72.032725,44.302471],[-72.05888,44.28624],[-72.068432,44.271296],[-72.058559,44.269077],[-72.05978,44.256885],[-72.047889,44.238493],[-72.066166,44.189773],[-72.053021,44.167903],[-72.042359,44.161701],[-72.0435695519214,44.1570780214965],[-72.174365,44.192661],[-72.305201,44.183087],[-72.36888,44.203888],[-72.316652,44.272228],[-72.316834,44.298781],[-72.270128,44.340385],[-72.217078,44.411311],[-72.222042,44.414241],[-72.221932,44.422836],[-72.22822,44.419315],[-72.223806,44.424888],[-72.434116,44.506019]]]}},{"type":"Feature","properties":{"GEOID":"50001","NAME":"Addison","state":"VT","wildfire_risk_score":21.438,"wildfire_eal_total":10741.2,"risk_band":"High","source":"FEMA National Risk Index v1.20 (December 2025)"},"geometry":{"type":"Polygon","coordinates":[[[-73.43774,44.045006],[-73.429239,44.079414],[-73.411316,44.112686],[-73.415761,44.132826],[-73.402381,44.145856],[-73.396892,44.173846],[-73.389658,44.181249],[-73.390583,44.190886],[-73.362013,44.208545],[-73.34323,44.238049],[-73.323596,44.243897],[-73.3134220405831,44.2641991074088],[-73.270378,44.260106],[-73.070587,44.283833],[-73.070011,44.279925],[-73.016518,44.285357],[-73.020371,44.303743],[-72.975883,44.295036],[-72.952204,44.161412],[-72.934077,44.162824],[-72.916778,44.071886],[-72.896904,44.07366],[-72.742241,44.029637],[-72.809996,43.936089],[-72.81633,43.937805],[-72.865283,43.861656],[-72.875344,43.867696],[-72.876556,43.902765],[-72.953189,43.874858],[-72.98015,43.882924],[-72.98023,43.863966],[-72.972894,43.866768],[-72.959744,43.826077],[-73.01709,43.80486],[-73.026839,43.842139],[-73.033083,43.844189],[-73.029938,43.846716],[-73.218956,43.837291],[-73.206322,43.766775],[-73.3629511574321,43.7531814596909],[-73.350593,43.771939],[-73.357547,43.785933],[-73.376361,43.798766],[-73.380804,43.810951],[-73.392751,43.822196],[-73.388389,43.832404],[-73.372247,43.845337],[-73.382046,43.855008],[-73.374051,43.875563],[-73.395878,43.903044],[-73.408589,43.932933],[-73.406823,43.967317],[-73.412581,43.98272],[-73.405999,44.016229],[-73.410776,44.026944],[-73.43774,44.045006]]]}},{"type":"Feature","properties":{"GEOID":"50017","NAME":"Orange","state":"VT","wildfire_risk_score":17.176,"wildfire_eal_total":7743.39,"risk_band":"Moderate","source":"FEMA National Risk Index v1.20 (December 2025)"},"geometry":{"type":"Polygon","coordinates":[[[-72.787016,43.960847],[-72.791043,43.962244],[-72.742241,44.029637],[-72.682874,44.01281],[-72.634476,44.089312],[-72.629096,44.087836],[-72.586558,44.16026],[-72.563985,44.154782],[-72.559708,44.162913],[-72.443376,44.1288],[-72.419197,44.220781],[-72.305201,44.183087],[-72.174365,44.192661],[-72.038921,44.156422],[-72.042827,44.150967],[-72.041881,44.137623],[-72.033412,44.1311],[-72.036922,44.125271],[-72.052342,44.119891],[-72.055141,44.110417],[-72.048334,44.096905],[-72.04005,44.103352],[-72.030897,44.099719],[-72.033689,44.09014],[-72.045146,44.08785],[-72.031841,44.078542],[-72.052494,44.076716],[-72.048931,44.069012],[-72.057293,44.058339],[-72.067612,44.058034],[-72.062496,44.049344],[-72.07832,44.043378],[-72.074841,44.032987],[-72.082913,44.021581],[-72.095258,44.021894],[-72.090059,44.009903],[-72.102475,44.014882],[-72.104367,44.002157],[-72.116985,43.99448],[-72.11218,43.986845],[-72.114726,43.968332],[-72.091413,43.965452],[-72.100492,43.963186],[-72.099088,43.957381],[-72.106293,43.949474],[-72.11862,43.946044],[-72.120421,43.919593],[-72.151324,43.901704],[-72.159216,43.888313],[-72.172714,43.884254],[-72.167907,43.869109],[-72.182846,43.865524],[-72.187916,43.856126],[-72.182203,43.834032],[-72.188949,43.821319],[-72.183333,43.808177],[-72.205536,43.784584],[-72.2051385200612,43.7712598130241],[-72.339337,43.810456],[-72.461565,43.836851],[-72.709306,43.911243],[-72.712284,43.907963],[-72.773501,43.924538],[-72.768901,43.931613],[-72.775144,43.933657],[-72.771078,43.939064],[-72.789959,43.945315],[-72.78522,43.952191],[-72.791775,43.953967],[-72.787016,43.960847]]]}},{"type":"Feature","properties":{"GEOID":"50007","NAME":"Chittenden","state":"VT","wildfire_risk_score":25.382,"wildfire_eal_total":18585.27,"risk_band":"High","source":"FEMA National Risk Index v1.20 (December 2025)"},"geometry":{"type":"Polygon","coordinates":[[[-73.3626319191478,44.5643154520412],[-73.297337,44.581715],[-73.257339,44.602687],[-73.253186,44.638468],[-73.23287,44.651425],[-73.228856,44.722806],[-73.038028,44.651157],[-72.909961,44.631197],[-72.827042,44.550692],[-72.809956,44.546714],[-72.830756,44.51643],[-72.803636,44.506284],[-72.838296,44.459293],[-72.804857,44.451882],[-72.839829,44.403452],[-72.802375,44.38858],[-72.825957,44.359025],[-72.861251,44.3669],[-72.905958,44.280554],[-72.89498,44.278097],[-72.952204,44.161412],[-72.975883,44.295036],[-73.020371,44.303743],[-73.016518,44.285357],[-73.070011,44.279925],[-73.070587,44.283833],[-73.270378,44.260106],[-73.3134220405831,44.2641991074088],[-73.311025,44.27424],[-73.322267,44.301523],[-73.323997,44.333842],[-73.334939,44.364441],[-73.333575,44.372288],[-73.315016,44.388513],[-73.293613,44.440559],[-73.300114,44.454711],[-73.298939,44.471304],[-73.306707,44.500334],[-73.320836,44.513631],[-73.322026,44.525289],[-73.329458,44.529203],[-73.338751,44.548046],[-73.3626319191478,44.5643154520412]]]}},{"type":"Feature","properties":{"GEOID":"50021","NAME":"Rutland","state":"VT","wildfire_risk_score":22.996,"wildfire_eal_total":10693.69,"risk_band":"High","source":"FEMA National Risk Index v1.20 (December 2025)"},"geometry":{"type":"Polygon","coordinates":[[[-73.431229,43.588285],[-73.421616,43.603023],[-73.423708,43.612356],[-73.417668,43.621687],[-73.42791,43.634428],[-73.426463,43.642598],[-73.415513,43.65245],[-73.404126,43.681339],[-73.404739,43.690213],[-73.370612,43.725329],[-73.370287,43.742269],[-73.3629511574321,43.7531814596909],[-73.206322,43.766775],[-73.218956,43.837291],[-73.029938,43.846716],[-73.033083,43.844189],[-73.026839,43.842139],[-73.01709,43.80486],[-72.874498,43.85806],[-72.873871,43.839628],[-72.838341,43.829254],[-72.830665,43.83912],[-72.796924,43.829158],[-72.791065,43.824097],[-72.792117,43.816501],[-72.784402,43.813832],[-72.788697,43.807299],[-72.782856,43.804007],[-72.819262,43.746313],[-72.803928,43.740973],[-72.819985,43.716697],[-72.699795,43.684577],[-72.757948,43.587424],[-72.7715,43.59109],[-72.78993,43.494546],[-72.76914,43.491511],[-72.771371,43.4788],[-72.724223,43.468174],[-72.727367,43.461062],[-72.722563,43.460076],[-72.738403,43.417036],[-72.762356,43.371414],[-72.75849,43.353307],[-72.821933,43.380611],[-72.821982,43.37571],[-72.852384,43.376279],[-72.8547,43.349277],[-72.864972,43.348699],[-72.868647,43.300529],[-72.975295,43.304159],[-72.975885,43.290551],[-72.992327,43.290716],[-72.98759,43.305005],[-73.2545202572477,43.3144933199908],[-73.247698,43.523173],[-73.24139,43.532345],[-73.250132,43.543429],[-73.248641,43.553857],[-73.26938,43.571973],[-73.294621,43.57897],[-73.292113,43.584509],[-73.296924,43.587323],[-73.292232,43.60255],[-73.300285,43.610806],[-73.306234,43.628018],[-73.310606,43.624114],[-73.323893,43.627629],[-73.347621,43.622509],[-73.371889,43.624489],[-73.369933,43.619093],[-73.376036,43.612596],[-73.372469,43.604848],[-73.387039,43.589463],[-73.382425,43.586062],[-73.383369,43.57677],[-73.395767,43.568087],[-73.431229,43.588285]]]}},{"type":"Feature","properties":{"GEOID":"50019","NAME":"Orleans","state":"VT","wildfire_risk_score":18.893,"wildfire_eal_total":7112.59,"risk_band":"Moderate","source":"FEMA National Risk Index v1.20 (December 2025)"},"geometry":{"type":"Polygon","coordinates":[[[-72.53328,44.834081],[-72.541383,44.925977],[-72.536498,44.926114],[-72.5538801546386,45.0082654618591],[-72.310073,45.003822],[-71.8993192187926,45.0081786803017],[-71.920145,44.901525],[-71.877857,44.878762],[-71.974825,44.787232],[-71.939292,44.769441],[-72.011454,44.698833],[-72.11436,44.749812],[-72.089296,44.685081],[-72.145957,44.704498],[-72.262875,44.542489],[-72.37386,44.584162],[-72.368385,44.592846],[-72.482793,44.634103],[-72.417315,44.722893],[-72.579075,44.780896],[-72.53328,44.834081]]]}},{"type":"Feature","properties":{"GEOID":"50013","NAME":"Grand Isle","state":"VT","wildfire_risk_score":4.612,"wildfire_eal_total":2867.61,"risk_band":"Low","source":"FEMA National Risk Index v1.20 (December 2025)"},"geometry":{"type":"Polygon","coordinates":[[[-73.389966,44.61962],[-73.386783,44.636369],[-73.378561,44.641475],[-73.384483,44.646683],[-73.369669,44.663478],[-73.370142,44.684853],[-73.361308,44.694523],[-73.365977,44.697559],[-73.365561,44.741786],[-73.333154,44.788759],[-73.335443,44.804602],[-73.369647,44.829136],[-73.381359,44.845021],[-73.379822,44.857037],[-73.369103,44.86668],[-73.35808,44.901325],[-73.338979,44.917681],[-73.338243,44.96475],[-73.354633,44.987352],[-73.343124,45.01084],[-73.1923365087594,45.0136134573244],[-73.22473,44.964901],[-73.240944,44.948886],[-73.226125,44.919598],[-73.195348,44.910582],[-73.191317,44.905603],[-73.196432,44.87542],[-73.207055,44.851948],[-73.203221,44.833631],[-73.21082,44.822092],[-73.23703,44.809654],[-73.258886,44.774088],[-73.255297,44.758073],[-73.228854,44.722866],[-73.233838,44.648381],[-73.253186,44.638468],[-73.254502,44.610676],[-73.263701,44.596195],[-73.30313,44.579738],[-73.3626319191478,44.5643154520412],[-73.381848,44.589316],[-73.376849,44.599598],[-73.389966,44.61962]]]}},{"type":"Feature","properties":{"GEOID":"50011","NAME":"Franklin","state":"VT","wildfire_risk_score":12.595,"wildfire_eal_total":5849.46,"risk_band":"Low","source":"FEMA National Risk Index v1.20 (December 2025)"},"geometry":{"type":"Polygon","coordinates":[[[-73.258886,44.774088],[-73.23703,44.809654],[-73.21082,44.822092],[-73.203221,44.833631],[-73.207055,44.851948],[-73.196432,44.87542],[-73.191317,44.905603],[-73.195348,44.910582],[-73.226125,44.919598],[-73.240944,44.948886],[-73.22473,44.964901],[-73.1923365087594,45.0136134573244],[-72.67477,45.015459],[-72.5538801546386,45.0082654618591],[-72.536498,44.926114],[-72.541383,44.925977],[-72.53328,44.834081],[-72.579075,44.780896],[-72.594404,44.790299],[-72.597899,44.787055],[-72.616729,44.795844],[-72.613597,44.800417],[-72.729097,44.804039],[-72.74685,44.790089],[-72.745789,44.775903],[-72.755047,44.777033],[-72.75855,44.763641],[-72.768592,44.764996],[-72.774394,44.74317],[-72.779389,44.743832],[-72.79322,44.690669],[-72.850793,44.711124],[-72.891862,44.65566],[-72.902971,44.646355],[-72.926669,44.647538],[-72.923777,44.633214],[-73.038028,44.651157],[-73.228856,44.722806],[-73.255297,44.758073],[-73.258886,44.774088]]]}},{"type":"Feature","properties":{"GEOID":"50023","NAME":"Washington","state":"VT","wildfire_risk_score":19.116,"wildfire_eal_total":9205.14,"risk_band":"Moderate","source":"FEMA National Risk Index v1.20 (December 2025)"},"geometry":{"type":"Polygon","coordinates":[[[-72.952204,44.161412],[-72.89498,44.278097],[-72.905958,44.280554],[-72.861251,44.3669],[-72.825957,44.359025],[-72.802375,44.38858],[-72.839829,44.403452],[-72.804857,44.451882],[-72.765559,44.442806],[-72.65434,44.398297],[-72.597285,44.479385],[-72.493561,44.423977],[-72.484742,44.439135],[-72.434116,44.506019],[-72.223806,44.424888],[-72.22822,44.419315],[-72.221932,44.422836],[-72.222042,44.414241],[-72.217078,44.411311],[-72.270128,44.340385],[-72.316834,44.298781],[-72.316652,44.272228],[-72.36888,44.203888],[-72.419197,44.220781],[-72.443376,44.1288],[-72.559708,44.162913],[-72.563985,44.154782],[-72.586558,44.16026],[-72.629096,44.087836],[-72.634476,44.089312],[-72.682874,44.01281],[-72.896904,44.07366],[-72.916778,44.071886],[-72.934077,44.162824],[-72.952204,44.161412]]]}},{"type":"Feature","properties":{"GEOID":"50025","NAME":"Windham","state":"VT","wildfire_risk_score":20.897,"wildfire_eal_total":8498.78,"risk_band":"High","source":"FEMA National Risk Index v1.20 (December 2025)"},"geometry":{"type":"Polygon","coordinates":[[[-73.008133,42.930556],[-72.997139,43.117457],[-72.868242,43.113931],[-72.862136,43.205216],[-72.851629,43.204833],[-72.848112,43.262847],[-72.68544,43.22258],[-72.549143,43.235897],[-72.433785292783,43.2330390564128],[-72.4405,43.219049],[-72.437719,43.20275],[-72.45028,43.192485],[-72.443405,43.179729],[-72.452556,43.172117],[-72.451802,43.153486],[-72.45714,43.148493],[-72.451986,43.138924],[-72.440905,43.135793],[-72.442933,43.130192],[-72.432972,43.119655],[-72.433129,43.112637],[-72.443051,43.100841],[-72.435316,43.083536],[-72.467363,43.052648],[-72.460252,43.040671],[-72.462397,43.02556],[-72.443762,43.006245],[-72.46294,42.996943],[-72.465335,42.989558],[-72.461627,42.982906],[-72.473827,42.972045],[-72.481706,42.973985],[-72.532186,42.954945],[-72.534554,42.949894],[-72.527431,42.943148],[-72.52443,42.915575],[-72.530218,42.911576],[-72.532777,42.896076],[-72.552834,42.884968],[-72.557247,42.853019],[-72.54855,42.842021],[-72.5396,42.804832],[-72.508858,42.779919],[-72.516082,42.765949],[-72.507985,42.764414],[-72.497949,42.772918],[-72.491122,42.772465],[-72.477615,42.761245],[-72.473071,42.745916],[-72.458519,42.726853],[-72.9301048286621,42.739157148576],[-72.92379,42.927442],[-73.008133,42.930556]]]}},{"type":"Feature","properties":{"GEOID":"50003","NAME":"Bennington","state":"VT","wildfire_risk_score":20.102,"wildfire_eal_total":8345.1,"risk_band":"Moderate","source":"FEMA National Risk Index v1.20 (December 2025)"},"geometry":{"type":"Polygon","coordinates":[[[-73.2893047875288,42.8040968400041],[-73.28375,42.813864],[-73.285388,42.834093],[-73.278673,42.83341],[-73.2545202572477,43.3144933199908],[-72.98759,43.305005],[-72.992327,43.290716],[-72.975885,43.290551],[-72.975295,43.304159],[-72.819895,43.299372],[-72.819619,43.256006],[-72.848112,43.262847],[-72.851629,43.204833],[-72.862136,43.205216],[-72.868242,43.113931],[-72.997139,43.117457],[-73.008133,42.930556],[-72.92379,42.927442],[-72.9301048286621,42.739157148576],[-73.276421,42.746019],[-73.2893047875288,42.8040968400041]]]}}]}