{"type":"FeatureCollection","metadata":{"state":"WI","boundary_source":"U.S. Census Bureau 2024 Cartographic Boundary File (counties, 1:500,000)","risk_source":"FEMA National Risk Index v1.20 (December 2025)"},"features":[{"type":"Feature","properties":{"GEOID":"55003","NAME":"Ashland","state":"WI","wildfire_risk_score":5.407,"wildfire_eal_total":1461.7,"risk_band":"Low","source":"FEMA National Risk Index v1.20 (December 2025)"},"geometry":{"type":"MultiPolygon","coordinates":[[[[-90.4653206076641,47.0027766442714],[-90.457453,47.012783],[-90.4564,47.045305],[-90.448278,47.065312],[-90.435976,47.073553],[-90.395067,47.076957],[-90.394948,47.058981],[-90.407547,47.037926],[-90.404145,47.024702],[-90.410415,47.016878],[-90.441709,46.998604],[-90.465239,46.997588],[-90.4653206076641,47.0027766442714]]],[[[-90.514493,46.877529],[-90.458535,46.897322],[-90.448949,46.896462],[-90.473021,46.881396],[-90.47556,46.875091],[-90.499223,46.871407],[-90.514493,46.877529]]],[[[-90.575506,47.033864],[-90.5622,47.039926],[-90.567044,47.031136],[-90.546485,47.017712],[-90.546887,47.005019],[-90.552901,46.999678],[-90.56357,46.997156],[-90.569881,47.026326],[-90.575506,47.033864]]],[[[-90.590853,47.065238],[-90.58958,47.072401],[-90.586517,47.07568],[-90.584732,47.062592],[-90.589431,47.058945],[-90.590853,47.065238]]],[[[-90.624987,47.003962],[-90.605972,47.007042],[-90.603172,46.995373],[-90.617447,46.989426],[-90.624987,47.003962]]],[[[-90.651429,47.032691],[-90.644956,47.040182],[-90.637101,47.0364],[-90.641247,47.025563],[-90.651429,47.032691]]],[[[-90.654263,46.92234],[-90.637125,46.941939],[-90.576465,46.958464],[-90.528804,46.968497],[-90.50863,46.957688],[-90.523303,46.943928],[-90.524973,46.933899],[-90.545533,46.931592],[-90.547708,46.924146],[-90.539734,46.910175],[-90.550212,46.908001],[-90.549817,46.916568],[-90.568532,46.925134],[-90.585731,46.916238],[-90.607077,46.921225],[-90.617619,46.911007],[-90.639087,46.906487],[-90.650747,46.914219],[-90.654263,46.92234]]],[[[-90.678443,46.956427],[-90.654922,46.976933],[-90.634122,46.979629],[-90.634102,46.970982],[-90.661202,46.953241],[-90.671585,46.948975],[-90.678443,46.956427]]],[[[-90.692993,47.031063],[-90.688679,47.043222],[-90.648665,47.053127],[-90.670484,47.041127],[-90.680302,47.018945],[-90.692807,47.023374],[-90.692993,47.031063]]],[[[-90.702708,46.886971],[-90.677906,46.895858],[-90.667441,46.891355],[-90.673194,46.883279],[-90.689674,46.878967],[-90.702708,46.886971]]],[[[-90.7117728548454,46.9875914436521],[-90.696564,47.008461],[-90.680504,47.007271],[-90.669205,47.00013],[-90.694778,46.98288],[-90.707275,46.98288],[-90.7117728548454,46.9875914436521]]],[[[-90.730865,47.080006],[-90.720772,47.07329],[-90.721973,47.063209],[-90.730039,47.065614],[-90.730865,47.080006]]],[[[-90.7632498184404,46.8332921132273],[-90.75785,46.85041],[-90.740499,46.870075],[-90.730232,46.873466],[-90.72051,46.865677],[-90.744044,46.837647],[-90.759903,46.830904],[-90.7632498184404,46.8332921132273]]],[[[-90.765289,46.947021],[-90.740547,46.964207],[-90.715645,46.958363],[-90.694489,46.93671],[-90.688988,46.917461],[-90.736696,46.913442],[-90.765289,46.947021]]],[[[-90.774931,47.024519],[-90.75891,47.034719],[-90.740717,47.017941],[-90.740153,47.009957],[-90.750617,47.000446],[-90.765908,47.002076],[-90.770798,47.005048],[-90.774931,47.024519]]],[[[-90.791562,46.784983],[-90.733001,46.800219],[-90.720932,46.815897],[-90.656946,46.843476],[-90.616452,46.874466],[-90.602552,46.872706],[-90.568874,46.847252],[-90.584489,46.839825],[-90.613822,46.837942],[-90.673847,46.81967],[-90.675321,46.805387],[-90.670049,46.799496],[-90.652916,46.797755],[-90.657179,46.7888],[-90.696465,46.78204],[-90.716456,46.785418],[-90.763647,46.754927],[-90.787894,46.752773],[-90.78929,46.758979],[-90.782135,46.767955],[-90.791562,46.784983]]],[[[-90.806147,46.730252],[-90.784425,46.729375],[-90.773665,46.723],[-90.766023,46.712851],[-90.786158,46.726423],[-90.806147,46.730252]]],[[[-90.928341,46.284349],[-90.92408,46.371046],[-90.9270553975865,46.5851700117462],[-90.905572,46.583524],[-90.873879,46.601149],[-90.78072,46.630922],[-90.737648,46.655323],[-90.746204,46.663969],[-90.760941,46.66038],[-90.74809,46.669817],[-90.693197,46.659989],[-90.75878,46.704254],[-90.753426,46.703825],[-90.627885,46.623839],[-90.5497114050406,46.5839012413189],[-90.552227,46.240851],[-90.425978,46.24045],[-90.426274,46.154061],[-90.303072,46.154849],[-90.302063,45.981349],[-90.925185,45.9812],[-90.924499,46.257904],[-90.928341,46.284349]]]]}},{"type":"Feature","properties":{"GEOID":"55051","NAME":"Iron","state":"WI","wildfire_risk_score":7.411,"wildfire_eal_total":1741.17,"risk_band":"Low","source":"FEMA National Risk Index v1.20 (December 2025)"},"geometry":{"type":"Polygon","coordinates":[[[-90.552222,46.24127],[-90.5497114050406,46.5839012413189],[-90.537962,46.581081],[-90.505909,46.589614],[-90.437596,46.561492],[-90.418136,46.566094],[-90.39332,46.532615],[-90.367083,46.541163],[-90.350318,46.540493],[-90.346806,46.54935],[-90.339404,46.549288],[-90.342555,46.552681],[-90.327874,46.551678],[-90.326686,46.54615],[-90.310859,46.539365],[-90.316983,46.517319],[-90.298284,46.51782],[-90.29475,46.521646],[-90.283423,46.518868],[-90.277131,46.524487],[-90.271796,46.519265],[-90.277577,46.515022],[-90.270422,46.51169],[-90.272976,46.505139],[-90.266567,46.507855],[-90.260504,46.502822],[-90.231587,46.509842],[-90.230324,46.501732],[-90.216594,46.501759],[-90.204009,46.478175],[-90.188996,46.469015],[-90.193294,46.463143],[-90.190749,46.460173],[-90.178325,46.457408],[-90.17793,46.440229],[-90.16777,46.442122],[-90.158603,46.422656],[-90.157851,46.409291],[-90.13225,46.381249],[-90.133871,46.371828],[-90.118827,46.359241],[-90.116741,46.350652],[-90.123549,46.346506],[-90.117992,46.341373],[-90.121248,46.337217],[-89.9291576329505,46.2997498928327],[-89.928837,45.981967],[-90.302063,45.981349],[-90.303072,46.154849],[-90.426274,46.154061],[-90.425978,46.24045],[-90.552222,46.24127]]]}},{"type":"Feature","properties":{"GEOID":"55057","NAME":"Juneau","state":"WI","wildfire_risk_score":46.533,"wildfire_eal_total":31515.54,"risk_band":"High","source":"FEMA National Risk Index v1.20 (December 2025)"},"geometry":{"type":"Polygon","coordinates":[[[-90.312792,44.005084],[-90.31268,44.24875],[-89.902783,44.249473],[-89.897834,44.227861],[-89.908102,44.228889],[-89.907988,44.220555],[-89.924743,44.213203],[-89.905013,44.201604],[-89.923646,44.19756],[-89.926944,44.192942],[-89.903595,44.191434],[-89.901345,44.180854],[-89.907141,44.176286],[-89.923649,44.17782],[-89.922802,44.155308],[-89.928684,44.150304],[-89.936758,44.152996],[-89.941713,44.163434],[-89.970482,44.167114],[-89.973773,44.13457],[-89.984695,44.129251],[-89.974737,44.125696],[-89.981837,44.121691],[-89.994089,44.126778],[-90.009706,44.1197],[-90.00392,44.104393],[-90.024457,44.094982],[-90.025338,44.068324],[-90.019663,44.063835],[-90.016774,44.043058],[-89.998469,44.022551],[-90.005887,44.008391],[-89.974295,43.99606],[-89.963565,43.983695],[-89.9512,43.926587],[-89.959064,43.920131],[-89.979393,43.918693],[-89.984044,43.910409],[-89.962948,43.883399],[-89.961221,43.864027],[-89.922308,43.838468],[-89.913696,43.818414],[-89.902839,43.814086],[-89.893612,43.799745],[-89.865132,43.783414],[-89.850465,43.768679],[-89.842905,43.75748],[-89.84125,43.736677],[-89.822479,43.697391],[-89.807672,43.677194],[-89.7869,43.666117],[-89.789222,43.645164],[-89.784901,43.641051],[-90.312404,43.640988],[-90.312792,44.005084]]]}},{"type":"Feature","properties":{"GEOID":"55035","NAME":"Eau Claire","state":"WI","wildfire_risk_score":30.121,"wildfire_eal_total":17593.59,"risk_band":"Moderate","source":"FEMA National Risk Index v1.20 (December 2025)"},"geometry":{"type":"Polygon","coordinates":[[[-91.650455,44.855951],[-90.922247,44.857309],[-90.92235,44.596293],[-91.650248,44.596649],[-91.650455,44.855951]]]}},{"type":"Feature","properties":{"GEOID":"55078","NAME":"Menominee","state":"WI","wildfire_risk_score":3.085,"wildfire_eal_total":709.4,"risk_band":"Low","source":"FEMA National Risk Index v1.20 (December 2025)"},"geometry":{"type":"Polygon","coordinates":[[[-88.98246,45.117998],[-88.483732,45.116887],[-88.489149,44.855445],[-88.736194,44.856376],[-88.735763,44.943195],[-88.981319,44.942745],[-88.98246,45.117998]]]}},{"type":"Feature","properties":{"GEOID":"55023","NAME":"Crawford","state":"WI","wildfire_risk_score":13.931,"wildfire_eal_total":4593.49,"risk_band":"Low","source":"FEMA National Risk Index v1.20 (December 2025)"},"geometry":{"type":"Polygon","coordinates":[[[-91.21499,43.368006],[-91.206072,43.374976],[-91.19767,43.395334],[-91.2055506500066,43.4229485023581],[-90.668561,43.422994],[-90.666786,43.171777],[-90.689863,43.172972],[-90.698142,43.16819],[-90.698213,43.160722],[-90.726676,43.144884],[-90.742455,43.123596],[-90.799859,43.10835],[-90.822794,43.088146],[-90.839918,43.08516],[-90.845746,43.077625],[-90.882949,43.073247],[-90.914136,43.062584],[-90.937481,43.063534],[-90.953078,43.043754],[-90.969431,43.033193],[-91.004427,43.022441],[-91.022899,43.007544],[-91.052584,43.001665],[-91.057275,42.994083],[-91.131235,42.999513],[-91.1568126516435,42.9881698664533],[-91.174692,43.038713],[-91.179457,43.067427],[-91.177003,43.131846],[-91.1462,43.152405],[-91.12217,43.197255],[-91.066398,43.239293],[-91.057918,43.255366],[-91.072649,43.262129],[-91.07371,43.274746],[-91.107237,43.313645],[-91.137343,43.329757],[-91.203964,43.349852],[-91.21499,43.368006]]]}},{"type":"Feature","properties":{"GEOID":"55011","NAME":"Buffalo","state":"WI","wildfire_risk_score":4.262,"wildfire_eal_total":1611.81,"risk_band":"Low","source":"FEMA National Risk Index v1.20 (December 2025)"},"geometry":{"type":"Polygon","coordinates":[[[-92.083844,44.412],[-92.079881,44.417208],[-92.081271,44.429807],[-92.059317,44.466289],[-92.056113,44.488935],[-92.043914,44.512375],[-92.047919,44.530432],[-92.038838,44.546969],[-92.039585,44.56421],[-92.02918,44.586292],[-92.019973,44.591458],[-92.003146,44.596834],[-91.529101,44.596197],[-91.529741,44.246777],[-91.537589,44.246435],[-91.538636,44.242101],[-91.534327,44.241484],[-91.5391,44.234938],[-91.551681,44.233779],[-91.55712,44.224291],[-91.571607,44.219145],[-91.581601,44.221547],[-91.584142,44.215671],[-91.593106,44.217254],[-91.600956,44.211048],[-91.608517,44.200533],[-91.599298,44.193707],[-91.596466,44.184406],[-91.612853,44.173496],[-91.607248,44.164502],[-91.589725,44.159938],[-91.587928,44.15358],[-91.570764,44.152324],[-91.572559,44.149776],[-91.560706,44.144879],[-91.548814,44.123645],[-91.552608,44.119312],[-91.548653,44.107935],[-91.534348,44.095854],[-91.543358,44.0817],[-91.54021,44.07751],[-91.549892,44.07289],[-91.558276,44.062437],[-91.559129,44.053084],[-91.570788,44.044877],[-91.571157,44.037828],[-91.556043,44.028943],[-91.559004,44.025315],[-91.59207,44.031372],[-91.610487,44.04931],[-91.647873,44.064109],[-91.68153,44.0974],[-91.707491,44.103906],[-91.710597,44.12048],[-91.721552,44.130342],[-91.751747,44.134786],[-91.808064,44.159262],[-91.829167,44.17835],[-91.875158,44.200575],[-91.877429,44.212921],[-91.892698,44.231105],[-91.88704,44.251772],[-91.896008,44.262871],[-91.896388,44.27469],[-91.924613,44.291815],[-91.913534,44.311392],[-91.92559,44.333548],[-91.941311,44.340978],[-91.970266,44.365842],[-92.038147,44.388731],[-92.056486,44.402729],[-92.078605,44.404869],[-92.083844,44.412]]]}},{"type":"Feature","properties":{"GEOID":"55121","NAME":"Trempealeau","state":"WI","wildfire_risk_score":13.168,"wildfire_eal_total":4367.21,"risk_band":"Low","source":"FEMA National Risk Index v1.20 (December 2025)"},"geometry":{"type":"Polygon","coordinates":[[[-91.612853,44.173496],[-91.596466,44.184406],[-91.599298,44.193707],[-91.608517,44.200533],[-91.600956,44.211048],[-91.593106,44.217254],[-91.584142,44.215671],[-91.581601,44.221547],[-91.571607,44.219145],[-91.55712,44.224291],[-91.551681,44.233779],[-91.5391,44.234938],[-91.534327,44.241484],[-91.538636,44.242101],[-91.537589,44.246435],[-91.529741,44.246777],[-91.529101,44.596197],[-91.165619,44.596987],[-91.165936,44.2546],[-91.165548,44.247445],[-91.153563,44.247583],[-91.151932,44.079665],[-91.166426,44.082777],[-91.168876,44.088405],[-91.180408,44.084253],[-91.186998,44.085308],[-91.187692,44.090584],[-91.200603,44.086616],[-91.199409,44.077466],[-91.21673,44.065067],[-91.220962,44.053127],[-91.231879,44.058316],[-91.247473,44.057513],[-91.256653,44.068305],[-91.267417,44.072266],[-91.284199,44.060365],[-91.307478,44.064876],[-91.31608,44.060204],[-91.318639,44.050821],[-91.332075,44.043529],[-91.328386,44.036574],[-91.339639,44.035071],[-91.340092,44.02004],[-91.344678,44.015779],[-91.336888,44.01248],[-91.33807,44.007374],[-91.328039,43.999911],[-91.329964,43.995317],[-91.322044,43.989462],[-91.32258,43.98446],[-91.4251879792514,43.9843219996781],[-91.43738,43.999962],[-91.463515,44.009041],[-91.48087,44.008145],[-91.507121,44.01898],[-91.559004,44.025315],[-91.556067,44.029741],[-91.571157,44.037828],[-91.570788,44.044877],[-91.559129,44.053084],[-91.558276,44.062437],[-91.549892,44.07289],[-91.54021,44.07751],[-91.543358,44.0817],[-91.534348,44.095854],[-91.548653,44.107935],[-91.552608,44.119312],[-91.548814,44.123645],[-91.560706,44.144879],[-91.572559,44.149776],[-91.570764,44.152324],[-91.587928,44.15358],[-91.589725,44.159938],[-91.607248,44.164502],[-91.612853,44.173496]]]}},{"type":"Feature","properties":{"GEOID":"55075","NAME":"Marinette","state":"WI","wildfire_risk_score":46.724,"wildfire_eal_total":37761.26,"risk_band":"High","source":"FEMA National Risk Index v1.20 (December 2025)"},"geometry":{"type":"MultiPolygon","coordinates":[[[[-87.505074,45.059804],[-87.497154,45.061136],[-87.491799,45.056571],[-87.49283,45.055732],[-87.505074,45.059804]]],[[[-88.426768,45.412868],[-88.425302,45.722426],[-88.059301,45.713065],[-88.058256002738,45.7807197202238],[-88.041744,45.783734],[-88.039729,45.789626],[-87.993354,45.795613],[-87.987942,45.793075],[-87.98087,45.776977],[-87.989656,45.772025],[-87.96697,45.764021],[-87.963452,45.75822],[-87.905873,45.759364],[-87.898363,45.752503],[-87.875813,45.753888],[-87.862211,45.745018],[-87.86432,45.737139],[-87.85548,45.726943],[-87.837343,45.716919],[-87.810144,45.71023],[-87.805081,45.704974],[-87.809075,45.699717],[-87.782226,45.683053],[-87.781623,45.67328],[-87.823164,45.662732],[-87.824676,45.653211],[-87.824102,45.647138],[-87.810194,45.638732],[-87.79588,45.618846],[-87.780845,45.614599],[-87.774682,45.602024],[-87.777199,45.588499],[-87.786767,45.58283],[-87.792372,45.563055],[-87.831689,45.568035],[-87.832968,45.559461],[-87.80339,45.538272],[-87.802241,45.513059],[-87.792769,45.499967],[-87.812976,45.464159],[-87.831217,45.457185],[-87.861697,45.434473],[-87.849322,45.403872],[-87.859131,45.398967],[-87.859418,45.388227],[-87.875424,45.379373],[-87.871268,45.371467],[-87.884855,45.362792],[-87.888052,45.354697],[-87.881114,45.351278],[-87.870367,45.356267],[-87.875797,45.365314],[-87.870238,45.366436],[-87.863489,45.35302],[-87.850418,45.347492],[-87.850133,45.340435],[-87.832612,45.352249],[-87.754104,45.349442],[-87.750928,45.355037],[-87.738457,45.357156],[-87.718891,45.377462],[-87.693956,45.389893],[-87.675017,45.382454],[-87.673513,45.376946],[-87.657349,45.368752],[-87.656632,45.358617],[-87.647729,45.350721],[-87.648126,45.339396],[-87.661603,45.327608],[-87.6615,45.321386],[-87.671935,45.308204],[-87.687498,45.298055],[-87.698248,45.281512],[-87.69878,45.26942],[-87.71045,45.259324],[-87.711339,45.239965],[-87.725205,45.231539],[-87.721354,45.226847],[-87.726952,45.218949],[-87.726198,45.209391],[-87.741805,45.197051],[-87.736104,45.172244],[-87.683902,45.144135],[-87.661211,45.108279],[-87.631535,45.106224],[-87.592192,45.094762],[-87.587389,45.087084],[-87.608819,45.077703],[-87.625748,45.045157],[-87.628858,44.986734],[-87.654417,44.98212],[-87.659243,44.972522],[-87.696588,44.975184],[-87.7624452328204,44.9666087565414],[-87.760071,44.99053],[-87.944436,44.993057],[-87.942995,45.020418],[-88.121152,45.023581],[-88.118879,45.110197],[-88.189247,45.111844],[-88.186355,45.197974],[-88.309063,45.20158],[-88.30581,45.374548],[-88.428102,45.37701],[-88.426768,45.412868]]]]}},{"type":"Feature","properties":{"GEOID":"55111","NAME":"Sauk","state":"WI","wildfire_risk_score":27.163,"wildfire_eal_total":14009.84,"risk_band":"Moderate","source":"FEMA National Risk Index v1.20 (December 2025)"},"geometry":{"type":"Polygon","coordinates":[[[-90.312404,43.640988],[-89.785809,43.641049],[-89.776046,43.631939],[-89.782352,43.625645],[-89.773369,43.620348],[-89.775364,43.613761],[-89.768298,43.607062],[-89.752702,43.60574],[-89.740311,43.598231],[-89.718415,43.598544],[-89.720035,43.591707],[-89.734447,43.578767],[-89.730547,43.570437],[-89.694135,43.565949],[-89.665738,43.569169],[-89.638766,43.562932],[-89.612345,43.564903],[-89.599356,43.557858],[-89.60073,43.380666],[-89.641235,43.362874],[-89.679269,43.360185],[-89.703832,43.330296],[-89.723632,43.314451],[-89.726952,43.300329],[-89.713254,43.282092],[-89.731738,43.252203],[-89.762222,43.24059],[-89.805413,43.238858],[-89.836956,43.206849],[-89.851294,43.198436],[-89.905276,43.188024],[-90.000123,43.194624],[-90.048613,43.166882],[-90.051831,43.149303],[-90.05866,43.145291],[-90.087939,43.162379],[-90.113276,43.160367],[-90.158983,43.166794],[-90.183271,43.157134],[-90.193814,43.164464],[-90.191964,43.554996],[-90.311069,43.553991],[-90.312404,43.640988]]]}},{"type":"Feature","properties":{"GEOID":"55113","NAME":"Sawyer","state":"WI","wildfire_risk_score":17.748,"wildfire_eal_total":4419.88,"risk_band":"Low","source":"FEMA National Risk Index v1.20 (December 2025)"},"geometry":{"type":"Polygon","coordinates":[[[-91.551775,45.98508],[-91.551282,46.157045],[-90.924583,46.154616],[-90.925185,45.9812],[-90.676968,45.981554],[-90.678749,45.638264],[-91.540294,45.637605],[-91.541806,45.982586],[-91.551775,45.98508]]]}},{"type":"Feature","properties":{"GEOID":"55001","NAME":"Adams","state":"WI","wildfire_risk_score":53.117,"wildfire_eal_total":37322.24,"risk_band":"High","source":"FEMA National Risk Index v1.20 (December 2025)"},"geometry":{"type":"Polygon","coordinates":[[[-90.026378,44.087206],[-90.023495,44.095983],[-90.004801,44.102677],[-90.010689,44.11534],[-90.007056,44.121607],[-89.994089,44.126778],[-89.976919,44.122538],[-89.97545,44.128008],[-89.984695,44.129251],[-89.973773,44.13457],[-89.970482,44.167114],[-89.941713,44.163434],[-89.936758,44.152996],[-89.928684,44.150304],[-89.922802,44.155308],[-89.923649,44.17782],[-89.903517,44.17783],[-89.90016,44.18432],[-89.903595,44.191434],[-89.926944,44.192942],[-89.923646,44.19756],[-89.905013,44.201604],[-89.924743,44.213203],[-89.907988,44.220555],[-89.908102,44.228889],[-89.897834,44.227861],[-89.902783,44.249473],[-89.59798,44.245725],[-89.599547,43.642636],[-89.786908,43.642003],[-89.7869,43.666117],[-89.807672,43.677194],[-89.822479,43.697391],[-89.84125,43.736677],[-89.842905,43.75748],[-89.850465,43.768679],[-89.865132,43.783414],[-89.893612,43.799745],[-89.902839,43.814086],[-89.913696,43.818414],[-89.922308,43.838468],[-89.961221,43.864027],[-89.962948,43.883399],[-89.978628,43.899215],[-89.983922,43.91369],[-89.976371,43.919738],[-89.952101,43.924197],[-89.955268,43.955292],[-89.962276,43.96376],[-89.968154,43.991612],[-90.005887,44.008391],[-89.998469,44.022551],[-90.016774,44.043058],[-90.026378,44.087206]]]}},{"type":"Feature","properties":{"GEOID":"55099","NAME":"Price","state":"WI","wildfire_risk_score":13.709,"wildfire_eal_total":4033.83,"risk_band":"Low","source":"FEMA National Risk Index v1.20 (December 2025)"},"geometry":{"type":"Polygon","coordinates":[[[-90.679759,45.552468],[-90.676968,45.981554],[-90.043958,45.981948],[-90.042273,45.381866],[-90.678773,45.377907],[-90.679759,45.552468]]]}},{"type":"Feature","properties":{"GEOID":"55007","NAME":"Bayfield","state":"WI","wildfire_risk_score":17.462,"wildfire_eal_total":5172.41,"risk_band":"Low","source":"FEMA National Risk Index v1.20 (December 2025)"},"geometry":{"type":"MultiPolygon","coordinates":[[[[-90.805717,46.971788],[-90.79532,46.980453],[-90.787356,46.979462],[-90.790781,46.970426],[-90.805717,46.971788]]],[[[-90.878591,46.991318],[-90.851267,46.985388],[-90.85102,46.983049],[-90.85968,46.976395],[-90.876335,46.984962],[-90.878591,46.991318]]],[[[-90.9831067131366,46.9821711392273],[-90.970719,46.989029],[-90.94278,46.993181],[-90.937485,47.003105],[-90.930896,47.002097],[-90.923793,46.987911],[-90.934467,46.982468],[-90.931956,46.963117],[-90.965827,46.962191],[-90.970823,46.970339],[-90.980316,46.971577],[-90.9831067131366,46.9821711392273]]],[[[-91.037277,46.945567],[-91.034224,46.945249],[-91.036829,46.940823],[-91.038007,46.941858],[-91.037277,46.945567]]],[[[-91.553888,46.517591],[-91.551408,46.755666],[-91.511077,46.757453],[-91.492429,46.766663],[-91.449327,46.773303],[-91.423646,46.782166],[-91.408459,46.794183],[-91.385997,46.789483],[-91.365556,46.794983],[-91.33825,46.817704],[-91.314815,46.826825],[-91.256705,46.836887],[-91.232733,46.860035],[-91.201975,46.871092],[-91.186561,46.885732],[-91.179687,46.885732],[-91.18175,46.880233],[-91.193857,46.873682],[-91.204439,46.858816],[-91.178292,46.844259],[-91.167601,46.84476],[-91.164606,46.854942],[-91.149712,46.858074],[-91.140165,46.873201],[-91.133337,46.870341],[-91.134948,46.858986],[-91.10549,46.85762],[-91.096565,46.86153],[-91.090916,46.88267],[-91.06822,46.878309],[-91.052991,46.881325],[-91.03989,46.88923],[-91.034518,46.903053],[-90.995149,46.917577],[-90.968419,46.94391],[-90.921811,46.931322],[-90.913838,46.9334],[-90.908598,46.941305],[-90.883329,46.949838],[-90.879621,46.958088],[-90.863899,46.962662],[-90.831719,46.953871],[-90.830105,46.935959],[-90.824876,46.93255],[-90.814975,46.931008],[-90.805554,46.937833],[-90.792108,46.933783],[-90.78043,46.909011],[-90.767854,46.90814],[-90.750858,46.893035],[-90.754734,46.88488],[-90.777083,46.885963],[-90.77017,46.876296],[-90.789008,46.853285],[-90.785699,46.84201],[-90.799333,46.823161],[-90.826086,46.803876],[-90.835607,46.789759],[-90.856531,46.788885],[-90.863542,46.780565],[-90.859445,46.773985],[-90.862333,46.768135],[-90.885021,46.756341],[-90.870396,46.723293],[-90.852704,46.699582],[-90.853829,46.693457],[-90.887071,46.667735],[-90.911562,46.663394],[-90.921821,46.627791],[-90.951616,46.600952],[-90.944485,46.587663],[-90.9270553975865,46.5851700117462],[-90.92408,46.371046],[-90.928341,46.284349],[-90.924499,46.257904],[-90.924583,46.154616],[-91.551282,46.157045],[-91.553888,46.517591]]]]}},{"type":"Feature","properties":{"GEOID":"55029","NAME":"Door","state":"WI","wildfire_risk_score":39.885,"wildfire_eal_total":25473.26,"risk_band":"High","source":"FEMA National Risk Index v1.20 (December 2025)"},"geometry":{"type":"MultiPolygon","coordinates":[[[[-86.8309,45.426023],[-86.817069,45.426963],[-86.810055,45.422619],[-86.805415,45.407324],[-86.829559,45.40592],[-86.8309,45.426023]]],[[[-86.956198,45.352006],[-86.954634,45.358569],[-86.946297,45.35869],[-86.955204,45.383721],[-86.937393,45.420966],[-86.930511,45.417536],[-86.926588,45.397969],[-86.914268,45.408227],[-86.877502,45.413981],[-86.861472,45.412067],[-86.853145,45.405547],[-86.856412,45.399468],[-86.837854,45.393715],[-86.849335,45.372499],[-86.8642,45.365132],[-86.869041,45.333223],[-86.875117,45.33087],[-86.891484,45.338191],[-86.903169,45.333112],[-86.908667,45.316624],[-86.90038,45.311495],[-86.897074,45.296061],[-86.904898,45.296839],[-86.906705,45.310456],[-86.918202,45.317021],[-86.927169,45.329695],[-86.948087,45.335296],[-86.956129,45.342267],[-86.956198,45.352006]]],[[[-86.9600468617081,45.3117747586993],[-86.957909,45.315067],[-86.947601,45.312321],[-86.94416,45.300632],[-86.957222,45.304756],[-86.9600468617081,45.3117747586993]]],[[[-87.213034,45.179143],[-87.207121,45.179995],[-87.207244,45.177638],[-87.212057,45.176991],[-87.213034,45.179143]]],[[[-87.268705,45.15918],[-87.264726,45.161297],[-87.262224,45.160801],[-87.263652,45.157083],[-87.268705,45.15918]]],[[[-87.377548,45.183924],[-87.375199,45.198193],[-87.36457,45.202806],[-87.352731,45.198029],[-87.335066,45.211254],[-87.332344,45.206384],[-87.337569,45.202363],[-87.338605,45.175816],[-87.332633,45.160916],[-87.37697,45.17817],[-87.377548,45.183924]]],[[[-87.7337378825424,44.678903009126],[-87.717586,44.69799],[-87.720889,44.724548],[-87.662919,44.779872],[-87.661124,44.788547],[-87.6463,44.798739],[-87.614908,44.835014],[-87.581306,44.851791],[-87.550288,44.85129],[-87.558036,44.846663],[-87.566144,44.830359],[-87.565097,44.827233],[-87.558186,44.830676],[-87.55974,44.825318],[-87.553743,44.824498],[-87.541818,44.830894],[-87.532833,44.849461],[-87.533637,44.857676],[-87.527876,44.850469],[-87.518905,44.849139],[-87.503803,44.854669],[-87.518944,44.872552],[-87.499113,44.864355],[-87.500584,44.858437],[-87.48561,44.854562],[-87.461399,44.876908],[-87.433128,44.892741],[-87.419106,44.885378],[-87.436411,44.887577],[-87.43855,44.881009],[-87.427617,44.882357],[-87.419951,44.87594],[-87.405541,44.860047],[-87.390063,44.831137],[-87.38069,44.833995],[-87.387449,44.849339],[-87.383408,44.853046],[-87.383631,44.885115],[-87.393399,44.898199],[-87.406199,44.90449],[-87.405005,44.911806],[-87.395231,44.920705],[-87.398368,44.925226],[-87.374805,44.956631],[-87.360288,44.987643],[-87.344974,45.003315],[-87.342526,45.012292],[-87.332159,45.015602],[-87.321351,45.038215],[-87.308539,45.044511],[-87.301646,45.054214],[-87.292852,45.046322],[-87.284058,45.04649],[-87.280402,45.075436],[-87.269983,45.077247],[-87.261716,45.086275],[-87.257449,45.121644],[-87.250301,45.131189],[-87.239448,45.128085],[-87.242924,45.149377],[-87.233908,45.162746],[-87.237678,45.16817],[-87.223115,45.174622],[-87.222079,45.16447],[-87.194651,45.162359],[-87.187205,45.150258],[-87.178618,45.148371],[-87.169773,45.152865],[-87.175068,45.17305],[-87.167179,45.183594],[-87.148105,45.186036],[-87.146293,45.191912],[-87.119972,45.191103],[-87.122819,45.222997],[-87.108743,45.257003],[-87.099663,45.259605],[-87.077514,45.252669],[-87.074662,45.255513],[-87.078316,45.265723],[-87.067443,45.29582],[-87.059714,45.298803],[-87.0517,45.285888],[-87.043895,45.284767],[-87.025462,45.285622],[-87.017036,45.299254],[-87.007527,45.294508],[-86.994112,45.298061],[-86.983355,45.295368],[-86.97246,45.284117],[-86.970355,45.278455],[-86.984398,45.264366],[-86.982413,45.248173],[-86.973404,45.243305],[-86.985005,45.238561],[-86.986427,45.233323],[-86.979629,45.225051],[-86.985406,45.215792],[-86.992503,45.217896],[-87.002806,45.211773],[-87.010726,45.226728],[-87.021995,45.233164],[-87.036833,45.231573],[-87.039454,45.227358],[-87.032857,45.218533],[-87.033718,45.21389],[-87.041623,45.211312],[-87.039018,45.198352],[-87.046531,45.172386],[-87.045788,45.158702],[-87.029891,45.145364],[-87.040734,45.137481],[-87.05051,45.136653],[-87.066052,45.157396],[-87.079423,45.156297],[-87.085017,45.14495],[-87.076503,45.128927],[-87.057311,45.124523],[-87.051049,45.116172],[-87.048839,45.105736],[-87.052786,45.101406],[-87.048027,45.087758],[-87.057444,45.087467],[-87.065274,45.078214],[-87.081799,45.095723],[-87.09385,45.093355],[-87.097194,45.081651],[-87.080002,45.071969],[-87.079737,45.059449],[-87.087188,45.056055],[-87.091735,45.05628],[-87.098249,45.069907],[-87.123549,45.067077],[-87.125164,45.042369],[-87.139384,45.012565],[-87.163529,45.00489],[-87.189407,44.968632],[-87.188375,44.948077],[-87.17524,44.939753],[-87.1717,44.931476],[-87.204238,44.916819],[-87.215977,44.906597],[-87.217195,44.897839],[-87.206285,44.885928],[-87.204545,44.875593],[-87.267441,44.846851],[-87.282561,44.814729],[-87.307305,44.802092],[-87.320397,44.784963],[-87.318982,44.771335],[-87.335193,44.749736],[-87.343508,44.719228],[-87.3750783158915,44.6753886506286],[-87.7360920519266,44.6770254145138],[-87.7337378825424,44.678903009126]]]]}},{"type":"Feature","properties":{"GEOID":"55037","NAME":"Florence","state":"WI","wildfire_risk_score":8.62,"wildfire_eal_total":2675.66,"risk_band":"Low","source":"FEMA National Risk Index v1.20 (December 2025)"},"geometry":{"type":"Polygon","coordinates":[[[-88.6833118560336,46.0141382805013],[-88.675635,46.011682],[-88.671267,45.999026],[-88.663923,45.993242],[-88.670827,45.988547],[-88.6375,45.98496],[-88.614176,45.988775],[-88.612712,46.004462],[-88.60144,46.017599],[-88.59386,46.015132],[-88.589,46.005077],[-88.565485,46.015708],[-88.550756,46.012896],[-88.541078,46.013763],[-88.532414,46.021212],[-88.509516,46.019169],[-88.492495,45.992157],[-88.476002,45.992826],[-88.470855,46.001004],[-88.458658,45.999391],[-88.450325,45.990181],[-88.434762,45.98834],[-88.416914,45.975323],[-88.387939,45.983167],[-88.380183,45.991654],[-88.330137,45.965951],[-88.326953,45.955071],[-88.319698,45.963626],[-88.292381,45.951115],[-88.246346,45.963389],[-88.245752,45.954147],[-88.239941,45.949362],[-88.203797,45.947941],[-88.191991,45.95274],[-88.170096,45.93947],[-88.146163,45.936794],[-88.126419,45.925608],[-88.126382,45.921499],[-88.102908,45.921869],[-88.094968,45.914669],[-88.106624,45.902213],[-88.101814,45.883504],[-88.08182,45.880201],[-88.069885,45.872717],[-88.13611,45.819029],[-88.129461,45.809288],[-88.108331,45.803465],[-88.103247,45.791361],[-88.094047,45.785658],[-88.058256002738,45.7807197202238],[-88.059301,45.713065],[-88.365253,45.722149],[-88.675821,45.7229],[-88.67445,45.980868],[-88.6842,45.982449],[-88.6833118560336,46.0141382805013]]]}},{"type":"Feature","properties":{"GEOID":"55043","NAME":"Grant","state":"WI","wildfire_risk_score":16.667,"wildfire_eal_total":5530.46,"risk_band":"Low","source":"FEMA National Risk Index v1.20 (December 2025)"},"geometry":{"type":"Polygon","coordinates":[[[-91.1568126516435,42.9881698664533],[-91.136552,42.998915],[-91.114534,43.000302],[-91.062211,42.992552],[-91.052584,43.001665],[-91.022899,43.007544],[-91.004427,43.022441],[-90.969431,43.033193],[-90.953078,43.043754],[-90.937481,43.063534],[-90.914136,43.062584],[-90.882949,43.073247],[-90.845746,43.077625],[-90.839918,43.08516],[-90.822794,43.088146],[-90.799859,43.10835],[-90.742455,43.123596],[-90.726676,43.144884],[-90.698213,43.160722],[-90.698142,43.16819],[-90.689863,43.172972],[-90.65657,43.171833],[-90.608608,43.185372],[-90.582312,43.203267],[-90.545408,43.211455],[-90.429825,43.20094],[-90.4263779353442,42.5070594287559],[-90.642843,42.508481],[-90.635983,42.518712],[-90.644033,42.53986],[-90.659127,42.5579],[-90.661527,42.567999],[-90.686975,42.591774],[-90.693999,42.614509],[-90.709204,42.636078],[-90.88743,42.67247],[-90.921155,42.685406],[-90.949213,42.685573],[-90.977735,42.696816],[-91.000128,42.716189],[-91.026786,42.724228],[-91.035418,42.73734],[-91.053733,42.738238],[-91.056297,42.747341],[-91.065783,42.753387],[-91.060261,42.761847],[-91.069549,42.769628],[-91.078665,42.827678],[-91.09406,42.830813],[-91.091402,42.84986],[-91.097656,42.859871],[-91.100565,42.883078],[-91.117411,42.895837],[-91.14556,42.90798],[-91.1438,42.922877],[-91.14988,42.941955],[-91.14543,42.958211],[-91.156562,42.978226],[-91.1568126516435,42.9881698664533]]]}},{"type":"Feature","properties":{"GEOID":"55055","NAME":"Jefferson","state":"WI","wildfire_risk_score":39.917,"wildfire_eal_total":30720.62,"risk_band":"High","source":"FEMA National Risk Index v1.20 (December 2025)"},"geometry":{"type":"Polygon","coordinates":[[[-89.013578,42.849285],[-89.008832,43.197724],[-88.535843,43.196048],[-88.541535,42.842996],[-88.777076,42.842694],[-89.013578,42.849285]]]}},{"type":"Feature","properties":{"GEOID":"55141","NAME":"Wood","state":"WI","wildfire_risk_score":48.155,"wildfire_eal_total":47743.81,"risk_band":"High","source":"FEMA National Risk Index v1.20 (December 2025)"},"geometry":{"type":"Polygon","coordinates":[[[-90.317515,44.291822],[-90.316253,44.685154],[-89.844931,44.684945],[-89.844546,44.511503],[-89.726725,44.511192],[-89.724746,44.247678],[-90.318032,44.248708],[-90.317515,44.291822]]]}},{"type":"Feature","properties":{"GEOID":"55133","NAME":"Waukesha","state":"WI","wildfire_risk_score":49.682,"wildfire_eal_total":83382.02,"risk_band":"High","source":"FEMA National Risk Index v1.20 (December 2025)"},"geometry":{"type":"Polygon","coordinates":[[[-88.542151,42.904991],[-88.535843,43.196048],[-88.063353,43.192117],[-88.069924,42.843323],[-88.541535,42.842996],[-88.542151,42.904991]]]}},{"type":"Feature","properties":{"GEOID":"55119","NAME":"Taylor","state":"WI","wildfire_risk_score":14.408,"wildfire_eal_total":4685.17,"risk_band":"Low","source":"FEMA National Risk Index v1.20 (December 2025)"},"geometry":{"type":"Polygon","coordinates":[[[-90.925903,45.120101],[-90.925343,45.37935],[-90.503662,45.377171],[-90.042273,45.381866],[-90.046143,45.340309],[-90.043685,45.120214],[-90.197765,45.120604],[-90.197516,45.03364],[-90.923362,45.031143],[-90.92281,45.119307],[-90.925903,45.120101]]]}},{"type":"Feature","properties":{"GEOID":"55093","NAME":"Pierce","state":"WI","wildfire_risk_score":17.844,"wildfire_eal_total":8935.22,"risk_band":"Moderate","source":"FEMA National Risk Index v1.20 (December 2025)"},"geometry":{"type":"Polygon","coordinates":[[[-92.807362,44.758909],[-92.800313,44.777379],[-92.785206,44.792303],[-92.78043,44.812589],[-92.766102,44.834966],[-92.7690904794773,44.8619968322789],[-92.136348,44.857848],[-92.135404,44.539579],[-92.3162276738383,44.5409661360087],[-92.336114,44.554004],[-92.361518,44.558935],[-92.415089,44.560359],[-92.437342,44.552786],[-92.458896,44.562745],[-92.481001,44.568276],[-92.493808,44.566063],[-92.518358,44.575183],[-92.54806,44.567792],[-92.549777,44.58113],[-92.569434,44.603539],[-92.577148,44.605054],[-92.586216,44.600088],[-92.601516,44.612052],[-92.621456,44.615017],[-92.619779,44.634195],[-92.632105,44.649027],[-92.660988,44.660884],[-92.737259,44.717155],[-92.802402,44.745167],[-92.807988,44.75147],[-92.807362,44.758909]]]}},{"type":"Feature","properties":{"GEOID":"55061","NAME":"Kewaunee","state":"WI","wildfire_risk_score":9.86,"wildfire_eal_total":3983.82,"risk_band":"Low","source":"FEMA National Risk Index v1.20 (December 2025)"},"geometry":{"type":"Polygon","coordinates":[[[-87.766026,44.327184],[-87.7623812757636,44.6445385235568],[-87.754229,44.650583],[-87.747387,44.668017],[-87.7360920519266,44.6770254145138],[-87.3750783158915,44.6753886506286],[-87.401629,44.631191],[-87.437493,44.605071],[-87.452174,44.572897],[-87.468093,44.551925],[-87.517965,44.394356],[-87.517597,44.375696],[-87.5429502124445,44.3275125002008],[-87.766026,44.327184]]]}},{"type":"Feature","properties":{"GEOID":"55045","NAME":"Green","state":"WI","wildfire_risk_score":31.139,"wildfire_eal_total":18256.23,"risk_band":"Moderate","source":"FEMA National Risk Index v1.20 (December 2025)"},"geometry":{"type":"Polygon","coordinates":[[[-89.83857,42.774878],[-89.838167,42.857397],[-89.369069,42.856471],[-89.3657987753767,42.5002603886239],[-89.8375874625297,42.5055426328327],[-89.83857,42.774878]]]}},{"type":"Feature","properties":{"GEOID":"55091","NAME":"Pepin","state":"WI","wildfire_risk_score":2.195,"wildfire_eal_total":877.3,"risk_band":"Low","source":"FEMA National Risk Index v1.20 (December 2025)"},"geometry":{"type":"Polygon","coordinates":[[[-92.3162276738383,44.5409661360087],[-92.135404,44.539579],[-92.135202,44.684374],[-91.650361,44.683633],[-91.650248,44.596649],[-92.003146,44.596834],[-92.022788,44.590519],[-92.02918,44.586292],[-92.039585,44.56421],[-92.038838,44.546969],[-92.047919,44.530432],[-92.043914,44.512375],[-92.056113,44.488935],[-92.059317,44.466289],[-92.081271,44.429807],[-92.0836398321986,44.4071887773643],[-92.111085,44.413948],[-92.124513,44.422115],[-92.195378,44.433792],[-92.232472,44.445434],[-92.291005,44.485464],[-92.302215,44.500298],[-92.303046,44.518646],[-92.3162276738383,44.5409661360087]]]}},{"type":"Feature","properties":{"GEOID":"55127","NAME":"Walworth","state":"WI","wildfire_risk_score":25.254,"wildfire_eal_total":12707.32,"risk_band":"Moderate","source":"FEMA National Risk Index v1.20 (December 2025)"},"geometry":{"type":"Polygon","coordinates":[[[-88.778876,42.754753],[-88.777076,42.842694],[-88.306384,42.842095],[-88.304692,42.4947727016231],[-88.7765901212019,42.4920232291027],[-88.778876,42.754753]]]}},{"type":"Feature","properties":{"GEOID":"55089","NAME":"Ozaukee","state":"WI","wildfire_risk_score":19.497,"wildfire_eal_total":14690.64,"risk_band":"Moderate","source":"FEMA National Risk Index v1.20 (December 2025)"},"geometry":{"type":"Polygon","coordinates":[[[-88.063908,43.235636],[-88.062426,43.367289],[-88.039983,43.367883],[-88.040528,43.542361],[-87.7919129032718,43.5430214555291],[-87.79169,43.492244],[-87.812548,43.450422],[-87.869599,43.387191],[-87.882392,43.352099],[-87.889207,43.307652],[-87.901847,43.284117],[-87.911787,43.250406],[-87.910087,43.235907],[-87.896744,43.214302],[-87.896286,43.197108],[-87.8920897893963,43.192043607892],[-88.063353,43.192117],[-88.063908,43.235636]]]}},{"type":"Feature","properties":{"GEOID":"55009","NAME":"Brown","state":"WI","wildfire_risk_score":33.842,"wildfire_eal_total":22139.98,"risk_band":"Moderate","source":"FEMA National Risk Index v1.20 (December 2025)"},"geometry":{"type":"MultiPolygon","coordinates":[[[[-87.989273,44.604635],[-87.981321,44.596952],[-87.979122,44.587008],[-87.981261,44.586669],[-87.989273,44.604635]]],[[[-87.991561,44.677211],[-87.987914887573,44.6776103508244],[-87.980154,44.653961],[-87.991445,44.673622],[-87.991561,44.677211]]],[[[-88.005536,44.61647],[-88.003369,44.617111],[-87.991538,44.604907],[-88.000592,44.610748],[-88.005536,44.61647]]],[[[-88.252562,44.679813],[-88.230958,44.679558],[-88.231178,44.672361],[-88.131182,44.676928],[-87.993609716373,44.6772022335628],[-88.002085,44.664035],[-88.004312,44.645914],[-88.011866,44.643098],[-88.015126,44.634879],[-88.010145,44.635865],[-88.008911,44.631905],[-88.013758,44.62212],[-88.014923,44.585531],[-88.024082,44.578302],[-88.038055,44.576057],[-88.049802,44.564789],[-88.002431,44.538662],[-87.95514,44.528902],[-87.929001,44.535993],[-87.898888,44.574135],[-87.912864,44.578043],[-87.891717,44.588982],[-87.880396,44.603302],[-87.866884,44.608434],[-87.863996,44.615485],[-87.856555,44.619711],[-87.840704,44.618699],[-87.808819,44.636338],[-87.7623812757636,44.6445385235568],[-87.766026,44.327184],[-87.887526,44.327589],[-87.888087,44.240461],[-88.192611,44.241947],[-88.190126,44.585193],[-88.245204,44.584746],[-88.242833,44.660773],[-88.252392,44.660218],[-88.252562,44.679813]]]]}},{"type":"Feature","properties":{"GEOID":"55083","NAME":"Oconto","state":"WI","wildfire_risk_score":38.804,"wildfire_eal_total":24080.76,"risk_band":"High","source":"FEMA National Risk Index v1.20 (December 2025)"},"geometry":{"type":"Polygon","coordinates":[[[-88.679242,45.277052],[-88.67782,45.378929],[-88.30581,45.374548],[-88.309063,45.20158],[-88.186355,45.197974],[-88.189247,45.111844],[-88.118879,45.110197],[-88.121152,45.023581],[-87.942995,45.020418],[-87.944436,44.993057],[-87.760071,44.99053],[-87.7624452328204,44.9666087565414],[-87.812989,44.954013],[-87.839261,44.932763],[-87.844299,44.918524],[-87.830968,44.892567],[-87.847137,44.880584],[-87.845876,44.874275],[-87.866557,44.842656],[-87.902419,44.827824],[-87.928551,44.773525],[-87.939816,44.76418],[-87.938866,44.759117],[-87.964714,44.74357],[-87.982627,44.721755],[-87.989623,44.700866],[-87.987914887573,44.6776103508244],[-88.231178,44.672361],[-88.230958,44.679558],[-88.242687,44.679631],[-88.252362,44.766805],[-88.248213,44.852739],[-88.489149,44.855445],[-88.483732,45.116887],[-88.641159,45.117346],[-88.638174,45.204815],[-88.680066,45.204994],[-88.679242,45.277052]]]}},{"type":"Feature","properties":{"GEOID":"55071","NAME":"Manitowoc","state":"WI","wildfire_risk_score":19.211,"wildfire_eal_total":8230.24,"risk_band":"Moderate","source":"FEMA National Risk Index v1.20 (December 2025)"},"geometry":{"type":"Polygon","coordinates":[[[-88.043779,44.182211],[-88.04324,44.241018],[-87.888087,44.240461],[-87.887526,44.327589],[-87.5429502124445,44.3275125002008],[-87.541155,44.293143],[-87.508419,44.229669],[-87.507419,44.210803],[-87.512903,44.192808],[-87.53994,44.15969],[-87.563181,44.144195],[-87.621082,44.121895],[-87.648059,44.103689],[-87.655183,44.081894],[-87.656083,44.051794],[-87.683669,44.020167],[-87.701124,43.961986],[-87.719405,43.937678],[-87.7316112945796,43.8921816245257],[-88.041794,43.891692],[-88.043779,44.182211]]]}},{"type":"Feature","properties":{"GEOID":"55065","NAME":"Lafayette","state":"WI","wildfire_risk_score":14.726,"wildfire_eal_total":5610.49,"risk_band":"Low","source":"FEMA National Risk Index v1.20 (December 2025)"},"geometry":{"type":"Polygon","coordinates":[[[-90.426902,42.812862],[-89.83841,42.813799],[-89.8375874625297,42.5055426328327],[-90.4263779353442,42.5070594287559],[-90.426902,42.812862]]]}},{"type":"Feature","properties":{"GEOID":"55125","NAME":"Vilas","state":"WI","wildfire_risk_score":22.137,"wildfire_eal_total":7129.59,"risk_band":"Moderate","source":"FEMA National Risk Index v1.20 (December 2025)"},"geometry":{"type":"Polygon","coordinates":[[[-90.043958,45.981948],[-89.928837,45.981967],[-89.9291576329505,46.2997498928327],[-89.09163,46.138505],[-88.9327522855634,46.0736796404744],[-88.933222,45.982276],[-89.047795,45.982345],[-89.047601,45.895355],[-89.177715,45.8993],[-89.175245,45.856579],[-89.300943,45.860689],[-89.300473,45.901463],[-90.042857,45.897263],[-90.043958,45.981948]]]}},{"type":"Feature","properties":{"GEOID":"55109","NAME":"St. Croix","state":"WI","wildfire_risk_score":45.261,"wildfire_eal_total":53158.83,"risk_band":"High","source":"FEMA National Risk Index v1.20 (December 2025)"},"geometry":{"type":"Polygon","coordinates":[[[-92.802911,45.065403],[-92.791528,45.079647],[-92.739584,45.115598],[-92.752102,45.142069],[-92.749059,45.148466],[-92.752404,45.173916],[-92.767116,45.187879],[-92.763908,45.204866],[-92.758008,45.209566],[-92.156465,45.209554],[-92.157072,45.121608],[-92.136113,45.121388],[-92.136348,44.857848],[-92.7690904794773,44.8619968322789],[-92.763402,44.874167],[-92.774571,44.898084],[-92.758701,44.908979],[-92.750645,44.937299],[-92.754603,44.955767],[-92.769445,44.97215],[-92.771231,45.001378],[-92.76206,45.02432],[-92.797081,45.050648],[-92.802911,45.065403]]]}},{"type":"Feature","properties":{"GEOID":"55101","NAME":"Racine","state":"WI","wildfire_risk_score":29.771,"wildfire_eal_total":15622.4,"risk_band":"Moderate","source":"FEMA National Risk Index v1.20 (December 2025)"},"geometry":{"type":"Polygon","coordinates":[[[-88.307945,42.761553],[-88.306384,42.842095],[-87.8271348118741,42.8422215249072],[-87.824481,42.834744],[-87.793976,42.806218],[-87.757913,42.782136],[-87.778174,42.762819],[-87.781736,42.750053],[-87.778018,42.71891],[-87.8058558866897,42.6678889603301],[-88.188306,42.669709],[-88.188173,42.611456],[-88.305891,42.610817],[-88.307945,42.761553]]]}},{"type":"Feature","properties":{"GEOID":"55137","NAME":"Waushara","state":"WI","wildfire_risk_score":51.272,"wildfire_eal_total":52955.68,"risk_band":"High","source":"FEMA National Risk Index v1.20 (December 2025)"},"geometry":{"type":"Polygon","coordinates":[[[-89.598054,44.047561],[-89.59798,44.245725],[-88.886673,44.242622],[-88.886193,43.983233],[-89.59795,43.9821],[-89.598054,44.047561]]]}},{"type":"Feature","properties":{"GEOID":"55053","NAME":"Jackson","state":"WI","wildfire_risk_score":30.98,"wildfire_eal_total":12593.65,"risk_band":"Moderate","source":"FEMA National Risk Index v1.20 (December 2025)"},"geometry":{"type":"Polygon","coordinates":[[[-91.166222,44.303753],[-91.165619,44.596987],[-90.922243,44.596291],[-90.922889,44.50984],[-90.801521,44.509556],[-90.801918,44.422442],[-90.316055,44.424502],[-90.318032,44.248708],[-90.31268,44.24875],[-90.312522,44.155198],[-90.435732,44.161129],[-90.904579,44.158298],[-90.925692,44.145979],[-90.943993,44.143601],[-90.9465,44.147342],[-90.9671,44.135651],[-90.970332,44.128647],[-90.977279,44.129608],[-90.967231,44.119979],[-90.973661,44.116585],[-90.973107,44.070882],[-91.151845,44.070995],[-91.153563,44.247583],[-91.165548,44.247445],[-91.166222,44.303753]]]}},{"type":"Feature","properties":{"GEOID":"55015","NAME":"Calumet","state":"WI","wildfire_risk_score":10.083,"wildfire_eal_total":6092.71,"risk_band":"Low","source":"FEMA National Risk Index v1.20 (December 2025)"},"geometry":{"type":"Polygon","coordinates":[[[-88.404419,44.105471],[-88.40407,44.244102],[-88.04324,44.241018],[-88.041794,43.891692],[-88.162274,43.891511],[-88.161654,43.937683],[-88.404187,43.9382],[-88.404419,44.105471]]]}},{"type":"Feature","properties":{"GEOID":"55005","NAME":"Barron","state":"WI","wildfire_risk_score":17.589,"wildfire_eal_total":5916.25,"risk_band":"Low","source":"FEMA National Risk Index v1.20 (December 2025)"},"geometry":{"type":"Polygon","coordinates":[[[-92.156732,45.346099],[-92.154888,45.639742],[-91.540294,45.637605],[-91.542234,45.206538],[-92.156465,45.209554],[-92.156732,45.346099]]]}},{"type":"Feature","properties":{"GEOID":"55067","NAME":"Langlade","state":"WI","wildfire_risk_score":20.611,"wildfire_eal_total":7367.47,"risk_band":"Moderate","source":"FEMA National Risk Index v1.20 (December 2025)"},"geometry":{"type":"Polygon","coordinates":[[[-89.425976,45.151715],[-89.424824,45.467166],[-89.34426,45.470015],[-88.923062,45.465137],[-88.926025,45.378637],[-88.677996,45.378683],[-88.680066,45.204994],[-88.638174,45.204815],[-88.641159,45.117346],[-88.98246,45.117998],[-88.98168,45.028917],[-89.223814,45.029246],[-89.224214,45.118567],[-89.425971,45.119098],[-89.425976,45.151715]]]}},{"type":"Feature","properties":{"GEOID":"55131","NAME":"Washington","state":"WI","wildfire_risk_score":49.046,"wildfire_eal_total":79698.39,"risk_band":"High","source":"FEMA National Risk Index v1.20 (December 2025)"},"geometry":{"type":"Polygon","coordinates":[[[-88.418709,43.325281],[-88.418439,43.370175],[-88.401544,43.370071],[-88.400426,43.543532],[-88.040528,43.542361],[-88.039983,43.367883],[-88.062426,43.367289],[-88.063353,43.192117],[-88.417987,43.194697],[-88.418709,43.325281]]]}},{"type":"Feature","properties":{"GEOID":"55077","NAME":"Marquette","state":"WI","wildfire_risk_score":36.737,"wildfire_eal_total":18966.82,"risk_band":"High","source":"FEMA National Risk Index v1.20 (December 2025)"},"geometry":{"type":"Polygon","coordinates":[[[-89.599659,43.671683],[-89.59795,43.9821],[-89.168308,43.982508],[-89.168121,43.87647],[-89.198324,43.876512],[-89.198015,43.817959],[-89.194375,43.814871],[-89.198299,43.812677],[-89.1893,43.80457],[-89.168018,43.810118],[-89.167577,43.765522],[-89.229773,43.767925],[-89.243337,43.763302],[-89.245437,43.643083],[-89.599547,43.642636],[-89.599659,43.671683]]]}},{"type":"Feature","properties":{"GEOID":"55097","NAME":"Portage","state":"WI","wildfire_risk_score":32.347,"wildfire_eal_total":25985.18,"risk_band":"Moderate","source":"FEMA National Risk Index v1.20 (December 2025)"},"geometry":{"type":"Polygon","coordinates":[[[-89.844931,44.684945],[-89.223745,44.681365],[-89.224813,44.243393],[-89.724746,44.247678],[-89.726725,44.511192],[-89.844546,44.511503],[-89.844931,44.684945]]]}},{"type":"Feature","properties":{"GEOID":"55047","NAME":"Green Lake","state":"WI","wildfire_risk_score":47.074,"wildfire_eal_total":28154.61,"risk_band":"High","source":"FEMA National Risk Index v1.20 (December 2025)"},"geometry":{"type":"Polygon","coordinates":[[[-89.24559,43.730631],[-89.245375,43.759813],[-89.240528,43.759849],[-89.243337,43.763302],[-89.23902,43.766493],[-89.167577,43.765522],[-89.168018,43.810118],[-89.1893,43.80457],[-89.198299,43.812677],[-89.194375,43.814871],[-89.198015,43.817959],[-89.198324,43.876512],[-89.168121,43.87647],[-89.168612,43.982834],[-88.886193,43.983233],[-88.886052,43.63354],[-89.12717,43.631724],[-89.126921,43.64367],[-89.245437,43.643083],[-89.24559,43.730631]]]}},{"type":"Feature","properties":{"GEOID":"55107","NAME":"Rusk","state":"WI","wildfire_risk_score":6.616,"wildfire_eal_total":1875.89,"risk_band":"Low","source":"FEMA National Risk Index v1.20 (December 2025)"},"geometry":{"type":"Polygon","coordinates":[[[-91.54097,45.30671],[-91.540294,45.637605],[-90.678749,45.638264],[-90.678773,45.377907],[-90.925343,45.37935],[-90.925222,45.292061],[-91.540962,45.29206],[-91.54097,45.30671]]]}},{"type":"Feature","properties":{"GEOID":"55021","NAME":"Columbia","state":"WI","wildfire_risk_score":42.303,"wildfire_eal_total":34044.83,"risk_band":"High","source":"FEMA National Risk Index v1.20 (December 2025)"},"geometry":{"type":"Polygon","coordinates":[[[-89.784901,43.641051],[-89.126921,43.64367],[-89.12717,43.631724],[-89.006848,43.633045],[-89.004477,43.374962],[-89.00883,43.371504],[-89.009139,43.28483],[-89.363085,43.281305],[-89.363159,43.294036],[-89.720463,43.293084],[-89.726952,43.300329],[-89.723632,43.314451],[-89.703832,43.330296],[-89.679269,43.360185],[-89.641235,43.362874],[-89.60073,43.380666],[-89.599356,43.557858],[-89.612345,43.564903],[-89.638766,43.562932],[-89.665738,43.569169],[-89.694135,43.565949],[-89.730547,43.570437],[-89.734447,43.578767],[-89.717593,43.597488],[-89.740311,43.598231],[-89.752702,43.60574],[-89.768298,43.607062],[-89.775364,43.613761],[-89.773369,43.620348],[-89.782352,43.625645],[-89.775813,43.631392],[-89.784901,43.641051]]]}},{"type":"Feature","properties":{"GEOID":"55103","NAME":"Richland","state":"WI","wildfire_risk_score":14.822,"wildfire_eal_total":4008.42,"risk_band":"Low","source":"FEMA National Risk Index v1.20 (December 2025)"},"geometry":{"type":"Polygon","coordinates":[[[-90.671652,43.552856],[-90.191964,43.554996],[-90.193814,43.164464],[-90.220887,43.174236],[-90.260077,43.197689],[-90.280706,43.194331],[-90.292534,43.206859],[-90.335499,43.209687],[-90.439286,43.199631],[-90.545408,43.211455],[-90.588903,43.200688],[-90.608608,43.185372],[-90.666786,43.171777],[-90.666012,43.379423],[-90.671652,43.552856]]]}},{"type":"Feature","properties":{"GEOID":"55135","NAME":"Waupaca","state":"WI","wildfire_risk_score":40.872,"wildfire_eal_total":24983.35,"risk_band":"High","source":"FEMA National Risk Index v1.20 (December 2025)"},"geometry":{"type":"Polygon","coordinates":[[[-89.224723,44.256906],[-89.223745,44.681365],[-88.605159,44.678331],[-88.606083,44.590515],[-88.736802,44.590605],[-88.73977,44.243303],[-89.224813,44.243393],[-89.224723,44.256906]]]}},{"type":"Feature","properties":{"GEOID":"55087","NAME":"Outagamie","state":"WI","wildfire_risk_score":26.686,"wildfire_eal_total":16906.68,"risk_band":"Moderate","source":"FEMA National Risk Index v1.20 (December 2025)"},"geometry":{"type":"Polygon","coordinates":[[[-88.738565,44.316038],[-88.736802,44.590605],[-88.190465,44.586799],[-88.192611,44.241947],[-88.73977,44.243303],[-88.738565,44.316038]]]}},{"type":"Feature","properties":{"GEOID":"55079","NAME":"Milwaukee","state":"WI","wildfire_risk_score":29.517,"wildfire_eal_total":11839.85,"risk_band":"Moderate","source":"FEMA National Risk Index v1.20 (December 2025)"},"geometry":{"type":"Polygon","coordinates":[[[-88.069586,42.867263],[-88.063353,43.192117],[-87.8920897893963,43.192043607892],[-87.881085,43.170609],[-87.900285,43.13731],[-87.900485,43.12591],[-87.876084,43.099011],[-87.863806,43.070622],[-87.890629,43.048421],[-87.898663,43.025749],[-87.888015,43.002212],[-87.857182,42.978015],[-87.845018,42.961132],[-87.845944,42.932075],[-87.839664,42.914598],[-87.847834,42.89635],[-87.84347,42.890311],[-87.84649,42.884143],[-87.8271348118741,42.8422215249072],[-88.069924,42.843323],[-88.069586,42.867263]]]}},{"type":"Feature","properties":{"GEOID":"55063","NAME":"La Crosse","state":"WI","wildfire_risk_score":11.832,"wildfire_eal_total":4874.62,"risk_band":"Low","source":"FEMA National Risk Index v1.20 (December 2025)"},"geometry":{"type":"Polygon","coordinates":[[[-91.4251879792514,43.9843219996781],[-91.32258,43.98446],[-91.322044,43.989462],[-91.329964,43.995317],[-91.328039,43.999911],[-91.33807,44.007374],[-91.336888,44.01248],[-91.344678,44.015779],[-91.340092,44.02004],[-91.339639,44.035071],[-91.328386,44.036574],[-91.332075,44.043529],[-91.318639,44.050821],[-91.31608,44.060204],[-91.304759,44.064914],[-91.284199,44.060365],[-91.267417,44.072266],[-91.256653,44.068305],[-91.247473,44.057513],[-91.231879,44.058316],[-91.220962,44.053127],[-91.21673,44.065067],[-91.199409,44.077466],[-91.200603,44.086616],[-91.187692,44.090584],[-91.186998,44.085308],[-91.168876,44.088405],[-91.166426,44.082777],[-91.151932,44.079665],[-91.151845,44.070995],[-90.912918,44.071522],[-90.910653,43.725334],[-91.2577734154764,43.7256608230861],[-91.244135,43.774667],[-91.262436,43.792166],[-91.277695,43.837741],[-91.310991,43.867381],[-91.320605,43.888491],[-91.338141,43.897664],[-91.347741,43.911964],[-91.357426,43.917231],[-91.366642,43.937463],[-91.385785,43.954239],[-91.406011,43.963929],[-91.4251879792514,43.9843219996781]]]}},{"type":"Feature","properties":{"GEOID":"55123","NAME":"Vernon","state":"WI","wildfire_risk_score":17.239,"wildfire_eal_total":4554.1,"risk_band":"Low","source":"FEMA National Risk Index v1.20 (December 2025)"},"geometry":{"type":"Polygon","coordinates":[[[-91.272741,43.676609],[-91.268455,43.709824],[-91.2577734154764,43.7256608230861],[-90.607057,43.725985],[-90.607022,43.72961],[-90.587213,43.729526],[-90.587207,43.725827],[-90.432885,43.725888],[-90.312194,43.731479],[-90.311069,43.553991],[-90.671652,43.552856],[-90.668561,43.422994],[-91.2055506500066,43.4229485023581],[-91.232276,43.450952],[-91.232241,43.460018],[-91.216035,43.481142],[-91.217353,43.512474],[-91.232941,43.523967],[-91.243183,43.540309],[-91.243214,43.550722],[-91.232812,43.564842],[-91.232707,43.583533],[-91.268748,43.615348],[-91.262397,43.64176],[-91.271749,43.654929],[-91.272741,43.676609]]]}},{"type":"Feature","properties":{"GEOID":"55105","NAME":"Rock","state":"WI","wildfire_risk_score":26.813,"wildfire_eal_total":14389.49,"risk_band":"Moderate","source":"FEMA National Risk Index v1.20 (December 2025)"},"geometry":{"type":"Polygon","coordinates":[[[-89.36917,42.838853],[-89.369128,42.845036],[-89.092533,42.84735],[-88.777076,42.842694],[-88.7765901212019,42.4920232291027],[-89.3657987753767,42.5002603886239],[-89.36917,42.838853]]]}},{"type":"Feature","properties":{"GEOID":"55139","NAME":"Winnebago","state":"WI","wildfire_risk_score":40.172,"wildfire_eal_total":31013.65,"risk_band":"High","source":"FEMA National Risk Index v1.20 (December 2025)"},"geometry":{"type":"Polygon","coordinates":[[[-88.886673,44.242622],[-88.40407,44.244102],[-88.403195,43.892977],[-88.885697,43.895184],[-88.886673,44.242622]]]}},{"type":"Feature","properties":{"GEOID":"55019","NAME":"Clark","state":"WI","wildfire_risk_score":19.784,"wildfire_eal_total":4789.83,"risk_band":"Moderate","source":"FEMA National Risk Index v1.20 (December 2025)"},"geometry":{"type":"Polygon","coordinates":[[[-90.922838,44.999966],[-90.923362,45.031143],[-90.315038,45.033829],[-90.315962,44.424583],[-90.801918,44.422442],[-90.801627,44.509683],[-90.922889,44.50984],[-90.922838,44.999966]]]}},{"type":"Feature","properties":{"GEOID":"55081","NAME":"Monroe","state":"WI","wildfire_risk_score":33.27,"wildfire_eal_total":13568.04,"risk_band":"Moderate","source":"FEMA National Risk Index v1.20 (December 2025)"},"geometry":{"type":"Polygon","coordinates":[[[-90.978067,44.128529],[-90.970332,44.128647],[-90.9671,44.135651],[-90.9465,44.147342],[-90.943993,44.143601],[-90.925692,44.145979],[-90.904579,44.158298],[-90.435732,44.161129],[-90.312522,44.155198],[-90.312194,43.731479],[-90.432885,43.725888],[-90.587207,43.725827],[-90.587213,43.729526],[-90.607022,43.72961],[-90.607057,43.725985],[-90.910653,43.725334],[-90.912918,44.071522],[-90.973107,44.070882],[-90.973661,44.116585],[-90.967231,44.119979],[-90.978067,44.128529]]]}},{"type":"Feature","properties":{"GEOID":"55031","NAME":"Douglas","state":"WI","wildfire_risk_score":39.218,"wildfire_eal_total":27444.78,"risk_band":"High","source":"FEMA National Risk Index v1.20 (December 2025)"},"geometry":{"type":"Polygon","coordinates":[[[-92.293857,46.180073],[-92.291292,46.668142],[-92.270592,46.650741],[-92.256592,46.658741],[-92.242493,46.649241],[-92.207092,46.651941],[-92.201592,46.656641],[-92.204092,46.666941],[-92.176091,46.686341],[-92.183091,46.695241],[-92.205192,46.698341],[-92.204691,46.704041],[-92.189091,46.717541],[-92.167291,46.719941],[-92.146291,46.71594],[-92.141291,46.72524],[-92.14329,46.73464],[-92.11659,46.74864],[-92.08949,46.74924],[-92.03399,46.708939],[-92.020289,46.704039],[-92.008123,46.705905],[-91.973389,46.686439],[-91.942988,46.679939],[-91.886809,46.689612],[-91.790132,46.694675],[-91.74965,46.709129],[-91.645502,46.734733],[-91.590684,46.754331],[-91.551408,46.755666],[-91.551282,46.157045],[-92.2937055830063,46.1573209976466],[-92.293857,46.180073]]]}},{"type":"Feature","properties":{"GEOID":"55049","NAME":"Iowa","state":"WI","wildfire_risk_score":19.466,"wildfire_eal_total":9659.76,"risk_band":"Moderate","source":"FEMA National Risk Index v1.20 (December 2025)"},"geometry":{"type":"Polygon","coordinates":[[[-90.429912,43.118317],[-90.429825,43.20094],[-90.408663,43.200188],[-90.350513,43.209786],[-90.296447,43.207907],[-90.283555,43.195275],[-90.260077,43.197689],[-90.183271,43.157134],[-90.158983,43.166794],[-90.113276,43.160367],[-90.087939,43.162379],[-90.05866,43.145291],[-90.051831,43.149303],[-90.048613,43.166882],[-90.000123,43.194624],[-89.905276,43.188024],[-89.876421,43.196516],[-89.858889,43.195581],[-89.838135,43.206057],[-89.83841,42.813799],[-90.426902,42.812862],[-90.429912,43.118317]]]}},{"type":"Feature","properties":{"GEOID":"55027","NAME":"Dodge","state":"WI","wildfire_risk_score":47.583,"wildfire_eal_total":49495.01,"risk_band":"High","source":"FEMA National Risk Index v1.20 (December 2025)"},"geometry":{"type":"Polygon","coordinates":[[[-89.009532,43.323467],[-89.00883,43.371504],[-89.004477,43.374962],[-89.006848,43.633045],[-88.401041,43.630933],[-88.401544,43.370071],[-88.418439,43.370175],[-88.417987,43.194697],[-89.00892,43.197721],[-89.009532,43.323467]]]}},{"type":"Feature","properties":{"GEOID":"55017","NAME":"Chippewa","state":"WI","wildfire_risk_score":20.038,"wildfire_eal_total":9064.58,"risk_band":"Moderate","source":"FEMA National Risk Index v1.20 (December 2025)"},"geometry":{"type":"Polygon","coordinates":[[[-91.666323,45.12808],[-91.665647,45.207991],[-91.542234,45.206538],[-91.541322,45.29222],[-90.925222,45.292061],[-90.922247,44.857309],[-91.650455,44.855951],[-91.651471,45.120434],[-91.666402,45.120823],[-91.666323,45.12808]]]}},{"type":"Feature","properties":{"GEOID":"55041","NAME":"Forest","state":"WI","wildfire_risk_score":13.422,"wildfire_eal_total":3540.21,"risk_band":"Low","source":"FEMA National Risk Index v1.20 (December 2025)"},"geometry":{"type":"Polygon","coordinates":[[[-89.047795,45.982345],[-88.933222,45.982276],[-88.9327522855634,46.0736796404744],[-88.85027,46.040274],[-88.838601,46.030124],[-88.819084,46.026314],[-88.816026,46.020586],[-88.79646,46.023605],[-88.80067,46.030036],[-88.796182,46.033712],[-88.788351,46.028613],[-88.778628,46.031271],[-88.784007,46.022984],[-88.780156,46.015395],[-88.769712,46.018968],[-88.770046,46.025728],[-88.758618,46.019542],[-88.739994,46.027308],[-88.724801,46.024503],[-88.718397,46.013284],[-88.704687,46.018154],[-88.6833118560336,46.0141382805013],[-88.6842,45.982449],[-88.67445,45.980868],[-88.675821,45.7229],[-88.425302,45.722426],[-88.428102,45.37701],[-88.926025,45.378637],[-88.923062,45.465137],[-89.04649,45.464439],[-89.047795,45.982345]]]}},{"type":"Feature","properties":{"GEOID":"55033","NAME":"Dunn","state":"WI","wildfire_risk_score":11.896,"wildfire_eal_total":5622.21,"risk_band":"Low","source":"FEMA National Risk Index v1.20 (December 2025)"},"geometry":{"type":"Polygon","coordinates":[[[-92.156792,45.135469],[-92.156465,45.209554],[-91.665647,45.207991],[-91.666402,45.120823],[-91.651471,45.120434],[-91.650361,44.683633],[-92.135202,44.684374],[-92.136113,45.121388],[-92.157072,45.121608],[-92.156792,45.135469]]]}},{"type":"Feature","properties":{"GEOID":"55115","NAME":"Shawano","state":"WI","wildfire_risk_score":21.915,"wildfire_eal_total":9900.78,"risk_band":"Moderate","source":"FEMA National Risk Index v1.20 (December 2025)"},"geometry":{"type":"Polygon","coordinates":[[[-89.224287,44.799013],[-89.223814,45.029246],[-88.98168,45.028917],[-88.981319,44.942745],[-88.735763,44.943195],[-88.736194,44.856376],[-88.248213,44.852739],[-88.252362,44.766805],[-88.242687,44.679631],[-88.252562,44.679813],[-88.252392,44.660218],[-88.242833,44.660773],[-88.245204,44.584746],[-88.606083,44.590515],[-88.605159,44.678331],[-89.223745,44.681365],[-89.224287,44.799013]]]}},{"type":"Feature","properties":{"GEOID":"55025","NAME":"Dane","state":"WI","wildfire_risk_score":60.242,"wildfire_eal_total":105320.37,"risk_band":"High","source":"FEMA National Risk Index v1.20 (December 2025)"},"geometry":{"type":"Polygon","coordinates":[[[-89.838561,42.949939],[-89.838135,43.206057],[-89.805413,43.238858],[-89.762222,43.24059],[-89.731738,43.252203],[-89.713438,43.281006],[-89.720463,43.293084],[-89.363159,43.294036],[-89.363085,43.281305],[-89.009139,43.28483],[-89.013582,42.84763],[-89.369128,42.845036],[-89.369069,42.856471],[-89.838167,42.857397],[-89.838561,42.949939]]]}},{"type":"Feature","properties":{"GEOID":"55013","NAME":"Burnett","state":"WI","wildfire_risk_score":68.766,"wildfire_eal_total":118681.37,"risk_band":"High","source":"FEMA National Risk Index v1.20 (December 2025)"},"geometry":{"type":"Polygon","coordinates":[[[-92.885711,45.646017],[-92.870025,45.697272],[-92.869193,45.717568],[-92.809837,45.744172],[-92.784621,45.764196],[-92.776496,45.790014],[-92.757815,45.806574],[-92.765146,45.830183],[-92.739991,45.846283],[-92.734039,45.868108],[-92.712503,45.891705],[-92.676607,45.90637],[-92.676167,45.912072],[-92.659549,45.922937],[-92.639116,45.924555],[-92.638824,45.934166],[-92.614314,45.934529],[-92.551933,45.951651],[-92.549806,45.967986],[-92.527052,45.983245],[-92.469354,45.973811],[-92.46126,45.979427],[-92.464512,45.985038],[-92.453373,45.992913],[-92.442259,46.016177],[-92.428555,46.024241],[-92.410649,46.027259],[-92.372717,46.014198],[-92.35176,46.015685],[-92.332912,46.062697],[-92.294033,46.074377],[-92.2937055830063,46.1573209976466],[-92.049636,46.157597],[-92.050647,45.983921],[-92.033403,45.983824],[-92.031417,45.639928],[-92.154888,45.639742],[-92.154443,45.725616],[-92.51941,45.728654],[-92.528198,45.72868],[-92.529107,45.642076],[-92.885711,45.646017]]]}},{"type":"Feature","properties":{"GEOID":"55069","NAME":"Lincoln","state":"WI","wildfire_risk_score":29.612,"wildfire_eal_total":15354.53,"risk_band":"Moderate","source":"FEMA National Risk Index v1.20 (December 2025)"},"geometry":{"type":"Polygon","coordinates":[[[-90.046143,45.340309],[-90.042222,45.374965],[-90.043414,45.555082],[-89.428258,45.555353],[-89.424284,45.38025],[-89.425971,45.119098],[-90.043685,45.120214],[-90.046143,45.340309]]]}},{"type":"Feature","properties":{"GEOID":"55073","NAME":"Marathon","state":"WI","wildfire_risk_score":40.076,"wildfire_eal_total":29361.93,"risk_band":"High","source":"FEMA National Risk Index v1.20 (December 2025)"},"geometry":{"type":"Polygon","coordinates":[[[-90.316956,44.78643],[-90.315038,45.033829],[-90.197516,45.03364],[-90.197765,45.120604],[-89.224214,45.118567],[-89.223745,44.681365],[-89.489905,44.685847],[-90.316253,44.685154],[-90.316956,44.78643]]]}},{"type":"Feature","properties":{"GEOID":"55117","NAME":"Sheboygan","state":"WI","wildfire_risk_score":27.099,"wildfire_eal_total":15208.16,"risk_band":"Moderate","source":"FEMA National Risk Index v1.20 (December 2025)"},"geometry":{"type":"Polygon","coordinates":[[[-88.162274,43.891511],[-87.7316112945796,43.8921816245257],[-87.736212,43.87305],[-87.728882,43.851569],[-87.726407,43.810445],[-87.696054,43.764588],[-87.703009,43.758752],[-87.702898,43.748037],[-87.710197,43.737144],[-87.702685,43.687596],[-87.781255,43.578493],[-87.790135,43.563054],[-87.7919129032718,43.5430214555291],[-88.160873,43.542943],[-88.162274,43.891511]]]}},{"type":"Feature","properties":{"GEOID":"55059","NAME":"Kenosha","state":"WI","wildfire_risk_score":29.103,"wildfire_eal_total":15266.97,"risk_band":"Moderate","source":"FEMA National Risk Index v1.20 (December 2025)"},"geometry":{"type":"Polygon","coordinates":[[[-88.305891,42.610817],[-88.188173,42.611456],[-88.188306,42.669709],[-87.8058558866897,42.6678889603301],[-87.819674,42.61582],[-87.815597,42.594176],[-87.80763,42.587927],[-87.813952,42.579449],[-87.813653,42.542687],[-87.810674,42.51534],[-87.802091,42.492576],[-88.304692,42.4947727016231],[-88.305891,42.610817]]]}},{"type":"Feature","properties":{"GEOID":"55095","NAME":"Polk","state":"WI","wildfire_risk_score":41.667,"wildfire_eal_total":28787.51,"risk_band":"High","source":"FEMA National Risk Index v1.20 (December 2025)"},"geometry":{"type":"Polygon","coordinates":[[[-92.888114,45.628377],[-92.887067,45.644148],[-92.529107,45.642076],[-92.528198,45.72868],[-92.154443,45.725616],[-92.156465,45.209554],[-92.758008,45.209566],[-92.751708,45.218666],[-92.760249,45.2496],[-92.751659,45.26591],[-92.760615,45.278827],[-92.761013,45.289028],[-92.737122,45.300459],[-92.709968,45.321302],[-92.698967,45.336374],[-92.70272,45.358472],[-92.679193,45.37271],[-92.664102,45.393309],[-92.650422,45.398507],[-92.646602,45.441635],[-92.653549,45.455346],[-92.680234,45.464344],[-92.702224,45.493046],[-92.726677,45.514462],[-92.726082,45.541112],[-92.770223,45.566939],[-92.823309,45.560934],[-92.871082,45.567581],[-92.881136,45.573409],[-92.886421,45.594881],[-92.88297,45.613738],[-92.888114,45.628377]]]}},{"type":"Feature","properties":{"GEOID":"55129","NAME":"Washburn","state":"WI","wildfire_risk_score":39.472,"wildfire_eal_total":24659.94,"risk_band":"High","source":"FEMA National Risk Index v1.20 (December 2025)"},"geometry":{"type":"Polygon","coordinates":[[[-92.050356,45.998132],[-92.049636,46.157597],[-91.551282,46.157045],[-91.551804,45.98334],[-91.541806,45.982586],[-91.540294,45.637605],[-92.031417,45.639928],[-92.033403,45.983824],[-92.050647,45.983921],[-92.050356,45.998132]]]}},{"type":"Feature","properties":{"GEOID":"55085","NAME":"Oneida","state":"WI","wildfire_risk_score":27.195,"wildfire_eal_total":12725.98,"risk_band":"Moderate","source":"FEMA National Risk Index v1.20 (December 2025)"},"geometry":{"type":"Polygon","coordinates":[[[-90.045198,45.817604],[-90.042857,45.897263],[-89.300473,45.901463],[-89.300943,45.860689],[-89.175245,45.856579],[-89.177715,45.8993],[-89.047601,45.895355],[-89.04649,45.464439],[-89.34426,45.470015],[-89.424824,45.467166],[-89.428258,45.555353],[-90.043414,45.555082],[-90.045198,45.817604]]]}},{"type":"Feature","properties":{"GEOID":"55039","NAME":"Fond du Lac","state":"WI","wildfire_risk_score":50.7,"wildfire_eal_total":61290.55,"risk_band":"High","source":"FEMA National Risk Index v1.20 (December 2025)"},"geometry":{"type":"Polygon","coordinates":[[[-88.885217,43.702793],[-88.885697,43.895184],[-88.403195,43.892977],[-88.404187,43.9382],[-88.161654,43.937683],[-88.160873,43.542943],[-88.400426,43.543532],[-88.401041,43.630933],[-88.886052,43.63354],[-88.885217,43.702793]]]}}]}