{"type":"FeatureCollection","metadata":{"state":"WY","boundary_source":"U.S. Census Bureau 2024 Cartographic Boundary File (counties, 1:500,000)","risk_source":"FEMA National Risk Index v1.20 (December 2025)"},"features":[{"type":"Feature","properties":{"GEOID":"56039","NAME":"Teton","state":"WY","wildfire_risk_score":90.649,"wildfire_eal_total":2087781.42,"risk_band":"High","source":"FEMA National Risk Index v1.20 (December 2025)"},"geometry":{"type":"Polygon","coordinates":[[[-111.053610326574,44.6662669770011],[-110.667867,44.666291],[-110.667899,44.582792],[-110.375334,44.583016],[-110.372719,44.570868],[-110.384504,44.563845],[-110.333017,44.548019],[-110.330966,44.553711],[-110.313214,44.555781],[-110.290148,44.542735],[-110.298147,44.53058],[-110.286744,44.526862],[-110.276521,44.516648],[-110.278003,44.498492],[-110.284318,44.489851],[-110.283053,44.474945],[-110.290988,44.470447],[-110.288812,44.451524],[-110.296296,44.430419],[-110.278116,44.414],[-110.260043,44.409449],[-110.254864,44.404722],[-110.25357,44.389624],[-110.243105,44.387361],[-110.228408,44.373844],[-110.225027,44.33808],[-110.202513,44.327763],[-110.200631,44.320041],[-110.206417,44.318465],[-110.203252,44.314289],[-110.209803,44.314381],[-110.203842,44.30561],[-110.189267,44.300374],[-110.182115,44.309425],[-110.183436,44.301906],[-110.174429,44.304534],[-110.171959,44.296381],[-110.16221,44.299043],[-110.144793,44.283187],[-110.142138,44.272795],[-110.150472,44.271313],[-110.140178,44.263678],[-110.143376,44.253988],[-110.131975,44.250272],[-110.138026,44.236837],[-110.131149,44.229821],[-110.13306,44.225895],[-110.123667,44.211487],[-110.114938,44.216496],[-110.109745,44.210114],[-110.123519,44.203768],[-110.108923,44.195065],[-110.111839,44.191557],[-110.123393,44.193727],[-110.114469,44.18949],[-110.119557,44.187156],[-110.117282,44.181065],[-110.105655,44.185459],[-110.109181,44.178386],[-110.122834,44.175012],[-110.116108,44.168171],[-110.127823,44.159158],[-110.12378,44.152631],[-110.128088,44.150678],[-110.124658,44.149481],[-110.126863,44.142829],[-110.116205,44.136259],[-110.119596,44.132578],[-110.053357,44.132628],[-110.05157,43.464783],[-110.057506,43.464756],[-110.05731,43.377768],[-110.344218,43.377918],[-110.343959,43.291165],[-110.57838,43.29164],[-110.578656,43.235224],[-110.813993,43.235178],[-110.813996,43.31394],[-111.044617,43.31572],[-111.048974,44.474072],[-111.052434,44.478411],[-111.053610326574,44.6662669770011]]]}},{"type":"Feature","properties":{"GEOID":"56013","NAME":"Fremont","state":"WY","wildfire_risk_score":92.557,"wildfire_eal_total":1871360.96,"risk_band":"High","source":"FEMA National Risk Index v1.20 (December 2025)"},"geometry":{"type":"Polygon","coordinates":[[[-110.053179,44.008022],[-110.031584,44.000972],[-110.032539,43.996149],[-110.018838,43.979349],[-110.018638,43.968249],[-110.001937,43.966949],[-110.002037,43.955449],[-109.993871,43.949557],[-109.971968,43.955627],[-109.958858,43.964571],[-109.939349,43.958172],[-109.922058,43.946085],[-109.8819,43.949076],[-109.858754,43.957988],[-109.854929,43.950261],[-109.858121,43.942679],[-109.873953,43.9336],[-109.872492,43.927946],[-109.851863,43.926594],[-109.847881,43.908123],[-109.859275,43.900759],[-109.832579,43.895071],[-109.830787,43.88979],[-109.817584,43.883277],[-109.831834,43.871368],[-109.813785,43.861761],[-109.855166,43.848255],[-109.856494,43.841696],[-109.849785,43.837087],[-109.856481,43.828369],[-109.841747,43.819324],[-109.827549,43.82438],[-109.825909,43.816173],[-109.78755,43.80134],[-109.779359,43.812087],[-109.763926,43.820601],[-109.752709,43.817425],[-109.742631,43.827504],[-109.722493,43.832969],[-109.720123,43.837452],[-109.708746,43.835782],[-109.702643,43.841031],[-109.689048,43.839704],[-109.685697,43.844239],[-109.665893,43.845726],[-109.665752,43.857133],[-109.672482,43.868096],[-109.666828,43.88058],[-109.6594,43.879289],[-109.653017,43.886766],[-109.654365,43.907116],[-109.641808,43.922785],[-109.613713,43.927479],[-109.606387,43.936587],[-109.605466,43.947962],[-109.584312,43.937883],[-109.566943,43.95482],[-109.542332,43.961352],[-109.53196,43.949455],[-109.512272,43.939129],[-109.503182,43.93882],[-109.489742,43.94829],[-109.476047,43.948835],[-109.470542,43.938806],[-109.472393,43.932177],[-109.454726,43.927657],[-109.442361,43.930434],[-109.4339,43.91404],[-109.413418,43.909252],[-109.404952,43.901982],[-109.398464,43.884341],[-109.38017,43.882799],[-109.374021,43.877447],[-109.376329,43.871159],[-109.366758,43.843009],[-109.335997,43.842099],[-109.322425,43.83537],[-109.310059,43.806028],[-109.284101,43.802786],[-109.274597,43.796873],[-109.264184,43.776058],[-109.234904,43.76389],[-109.195129,43.710774],[-109.171448,43.699198],[-109.171638,43.619764],[-108.934141,43.619163],[-108.933831,43.604719],[-108.814276,43.605255],[-108.814276,43.575555],[-108.694672,43.575755],[-108.695072,43.532255],[-108.576167,43.532556],[-108.576167,43.503256],[-108.456962,43.503156],[-108.456973,43.474279],[-108.33777,43.474061],[-108.337861,43.459765],[-108.156379,43.459612],[-108.156285,43.470628],[-107.595137,43.472279],[-107.595105,43.501397],[-107.534897,43.501362],[-107.535032,43.472759],[-107.517031,43.472659],[-107.516728,43.12796],[-107.502327,43.12806],[-107.501425,42.781458],[-107.543526,42.781358],[-107.542025,42.434356],[-107.522923,42.434356],[-107.522722,42.261756],[-109.043864,42.263684],[-109.043801,42.433644],[-109.069477,42.433477],[-109.072851,42.693514],[-109.134466,42.694289],[-109.137701,42.705117],[-109.128412,42.708387],[-109.147908,42.727562],[-109.143282,42.733226],[-109.133275,42.733086],[-109.132315,42.737485],[-109.179467,42.751045],[-109.178738,42.754724],[-109.195257,42.768537],[-109.209797,42.770424],[-109.217449,42.760048],[-109.236096,42.768458],[-109.237357,42.77674],[-109.225946,42.790938],[-109.210344,42.793143],[-109.214144,42.799833],[-109.231559,42.803899],[-109.236875,42.809523],[-109.24797,42.806156],[-109.270258,42.826316],[-109.278893,42.846009],[-109.291932,42.846031],[-109.320068,42.860162],[-109.330457,42.874952],[-109.331911,42.89542],[-109.338533,42.897512],[-109.345358,42.918896],[-109.356412,42.924745],[-109.370658,42.945728],[-109.384112,42.939288],[-109.397757,42.939198],[-109.404788,42.950605],[-109.428757,42.960662],[-109.432364,42.968151],[-109.454235,42.970272],[-109.463196,42.981297],[-109.460178,42.988059],[-109.466658,42.991951],[-109.492059,42.995354],[-109.502407,43.010511],[-109.51389,43.007174],[-109.529025,43.013857],[-109.552579,43.012538],[-109.555753,43.027012],[-109.548706,43.036712],[-109.560313,43.039514],[-109.559831,43.047758],[-109.570752,43.049336],[-109.552211,43.059829],[-109.553003,43.072302],[-109.561597,43.077784],[-109.560451,43.083538],[-109.569408,43.090365],[-109.570372,43.099652],[-109.581194,43.101488],[-109.595682,43.11827],[-109.620634,43.125602],[-109.630953,43.149226],[-109.630278,43.163172],[-109.634916,43.165918],[-109.643681,43.162128],[-109.651003,43.166856],[-109.658595,43.201503],[-109.676004,43.215106],[-109.675778,43.22406],[-109.670094,43.228701],[-109.677653,43.235866],[-109.673813,43.247971],[-109.692716,43.26503],[-109.678696,43.273152],[-109.685665,43.285735],[-109.673593,43.296676],[-109.672104,43.308739],[-109.679715,43.318152],[-109.694182,43.324807],[-109.700433,43.33499],[-109.694125,43.365356],[-109.708653,43.374348],[-109.73584,43.365286],[-109.754462,43.365905],[-109.754717,43.4632],[-110.05157,43.464783],[-110.053179,44.008022]]]}},{"type":"Feature","properties":{"GEOID":"56007","NAME":"Carbon","state":"WY","wildfire_risk_score":81.902,"wildfire_eal_total":456652.05,"risk_band":"Low","source":"FEMA National Risk Index v1.20 (December 2025)"},"geometry":{"type":"Polygon","coordinates":[[[-107.929984,41.499959],[-107.929736,41.659596],[-107.50972,41.657452],[-107.510054,41.740513],[-107.50549,41.74053],[-107.503821,42.087957],[-107.522321,42.087957],[-107.522923,42.434356],[-106.624983,42.430488],[-106.073403,42.433236],[-106.068406,41.395028],[-106.322885,41.395141],[-106.321165,40.999123],[-107.000606,41.003444],[-107.918421,41.002036],[-107.917104,41.398499],[-107.92988,41.39853],[-107.929984,41.499959]]]}},{"type":"Feature","properties":{"GEOID":"56033","NAME":"Sheridan","state":"WY","wildfire_risk_score":93.893,"wildfire_eal_total":2802051.99,"risk_band":"High","source":"FEMA National Risk Index v1.20 (December 2025)"},"geometry":{"type":"Polygon","coordinates":[[[-107.911518281902,45.0006726254715],[-106.024815200578,44.9934722928644],[-106.023103,44.86882],[-106.017575,44.868785],[-106.014275,44.857784],[-106.014977,44.707082],[-106.010677,44.693182],[-106.009676,44.563981],[-106.428897,44.561777],[-106.428897,44.556777],[-107.369621,44.559837],[-107.374869,44.581981],[-107.385161,44.589769],[-107.383472,44.595354],[-107.419343,44.601026],[-107.424972,44.611478],[-107.43518,44.612037],[-107.43277,44.607747],[-107.442613,44.605719],[-107.469473,44.612276],[-107.488355,44.628146],[-107.494862,44.642029],[-107.510898,44.633697],[-107.528157,44.634782],[-107.53506,44.648468],[-107.519733,44.660686],[-107.531926,44.66642],[-107.548919,44.667015],[-107.549172,44.678793],[-107.573689,44.68299],[-107.581081,44.689753],[-107.590675,44.688927],[-107.595719,44.69502],[-107.615891,44.701297],[-107.622585,44.693041],[-107.650707,44.692314],[-107.657138,44.683566],[-107.669708,44.679578],[-107.684412,44.69314],[-107.68283,44.706112],[-107.694792,44.708346],[-107.6979,44.704964],[-107.728028,44.716415],[-107.743467,44.715423],[-107.75128,44.723457],[-107.744462,44.728989],[-107.743554,44.741476],[-107.748949,44.746042],[-107.745572,44.754332],[-107.754,44.758071],[-107.754388,44.770591],[-107.780461,44.772654],[-107.812827,44.789316],[-107.832455,44.790537],[-107.831622,44.799787],[-107.81817,44.809224],[-107.816278,44.817522],[-107.829308,44.82157],[-107.824746,44.824784],[-107.832725,44.825112],[-107.827854,44.833102],[-107.83178,44.844995],[-107.840598,44.849847],[-107.84443,44.860646],[-107.865018,44.873639],[-107.860668,44.894602],[-107.848535,44.898469],[-107.852848,44.915755],[-107.881863,44.933425],[-107.8766,44.96274],[-107.881662,44.98546],[-107.911518281902,45.0006726254715]]]}},{"type":"Feature","properties":{"GEOID":"56029","NAME":"Park","state":"WY","wildfire_risk_score":82.729,"wildfire_eal_total":555350.12,"risk_band":"Moderate","source":"FEMA National Risk Index v1.20 (December 2025)"},"geometry":{"type":"Polygon","coordinates":[[[-111.054556,45.000955],[-110.790119,45.000883],[-110.704476,44.992174],[-110.445743,44.993682],[-110.407116,44.999496],[-110.183221,44.996953],[-110.105776,45.003533],[-109.103228,45.005815],[-109.082849,44.999551],[-108.621312796749,45.000250837427],[-108.620462,44.871481],[-108.592296,44.871444],[-108.592494,44.52093],[-108.57342,44.520811],[-108.573797,44.168468],[-108.550562,44.168455],[-108.550758,44.079403],[-108.792277,44.079616],[-108.791779,43.991053],[-108.915985,43.990854],[-108.912783,43.904754],[-109.092878,43.904474],[-109.093603,43.817619],[-109.312949,43.813293],[-109.325802,43.837751],[-109.335997,43.842099],[-109.366758,43.843009],[-109.376329,43.871159],[-109.374021,43.877447],[-109.38017,43.882799],[-109.398464,43.884341],[-109.404952,43.901982],[-109.413418,43.909252],[-109.4339,43.91404],[-109.442361,43.930434],[-109.454726,43.927657],[-109.472393,43.932177],[-109.470542,43.938806],[-109.476047,43.948835],[-109.489742,43.94829],[-109.503182,43.93882],[-109.512272,43.939129],[-109.53196,43.949455],[-109.542332,43.961352],[-109.566943,43.95482],[-109.584312,43.937883],[-109.605466,43.947962],[-109.606387,43.936587],[-109.613713,43.927479],[-109.644464,43.920753],[-109.654365,43.907116],[-109.653017,43.886766],[-109.6594,43.879289],[-109.666828,43.88058],[-109.672482,43.868096],[-109.665752,43.857133],[-109.665893,43.845726],[-109.685697,43.844239],[-109.689048,43.839704],[-109.702643,43.841031],[-109.708746,43.835782],[-109.720123,43.837452],[-109.722493,43.832969],[-109.742631,43.827504],[-109.752709,43.817425],[-109.763926,43.820601],[-109.779359,43.812087],[-109.78755,43.80134],[-109.825909,43.816173],[-109.827549,43.82438],[-109.841747,43.819324],[-109.856481,43.828369],[-109.849785,43.837087],[-109.856693,43.844786],[-109.847701,43.853195],[-109.825737,43.855333],[-109.813785,43.861761],[-109.831834,43.871368],[-109.816179,43.881974],[-109.830787,43.88979],[-109.832579,43.895071],[-109.859275,43.900759],[-109.847881,43.908123],[-109.851863,43.926594],[-109.865916,43.926271],[-109.874079,43.932132],[-109.858121,43.942679],[-109.854929,43.950261],[-109.858754,43.957988],[-109.8819,43.949076],[-109.922058,43.946085],[-109.939349,43.958172],[-109.958858,43.964571],[-109.971968,43.955627],[-109.993871,43.949557],[-110.002037,43.955449],[-110.001937,43.966949],[-110.018638,43.968249],[-110.018838,43.979349],[-110.032539,43.996149],[-110.031584,44.000972],[-110.053179,44.008022],[-110.053357,44.132628],[-110.119596,44.132578],[-110.116205,44.136259],[-110.126863,44.142829],[-110.124658,44.149481],[-110.128088,44.150678],[-110.12378,44.152631],[-110.127823,44.159158],[-110.116108,44.168171],[-110.122834,44.175012],[-110.109181,44.178386],[-110.105655,44.185459],[-110.117282,44.181065],[-110.119557,44.187156],[-110.114469,44.18949],[-110.123393,44.193727],[-110.111839,44.191557],[-110.108923,44.195065],[-110.123519,44.203768],[-110.109745,44.210114],[-110.114938,44.216496],[-110.123667,44.211487],[-110.13306,44.225895],[-110.131149,44.229821],[-110.138026,44.236837],[-110.131975,44.250272],[-110.143376,44.253988],[-110.140178,44.263678],[-110.150472,44.271313],[-110.142138,44.272795],[-110.144793,44.283187],[-110.16221,44.299043],[-110.171959,44.296381],[-110.174429,44.304534],[-110.183436,44.301906],[-110.182115,44.309425],[-110.189267,44.300374],[-110.203842,44.30561],[-110.209803,44.314381],[-110.203252,44.314289],[-110.206417,44.318465],[-110.200631,44.320041],[-110.202513,44.327763],[-110.225027,44.33808],[-110.228408,44.373844],[-110.243105,44.387361],[-110.25357,44.389624],[-110.254864,44.404722],[-110.260043,44.409449],[-110.278116,44.414],[-110.296296,44.430419],[-110.288812,44.451524],[-110.290988,44.470447],[-110.283053,44.474945],[-110.284318,44.489851],[-110.278003,44.498492],[-110.276521,44.516648],[-110.286744,44.526862],[-110.296966,44.528621],[-110.295291,44.537319],[-110.289205,44.54043],[-110.296201,44.547856],[-110.315348,44.55611],[-110.339238,44.54879],[-110.384504,44.563845],[-110.372719,44.570868],[-110.375334,44.583016],[-110.667899,44.582792],[-110.667867,44.666291],[-111.053610326574,44.6662669770011],[-111.054556,45.000955]]]}},{"type":"Feature","properties":{"GEOID":"56005","NAME":"Campbell","state":"WY","wildfire_risk_score":92.907,"wildfire_eal_total":2919259.81,"risk_band":"High","source":"FEMA National Risk Index v1.20 (December 2025)"},"geometry":{"type":"Polygon","coordinates":[[[-106.02524,44.979575],[-106.024815200578,44.9934722928644],[-105.928174,44.993487],[-105.913149,45.000238],[-105.076600962208,45.0001122781421],[-105.076861,44.786193],[-105.085451,44.786801],[-105.086151,44.527708],[-105.082698,44.527607],[-105.084467,44.216633],[-105.079281,44.176182],[-105.079797,43.498445],[-106.017366,43.494969],[-106.017598,43.821489],[-106.009201,43.821579],[-106.011377,44.169735],[-106.016504,44.169729],[-106.016712,44.304461],[-106.014477,44.52098],[-106.008477,44.521081],[-106.010677,44.693182],[-106.014977,44.707082],[-106.014275,44.857784],[-106.017575,44.868785],[-106.023103,44.86882],[-106.02524,44.979575]]]}},{"type":"Feature","properties":{"GEOID":"56035","NAME":"Sublette","state":"WY","wildfire_risk_score":87.723,"wildfire_eal_total":1053270.88,"risk_band":"Moderate","source":"FEMA National Risk Index v1.20 (December 2025)"},"geometry":{"type":"Polygon","coordinates":[[[-110.623434,42.779205],[-110.587662,42.779188],[-110.587993,43.126147],[-110.578584,43.126307],[-110.57838,43.29164],[-110.343959,43.291165],[-110.344218,43.377918],[-110.05731,43.377768],[-110.057506,43.464756],[-109.754717,43.4632],[-109.754462,43.365905],[-109.73584,43.365286],[-109.708653,43.374348],[-109.694125,43.365356],[-109.700433,43.33499],[-109.694182,43.324807],[-109.679715,43.318152],[-109.672104,43.308739],[-109.673593,43.296676],[-109.685665,43.285735],[-109.678696,43.273152],[-109.692716,43.26503],[-109.673813,43.247971],[-109.677653,43.235866],[-109.670094,43.228701],[-109.675778,43.22406],[-109.676004,43.215106],[-109.658595,43.201503],[-109.651003,43.166856],[-109.643681,43.162128],[-109.634916,43.165918],[-109.630278,43.163172],[-109.630953,43.149226],[-109.620634,43.125602],[-109.595682,43.11827],[-109.581194,43.101488],[-109.570372,43.099652],[-109.569408,43.090365],[-109.560451,43.083538],[-109.561597,43.077784],[-109.553003,43.072302],[-109.552211,43.059829],[-109.570752,43.049336],[-109.559831,43.047758],[-109.560313,43.039514],[-109.548706,43.036712],[-109.555753,43.027012],[-109.552579,43.012538],[-109.529025,43.013857],[-109.51389,43.007174],[-109.502407,43.010511],[-109.492059,42.995354],[-109.466658,42.991951],[-109.460178,42.988059],[-109.463196,42.981297],[-109.454235,42.970272],[-109.432364,42.968151],[-109.428757,42.960662],[-109.404788,42.950605],[-109.397757,42.939198],[-109.384112,42.939288],[-109.370658,42.945728],[-109.356412,42.924745],[-109.345358,42.918896],[-109.338533,42.897512],[-109.331911,42.89542],[-109.330457,42.874952],[-109.320068,42.860162],[-109.291932,42.846031],[-109.278893,42.846009],[-109.270258,42.826316],[-109.24797,42.806156],[-109.236875,42.809523],[-109.231559,42.803899],[-109.214144,42.799833],[-109.210344,42.793143],[-109.225946,42.790938],[-109.237357,42.77674],[-109.236096,42.768458],[-109.217449,42.760048],[-109.209797,42.770424],[-109.195257,42.768537],[-109.178738,42.754724],[-109.179467,42.751045],[-109.132315,42.737485],[-109.133275,42.733086],[-109.143282,42.733226],[-109.147908,42.727562],[-109.128412,42.708387],[-109.137701,42.705117],[-109.134466,42.694289],[-109.072851,42.693514],[-109.069477,42.433477],[-109.043801,42.433644],[-109.043864,42.263684],[-109.49666,42.263319],[-110.206916,42.270641],[-110.206516,42.276541],[-110.424923,42.276138],[-110.424823,42.279938],[-110.541634,42.277491],[-110.543329,42.448536],[-110.59013,42.448494],[-110.590074,42.710087],[-110.623477,42.710181],[-110.623434,42.779205]]]}},{"type":"Feature","properties":{"GEOID":"56003","NAME":"Big Horn","state":"WY","wildfire_risk_score":61.355,"wildfire_eal_total":80910.26,"risk_band":"Low","source":"FEMA National Risk Index v1.20 (December 2025)"},"geometry":{"type":"Polygon","coordinates":[[[-108.621839,44.996133],[-108.621312796749,45.000250837427],[-107.911518281902,45.0006726254715],[-107.890435,44.991865],[-107.881662,44.98546],[-107.87679,44.96447],[-107.881863,44.933425],[-107.852848,44.915755],[-107.849518,44.905672],[-107.848535,44.898469],[-107.860668,44.894602],[-107.865018,44.873639],[-107.84443,44.860646],[-107.840598,44.849847],[-107.83178,44.844995],[-107.827854,44.833102],[-107.832725,44.825112],[-107.824746,44.824784],[-107.829308,44.82157],[-107.816278,44.817522],[-107.81817,44.809224],[-107.831622,44.799787],[-107.832455,44.790537],[-107.812827,44.789316],[-107.780461,44.772654],[-107.754388,44.770591],[-107.754,44.758071],[-107.745572,44.754332],[-107.748949,44.746042],[-107.743554,44.741476],[-107.744462,44.728989],[-107.75128,44.723457],[-107.743467,44.715423],[-107.728028,44.716415],[-107.6979,44.704964],[-107.694792,44.708346],[-107.68283,44.706112],[-107.684412,44.69314],[-107.669708,44.679578],[-107.657138,44.683566],[-107.650707,44.692314],[-107.622585,44.693041],[-107.615891,44.701297],[-107.595719,44.69502],[-107.590675,44.688927],[-107.581081,44.689753],[-107.573689,44.68299],[-107.549172,44.678793],[-107.548919,44.667015],[-107.531926,44.66642],[-107.519733,44.660686],[-107.53506,44.648468],[-107.528157,44.634782],[-107.510898,44.633697],[-107.494862,44.642029],[-107.488355,44.628146],[-107.469473,44.612276],[-107.442613,44.605719],[-107.43277,44.607747],[-107.43518,44.612037],[-107.424972,44.611478],[-107.419343,44.601026],[-107.383472,44.595354],[-107.385161,44.589769],[-107.374869,44.581981],[-107.371447,44.556944],[-107.353778,44.542192],[-107.337705,44.539628],[-107.330284,44.543806],[-107.330116,44.536069],[-107.322765,44.529191],[-107.327054,44.522119],[-107.294159,44.500707],[-107.298539,44.496213],[-107.298484,44.484564],[-107.305189,44.483467],[-107.299665,44.476268],[-107.304293,44.463779],[-107.30058,44.459081],[-107.278625,44.459196],[-107.274671,44.455701],[-107.278729,44.450819],[-107.241948,44.438462],[-107.221528,44.443623],[-107.218582,44.449563],[-107.202038,44.446305],[-107.20056,44.432821],[-107.204337,44.428981],[-107.199461,44.399304],[-107.178935,44.403282],[-107.169212,44.393507],[-107.176413,44.37655],[-107.161404,44.368635],[-107.173118,44.360454],[-107.184891,44.3588],[-107.188982,44.348172],[-107.179707,44.346072],[-107.172614,44.335163],[-107.158221,44.333291],[-107.159819,44.325789],[-107.15547,44.322328],[-107.145001,44.324004],[-107.146808,44.165666],[-108.573797,44.168468],[-108.57342,44.520811],[-108.592494,44.52093],[-108.592296,44.871444],[-108.620462,44.871481],[-108.621839,44.996133]]]}},{"type":"Feature","properties":{"GEOID":"56031","NAME":"Platte","state":"WY","wildfire_risk_score":87.595,"wildfire_eal_total":660531.72,"risk_band":"Moderate","source":"FEMA National Risk Index v1.20 (December 2025)"},"geometry":{"type":"Polygon","coordinates":[[[-105.286511,42.605826],[-104.655639,42.609468],[-104.653338,41.653007],[-105.278236,41.656655],[-105.278973,41.741995],[-105.271809,41.742029],[-105.271746,41.986095],[-105.27375,42.088824],[-105.281139,42.088888],[-105.286511,42.605826]]]}},{"type":"Feature","properties":{"GEOID":"56043","NAME":"Washakie","state":"WY","wildfire_risk_score":66.73,"wildfire_eal_total":99250.91,"risk_band":"Low","source":"FEMA National Risk Index v1.20 (December 2025)"},"geometry":{"type":"Polygon","coordinates":[[[-108.550562,44.168455],[-107.128584,44.165692],[-107.127622,43.815961],[-107.113655,43.816092],[-107.110734,43.500286],[-107.595105,43.501397],[-107.595157,43.646427],[-107.716218,43.645766],[-107.715876,43.733343],[-107.956577,43.733446],[-107.956448,43.818666],[-108.174938,43.818968],[-108.19398,43.828232],[-108.201752,43.826253],[-108.185368,43.848244],[-108.309694,43.846619],[-108.312625,43.859543],[-108.30936,43.903255],[-108.429563,43.903355],[-108.427064,43.992054],[-108.489431,43.991866],[-108.490254,44.07976],[-108.550758,44.079403],[-108.550562,44.168455]]]}},{"type":"Feature","properties":{"GEOID":"56019","NAME":"Johnson","state":"WY","wildfire_risk_score":87.85,"wildfire_eal_total":958065.15,"risk_band":"High","source":"FEMA National Risk Index v1.20 (December 2025)"},"geometry":{"type":"Polygon","coordinates":[[[-107.369683,44.558336],[-106.428897,44.556777],[-106.428897,44.561777],[-106.009676,44.563981],[-106.008477,44.521081],[-106.014477,44.52098],[-106.016712,44.304461],[-106.016504,44.169729],[-106.011377,44.169735],[-106.009201,43.821579],[-106.017598,43.821489],[-106.017366,43.494969],[-107.11092,43.492362],[-107.113655,43.816092],[-107.127622,43.815961],[-107.128584,44.165692],[-107.146808,44.165666],[-107.145001,44.324004],[-107.15547,44.322328],[-107.159819,44.325789],[-107.158221,44.333291],[-107.172614,44.335163],[-107.179707,44.346072],[-107.188982,44.348172],[-107.184891,44.3588],[-107.173118,44.360454],[-107.161404,44.368635],[-107.176413,44.37655],[-107.169212,44.393507],[-107.178935,44.403282],[-107.199461,44.399304],[-107.204337,44.428981],[-107.20056,44.432821],[-107.202038,44.446305],[-107.218582,44.449563],[-107.221528,44.443623],[-107.241948,44.438462],[-107.278729,44.450819],[-107.274671,44.455701],[-107.278625,44.459196],[-107.30058,44.459081],[-107.304293,44.463779],[-107.299665,44.476268],[-107.305189,44.483467],[-107.298484,44.484564],[-107.298539,44.496213],[-107.294159,44.500707],[-107.327054,44.522119],[-107.322765,44.529191],[-107.330116,44.536069],[-107.330284,44.543806],[-107.337705,44.539628],[-107.353778,44.542192],[-107.369683,44.558336]]]}},{"type":"Feature","properties":{"GEOID":"56037","NAME":"Sweetwater","state":"WY","wildfire_risk_score":66.158,"wildfire_eal_total":151179.71,"risk_band":"Low","source":"FEMA National Risk Index v1.20 (December 2025)"},"geometry":{"type":"Polygon","coordinates":[[[-110.054384,42.01103],[-110.053708,42.270744],[-109.49666,42.263319],[-107.522722,42.261756],[-107.522321,42.087957],[-107.503821,42.087957],[-107.50549,41.74053],[-107.510054,41.740513],[-107.50972,41.657452],[-107.929736,41.659596],[-107.92988,41.39853],[-107.917104,41.398499],[-107.918421,41.002036],[-110.048482511407,40.9975546383386],[-110.046408,42.006948],[-110.054409,42.007048],[-110.054384,42.01103]]]}},{"type":"Feature","properties":{"GEOID":"56015","NAME":"Goshen","state":"WY","wildfire_risk_score":72.615,"wildfire_eal_total":217716.97,"risk_band":"Low","source":"FEMA National Risk Index v1.20 (December 2025)"},"geometry":{"type":"Polygon","coordinates":[[[-104.655639,42.609468],[-104.052773275295,42.6117663670529],[-104.05254,41.564274],[-104.652992,41.565014],[-104.655639,42.609468]]]}},{"type":"Feature","properties":{"GEOID":"56045","NAME":"Weston","state":"WY","wildfire_risk_score":83.747,"wildfire_eal_total":710481.92,"risk_band":"Moderate","source":"FEMA National Risk Index v1.20 (December 2025)"},"geometry":{"type":"Polygon","coordinates":[[[-105.080777,43.966216],[-105.079281,44.176182],[-104.054840270387,44.1803817201202],[-104.054855942138,43.5033240353654],[-105.079797,43.498445],[-105.080777,43.966216]]]}},{"type":"Feature","properties":{"GEOID":"56009","NAME":"Converse","state":"WY","wildfire_risk_score":91.094,"wildfire_eal_total":1525151.68,"risk_band":"High","source":"FEMA National Risk Index v1.20 (December 2025)"},"geometry":{"type":"Polygon","coordinates":[[[-106.078068,43.494471],[-104.899941,43.49964],[-104.899373,42.804524],[-104.89848,42.78303],[-104.893479,42.78282],[-104.892437,42.608939],[-105.286511,42.605826],[-105.282258,42.431328],[-105.332638,42.431106],[-105.332486,42.419104],[-105.342101,42.419065],[-105.34206,42.404929],[-105.351999,42.404618],[-105.352229,42.376393],[-105.361737,42.376319],[-105.358592,42.319265],[-105.378682,42.319018],[-105.375541,42.290139],[-105.526399,42.288859],[-105.5267,42.296137],[-105.599416,42.297536],[-105.599427,42.304809],[-105.613865,42.304455],[-105.614656,42.377436],[-105.575642,42.377314],[-105.575546,42.406228],[-105.556184,42.406253],[-105.556042,42.430583],[-106.075852,42.433218],[-106.075669,42.718464],[-106.070569,42.718565],[-106.076169,42.737665],[-106.077069,42.777965],[-106.072669,42.778165],[-106.073869,43.47257],[-106.078236,43.472499],[-106.078068,43.494471]]]}},{"type":"Feature","properties":{"GEOID":"56027","NAME":"Niobrara","state":"WY","wildfire_risk_score":80.884,"wildfire_eal_total":309536.01,"risk_band":"Low","source":"FEMA National Risk Index v1.20 (December 2025)"},"geometry":{"type":"Polygon","coordinates":[[[-104.899941,43.49964],[-104.054855942138,43.5033240353654],[-104.052773275295,42.6117663670529],[-104.892437,42.608939],[-104.893479,42.78282],[-104.89848,42.78303],[-104.899373,42.804524],[-104.899941,43.49964]]]}},{"type":"Feature","properties":{"GEOID":"56023","NAME":"Lincoln","state":"WY","wildfire_risk_score":83.62,"wildfire_eal_total":644285.33,"risk_band":"Moderate","source":"FEMA National Risk Index v1.20 (December 2025)"},"geometry":{"type":"Polygon","coordinates":[[[-111.047107,42.148971],[-111.044617,43.31572],[-110.813996,43.31394],[-110.813993,43.235178],[-110.578656,43.235224],[-110.578584,43.126307],[-110.587993,43.126147],[-110.587662,42.779188],[-110.623434,42.779205],[-110.623477,42.710181],[-110.590074,42.710087],[-110.59013,42.448494],[-110.543329,42.448536],[-110.541634,42.277491],[-110.424823,42.279938],[-110.424923,42.276138],[-110.206516,42.276541],[-110.206916,42.270641],[-110.053708,42.270744],[-110.054409,42.007048],[-110.046408,42.006948],[-110.048,41.578015],[-111.045819273941,41.5798449504859],[-111.047107,42.148971]]]}},{"type":"Feature","properties":{"GEOID":"56021","NAME":"Laramie","state":"WY","wildfire_risk_score":91.858,"wildfire_eal_total":2084939.19,"risk_band":"High","source":"FEMA National Risk Index v1.20 (December 2025)"},"geometry":{"type":"Polygon","coordinates":[[[-105.280634,41.331353],[-105.278236,41.656655],[-104.653338,41.653007],[-104.652992,41.565014],[-104.05254,41.564274],[-104.053249,41.001406],[-105.276859991921,40.99817324279],[-105.280634,41.331353]]]}},{"type":"Feature","properties":{"GEOID":"56025","NAME":"Natrona","state":"WY","wildfire_risk_score":93.034,"wildfire_eal_total":2657673.8,"risk_band":"High","source":"FEMA National Risk Index v1.20 (December 2025)"},"geometry":{"type":"Polygon","coordinates":[[[-107.543526,42.781358],[-107.501425,42.781458],[-107.502327,43.12806],[-107.516728,43.12796],[-107.517031,43.472659],[-107.535032,43.472759],[-107.534897,43.501362],[-107.110734,43.500286],[-107.11092,43.492362],[-106.078068,43.494471],[-106.078236,43.472499],[-106.073869,43.47257],[-106.072669,42.778165],[-106.077069,42.777965],[-106.076169,42.737665],[-106.070569,42.718565],[-106.075669,42.718464],[-106.075852,42.433218],[-106.624983,42.430488],[-107.542025,42.434356],[-107.543526,42.781358]]]}},{"type":"Feature","properties":{"GEOID":"56041","NAME":"Uinta","state":"WY","wildfire_risk_score":83.492,"wildfire_eal_total":738770.26,"risk_band":"Moderate","source":"FEMA National Risk Index v1.20 (December 2025)"},"geometry":{"type":"Polygon","coordinates":[[[-111.046615849252,41.1560418629794],[-111.045819273941,41.5798449504859],[-110.048,41.578015],[-110.048482511407,40.9975546383386],[-111.046723,40.997959],[-111.046615849252,41.1560418629794]]]}},{"type":"Feature","properties":{"GEOID":"56011","NAME":"Crook","state":"WY","wildfire_risk_score":85.051,"wildfire_eal_total":700511.38,"risk_band":"Moderate","source":"FEMA National Risk Index v1.20 (December 2025)"},"geometry":{"type":"Polygon","coordinates":[[[-105.085646,44.54187],[-105.085451,44.786801],[-105.076861,44.786193],[-105.076600962208,45.0001122781421],[-104.057879,44.997605],[-104.054840270387,44.1803817201202],[-105.082181,44.176175],[-105.085646,44.54187]]]}},{"type":"Feature","properties":{"GEOID":"56001","NAME":"Albany","state":"WY","wildfire_risk_score":84.669,"wildfire_eal_total":782122.46,"risk_band":"Moderate","source":"FEMA National Risk Index v1.20 (December 2025)"},"geometry":{"type":"Polygon","coordinates":[[[-106.322885,41.395141],[-106.068406,41.395028],[-106.073403,42.433236],[-105.556042,42.430583],[-105.556184,42.406253],[-105.575546,42.406228],[-105.575642,42.377314],[-105.614656,42.377436],[-105.613865,42.304455],[-105.599427,42.304809],[-105.599416,42.297536],[-105.5267,42.296137],[-105.526399,42.288859],[-105.375541,42.290139],[-105.378682,42.319018],[-105.358592,42.319265],[-105.361737,42.376319],[-105.352229,42.376393],[-105.351999,42.404618],[-105.34206,42.404929],[-105.342101,42.419065],[-105.332486,42.419104],[-105.332638,42.431106],[-105.28391,42.431402],[-105.281139,42.088888],[-105.27375,42.088824],[-105.271746,41.986095],[-105.271809,41.742029],[-105.278973,41.741995],[-105.276859991921,40.99817324279],[-106.321165,40.999123],[-106.322885,41.395141]]]}},{"type":"Feature","properties":{"GEOID":"56017","NAME":"Hot Springs","state":"WY","wildfire_risk_score":66.444,"wildfire_eal_total":97961.6,"risk_band":"Low","source":"FEMA National Risk Index v1.20 (December 2025)"},"geometry":{"type":"Polygon","coordinates":[[[-109.312949,43.813293],[-109.093603,43.817619],[-109.092878,43.904474],[-108.912783,43.904754],[-108.915985,43.990854],[-108.791779,43.991053],[-108.792277,44.079616],[-108.490254,44.07976],[-108.489431,43.991866],[-108.427064,43.992054],[-108.429563,43.903355],[-108.30936,43.903255],[-108.312625,43.859543],[-108.309694,43.846619],[-108.185368,43.848244],[-108.201752,43.826253],[-108.19398,43.828232],[-108.174938,43.818968],[-107.956448,43.818666],[-107.956577,43.733446],[-107.715876,43.733343],[-107.716218,43.645766],[-107.595157,43.646427],[-107.595137,43.472279],[-108.156285,43.470628],[-108.156379,43.459612],[-108.337861,43.459765],[-108.33777,43.474061],[-108.456973,43.474279],[-108.456962,43.503156],[-108.576167,43.503256],[-108.576167,43.532556],[-108.695072,43.532255],[-108.694672,43.575755],[-108.814276,43.575555],[-108.814276,43.605255],[-108.933831,43.604719],[-108.934141,43.619163],[-109.171638,43.619764],[-109.171448,43.699198],[-109.195129,43.710774],[-109.234904,43.76389],[-109.264184,43.776058],[-109.274597,43.796873],[-109.284101,43.802786],[-109.308218,43.80517],[-109.312949,43.813293]]]}}]}